{"type":"FeatureCollection","name":"LFAD AVISO","bbox":[2.787222222,49.427694444,2.807833333,49.449722222],"metadata":{"schema":"vSMR AVISO","schema_version":2,"airport":"LFAD","coordinate_reference_system":"WGS84","coordinate_order":"longitude, latitude","default_color_palette":"night","color_palettes":["night","day"],"feature_count":5,"style_count":4,"layer_counts":{"Ground linework":1,"Labels":2,"Reference points":1,"Runways":1},"category_counts":{"Labels":3,"Runway Grass":1,"Runway Markings":1}},"styles":{"label.text.label.labels":{"name":"Labels","layer":"Labels","object_type":"Label","paint":{"text-anchor":"center","text-color":"#CCCCCC","text-halo-color":"#000000","text-halo-width":1,"text-size":12,"zoomLevel":0},"feature_count":2},"line.linework.runway.grass":{"name":"Runway Grass","layer":"Ground linework","object_type":"Line","paint":{"stroke":"#008000","stroke-opacity":1.0,"stroke-width":1.5},"feature_count":1},"line.runway.centerline.runway.markings":{"name":"Runway Markings","layer":"Runways","object_type":"Line","paint":{"stroke":"#FEFEFE","stroke-opacity":1.0,"stroke-width":1.5},"feature_count":1},"point.airport.reference.point.labels":{"name":"Labels","layer":"Reference points","object_type":"Point","paint":{"marker-color":"#808080","marker-size":"small"},"feature_count":1}},"features":[{"type":"Feature","id":"LFAD-runway-05-23-5116","properties":{"name":"LFAD RWY 05/23","layer":"Runways","category":"Runway Markings","object_type":"Line","style_id":"line.runway.centerline.runway.markings","airport":"LFAD","geometry_role":"runway_centerline","vsmr_group_ids":[]},"geometry":{"type":"LineString","coordinates":[[2.797191944,49.429052778],[2.804174722,49.433157778]]}},{"type":"Feature","id":"lfad.line.linework.runway.grass.53285","properties":{"name":"LFAD Groundlayout Compiegne Margny","layer":"Ground linework","category":"Runway Grass","object_type":"Line","style_id":"line.linework.runway.grass","airport":"LFAD","geometry_role":"linework","vsmr_group_ids":[]},"geometry":{"type":"MultiLineString","coordinates":[[[2.795666667,49.430305556],[2.804972222,49.435805556]],[[2.798527778,49.427694444],[2.807833333,49.433194444]],[[2.795666667,49.430305556],[2.798527778,49.427694444]],[[2.804972222,49.435805556],[2.807833333,49.433194444]]]}},{"type":"Feature","id":"LFAD-airport-reference","properties":{"name":"LFAD","layer":"Reference points","category":"Labels","object_type":"Point","style_id":"point.airport.reference.point.labels","airport":"LFAD","geometry_role":"airport_reference_point","text-field":"LFAD","vsmr_group_ids":[]},"geometry":{"type":"Point","coordinates":[2.804721944,49.433610833]}},{"type":"Feature","id":"LFAD-text-lfff-27550","properties":{"name":"NA","layer":"Labels","category":"Labels","object_type":"Label","style_id":"label.text.label.labels","airport":"LFAD","geometry_role":"text_label","text-field":"NA","vsmr_group_ids":[]},"geometry":{"type":"Point","coordinates":[2.793611111,49.439166667]}},{"type":"Feature","id":"LFAD-text-lfff-27551","properties":{"name":"N","layer":"Labels","category":"Labels","object_type":"Label","style_id":"label.text.label.labels","airport":"LFAD","geometry_role":"text_label","text-field":"N","vsmr_group_ids":[]},"geometry":{"type":"Point","coordinates":[2.787222222,49.449722222]}}]}
