{"type":"FeatureCollection","name":"LFAE AVISO","bbox":[1.419855833,50.065674722,1.429663889,50.070710833],"metadata":{"schema":"vSMR AVISO","schema_version":2,"airport":"LFAE","coordinate_reference_system":"WGS84","coordinate_order":"longitude, latitude","feature_count":2,"style_count":2,"layer_counts":{"Reference points":1,"Runways":1},"category_counts":{"Labels":1,"Runway Markings":1}},"styles":{"line.runway.centerline.runway.markings":{"name":"Runway Markings","layer":"Runways","object_type":"Line","paint":{"stroke":"#FEFEFE","stroke-opacity":1.0,"stroke-width":1.5},"feature_count":1},"point.airport.reference.point.labels":{"name":"Labels","layer":"Reference points","object_type":"Point","paint":{"marker-color":"#808080","marker-size":"small"},"feature_count":1}},"features":[{"type":"Feature","id":"LFAE-runway-05-23-5117","properties":{"name":"LFAE RWY 05/23","layer":"Runways","category":"Runway Markings","object_type":"Line","style_id":"line.runway.centerline.runway.markings","airport":"LFAE","geometry_role":"runway_centerline","vsmr_group_ids":[[]]},"geometry":{"type":"LineString","coordinates":[[1.419855833,50.065674722],[1.429663889,50.070710833]]}},{"type":"Feature","id":"LFAE-airport-reference","properties":{"name":"LFAE","layer":"Reference points","category":"Labels","object_type":"Point","style_id":"point.airport.reference.point.labels","airport":"LFAE","geometry_role":"airport_reference_point","text-field":"LFAE","vsmr_group_ids":[[]]},"geometry":{"type":"Point","coordinates":[1.425327778,50.068274722]}}]}
