{"type":"FeatureCollection","name":"LFAF AVISO","bbox":[3.629013889,49.591427778,3.636566944,49.599755833],"metadata":{"schema":"vSMR AVISO","schema_version":2,"airport":"LFAF","coordinate_reference_system":"WGS84","coordinate_order":"longitude, latitude","default_color_palette":"night","color_palettes":["night","day"],"feature_count":3,"style_count":2,"layer_counts":{"Reference points":1,"Runways":2},"category_counts":{"Labels":1,"Runway Markings":2}},"styles":{"line.runway.centerline.runway.markings":{"name":"Runway Markings","layer":"Runways","object_type":"Line","paint":{"stroke":"#FEFEFE","stroke-opacity":1.0,"stroke-width":1.5},"feature_count":2},"point.airport.reference.point.labels":{"name":"Labels","layer":"Reference points","object_type":"Point","paint":{"marker-color":"#808080","marker-size":"small"},"feature_count":1}},"features":[{"type":"Feature","id":"LFAF-runway-17-35-5118","properties":{"name":"LFAF RWY 17/35","layer":"Runways","category":"Runway Markings","object_type":"Line","style_id":"line.runway.centerline.runway.markings","airport":"LFAF","geometry_role":"runway_centerline","vsmr_group_ids":[]},"geometry":{"type":"LineString","coordinates":[[3.629185833,49.599755833],[3.630863889,49.591427778]]}},{"type":"Feature","id":"LFAF-runway-05-23-5119","properties":{"name":"LFAF RWY 05/23","layer":"Runways","category":"Runway Markings","object_type":"Line","style_id":"line.runway.centerline.runway.markings","airport":"LFAF","geometry_role":"runway_centerline","vsmr_group_ids":[]},"geometry":{"type":"LineString","coordinates":[[3.629013889,49.594160833],[3.636566944,49.597988889]]}},{"type":"Feature","id":"LFAF-airport-reference","properties":{"name":"LFAF","layer":"Reference points","category":"Labels","object_type":"Point","style_id":"point.airport.reference.point.labels","airport":"LFAF","geometry_role":"airport_reference_point","text-field":"LFAF","vsmr_group_ids":[]},"geometry":{"type":"Point","coordinates":[3.630277778,49.594721944]}}]}
