{"type":"FeatureCollection","name":"LFAG AVISO","bbox":[3.020141944,49.868841944,3.038985833,49.869057778],"metadata":{"schema":"vSMR AVISO","schema_version":2,"airport":"LFAG","coordinate_reference_system":"WGS84","coordinate_order":"longitude, latitude","default_color_palette":"night","color_palettes":["night","day"],"background_colors":{"night":"#434A4F","day":"#434A4F"},"feature_count":2,"style_count":2,"layer_counts":{"Reference points":1,"Runways":1},"category_counts":{"Labels":1,"Runway Markings":1}},"styles":{"line.runway.centerline.runway.markings":{"name":"Runway Markings","layer":"Runways","object_type":"Line","paint":{"stroke":"#FEFEFE","stroke-opacity":1.0,"stroke-width":1.5},"feature_count":1},"point.airport.reference.point.labels":{"name":"Labels","layer":"Reference points","object_type":"Point","paint":{"marker-color":"#808080","marker-size":"small"},"feature_count":1}},"features":[{"type":"Feature","id":"LFAG-runway-09-27-5120","properties":{"name":"LFAG RWY 09/27","layer":"Runways","category":"Runway Markings","object_type":"Line","style_id":"line.runway.centerline.runway.markings","airport":"LFAG","geometry_role":"runway_centerline","vsmr_group_ids":[]},"geometry":{"type":"LineString","coordinates":[[3.020141944,49.869057778],[3.038985833,49.868841944]]}},{"type":"Feature","id":"LFAG-airport-reference","properties":{"name":"LFAG","layer":"Reference points","category":"Labels","object_type":"Point","style_id":"point.airport.reference.point.labels","airport":"LFAG","geometry_role":"airport_reference_point","text-field":"LFAG","vsmr_group_ids":[]},"geometry":{"type":"Point","coordinates":[3.029721944,49.868888889]}}]}
