{"type":"FeatureCollection","name":"LFAI AVISO","bbox":[3.001921944,48.593874722,3.012277778,48.599018889],"metadata":{"schema":"vSMR AVISO","schema_version":2,"airport":"LFAI","coordinate_reference_system":"WGS84","coordinate_order":"longitude, latitude","default_color_palette":"night","color_palettes":["night","day"],"background_colors":{"night":"#434A4F","day":"#434A4F"},"feature_count":2,"style_count":2,"layer_counts":{"Reference points":1,"Runways":1},"category_counts":{"Labels":1,"Runway Markings":1}},"styles":{"line.runway.centerline.runway.markings":{"name":"Runway Markings","layer":"Runways","object_type":"Line","paint":{"stroke":"#FEFEFE","stroke-opacity":1.0,"stroke-width":1.5},"feature_count":1},"point.airport.reference.point.labels":{"name":"Labels","layer":"Reference points","object_type":"Point","paint":{"marker-color":"#808080","marker-size":"small"},"feature_count":1}},"features":[{"type":"Feature","id":"LFAI-runway-05-23-5121","properties":{"name":"LFAI RWY 05/23","layer":"Runways","category":"Runway Markings","object_type":"Line","style_id":"line.runway.centerline.runway.markings","airport":"LFAI","geometry_role":"runway_centerline","vsmr_group_ids":[]},"geometry":{"type":"LineString","coordinates":[[3.001921944,48.593874722],[3.012277778,48.599018889]]}},{"type":"Feature","id":"LFAI-airport-reference","properties":{"name":"LFAI","layer":"Reference points","category":"Labels","object_type":"Point","style_id":"point.airport.reference.point.labels","airport":"LFAI","geometry_role":"airport_reference_point","text-field":"LFAI","vsmr_group_ids":[]},"geometry":{"type":"Point","coordinates":[3.008055833,48.596943889]}}]}
