{"type":"FeatureCollection","name":"LFAO AVISO","bbox":[-0.391441944,48.54375,-0.382080833,48.547366944],"metadata":{"schema":"vSMR AVISO","schema_version":2,"airport":"LFAO","coordinate_reference_system":"WGS84","coordinate_order":"longitude, latitude","default_color_palette":"night","color_palettes":["night","day"],"feature_count":2,"style_count":2,"layer_counts":{"Reference points":1,"Runways":1},"category_counts":{"Labels":1,"Runway Markings":1}},"styles":{"line.runway.centerline.runway.markings":{"name":"Runway Markings","layer":"Runways","object_type":"Line","paint":{"stroke":"#FEFEFE","stroke-opacity":1.0,"stroke-width":1.5},"feature_count":1},"point.airport.reference.point.labels":{"name":"Labels","layer":"Reference points","object_type":"Point","paint":{"marker-color":"#808080","marker-size":"small"},"feature_count":1}},"features":[{"type":"Feature","id":"LFAO-runway-12-30-5126","properties":{"name":"LFAO RWY 12/30","layer":"Runways","category":"Runway Markings","object_type":"Line","style_id":"line.runway.centerline.runway.markings","airport":"LFAO","geometry_role":"runway_centerline","vsmr_group_ids":[[]]},"geometry":{"type":"LineString","coordinates":[[-0.391441944,48.547366944],[-0.382080833,48.54375]]}},{"type":"Feature","id":"LFAO-airport-reference","properties":{"name":"LFAO","layer":"Reference points","category":"Labels","object_type":"Point","style_id":"point.airport.reference.point.labels","airport":"LFAO","geometry_role":"airport_reference_point","text-field":"LFAO","vsmr_group_ids":[[]]},"geometry":{"type":"Point","coordinates":[-0.385,48.544721944]}}]}
