{"type":"FeatureCollection","name":"LFAP AVISO","bbox":[4.360760833,49.479952778,4.365985833,49.482313889],"metadata":{"schema":"vSMR AVISO","schema_version":2,"airport":"LFAP","coordinate_reference_system":"WGS84","coordinate_order":"longitude, latitude","default_color_palette":"night","color_palettes":["night","day"],"feature_count":2,"style_count":2,"layer_counts":{"Reference points":1,"Runways":1},"category_counts":{"Labels":1,"Runway Markings":1}},"styles":{"line.runway.centerline.runway.markings":{"name":"Runway Markings","layer":"Runways","object_type":"Line","paint":{"stroke":"#FEFEFE","stroke-opacity":1.0,"stroke-width":1.5},"feature_count":1},"point.airport.reference.point.labels":{"name":"Labels","layer":"Reference points","object_type":"Point","paint":{"marker-color":"#808080","marker-size":"small"},"feature_count":1}},"features":[{"type":"Feature","id":"LFAP-runway-05-23-5127","properties":{"name":"LFAP RWY 05/23","layer":"Runways","category":"Runway Markings","object_type":"Line","style_id":"line.runway.centerline.runway.markings","airport":"LFAP","geometry_role":"runway_centerline","vsmr_group_ids":[[]]},"geometry":{"type":"LineString","coordinates":[[4.360760833,49.479952778],[4.365985833,49.482313889]]}},{"type":"Feature","id":"LFAP-airport-reference","properties":{"name":"LFAP","layer":"Reference points","category":"Labels","object_type":"Point","style_id":"point.airport.reference.point.labels","airport":"LFAP","geometry_role":"airport_reference_point","text-field":"LFAP","vsmr_group_ids":[[]]},"geometry":{"type":"Point","coordinates":[4.363332778,49.481110833]}}]}
