{"type":"FeatureCollection","name":"LFAR AVISO","bbox":[2.562580833,49.671925,2.572918889,49.672396944],"metadata":{"schema":"vSMR AVISO","schema_version":2,"airport":"LFAR","coordinate_reference_system":"WGS84","coordinate_order":"longitude, latitude","feature_count":2,"style_count":2,"layer_counts":{"Reference points":1,"Runways":1},"category_counts":{"Labels":1,"Runway Markings":1}},"styles":{"line.runway.centerline.runway.markings":{"name":"Runway Markings","layer":"Runways","object_type":"Line","paint":{"stroke":"#FEFEFE","stroke-opacity":1.0,"stroke-width":1.5},"feature_count":1},"point.airport.reference.point.labels":{"name":"Labels","layer":"Reference points","object_type":"Point","paint":{"marker-color":"#808080","marker-size":"small"},"feature_count":1}},"features":[{"type":"Feature","id":"LFAR-runway-09-27-5128","properties":{"name":"LFAR RWY 09/27","layer":"Runways","category":"Runway Markings","object_type":"Line","style_id":"line.runway.centerline.runway.markings","airport":"LFAR","geometry_role":"runway_centerline","vsmr_group_ids":[[]]},"geometry":{"type":"LineString","coordinates":[[2.562580833,49.671925],[2.572918889,49.672396944]]}},{"type":"Feature","id":"LFAR-airport-reference","properties":{"name":"LFAR","layer":"Reference points","category":"Labels","object_type":"Point","style_id":"point.airport.reference.point.labels","airport":"LFAR","geometry_role":"airport_reference_point","text-field":"LFAR","vsmr_group_ids":[[]]},"geometry":{"type":"Point","coordinates":[2.567777778,49.672221944]}}]}
