{"type":"FeatureCollection","name":"LFAT AVISO","bbox":[1.5675,50.419444444,1.839444444,50.740277778],"metadata":{"schema":"vSMR AVISO","schema_version":2,"airport":"LFAT","coordinate_reference_system":"WGS84","coordinate_order":"longitude, latitude","default_color_palette":"night","color_palettes":["night","day"],"feature_count":19,"style_count":6,"layer_counts":{"Ground linework":4,"Labels":13,"Reference points":1,"Runways":1},"category_counts":{"Apron Surface":1,"Labels":14,"Runway Concrete":1,"Runway Markings":1,"Taxiway":2}},"styles":{"label.text.label.labels":{"name":"Labels","layer":"Labels","object_type":"Label","paint":{"text-anchor":"center","text-color":"#CCCCCC","text-halo-color":"#000000","text-halo-width":1,"text-size":12,"zoomLevel":8},"feature_count":13},"line.linework.apron.surface":{"name":"Apron Surface","layer":"Ground linework","object_type":"Line","paint":{"stroke":"#808080","stroke-opacity":1.0,"stroke-width":1.5},"feature_count":1},"line.linework.runway.concrete":{"name":"Runway Concrete","layer":"Ground linework","object_type":"Line","paint":{"stroke":"#111318","stroke-opacity":1.0,"stroke-width":1.5},"feature_count":1},"line.linework.taxiway":{"name":"Taxiway","layer":"Ground linework","object_type":"Line","paint":{"stroke":"#4E5A69","stroke-opacity":1.0,"stroke-width":1.5},"feature_count":2},"line.runway.centerline.runway.markings":{"name":"Runway Markings","layer":"Runways","object_type":"Line","paint":{"stroke":"#FEFEFE","stroke-opacity":1.0,"stroke-width":1.5},"feature_count":1},"point.airport.reference.point.labels":{"name":"Labels","layer":"Reference points","object_type":"Point","paint":{"marker-color":"#808080","marker-size":"small"},"feature_count":1}},"features":[{"type":"Feature","id":"LFAT-runway-13-31-5194","properties":{"name":"LFAT RWY 13/31","layer":"Runways","category":"Runway Markings","object_type":"Line","style_id":"line.runway.centerline.runway.markings","airport":"LFAT","geometry_role":"runway_centerline","vsmr_group_ids":[]},"geometry":{"type":"LineString","coordinates":[[1.612471944,50.523977778],[1.629882778,50.513452778]]}},{"type":"Feature","id":"lfat.line.linework.taxiway.53885","properties":{"name":"LFAT Groundlayout Le Touquet","layer":"Ground linework","category":"Taxiway","object_type":"Line","style_id":"line.linework.taxiway","airport":"LFAT","geometry_role":"linework","vsmr_group_ids":[]},"geometry":{"type":"MultiLineString","coordinates":[[[1.613638889,50.510111111],[1.613444444,50.510361111]],[[1.614,50.51025],[1.613805556,50.510472222]],[[1.613444444,50.510361111],[1.612972222,50.510916667]],[[1.613805556,50.510472222],[1.613472222,50.510916667]],[[1.612972222,50.510916667],[1.613305556,50.51125]],[[1.613472222,50.510916667],[1.613611111,50.511027778]],[[1.613305556,50.51125],[1.616388889,50.512361111]],[[1.613611111,50.511027778],[1.616416667,50.512055556]],[[1.616388889,50.512361111],[1.620333333,50.513777778]],[[1.616777778,50.512194444],[1.620583333,50.513555556]],[[1.62075,50.513833333],[1.622305556,50.513611111]],[[1.620583333,50.513555556],[1.622222222,50.513333333]],[[1.622305556,50.513611111],[1.623194444,50.5135]],[[1.622222222,50.513333333],[1.622611111,50.513277778]],[[1.624,50.513361111],[1.624388889,50.513305556]],[[1.623444444,50.513166667],[1.624305556,50.513055556]],[[1.624388889,50.513305556],[1.628194444,50.512777778]],[[1.624305556,50.513055556],[1.628333333,50.512472222]],[[1.628194444,50.512777778],[1.628722222,50.513083333]],[[1.628333333,50.512472222],[1.628888889,50.512805556]],[[1.628722222,50.513083333],[1.629083333,50.513333333]],[[1.629194444,50.513],[1.629388889,50.513138889]],[[1.629083333,50.513333333],[1.629388889,50.513527778]],[[1.629388889,50.513138889],[1.629694444,50.513333333]],[[1.629194444,50.513],[1.630388889,50.512277778]],[[1.628888889,50.512805556],[1.630388889,50.511916667]],[[1.630388889,50.512277778],[1.630583333,50.512416667]],[[1.630388889,50.511916667],[1.630888889,50.512222222]],[[1.630583333,50.512416667],[1.630888889,50.512611111]],[[1.630888889,50.512222222],[1.631194444,50.512416667]],[[1.622777778,50.517583333],[1.622527778,50.517388889]],[[1.622472222,50.517777778],[1.622194444,50.517555556]],[[1.622527778,50.517388889],[1.621388889,50.516555556]],[[1.622194444,50.517555556],[1.621222222,50.516833333]],[[1.620916667,50.516638889],[1.614638889,50.520555556]],[[1.621222222,50.516833333],[1.615111111,50.520638889]],[[1.614638889,50.520555556],[1.611861111,50.522277778]],[[1.614805556,50.520833333],[1.612361111,50.522361111]],[[1.611861111,50.522277778],[1.612444444,50.523472222]],[[1.612361111,50.522361111],[1.612861111,50.523388889]],[[1.612444444,50.523472222],[1.612611111,50.523833333]],[[1.612861111,50.523388889],[1.612944444,50.523611111]],[[1.616361111,50.5215],[1.616083333,50.521305556]],[[1.616055556,50.521694444],[1.615777778,50.5215]],[[1.616083333,50.521305556],[1.615111111,50.520638889]],[[1.615777778,50.5215],[1.614805556,50.520833333]],[[1.616777778,50.512194444],[1.61725,50.511722222]],[[1.616416667,50.512055556],[1.616888889,50.511555556]],[[1.61725,50.511722222],[1.6175,50.511472222]],[[1.616888889,50.511555556],[1.617111111,50.511333333]],[[1.61925,50.515333333],[1.619638889,50.515388889]],[[1.619361111,50.515055556],[1.61975,50.515138889]],[[1.61925,50.515333333],[1.619361111,50.515055556]],[[1.619638889,50.515388889],[1.619833333,50.515416667]],[[1.61975,50.515138889],[1.619944444,50.515166667]]]}},{"type":"Feature","id":"lfat.line.linework.runway.concrete.53940","properties":{"name":"LFAT Groundlayout Le Touquet","layer":"Ground linework","category":"Runway Concrete","object_type":"Line","style_id":"line.linework.runway.concrete","airport":"LFAT","geometry_role":"linework","vsmr_group_ids":[]},"geometry":{"type":"MultiLineString","coordinates":[[[1.627472222,50.514583333],[1.624,50.513361111]],[[1.627194444,50.514916667],[1.623194444,50.5135]],[[1.627472222,50.514583333],[1.627194444,50.514916667]],[[1.623444444,50.513166667],[1.617583333,50.511111111]],[[1.622611111,50.513277778],[1.6175,50.511472222]],[[1.617583333,50.511111111],[1.614083333,50.509861111]],[[1.617111111,50.511333333],[1.614,50.51025]],[[1.614083333,50.509861111],[1.612805556,50.509416667]],[[1.613638889,50.510111111],[1.612527778,50.509722222]],[[1.612805556,50.509416667],[1.612527778,50.509722222]],[[1.631222222,50.512388889],[1.631194444,50.512416667]],[[1.631611111,50.512666667],[1.631416667,50.512777778]],[[1.631222222,50.512388889],[1.631611111,50.512666667]],[[1.630888889,50.512611111],[1.629694444,50.513333333]],[[1.631416667,50.512777778],[1.629944444,50.513666667]],[[1.629388889,50.513527778],[1.622777778,50.517583333]],[[1.629944444,50.513666667],[1.623,50.517944444]],[[1.622472222,50.517777778],[1.616361111,50.5215]],[[1.623,50.517944444],[1.616611111,50.521861111]],[[1.616055556,50.521694444],[1.612944444,50.523611111]],[[1.616611111,50.521861111],[1.613083333,50.524027778]],[[1.612611111,50.523833333],[1.612444444,50.523944444]],[[1.613083333,50.524027778],[1.612833333,50.524194444]],[[1.612444444,50.523944444],[1.612833333,50.524194444]]]}},{"type":"Feature","id":"lfat.line.linework.taxiway.53964","properties":{"name":"LFAT Groundlayout Le Touquet","layer":"Ground linework","category":"Taxiway","object_type":"Line","style_id":"line.linework.taxiway","airport":"LFAT","geometry_role":"linework","vsmr_group_ids":[]},"geometry":{"type":"MultiLineString","coordinates":[[[1.620305556,50.515361111],[1.620416667,50.514972222]],[[1.619944444,50.515166667],[1.62,50.514916667]],[[1.620416667,50.514972222],[1.620527778,50.514611111]],[[1.62,50.514916667],[1.620111111,50.514555556]],[[1.620527778,50.514611111],[1.62075,50.513833333]],[[1.620111111,50.514555556],[1.620333333,50.513777778]],[[1.619666667,50.515916667],[1.619166667,50.515805556]],[[1.619527778,50.516166667],[1.619055556,50.516083333]],[[1.619166667,50.515805556],[1.619055556,50.516083333]],[[1.620138889,50.51575],[1.620305556,50.515361111]],[[1.619666667,50.515833333],[1.619833333,50.515416667]],[[1.620388889,50.516277778],[1.620916667,50.516638889]],[[1.620666667,50.516083333],[1.621388889,50.516555556]],[[1.620666667,50.516055556],[1.620138889,50.51575]],[[1.619833333,50.515916667],[1.619666667,50.515833333]],[[1.619555556,50.516166667],[1.620388889,50.516277778]],[[1.619638889,50.515916667],[1.619833333,50.515916667]]]}},{"type":"Feature","id":"lfat.line.linework.apron.surface.53981","properties":{"name":"LFAT Groundlayout Le Touquet","layer":"Ground linework","category":"Apron Surface","object_type":"Line","style_id":"line.linework.apron.surface","airport":"LFAT","geometry_role":"linework","vsmr_group_ids":[]},"geometry":{"type":"MultiLineString","coordinates":[[[1.61975,50.513527778],[1.619777778,50.513777778]],[[1.619777778,50.513777778],[1.619722222,50.513944444]],[[1.619722222,50.513944444],[1.619527778,50.514027778]],[[1.619527778,50.514027778],[1.619138889,50.514055556]],[[1.619138889,50.514055556],[1.618666667,50.513944444]],[[1.618666667,50.513944444],[1.618027778,50.516222222]],[[1.618027778,50.516222222],[1.621333333,50.516777778]],[[1.621333333,50.516777778],[1.621555556,50.516611111]],[[1.621555556,50.516611111],[1.620416667,50.515888889]],[[1.620416667,50.515888889],[1.620888889,50.51375]],[[1.620888889,50.51375],[1.619722222,50.513416667]],[[1.61975,50.513527778],[1.619722222,50.513416667]],[[1.622166667,50.518027778],[1.623111111,50.517444444]],[[1.623111111,50.517444444],[1.622166667,50.517388889]],[[1.622166667,50.518027778],[1.622166667,50.517388889]],[[1.622388889,50.513555556],[1.622861111,50.5135]],[[1.622861111,50.5135],[1.624194444,50.513666667]],[[1.624194444,50.513666667],[1.624416667,50.513166667]],[[1.624416667,50.513166667],[1.621555556,50.512722222]],[[1.622388889,50.513555556],[1.621555556,50.512722222]],[[1.630416667,50.51225],[1.631416667,50.511638889]],[[1.631416667,50.511638889],[1.63075,50.511194444]],[[1.63075,50.511194444],[1.62975,50.511805556]],[[1.630416667,50.51225],[1.62975,50.511805556]],[[1.612472222,50.523916667],[1.608361111,50.526444444]],[[1.608361111,50.526444444],[1.60875,50.526694444]],[[1.60875,50.526694444],[1.612888889,50.524166667]],[[1.612888889,50.524166667],[1.613277778,50.523472222]],[[1.613277778,50.523472222],[1.612555556,50.523361111]],[[1.612472222,50.523916667],[1.612555556,50.523361111]],[[1.615805556,50.521944444],[1.616722222,50.521361111]],[[1.616722222,50.521361111],[1.615833333,50.521361111]],[[1.615805556,50.521944444],[1.615833333,50.521361111]]]}},{"type":"Feature","id":"LFAT-airport-reference","properties":{"name":"LFAT","layer":"Reference points","category":"Labels","object_type":"Point","style_id":"point.airport.reference.point.labels","airport":"LFAT","geometry_role":"airport_reference_point","text-field":"LFAT","vsmr_group_ids":[]},"geometry":{"type":"Point","coordinates":[1.627499722,50.514721944]}},{"type":"Feature","id":"LFAT-text-lfff-27570","properties":{"name":"1","layer":"Labels","category":"Labels","object_type":"Label","style_id":"label.text.label.labels","airport":"LFAT","geometry_role":"text_label","text-field":"1","vsmr_group_ids":[]},"geometry":{"type":"Point","coordinates":[1.618694444,50.515083333]}},{"type":"Feature","id":"LFAT-text-lfff-27571","properties":{"name":"2","layer":"Labels","category":"Labels","object_type":"Label","style_id":"label.text.label.labels","airport":"LFAT","geometry_role":"text_label","text-field":"2","vsmr_group_ids":[]},"geometry":{"type":"Point","coordinates":[1.618777778,50.514722222]}},{"type":"Feature","id":"LFAT-text-lfff-27572","properties":{"name":"3","layer":"Labels","category":"Labels","object_type":"Label","style_id":"label.text.label.labels","airport":"LFAT","geometry_role":"text_label","text-field":"3","vsmr_group_ids":[]},"geometry":{"type":"Point","coordinates":[1.618861111,50.514333333]}},{"type":"Feature","id":"LFAT-text-lfff-27573","properties":{"name":"4","layer":"Labels","category":"Labels","object_type":"Label","style_id":"label.text.label.labels","airport":"LFAT","geometry_role":"text_label","text-field":"4","vsmr_group_ids":[]},"geometry":{"type":"Point","coordinates":[1.618972222,50.51625]}},{"type":"Feature","id":"LFAT-text-lfff-27574","properties":{"name":"5","layer":"Labels","category":"Labels","object_type":"Label","style_id":"label.text.label.labels","airport":"LFAT","geometry_role":"text_label","text-field":"5","vsmr_group_ids":[]},"geometry":{"type":"Point","coordinates":[1.619444444,50.516333333]}},{"type":"Feature","id":"LFAT-text-lfff-27575","properties":{"name":"6","layer":"Labels","category":"Labels","object_type":"Label","style_id":"label.text.label.labels","airport":"LFAT","geometry_role":"text_label","text-field":"6","vsmr_group_ids":[]},"geometry":{"type":"Point","coordinates":[1.619916667,50.516444444]}},{"type":"Feature","id":"LFAT-text-lfff-27577","properties":{"name":"E","layer":"Labels","category":"Labels","object_type":"Label","style_id":"label.text.label.labels","airport":"LFAT","geometry_role":"text_label","text-field":"E","vsmr_group_ids":[]},"geometry":{"type":"Point","coordinates":[1.839444444,50.438888889]}},{"type":"Feature","id":"LFAT-text-lfff-27578","properties":{"name":"EA","layer":"Labels","category":"Labels","object_type":"Label","style_id":"label.text.label.labels","airport":"LFAT","geometry_role":"text_label","text-field":"EA","vsmr_group_ids":[]},"geometry":{"type":"Point","coordinates":[1.713888889,50.493055556]}},{"type":"Feature","id":"LFAT-text-lfff-27579","properties":{"name":"NB","layer":"Labels","category":"Labels","object_type":"Label","style_id":"label.text.label.labels","airport":"LFAT","geometry_role":"text_label","text-field":"NB","vsmr_group_ids":[]},"geometry":{"type":"Point","coordinates":[1.577222222,50.579166667]}},{"type":"Feature","id":"LFAT-text-lfff-27580","properties":{"name":"N","layer":"Labels","category":"Labels","object_type":"Label","style_id":"label.text.label.labels","airport":"LFAT","geometry_role":"text_label","text-field":"N","vsmr_group_ids":[]},"geometry":{"type":"Point","coordinates":[1.5675,50.740277778]}},{"type":"Feature","id":"LFAT-text-lfff-27581","properties":{"name":"NA","layer":"Labels","category":"Labels","object_type":"Label","style_id":"label.text.label.labels","airport":"LFAT","geometry_role":"text_label","text-field":"NA","vsmr_group_ids":[]},"geometry":{"type":"Point","coordinates":[1.576944444,50.634722222]}},{"type":"Feature","id":"LFAT-text-lfff-27582","properties":{"name":"S","layer":"Labels","category":"Labels","object_type":"Label","style_id":"label.text.label.labels","airport":"LFAT","geometry_role":"text_label","text-field":"S","vsmr_group_ids":[]},"geometry":{"type":"Point","coordinates":[1.65,50.419444444]}},{"type":"Feature","id":"LFAT-text-lfff-27583","properties":{"name":"NE","layer":"Labels","category":"Labels","object_type":"Label","style_id":"label.text.label.labels","airport":"LFAT","geometry_role":"text_label","text-field":"NE","vsmr_group_ids":[]},"geometry":{"type":"Point","coordinates":[1.747777778,50.633333333]}}]}
