{"type":"FeatureCollection","name":"LFAU AVISO","bbox":[-1.83305,49.620921944,-1.827635833,49.625221944],"metadata":{"schema":"vSMR AVISO","schema_version":2,"airport":"LFAU","coordinate_reference_system":"WGS84","coordinate_order":"longitude, latitude","default_color_palette":"night","color_palettes":["night","day"],"background_colors":{"night":"#434A4F","day":"#434A4F"},"feature_count":4,"style_count":2,"layer_counts":{"Reference points":1,"Runways":3},"category_counts":{"Labels":1,"Runway Markings":3}},"styles":{"line.runway.centerline.runway.markings":{"name":"Runway Markings","layer":"Runways","object_type":"Line","paint":{"stroke":"#FEFEFE","stroke-opacity":1.0,"stroke-width":1.5},"feature_count":3},"point.airport.reference.point.labels":{"name":"Labels","layer":"Reference points","object_type":"Point","paint":{"marker-color":"#808080","marker-size":"small"},"feature_count":1}},"features":[{"type":"Feature","id":"LFAU-runway-15-33-5130","properties":{"name":"LFAU RWY 15/33","layer":"Runways","category":"Runway Markings","object_type":"Line","style_id":"line.runway.centerline.runway.markings","airport":"LFAU","geometry_role":"runway_centerline","vsmr_group_ids":[]},"geometry":{"type":"LineString","coordinates":[[-1.83305,49.625221944],[-1.828841944,49.620921944]]}},{"type":"Feature","id":"LFAU-runway-10-28-5131","properties":{"name":"LFAU RWY 10/28","layer":"Runways","category":"Runway Markings","object_type":"Line","style_id":"line.runway.centerline.runway.markings","airport":"LFAU","geometry_role":"runway_centerline","vsmr_group_ids":[]},"geometry":{"type":"LineString","coordinates":[[-1.832993889,49.624002778],[-1.829591944,49.623474722]]}},{"type":"Feature","id":"LFAU-runway-07-25-5132","properties":{"name":"LFAU RWY 07/25","layer":"Runways","category":"Runway Markings","object_type":"Line","style_id":"line.runway.centerline.runway.markings","airport":"LFAU","geometry_role":"runway_centerline","vsmr_group_ids":[]},"geometry":{"type":"LineString","coordinates":[[-1.831991944,49.622630833],[-1.827635833,49.623471944]]}},{"type":"Feature","id":"LFAU-airport-reference","properties":{"name":"LFAU","layer":"Reference points","category":"Labels","object_type":"Point","style_id":"point.airport.reference.point.labels","airport":"LFAU","geometry_role":"airport_reference_point","text-field":"LFAU","vsmr_group_ids":[]},"geometry":{"type":"Point","coordinates":[-1.83,49.622777778]}}]}
