{"type":"FeatureCollection","name":"LFAV AVISO","bbox":[3.451583333,50.321916667,3.471611111,50.332138889],"metadata":{"schema":"vSMR AVISO","schema_version":2,"geometry_mode":"shared","airport":"LFAV","coordinate_reference_system":"WGS84","coordinate_order":"longitude, latitude","default_color_palette":"dark","color_palettes":["dark","light"],"background_colors":{"dark":"#434A4F","light":"#434A4F"},"feature_count":5,"style_count":3,"layer_counts":{"Guidance lines":2,"Runways":3},"category_counts":{"Grass runways":1,"Runway centerlines":3,"Runways":1},"runways":[{"ends":["11L","29R"],"headings":[109,289],"thresholds":[[3.457588889,50.327705833],[3.465713889,50.325735833]]},{"ends":["11","29"],"headings":[110,290],"thresholds":[[3.452310833,50.327985833],[3.470943889,50.323452778]]},{"ends":["06","24"],"headings":[60,240],"thresholds":[[3.455588889,50.327641944],[3.463280833,50.330321944]]}],"saved_active_runways":[],"saved_active_airport_modes":[],"geometry_source":"EuroScope sector pack","source_files":{"LFBB.sct":"fc92f16bc65e3a10b9aeb0cf4d1cae1add9856a4f4f2f653af5abaa0d98c77ed","LFBB.ese":"c7c252d4a274f6fd98bcefd2364b7bb9799385a6e602b62ccbe85cc32042ef62","LFBB.rwy":"d9387919da6406482f154f391ab2d20783610a60930f986e160686134ea8a7df","LFEE.sct":"10fcc997213ee24336ef8bd37f3a9423cb07bbdfb57b1494c61b8310b9641d8a","LFEE.ese":"3391dc3a47130a4a8c12ab895a6743c77668044183634bd45d425513ef5baa2f","LFFF.sct":"cb6698888ce3e8e8be34ea45922976a5fb3ebe1baef7814f040c91785f8641f2","LFFF.ese":"0c1e64c4a0524a6cdc30766699492d362f78011da36daeacfde4597a1761b64c","LFFF.rwy":"a12900bf1f18188caf2e598c44e55b2c0c6fb2c66cee43ff843cbe216617ae96","LFMM.sct":"fc0d266315a59cb027803be613657d9e9875a2a4b912535d08d1c7892a53b194","LFMM.ese":"6a319d7f7c1c2f7e457ae789f4aae2feafec03b24f5d3d95752e96922a971c9e","LFMM.rwy":"236563995d9b5be668ee3fc8d653cf8f33f20a511137652b197e5877b85d5693","LFRR.sct":"c5a55173543154d388eb65309d606b41ac5da09af59142e69878a4cde03add83","LFRR.ese":"e4542200e8322297f954327131cfe6e73da3ac264cf5610ff6871309cd6eeb40"},"airport_reference":[3.465555833,50.324721944]},"styles":{"line.runwaygrass.008000":{"name":"Grass runways","layer":"Guidance lines","object_type":"Line","paint":{"stroke":"#859A77","stroke-opacity":1,"stroke-width":1,"palette-overrides":{"light":{"stroke":"#008000"}}},"feature_count":1},"line.runwayconcrete.555555":{"name":"Runways","layer":"Guidance lines","object_type":"Line","paint":{"stroke":"#111318","stroke-opacity":1,"stroke-width":1,"palette-overrides":{"light":{"stroke":"#555555"}}},"feature_count":1},"runway.reference":{"name":"Runway centerlines","layer":"Runways","object_type":"Line","paint":{"stroke":"#CCCCCC","stroke-width":2,"stroke-opacity":1},"feature_count":3}},"vsmr_groups":[],"features":[{"type":"Feature","id":"LFAV-9867fa8bce3e429e19fb","properties":{"airport":"LFAV","name":"LFAV Groundlayout Valenciennes","layer":"Guidance lines","category":"Grass runways","object_type":"Line","style_id":"line.runwaygrass.008000","source_group":"LFAV Groundlayout Valenciennes","vsmr_group_ids":[],"geometry_role":"linework"},"geometry":{"type":"MultiLineString","coordinates":[[[3.458388889,50.329388889],[3.4665,50.3275]],[[3.457,50.326222222],[3.465111111,50.324305556]],[[3.458388889,50.329388889],[3.457,50.326222222]],[[3.4665,50.3275],[3.465111111,50.324305556]],[[3.455777778,50.329638889],[3.463583333,50.332138889]],[[3.457611111,50.326583333],[3.465416667,50.329083333]],[[3.455777778,50.329638889],[3.457611111,50.326583333]],[[3.463583333,50.332138889],[3.465416667,50.329083333]]]}},{"type":"Feature","id":"LFAV-a1f765a13ed13cbb077b","properties":{"airport":"LFAV","name":"LFAV Groundlayout Valenciennes","layer":"Guidance lines","category":"Runways","object_type":"Line","style_id":"line.runwayconcrete.555555","source_group":"LFAV Groundlayout Valenciennes","vsmr_group_ids":[],"geometry_role":"linework"},"geometry":{"type":"MultiLineString","coordinates":[[[3.453,50.329583333],[3.471611111,50.325083333]],[[3.451583333,50.326416667],[3.470194444,50.321916667]],[[3.453,50.329583333],[3.451583333,50.326416667]],[[3.471611111,50.325083333],[3.470194444,50.321916667]]]}},{"type":"Feature","id":"LFAV-3fdd018a7c370790cfde","properties":{"airport":"LFAV","name":"11L/29R","layer":"Runways","category":"Runway centerlines","object_type":"Line","style_id":"runway.reference","source_group":"LFAV Runways","vsmr_group_ids":[],"geometry_role":"runway_centerline"},"geometry":{"type":"LineString","coordinates":[[3.457588889,50.327705833],[3.465713889,50.325735833]]}},{"type":"Feature","id":"LFAV-ac2016461435e41a93f5","properties":{"airport":"LFAV","name":"11/29","layer":"Runways","category":"Runway centerlines","object_type":"Line","style_id":"runway.reference","source_group":"LFAV Runways","vsmr_group_ids":[],"geometry_role":"runway_centerline"},"geometry":{"type":"LineString","coordinates":[[3.452310833,50.327985833],[3.470943889,50.323452778]]}},{"type":"Feature","id":"LFAV-1af19aae3573efe71d48","properties":{"airport":"LFAV","name":"06/24","layer":"Runways","category":"Runway centerlines","object_type":"Line","style_id":"runway.reference","source_group":"LFAV Runways","vsmr_group_ids":[],"geometry_role":"runway_centerline"},"geometry":{"type":"LineString","coordinates":[[3.455588889,50.327641944],[3.463280833,50.330321944]]}}]}
