{"type":"FeatureCollection","name":"LFAY AVISO","bbox":[2.378593889,49.870325,2.394805833,49.875752778],"metadata":{"schema":"vSMR AVISO","schema_version":2,"airport":"LFAY","coordinate_reference_system":"WGS84","coordinate_order":"longitude, latitude","default_color_palette":"night","color_palettes":["night","day"],"feature_count":3,"style_count":2,"layer_counts":{"Reference points":1,"Runways":2},"category_counts":{"Labels":1,"Runway Markings":2}},"styles":{"line.runway.centerline.runway.markings":{"name":"Runway Markings","layer":"Runways","object_type":"Line","paint":{"stroke":"#FEFEFE","stroke-opacity":1.0,"stroke-width":1.5},"feature_count":2},"point.airport.reference.point.labels":{"name":"Labels","layer":"Reference points","object_type":"Point","paint":{"marker-color":"#808080","marker-size":"small"},"feature_count":1}},"features":[{"type":"Feature","id":"LFAY-runway-12R-30L-5198","properties":{"name":"LFAY RWY 12R/30L","layer":"Runways","category":"Runway Markings","object_type":"Line","style_id":"line.runway.centerline.runway.markings","airport":"LFAY","geometry_role":"runway_centerline","vsmr_group_ids":[]},"geometry":{"type":"LineString","coordinates":[[2.382005833,49.873885833],[2.393255833,49.870325]]}},{"type":"Feature","id":"LFAY-runway-12-30-5199","properties":{"name":"LFAY RWY 12/30","layer":"Runways","category":"Runway Markings","object_type":"Line","style_id":"line.runway.centerline.runway.markings","airport":"LFAY","geometry_role":"runway_centerline","vsmr_group_ids":[]},"geometry":{"type":"LineString","coordinates":[[2.378593889,49.875752778],[2.394805833,49.870627778]]}},{"type":"Feature","id":"LFAY-airport-reference","properties":{"name":"LFAY","layer":"Reference points","category":"Labels","object_type":"Point","style_id":"point.airport.reference.point.labels","airport":"LFAY","geometry_role":"airport_reference_point","text-field":"LFAY","vsmr_group_ids":[]},"geometry":{"type":"Point","coordinates":[2.386943889,49.873055833]}}]}
