{"type":"FeatureCollection","name":"LFBB AVISO","bbox":[-1.479722222,43.025277778,3.086666667,47.408055556],"metadata":{"schema":"vSMR AVISO","schema_version":2,"airport":"LFBB","coordinate_reference_system":"WGS84","coordinate_order":"longitude, latitude","feature_count":35,"style_count":1,"layer_counts":{"Labels":35},"category_counts":{"Labels":35}},"styles":{"label.text.label.labels":{"name":"Labels","layer":"Labels","object_type":"Label","paint":{"text-anchor":"center","text-color":"#CCCCCC","text-halo-color":"#000000","text-halo-width":1,"text-size":12},"feature_count":35}},"features":[{"type":"Feature","id":"LFBB-text-lfbb-21097","properties":{"name":"HOP_HAMB","layer":"Labels","category":"Labels","object_type":"Label","style_id":"label.text.label.labels","airport":"LFBB","geometry_role":"text_label","text-field":"HOP_HAMB","vsmr_group_ids":[[]]},"geometry":{"type":"Point","coordinates":[0.981111111,47.408055556]}},{"type":"Feature","id":"LFBB-text-lfbb-21098","properties":{"name":"HOP_HANG","layer":"Labels","category":"Labels","object_type":"Label","style_id":"label.text.label.labels","airport":"LFBB","geometry_role":"text_label","text-field":"HOP_HANG","vsmr_group_ids":[[]]},"geometry":{"type":"Point","coordinates":[0.117777778,45.634166667]}},{"type":"Feature","id":"LFBB-text-lfbb-21099","properties":{"name":"HOP_HARC","layer":"Labels","category":"Labels","object_type":"Label","style_id":"label.text.label.labels","airport":"LFBB","geometry_role":"text_label","text-field":"HOP_HARC","vsmr_group_ids":[[]]},"geometry":{"type":"Point","coordinates":[-1.113888889,44.6125]}},{"type":"Feature","id":"LFBB-text-lfbb-21100","properties":{"name":"HOP_HAUC","layer":"Labels","category":"Labels","object_type":"Label","style_id":"label.text.label.labels","airport":"LFBB","geometry_role":"text_label","text-field":"HOP_HAUC","vsmr_group_ids":[[]]},"geometry":{"type":"Point","coordinates":[0.573333333,43.631388889]}},{"type":"Feature","id":"LFBB-text-lfbb-21101","properties":{"name":"HOP_HBAY","layer":"Labels","category":"Labels","object_type":"Label","style_id":"label.text.label.labels","airport":"LFBB","geometry_role":"text_label","text-field":"HOP_HBAY","vsmr_group_ids":[[]]},"geometry":{"type":"Point","coordinates":[-1.479722222,43.4825]}},{"type":"Feature","id":"LFBB-text-lfbb-21102","properties":{"name":"HOP_HBLA","layer":"Labels","category":"Labels","object_type":"Label","style_id":"label.text.label.labels","airport":"LFBB","geometry_role":"text_label","text-field":"HOP_HBLA","vsmr_group_ids":[[]]},"geometry":{"type":"Point","coordinates":[-0.658888889,45.135833333]}},{"type":"Feature","id":"LFBB-text-lfbb-21103","properties":{"name":"HOP_HARG","layer":"Labels","category":"Labels","object_type":"Label","style_id":"label.text.label.labels","airport":"LFBB","geometry_role":"text_label","text-field":"HOP_HARG","vsmr_group_ids":[[]]},"geometry":{"type":"Point","coordinates":[-0.017777778,44.812222222]}},{"type":"Feature","id":"LFBB-text-lfbb-21104","properties":{"name":"HOP_HBHL","layer":"Labels","category":"Labels","object_type":"Label","style_id":"label.text.label.labels","airport":"LFBB","geometry_role":"text_label","text-field":"HOP_HBHL","vsmr_group_ids":[[]]},"geometry":{"type":"Point","coordinates":[-0.660833333,44.785277778]}},{"type":"Feature","id":"LFBB-text-lfbb-21105","properties":{"name":"HOP_HBOR","layer":"Labels","category":"Labels","object_type":"Label","style_id":"label.text.label.labels","airport":"LFBB","geometry_role":"text_label","text-field":"HOP_HBOR","vsmr_group_ids":[[]]},"geometry":{"type":"Point","coordinates":[-0.604722222,44.8275]}},{"type":"Feature","id":"LFBB-text-lfbb-21106","properties":{"name":"HOP_HBO2","layer":"Labels","category":"Labels","object_type":"Label","style_id":"label.text.label.labels","airport":"LFBB","geometry_role":"text_label","text-field":"HOP_HBO2","vsmr_group_ids":[[]]},"geometry":{"type":"Point","coordinates":[-0.574166667,44.8]}},{"type":"Feature","id":"LFBB-text-lfbb-21107","properties":{"name":"HOP_HCAM","layer":"Labels","category":"Labels","object_type":"Label","style_id":"label.text.label.labels","airport":"LFBB","geometry_role":"text_label","text-field":"HOP_HCAM","vsmr_group_ids":[[]]},"geometry":{"type":"Point","coordinates":[2.395277778,43.22]}},{"type":"Feature","id":"LFBB-text-lfbb-21108","properties":{"name":"HOP_HCAS","layer":"Labels","category":"Labels","object_type":"Label","style_id":"label.text.label.labels","airport":"LFBB","geometry_role":"text_label","text-field":"HOP_HCAS","vsmr_group_ids":[[]]},"geometry":{"type":"Point","coordinates":[2.26,43.565]}},{"type":"Feature","id":"LFBB-text-lfbb-21109","properties":{"name":"HOP_HCTX","layer":"Labels","category":"Labels","object_type":"Label","style_id":"label.text.label.labels","airport":"LFBB","geometry_role":"text_label","text-field":"HOP_HCTX","vsmr_group_ids":[[]]},"geometry":{"type":"Point","coordinates":[1.6975,46.799444444]}},{"type":"Feature","id":"LFBB-text-lfbb-21110","properties":{"name":"HOP_HCTA","layer":"Labels","category":"Labels","object_type":"Label","style_id":"label.text.label.labels","airport":"LFBB","geometry_role":"text_label","text-field":"HOP_HCTA","vsmr_group_ids":[[]]},"geometry":{"type":"Point","coordinates":[0.556666667,46.832777778]}},{"type":"Feature","id":"LFBB-text-lfbb-21111","properties":{"name":"HOP_HCHI","layer":"Labels","category":"Labels","object_type":"Label","style_id":"label.text.label.labels","airport":"LFBB","geometry_role":"text_label","text-field":"HOP_HCHI","vsmr_group_ids":[[]]},"geometry":{"type":"Point","coordinates":[1.6175,43.025277778]}},{"type":"Feature","id":"LFBB-text-lfbb-21112","properties":{"name":"HOP_HDAX","layer":"Labels","category":"Labels","object_type":"Label","style_id":"label.text.label.labels","airport":"LFBB","geometry_role":"text_label","text-field":"HOP_HDAX","vsmr_group_ids":[[]]},"geometry":{"type":"Point","coordinates":[-1.040277778,43.7125]}},{"type":"Feature","id":"LFBB-text-lfbb-21113","properties":{"name":"HOP_HGRT","layer":"Labels","category":"Labels","object_type":"Label","style_id":"label.text.label.labels","airport":"LFBB","geometry_role":"text_label","text-field":"HOP_HGRT","vsmr_group_ids":[[]]},"geometry":{"type":"Point","coordinates":[1.868611111,46.161666667]}},{"type":"Feature","id":"LFBB-text-lfbb-21114","properties":{"name":"HOP_HISS","layer":"Labels","category":"Labels","object_type":"Label","style_id":"label.text.label.labels","airport":"LFBB","geometry_role":"text_label","text-field":"HOP_HISS","vsmr_group_ids":[[]]},"geometry":{"type":"Point","coordinates":[1.994722222,46.959444444]}},{"type":"Feature","id":"LFBB-text-lfbb-21115","properties":{"name":"HOP_HLRC","layer":"Labels","category":"Labels","object_type":"Label","style_id":"label.text.label.labels","airport":"LFBB","geometry_role":"text_label","text-field":"HOP_HLRC","vsmr_group_ids":[[]]},"geometry":{"type":"Point","coordinates":[-1.1425,46.158888889]}},{"type":"Feature","id":"LFBB-text-lfbb-21116","properties":{"name":"HOP_HLAN","layer":"Labels","category":"Labels","object_type":"Label","style_id":"label.text.label.labels","airport":"LFBB","geometry_role":"text_label","text-field":"HOP_HLAN","vsmr_group_ids":[[]]},"geometry":{"type":"Point","coordinates":[-0.243611111,44.544722222]}},{"type":"Feature","id":"LFBB-text-lfbb-21117","properties":{"name":"HOP_HLBL","layer":"Labels","category":"Labels","object_type":"Label","style_id":"label.text.label.labels","airport":"LFBB","geometry_role":"text_label","text-field":"HOP_HLBL","vsmr_group_ids":[[]]},"geometry":{"type":"Point","coordinates":[1.058611111,46.633888889]}},{"type":"Feature","id":"LFBB-text-lfbb-21118","properties":{"name":"HOP_HLOC","layer":"Labels","category":"Labels","object_type":"Label","style_id":"label.text.label.labels","airport":"LFBB","geometry_role":"text_label","text-field":"HOP_HLOC","vsmr_group_ids":[[]]},"geometry":{"type":"Point","coordinates":[1.003055556,47.130555556]}},{"type":"Feature","id":"LFBB-text-lfbb-21119","properties":{"name":"HOP_HMDM","layer":"Labels","category":"Labels","object_type":"Label","style_id":"label.text.label.labels","airport":"LFBB","geometry_role":"text_label","text-field":"HOP_HMDM","vsmr_group_ids":[[]]},"geometry":{"type":"Point","coordinates":[-0.486111111,43.893333333]}},{"type":"Feature","id":"LFBB-text-lfbb-21120","properties":{"name":"HOP_HMTL","layer":"Labels","category":"Labels","object_type":"Label","style_id":"label.text.label.labels","airport":"LFBB","geometry_role":"text_label","text-field":"HOP_HMTL","vsmr_group_ids":[[]]},"geometry":{"type":"Point","coordinates":[2.609444444,46.341666667]}},{"type":"Feature","id":"LFBB-text-lfbb-21121","properties":{"name":"HOP_HNIO","layer":"Labels","category":"Labels","object_type":"Label","style_id":"label.text.label.labels","airport":"LFBB","geometry_role":"text_label","text-field":"HOP_HNIO","vsmr_group_ids":[[]]},"geometry":{"type":"Point","coordinates":[-0.458611111,46.315833333]}},{"type":"Feature","id":"LFBB-text-lfbb-21122","properties":{"name":"HOP_HOLO","layer":"Labels","category":"Labels","object_type":"Label","style_id":"label.text.label.labels","airport":"LFBB","geometry_role":"text_label","text-field":"HOP_HOLO","vsmr_group_ids":[[]]},"geometry":{"type":"Point","coordinates":[-0.617777778,43.195833333]}},{"type":"Feature","id":"LFBB-text-lfbb-21123","properties":{"name":"HOP_HPAU","layer":"Labels","category":"Labels","object_type":"Label","style_id":"label.text.label.labels","airport":"LFBB","geometry_role":"text_label","text-field":"HOP_HPAU","vsmr_group_ids":[[]]},"geometry":{"type":"Point","coordinates":[-0.350833333,43.328055556]}},{"type":"Feature","id":"LFBB-text-lfbb-21124","properties":{"name":"HOP_HPER","layer":"Labels","category":"Labels","object_type":"Label","style_id":"label.text.label.labels","airport":"LFBB","geometry_role":"text_label","text-field":"HOP_HPER","vsmr_group_ids":[[]]},"geometry":{"type":"Point","coordinates":[0.730833333,45.191666667]}},{"type":"Feature","id":"LFBB-text-lfbb-21125","properties":{"name":"HOP_HPOI","layer":"Labels","category":"Labels","object_type":"Label","style_id":"label.text.label.labels","airport":"LFBB","geometry_role":"text_label","text-field":"HOP_HPOI","vsmr_group_ids":[[]]},"geometry":{"type":"Point","coordinates":[-0.382777778,46.560555556]}},{"type":"Feature","id":"LFBB-text-lfbb-21126","properties":{"name":"HOP_HRYN","layer":"Labels","category":"Labels","object_type":"Label","style_id":"label.text.label.labels","airport":"LFBB","geometry_role":"text_label","text-field":"HOP_HRYN","vsmr_group_ids":[[]]},"geometry":{"type":"Point","coordinates":[-1.060833333,45.633333333]}},{"type":"Feature","id":"LFBB-text-lfbb-21127","properties":{"name":"HOP_HFLO","layer":"Labels","category":"Labels","object_type":"Label","style_id":"label.text.label.labels","airport":"LFBB","geometry_role":"text_label","text-field":"HOP_HFLO","vsmr_group_ids":[[]]},"geometry":{"type":"Point","coordinates":[3.086666667,45.033611111]}},{"type":"Feature","id":"LFBB-text-lfbb-21128","properties":{"name":"HOP_HSTS","layer":"Labels","category":"Labels","object_type":"Label","style_id":"label.text.label.labels","airport":"LFBB","geometry_role":"text_label","text-field":"HOP_HSTS","vsmr_group_ids":[[]]},"geometry":{"type":"Point","coordinates":[-0.655,45.747777778]}},{"type":"Feature","id":"LFBB-text-lfbb-21129","properties":{"name":"HOP_HSAR","layer":"Labels","category":"Labels","object_type":"Label","style_id":"label.text.label.labels","airport":"LFBB","geometry_role":"text_label","text-field":"HOP_HSAR","vsmr_group_ids":[[]]},"geometry":{"type":"Point","coordinates":[1.223055556,44.9]}},{"type":"Feature","id":"LFBB-text-lfbb-21130","properties":{"name":"HOP_HTPP","layer":"Labels","category":"Labels","object_type":"Label","style_id":"label.text.label.labels","airport":"LFBB","geometry_role":"text_label","text-field":"HOP_HTPP","vsmr_group_ids":[[]]},"geometry":{"type":"Point","coordinates":[1.4,43.613055556]}},{"type":"Feature","id":"LFBB-text-lfbb-21131","properties":{"name":"HOP_HTRP","layer":"Labels","category":"Labels","object_type":"Label","style_id":"label.text.label.labels","airport":"LFBB","geometry_role":"text_label","text-field":"HOP_HTRP","vsmr_group_ids":[[]]},"geometry":{"type":"Point","coordinates":[1.448611111,43.561111111]}}]}
