{"type":"FeatureCollection","name":"LFBC AVISO","bbox":[-1.148555556,44.526388889,-1.109305556,44.5445],"metadata":{"schema":"vSMR AVISO","schema_version":2,"airport":"LFBC","coordinate_reference_system":"WGS84","coordinate_order":"longitude, latitude","default_color_palette":"night","color_palettes":["night","day"],"feature_count":18,"style_count":6,"layer_counts":{"Ground linework":4,"Labels":12,"Reference points":1,"Runways":1},"category_counts":{"Apron Surface":1,"Labels":13,"Runway Concrete":1,"Runway Markings":1,"Taxiway":2}},"styles":{"label.text.label.labels":{"name":"Labels","layer":"Labels","object_type":"Label","paint":{"text-anchor":"center","text-color":"#CCCCCC","text-halo-color":"#000000","text-halo-width":1,"text-size":12,"zoomLevel":10},"feature_count":12},"line.linework.apron.surface":{"name":"Apron Surface","layer":"Ground linework","object_type":"Line","paint":{"stroke":"#808080","stroke-opacity":1.0,"stroke-width":1.5},"feature_count":1},"line.linework.runway.concrete":{"name":"Runway Concrete","layer":"Ground linework","object_type":"Line","paint":{"stroke":"#111318","stroke-opacity":1.0,"stroke-width":1.5},"feature_count":1},"line.linework.taxiway":{"name":"Taxiway","layer":"Ground linework","object_type":"Line","paint":{"stroke":"#4E5A69","stroke-opacity":1.0,"stroke-width":1.5},"feature_count":2},"line.runway.centerline.runway.markings":{"name":"Runway Markings","layer":"Runways","object_type":"Line","paint":{"stroke":"#FEFEFE","stroke-opacity":1.0,"stroke-width":1.5},"feature_count":1},"point.airport.reference.point.labels":{"name":"Labels","layer":"Reference points","object_type":"Point","paint":{"marker-color":"#808080","marker-size":"small"},"feature_count":1}},"features":[{"type":"Feature","id":"LFBC-runway-06-24-4930","properties":{"name":"LFBC RWY 06/24","layer":"Runways","category":"Runway Markings","object_type":"Line","style_id":"line.runway.centerline.runway.markings","airport":"LFBC","geometry_role":"runway_centerline","vsmr_group_ids":[]},"geometry":{"type":"LineString","coordinates":[[-1.137935833,44.528068889],[-1.112755833,44.539966944]]}},{"type":"Feature","id":"lfbc.line.linework.taxiway.39415","properties":{"name":"LFBC Groundlayout Cazaux","layer":"Ground linework","category":"Taxiway","object_type":"Line","style_id":"line.linework.taxiway","airport":"LFBC","geometry_role":"linework","vsmr_group_ids":[]},"geometry":{"type":"MultiLineString","coordinates":[[[-1.137944444,44.528305556],[-1.138166667,44.528555556]],[[-1.137638889,44.528472222],[-1.137833333,44.528694444]],[[-1.138166667,44.528555556],[-1.138472222,44.528888889]],[[-1.137833333,44.528694444],[-1.138027778,44.528916667]],[[-1.138472222,44.528888889],[-1.137444444,44.53075]],[[-1.138027778,44.528916667],[-1.137055556,44.530694444]],[[-1.137305556,44.531],[-1.136722222,44.532027778]],[[-1.136916667,44.530972222],[-1.136388889,44.531944444]],[[-1.136722222,44.532027778],[-1.136527778,44.532416667]],[[-1.136388889,44.531944444],[-1.136083333,44.532472222]],[[-1.136388889,44.532694444],[-1.13375,44.537444444]],[[-1.136083333,44.532472222],[-1.133527778,44.537138889]],[[-1.138333333,44.531083333],[-1.137305556,44.531]],[[-1.138472222,44.530833333],[-1.137444444,44.53075]],[[-1.136916667,44.530972222],[-1.133888889,44.530694444]],[[-1.137055556,44.530694444],[-1.133916667,44.530444444]],[[-1.133888889,44.530694444],[-1.133083333,44.530638889]],[[-1.133916667,44.530444444],[-1.133555556,44.530388889]],[[-1.137416667,44.532861111],[-1.136388889,44.532694444]],[[-1.137527778,44.532611111],[-1.136527778,44.532416667]],[[-1.138472222,44.528055556],[-1.138666667,44.528305556]],[[-1.138166667,44.528222222],[-1.138333333,44.528444444]],[[-1.138666667,44.528305556],[-1.139027778,44.52875]],[[-1.138333333,44.528444444],[-1.138611111,44.528777778]],[[-1.139027778,44.52875],[-1.138861111,44.529111111]],[[-1.138611111,44.528777778],[-1.138416667,44.529138889]],[[-1.138861111,44.529111111],[-1.139388889,44.529777778]],[[-1.138416667,44.529138889],[-1.139,44.529805556]],[[-1.139333333,44.529916667],[-1.13875,44.531027778]],[[-1.139,44.529805556],[-1.138472222,44.530833333]],[[-1.13875,44.531027778],[-1.137833333,44.532805556]],[[-1.138333333,44.531083333],[-1.137527778,44.532611111]],[[-1.137833333,44.532805556],[-1.135222222,44.537861111]],[[-1.137416667,44.532861111],[-1.134888889,44.537722222]],[[-1.135222222,44.537861111],[-1.134166667,44.538944444]],[[-1.134888889,44.537722222],[-1.134,44.538638889]],[[-1.131138889,44.537055556],[-1.130722222,44.538111111]],[[-1.130777778,44.536972222],[-1.130361111,44.538027778]],[[-1.12175,44.538083333],[-1.127555556,44.539777778]],[[-1.121527778,44.538194444],[-1.127472222,44.539916667]],[[-1.127555556,44.539777778],[-1.127472222,44.539916667]],[[-1.113444444,44.540666667],[-1.112166667,44.543527778]],[[-1.113277778,44.540472222],[-1.111944444,44.5435]],[[-1.112166667,44.543527778],[-1.111944444,44.5435]],[[-1.139388889,44.529777778],[-1.139861111,44.529916667]],[[-1.139333333,44.529916667],[-1.139833333,44.530083333]],[[-1.139861111,44.529916667],[-1.146055556,44.529888889]],[[-1.139833333,44.530083333],[-1.146138889,44.530055556]],[[-1.146055556,44.529888889],[-1.148444444,44.528777778]],[[-1.146138889,44.530055556],[-1.148555556,44.528916667]],[[-1.148444444,44.528777778],[-1.148555556,44.528916667]]]}},{"type":"Feature","id":"lfbc.line.linework.runway.concrete.39466","properties":{"name":"LFBC Groundlayout Cazaux","layer":"Ground linework","category":"Runway Concrete","object_type":"Line","style_id":"line.linework.runway.concrete","airport":"LFBC","geometry_role":"linework","vsmr_group_ids":[]},"geometry":{"type":"MultiLineString","coordinates":[[[-1.115388889,44.537694444],[-1.134611111,44.528638889]],[[-1.115916667,44.538277778],[-1.135138889,44.529194444]],[[-1.115388889,44.537694444],[-1.115916667,44.538277778]],[[-1.134611111,44.528638889],[-1.135138889,44.529194444]],[[-1.109305556,44.541361111],[-1.112805556,44.539694444]],[[-1.109611111,44.541694444],[-1.112944444,44.540111111]],[[-1.109305556,44.541361111],[-1.109611111,44.541694444]],[[-1.112805556,44.539694444],[-1.121777778,44.535472222]],[[-1.113277778,44.539944444],[-1.122055556,44.535833333]],[[-1.121777778,44.535472222],[-1.132694444,44.530333333]],[[-1.122444444,44.535638889],[-1.133055556,44.530638889]],[[-1.132722222,44.530305556],[-1.137472222,44.528055556]],[[-1.133555556,44.530388889],[-1.137638889,44.528472222]],[[-1.137472222,44.528055556],[-1.138027778,44.527805556]],[[-1.137944444,44.528305556],[-1.138166667,44.528222222]],[[-1.138027778,44.527805556],[-1.141,44.526388889]],[[-1.138472222,44.528055556],[-1.141305556,44.526722222]],[[-1.141,44.526388889],[-1.141305556,44.526722222]]]}},{"type":"Feature","id":"lfbc.line.linework.taxiway.39484","properties":{"name":"LFBC Groundlayout Cazaux","layer":"Ground linework","category":"Taxiway","object_type":"Line","style_id":"line.linework.taxiway","airport":"LFBC","geometry_role":"linework","vsmr_group_ids":[]},"geometry":{"type":"MultiLineString","coordinates":[[[-1.124111111,44.536444444],[-1.122583333,44.536]],[[-1.12425,44.536194444],[-1.12275,44.53575]],[[-1.124111111,44.536444444],[-1.12425,44.536194444]],[[-1.122583333,44.536],[-1.122055556,44.535833333]],[[-1.12275,44.53575],[-1.122444444,44.535638889]],[[-1.130416667,44.538333333],[-1.124805556,44.536666667]],[[-1.130361111,44.538027778],[-1.125194444,44.536472222]],[[-1.13375,44.537444444],[-1.131138889,44.537055556]],[[-1.133527778,44.537138889],[-1.131055556,44.53675]],[[-1.126805556,44.535722222],[-1.125194444,44.536472222]],[[-1.12675,44.535416667],[-1.124666667,44.536388889]],[[-1.124805556,44.536666667],[-1.124416667,44.536861111]],[[-1.124666667,44.536388889],[-1.124194444,44.536611111]],[[-1.124416667,44.536861111],[-1.12175,44.538083333]],[[-1.124194444,44.536611111],[-1.121333333,44.537972222]],[[-1.121527778,44.538194444],[-1.119888889,44.538972222]],[[-1.121333333,44.537972222],[-1.119416667,44.538861111]],[[-1.119527778,44.539138889],[-1.115055556,44.541222222]],[[-1.119416667,44.538861111],[-1.114722222,44.541055556]],[[-1.114722222,44.541388889],[-1.114277778,44.541583333]],[[-1.114722222,44.541055556],[-1.114388889,44.541222222]],[[-1.114277778,44.541583333],[-1.113444444,44.540666667]],[[-1.114388889,44.541222222],[-1.113611111,44.540333333]],[[-1.113277778,44.540472222],[-1.113138889,44.540333333]],[[-1.113583333,44.540333333],[-1.113472222,44.540194444]],[[-1.113138889,44.540333333],[-1.112944444,44.540111111]],[[-1.113472222,44.540194444],[-1.113277778,44.539944444]],[[-1.119888889,44.538972222],[-1.121777778,44.53975]],[[-1.119527778,44.539138889],[-1.121527778,44.539972222]],[[-1.121777778,44.53975],[-1.122944444,44.540888889]],[[-1.121527778,44.539972222],[-1.122555556,44.540972222]],[[-1.122944444,44.540888889],[-1.122777778,44.541916667]],[[-1.122555556,44.540972222],[-1.122416667,44.541805556]],[[-1.122777778,44.541916667],[-1.119361111,44.544333333]],[[-1.122416667,44.541805556],[-1.119166667,44.544083333]],[[-1.119361111,44.544333333],[-1.118166667,44.5445]],[[-1.119166667,44.544083333],[-1.118194444,44.544222222]],[[-1.118166667,44.5445],[-1.116138889,44.544027778]],[[-1.118194444,44.544222222],[-1.116388889,44.543805556]],[[-1.116138889,44.544027778],[-1.115166667,44.542833333]],[[-1.116388889,44.543805556],[-1.115527778,44.54275]],[[-1.115166667,44.542833333],[-1.114722222,44.541388889]],[[-1.115527778,44.54275],[-1.115055556,44.541222222]],[[-1.133416667,44.538555556],[-1.134,44.538638889]],[[-1.133333333,44.538805556],[-1.134166667,44.538944444]],[[-1.132805556,44.538444444],[-1.133416667,44.538555556]],[[-1.132722222,44.538722222],[-1.133333333,44.538805556]],[[-1.132222222,44.538361111],[-1.132805556,44.538444444]],[[-1.132138889,44.538611111],[-1.132722222,44.538722222]],[[-1.131638889,44.53825],[-1.132222222,44.538361111]],[[-1.131555556,44.538527778],[-1.132138889,44.538611111]],[[-1.131111111,44.538166667],[-1.131638889,44.53825]],[[-1.131027778,44.538444444],[-1.131555556,44.538527778]],[[-1.131027778,44.538444444],[-1.130444444,44.538333333]],[[-1.131111111,44.538166667],[-1.130722222,44.538111111]],[[-1.130472222,44.536583333],[-1.131055556,44.53675]],[[-1.130333333,44.536833333],[-1.130777778,44.536972222]],[[-1.130138889,44.536472222],[-1.130472222,44.536583333]],[[-1.129972222,44.536722222],[-1.130333333,44.536833333]],[[-1.129777778,44.536361111],[-1.130138889,44.536472222]],[[-1.129638889,44.536611111],[-1.129972222,44.536722222]],[[-1.129416667,44.53625],[-1.129777778,44.536361111]],[[-1.12925,44.5365],[-1.129638889,44.536611111]],[[-1.129166667,44.536166667],[-1.129416667,44.53625]],[[-1.129,44.536416667],[-1.12925,44.5365]],[[-1.128944444,44.536083333],[-1.129166667,44.536166667]],[[-1.128777778,44.536333333],[-1.129,44.536416667]],[[-1.128472222,44.535944444],[-1.128944444,44.536083333]],[[-1.128305556,44.536194444],[-1.128777778,44.536333333]],[[-1.128305556,44.536194444],[-1.126805556,44.535722222]],[[-1.128472222,44.535944444],[-1.12675,44.535416667]]]}},{"type":"Feature","id":"lfbc.line.linework.apron.surface.39555","properties":{"name":"LFBC Groundlayout Cazaux","layer":"Ground linework","category":"Apron Surface","object_type":"Line","style_id":"line.linework.apron.surface","airport":"LFBC","geometry_role":"linework","vsmr_group_ids":[]},"geometry":{"type":"MultiLineString","coordinates":[[[-1.126944444,44.535722222],[-1.126305556,44.536805556]],[[-1.126305556,44.536805556],[-1.124138889,44.536138889]],[[-1.124138889,44.536138889],[-1.124305556,44.536666667]],[[-1.124305556,44.536666667],[-1.125222222,44.536888889]],[[-1.125222222,44.536888889],[-1.125194444,44.537138889]],[[-1.125194444,44.537138889],[-1.129583333,44.538472222]],[[-1.129583333,44.538472222],[-1.129583333,44.538555556]],[[-1.129583333,44.538555556],[-1.129916667,44.538666667]],[[-1.129916667,44.538666667],[-1.130833333,44.538222222]],[[-1.130833333,44.538222222],[-1.130583333,44.537805556]],[[-1.130583333,44.537805556],[-1.130222222,44.537861111]],[[-1.130222222,44.537861111],[-1.127444444,44.537027778]],[[-1.127444444,44.537027778],[-1.127388889,44.536777778]],[[-1.127388889,44.536777778],[-1.127638889,44.536388889]],[[-1.127638889,44.536388889],[-1.130722222,44.537277778]],[[-1.130722222,44.537277778],[-1.130972222,44.536805556]],[[-1.126944444,44.535722222],[-1.130972222,44.536805556]],[[-1.133194444,44.537194444],[-1.133305556,44.537416667]],[[-1.133305556,44.537416667],[-1.13475,44.538138889]],[[-1.13475,44.538138889],[-1.134972222,44.537888889]],[[-1.134972222,44.537888889],[-1.134,44.536805556]],[[-1.133194444,44.537194444],[-1.134,44.536805556]],[[-1.139194444,44.529694444],[-1.14,44.529944444]],[[-1.14,44.529944444],[-1.137694444,44.534277778]],[[-1.137694444,44.534277778],[-1.137527778,44.53425]],[[-1.137527778,44.53425],[-1.13725,44.53475]],[[-1.13725,44.53475],[-1.137472222,44.534805556]],[[-1.137472222,44.534805556],[-1.137194444,44.535361111]],[[-1.137194444,44.535361111],[-1.136972222,44.535305556]],[[-1.136972222,44.535305556],[-1.136722222,44.535777778]],[[-1.136722222,44.535777778],[-1.136972222,44.535861111]],[[-1.136972222,44.535861111],[-1.136694444,44.536305556]],[[-1.136694444,44.536305556],[-1.136416667,44.53625]],[[-1.136416667,44.53625],[-1.135833333,44.537333333]],[[-1.135833333,44.537333333],[-1.135166667,44.537388889]],[[-1.139194444,44.529694444],[-1.135166667,44.537388889]],[[-1.137861111,44.529305556],[-1.138805556,44.529222222]],[[-1.138805556,44.529222222],[-1.139027778,44.528777778]],[[-1.139027778,44.528777778],[-1.138416667,44.528833333]],[[-1.138416667,44.528833333],[-1.137888889,44.528222222]],[[-1.137888889,44.528222222],[-1.137,44.528638889]],[[-1.137,44.528638889],[-1.137861111,44.528666667]],[[-1.137861111,44.528666667],[-1.138055556,44.528888889]],[[-1.137861111,44.529305556],[-1.138055556,44.528888889]],[[-1.133944444,44.530111111],[-1.133916667,44.530638889]],[[-1.133916667,44.530638889],[-1.133,44.530444444]],[[-1.133944444,44.530111111],[-1.133,44.530444444]],[[-1.122888889,44.535916667],[-1.122805556,44.535333333]],[[-1.122805556,44.535333333],[-1.122027778,44.535666667]],[[-1.122888889,44.535916667],[-1.122027778,44.535666667]],[[-1.114083333,44.541166667],[-1.114305556,44.540555556]],[[-1.114305556,44.540555556],[-1.113444444,44.539611111]],[[-1.113444444,44.539611111],[-1.112944444,44.539916667]],[[-1.114083333,44.541166667],[-1.112944444,44.539916667]],[[-1.12725,44.540527778],[-1.127638889,44.539805556]],[[-1.127638889,44.539805556],[-1.127027778,44.539638889]],[[-1.127027778,44.539638889],[-1.126666667,44.540388889]],[[-1.12725,44.540527778],[-1.126666667,44.540388889]],[[-1.130611111,44.538222222],[-1.13425,44.538833333]],[[-1.13425,44.538833333],[-1.134027778,44.539388889]],[[-1.134027778,44.539388889],[-1.130111111,44.538694444]],[[-1.130111111,44.538694444],[-1.130055556,44.538527778]],[[-1.130611111,44.538222222],[-1.130055556,44.538527778]],[[-1.112861111,44.543416667],[-1.111444444,44.543138889]],[[-1.111444444,44.543138889],[-1.111333333,44.544305556]],[[-1.111333333,44.544305556],[-1.112083333,44.544444444]],[[-1.112861111,44.543416667],[-1.112083333,44.544444444]],[[-1.146555556,44.529833333],[-1.146055556,44.529111111]],[[-1.146055556,44.529111111],[-1.145138889,44.529111111]],[[-1.145138889,44.529111111],[-1.145111111,44.530027778]],[[-1.145111111,44.530027778],[-1.146111111,44.530027778]],[[-1.146555556,44.529833333],[-1.146111111,44.530027778]],[[-1.143166667,44.53],[-1.143166667,44.529583333]],[[-1.143166667,44.529583333],[-1.141916667,44.529611111]],[[-1.141916667,44.529611111],[-1.141916667,44.53]],[[-1.143166667,44.53],[-1.141916667,44.53]]]}},{"type":"Feature","id":"LFBC-airport-reference","properties":{"name":"LFBC","layer":"Reference points","category":"Labels","object_type":"Point","style_id":"point.airport.reference.point.labels","airport":"LFBC","geometry_role":"airport_reference_point","text-field":"LFBC","vsmr_group_ids":[]},"geometry":{"type":"Point","coordinates":[-1.131388889,44.534999722]}},{"type":"Feature","id":"LFBC-text-lfbb-21133","properties":{"name":"1","layer":"Labels","category":"Labels","object_type":"Label","style_id":"label.text.label.labels","airport":"LFBC","geometry_role":"text_label","text-field":"1","vsmr_group_ids":[]},"geometry":{"type":"Point","coordinates":[-1.133222222,44.539083333]}},{"type":"Feature","id":"LFBC-text-lfbb-21134","properties":{"name":"2","layer":"Labels","category":"Labels","object_type":"Label","style_id":"label.text.label.labels","airport":"LFBC","geometry_role":"text_label","text-field":"2","vsmr_group_ids":[]},"geometry":{"type":"Point","coordinates":[-1.132611111,44.538972222]}},{"type":"Feature","id":"LFBC-text-lfbb-21135","properties":{"name":"3","layer":"Labels","category":"Labels","object_type":"Label","style_id":"label.text.label.labels","airport":"LFBC","geometry_role":"text_label","text-field":"3","vsmr_group_ids":[]},"geometry":{"type":"Point","coordinates":[-1.132027778,44.538888889]}},{"type":"Feature","id":"LFBC-text-lfbb-21136","properties":{"name":"4","layer":"Labels","category":"Labels","object_type":"Label","style_id":"label.text.label.labels","airport":"LFBC","geometry_role":"text_label","text-field":"4","vsmr_group_ids":[]},"geometry":{"type":"Point","coordinates":[-1.1315,44.538777778]}},{"type":"Feature","id":"LFBC-text-lfbb-21137","properties":{"name":"5","layer":"Labels","category":"Labels","object_type":"Label","style_id":"label.text.label.labels","airport":"LFBC","geometry_role":"text_label","text-field":"5","vsmr_group_ids":[]},"geometry":{"type":"Point","coordinates":[-1.130916667,44.538694444]}},{"type":"Feature","id":"LFBC-text-lfbb-21138","properties":{"name":"6","layer":"Labels","category":"Labels","object_type":"Label","style_id":"label.text.label.labels","airport":"LFBC","geometry_role":"text_label","text-field":"6","vsmr_group_ids":[]},"geometry":{"type":"Point","coordinates":[-1.130194444,44.537027778]}},{"type":"Feature","id":"LFBC-text-lfbb-21139","properties":{"name":"7","layer":"Labels","category":"Labels","object_type":"Label","style_id":"label.text.label.labels","airport":"LFBC","geometry_role":"text_label","text-field":"7","vsmr_group_ids":[]},"geometry":{"type":"Point","coordinates":[-1.129833333,44.536916667]}},{"type":"Feature","id":"LFBC-text-lfbb-21140","properties":{"name":"8","layer":"Labels","category":"Labels","object_type":"Label","style_id":"label.text.label.labels","airport":"LFBC","geometry_role":"text_label","text-field":"8","vsmr_group_ids":[]},"geometry":{"type":"Point","coordinates":[-1.129472222,44.536833333]}},{"type":"Feature","id":"LFBC-text-lfbb-21141","properties":{"name":"9","layer":"Labels","category":"Labels","object_type":"Label","style_id":"label.text.label.labels","airport":"LFBC","geometry_role":"text_label","text-field":"9","vsmr_group_ids":[]},"geometry":{"type":"Point","coordinates":[-1.129111111,44.536722222]}},{"type":"Feature","id":"LFBC-text-lfbb-21142","properties":{"name":"10","layer":"Labels","category":"Labels","object_type":"Label","style_id":"label.text.label.labels","airport":"LFBC","geometry_role":"text_label","text-field":"10","vsmr_group_ids":[]},"geometry":{"type":"Point","coordinates":[-1.128861111,44.536666667]}},{"type":"Feature","id":"LFBC-text-lfbb-21143","properties":{"name":"11","layer":"Labels","category":"Labels","object_type":"Label","style_id":"label.text.label.labels","airport":"LFBC","geometry_role":"text_label","text-field":"11","vsmr_group_ids":[]},"geometry":{"type":"Point","coordinates":[-1.128611111,44.536583333]}},{"type":"Feature","id":"LFBC-text-lfbb-21144","properties":{"name":"12","layer":"Labels","category":"Labels","object_type":"Label","style_id":"label.text.label.labels","airport":"LFBC","geometry_role":"text_label","text-field":"12","vsmr_group_ids":[]},"geometry":{"type":"Point","coordinates":[-1.128194444,44.536388889]}}]}
