{"type":"FeatureCollection","name":"LFBE AVISO","bbox":[0.396416667,44.667694444,0.607194444,44.93125],"metadata":{"schema":"vSMR AVISO","schema_version":2,"airport":"LFBE","coordinate_reference_system":"WGS84","coordinate_order":"longitude, latitude","default_color_palette":"night","color_palettes":["night","day"],"feature_count":60,"style_count":11,"layer_counts":{"Airfield surfaces":20,"Ground linework":1,"Labels":36,"Reference points":1,"Runways":2},"category_counts":{"Building":9,"Gras Surface":1,"Hard Surface2":3,"Hard Surface3":2,"Labels":37,"Runway Concrete":1,"Runway Grass":1,"Runway Markings":2,"Stopbar":3,"Taxiway":1}},"styles":{"area.filled.region.building":{"name":"Building","layer":"Airfield surfaces","object_type":"Area","paint":{"fill":"#394446","fill-opacity":1.0,"stroke":"#394446","stroke-opacity":1.0,"stroke-width":0.5},"feature_count":9},"area.filled.region.gras.surface":{"name":"Gras Surface","layer":"Airfield surfaces","object_type":"Area","paint":{"fill":"#00512F","fill-opacity":1.0,"stroke":"#00512F","stroke-opacity":1.0,"stroke-width":0.5},"feature_count":1},"area.filled.region.hard.surface2":{"name":"Hard Surface2","layer":"Airfield surfaces","object_type":"Area","paint":{"fill":"#595E5B","fill-opacity":1.0,"stroke":"#595E5B","stroke-opacity":1.0,"stroke-width":0.5},"feature_count":3},"area.filled.region.hard.surface3":{"name":"Hard Surface3","layer":"Airfield surfaces","object_type":"Area","paint":{"fill":"#8A807F","fill-opacity":1.0,"stroke":"#8A807F","stroke-opacity":1.0,"stroke-width":0.5},"feature_count":2},"area.filled.region.runway.concrete":{"name":"Runway Concrete","layer":"Airfield surfaces","object_type":"Area","paint":{"fill":"#111318","fill-opacity":1.0,"stroke":"#111318","stroke-opacity":1.0,"stroke-width":0.5},"feature_count":1},"area.filled.region.runway.grass":{"name":"Runway Grass","layer":"Airfield surfaces","object_type":"Area","paint":{"fill":"#008000","fill-opacity":1.0,"stroke":"#008000","stroke-opacity":1.0,"stroke-width":0.5},"feature_count":1},"area.filled.region.stopbar":{"name":"Stopbar","layer":"Airfield surfaces","object_type":"Area","paint":{"fill":"#7E0000","fill-opacity":1.0,"stroke":"#7E0000","stroke-opacity":1.0,"stroke-width":0.5},"feature_count":3},"label.text.label.labels":{"name":"Labels","layer":"Labels","object_type":"Label","paint":{"text-anchor":"center","text-color":"#CCCCCC","text-halo-color":"#000000","text-halo-width":1,"text-size":12,"zoomLevel":12},"feature_count":36},"line.linework.taxiway":{"name":"Taxiway","layer":"Ground linework","object_type":"Line","paint":{"stroke":"#4E5A69","stroke-opacity":1.0,"stroke-width":1.5},"feature_count":1},"line.runway.centerline.runway.markings":{"name":"Runway Markings","layer":"Runways","object_type":"Line","paint":{"stroke":"#FEFEFE","stroke-opacity":1.0,"stroke-width":1.5},"feature_count":2},"point.airport.reference.point.labels":{"name":"Labels","layer":"Reference points","object_type":"Point","paint":{"marker-color":"#808080","marker-size":"small"},"feature_count":1}},"features":[{"type":"Feature","id":"lfbe.area.filled.region.gras.surface.55970","properties":{"name":"LFBE AVISO","layer":"Airfield surfaces","category":"Gras Surface","object_type":"Area","style_id":"area.filled.region.gras.surface","airport":"LFBE","geometry_role":"filled_region","vsmr_group_ids":[]},"geometry":{"type":"Polygon","coordinates":[[[0.502956944,44.824427222],[0.50403,44.824408889],[0.5044825,44.823730556],[0.505969167,44.823593333],[0.506034167,44.823079722],[0.506913056,44.823235833],[0.507223333,44.822089722],[0.508193056,44.821989167],[0.509703611,44.822070278],[0.513350278,44.822271667],[0.513785278,44.822167778],[0.514298056,44.821941944],[0.514556389,44.82178],[0.514763333,44.821621111],[0.515026111,44.821498889],[0.515361944,44.82145],[0.516193333,44.821382778],[0.517963333,44.821293889],[0.518961944,44.821039444],[0.5197425,44.82088],[0.520291111,44.820795278],[0.520600556,44.8208],[0.521022222,44.820855],[0.5215075,44.820915],[0.521852222,44.820909722],[0.521859167,44.820905],[0.522035,44.8209],[0.522175556,44.820989722],[0.522063056,44.822331389],[0.535102778,44.821660833],[0.535304444,44.8241],[0.532782222,44.825064444],[0.520776667,44.825705833],[0.520553611,44.8259825],[0.511065,44.826353333],[0.509210556,44.827139722],[0.507273611,44.827506111],[0.506128611,44.827971944],[0.5046425,44.828225556],[0.502813056,44.827810278],[0.502205,44.827267778],[0.502059722,44.826856667],[0.502956944,44.824427222]]]}},{"type":"Feature","id":"lfbe.area.filled.region.hard.surface3.56013","properties":{"name":"LFBE AVISO","layer":"Airfield surfaces","category":"Hard Surface3","object_type":"Area","style_id":"area.filled.region.hard.surface3","airport":"LFBE","geometry_role":"filled_region","vsmr_group_ids":[]},"geometry":{"type":"Polygon","coordinates":[[[0.510001111,44.822511667],[0.511216389,44.822447778],[0.511233611,44.822356111],[0.513092778,44.822491111],[0.5130575,44.822849722],[0.512341667,44.822797222],[0.512301944,44.822797222],[0.512286389,44.82281],[0.512278333,44.822823889],[0.512279444,44.822845833],[0.512294722,44.823025],[0.510063056,44.823149444],[0.510001111,44.822511667]]]}},{"type":"Feature","id":"lfbe.area.filled.region.hard.surface3.56026","properties":{"name":"LFBE AVISO","layer":"Airfield surfaces","category":"Hard Surface3","object_type":"Area","style_id":"area.filled.region.hard.surface3","airport":"LFBE","geometry_role":"filled_region","vsmr_group_ids":[]},"geometry":{"type":"Polygon","coordinates":[[[0.513870556,44.822833056],[0.513992222,44.822841111],[0.5140225,44.822836111],[0.514046944,44.822825833],[0.5142975,44.822700556],[0.514470278,44.822577222],[0.51463,44.82253],[0.515462778,44.822483333],[0.515740278,44.822293611],[0.516396111,44.822261111],[0.517309444,44.822198611],[0.517328611,44.822221389],[0.517339167,44.822251389],[0.517345556,44.822288889],[0.517356111,44.822366944],[0.517398333,44.82275],[0.513848333,44.822941667],[0.513870556,44.822833056]]]}},{"type":"Feature","id":"lfbe.area.filled.region.hard.surface2.56044","properties":{"name":"LFBE AVISO","layer":"Airfield surfaces","category":"Hard Surface2","object_type":"Area","style_id":"area.filled.region.hard.surface2","airport":"LFBE","geometry_role":"filled_region","vsmr_group_ids":[]},"geometry":{"type":"Polygon","coordinates":[[[0.506378333,44.825399167],[0.506296944,44.825415833],[0.5062275,44.825439722],[0.506160833,44.825468056],[0.506096944,44.825505],[0.5060525,44.825537778],[0.506012778,44.825579167],[0.505977778,44.82562],[0.505937778,44.825673333],[0.505882222,44.825723889],[0.505829167,44.825763333],[0.505766111,44.825793889],[0.505691944,44.825821389],[0.505605,44.825841389],[0.505522778,44.82585],[0.505443056,44.825852222],[0.505359167,44.825845833],[0.505283611,44.825832778],[0.505215,44.825810278],[0.505151944,44.825784444],[0.505086111,44.825749167],[0.505036389,44.825713333],[0.504995278,44.825676111],[0.504955833,44.825623889],[0.504925556,44.825575556],[0.504905278,44.825508889],[0.504898611,44.8254725],[0.506553333,44.825384167],[0.506378333,44.825399167]]]}},{"type":"Feature","id":"lfbe.area.filled.region.hard.surface2.56073","properties":{"name":"LFBE AVISO","layer":"Airfield surfaces","category":"Hard Surface2","object_type":"Area","style_id":"area.filled.region.hard.surface2","airport":"LFBE","geometry_role":"filled_region","vsmr_group_ids":[]},"geometry":{"type":"Polygon","coordinates":[[[0.532679444,44.824015],[0.532678611,44.824061389],[0.532661111,44.824121667],[0.532630556,44.824179444],[0.532585556,44.824235],[0.532518889,44.824290556],[0.53244,44.824338889],[0.532345556,44.824376667],[0.532250278,44.824403056],[0.532149167,44.824412778],[0.532072778,44.824416667],[0.531509167,44.824440833],[0.531436667,44.824441667],[0.531347222,44.824430278],[0.531261389,44.824409722],[0.531188611,44.824381389],[0.531112222,44.824336667],[0.531054722,44.824290278],[0.531006944,44.824244722],[0.530945556,44.824197222],[0.530871111,44.824158056],[0.530779167,44.824122778],[0.530647222,44.824091944],[0.530494722,44.824094722],[0.532678333,44.823976111],[0.532679444,44.824015]]]}},{"type":"Feature","id":"lfbe.area.filled.region.hard.surface2.56099","properties":{"name":"LFBE AVISO","layer":"Airfield surfaces","category":"Hard Surface2","object_type":"Area","style_id":"area.filled.region.hard.surface2","airport":"LFBE","geometry_role":"filled_region","vsmr_group_ids":[]},"geometry":{"type":"Polygon","coordinates":[[[0.5061725,44.825012778],[0.506288611,44.824983333],[0.506359722,44.824951389],[0.506433611,44.824890556],[0.506468889,44.824838611],[0.506483333,44.824801389],[0.506485,44.824737778],[0.506476667,44.824648056],[0.506385278,44.823816389],[0.506380833,44.823758056],[0.506388889,44.823712778],[0.506405556,44.823663889],[0.506430556,44.823625],[0.506467222,44.823590556],[0.506511944,44.823556111],[0.506568056,44.823530278],[0.506645278,44.823506389],[0.5067475,44.823491944],[0.506846667,44.823485],[0.506989444,44.823475278],[0.509784722,44.823328056],[0.509872222,44.823322778],[0.509932222,44.8233175],[0.509981944,44.823303333],[0.510016667,44.82329],[0.510042222,44.823258333],[0.5100575,44.8232275],[0.510065278,44.823203056],[0.510061111,44.823143889],[0.512295556,44.823022778],[0.512299444,44.823054167],[0.512305556,44.823079722],[0.512317222,44.823105556],[0.512335,44.823130833],[0.512356944,44.823145556],[0.512394444,44.823163611],[0.512439722,44.8231775],[0.512478611,44.8231825],[0.513443056,44.823128889],[0.513485278,44.823123056],[0.513515278,44.823112222],[0.513844444,44.822939722],[0.517399722,44.822751944],[0.517363333,44.822368889],[0.517348889,44.822301944],[0.517345278,44.822259722],[0.517328889,44.822225],[0.517310833,44.822196667],[0.5172675,44.822173611],[0.517218333,44.822153056],[0.517178611,44.822141389],[0.517133333,44.822135],[0.516625833,44.822160556],[0.5165825,44.822161944],[0.5165425,44.822176111],[0.516524444,44.822194167],[0.516519167,44.822249444],[0.516394167,44.822259722],[0.516383056,44.822109167],[0.516633333,44.822098889],[0.5171225,44.822070833],[0.517198611,44.822078333],[0.517254722,44.822097778],[0.517292778,44.822111944],[0.517334444,44.822129722],[0.517365278,44.822156944],[0.517401389,44.822198056],[0.517419444,44.822223611],[0.517450278,44.822273889],[0.517455833,44.822361111],[0.517513889,44.822807222],[0.517517222,44.822843056],[0.517523056,44.822861944],[0.517535833,44.822881111],[0.517566111,44.822895],[0.517606111,44.822897222],[0.517943611,44.822884722],[0.518039444,44.822881667],[0.518596944,44.822850833],[0.520501667,44.822747778],[0.520621111,44.823875833],[0.520633889,44.823952778],[0.520644444,44.823991667],[0.520656389,44.824026667],[0.52067,44.824056944],[0.520695833,44.8240875],[0.520729167,44.824118889],[0.520758333,44.824141944],[0.520803333,44.824163889],[0.520842778,44.8241825],[0.520885278,44.824193611],[0.520935278,44.824204444],[0.520990278,44.824211944],[0.520030556,44.824263333],[0.520095278,44.824244722],[0.5201475,44.824225],[0.520211111,44.824191111],[0.520265556,44.82415],[0.520290278,44.824110556],[0.520310833,44.824075278],[0.520318611,44.824031389],[0.5203175,44.823986389],[0.520307778,44.823895833],[0.520255278,44.823366667],[0.520246389,44.823310833],[0.520231944,44.823243889],[0.5202175,44.823184444],[0.520198333,44.823119167],[0.520179444,44.823080556],[0.520146111,44.823040556],[0.520094444,44.822997222],[0.520043056,44.822967222],[0.519989444,44.822947222],[0.519902778,44.822922778],[0.51989,44.822920833],[0.512186111,44.823335556],[0.512224167,44.823783333],[0.512106389,44.823790833],[0.512070278,44.823340833],[0.507418611,44.823588333],[0.507278611,44.823598333],[0.507157222,44.823608611],[0.507059722,44.823619444],[0.506977778,44.823633333],[0.506916389,44.823651944],[0.506877778,44.823667778],[0.506835278,44.823695278],[0.506806667,44.823715],[0.506776111,44.823745556],[0.506756389,44.823773056],[0.506737778,44.823823333],[0.506732222,44.823873056],[0.506727778,44.823928333],[0.506728611,44.823986667],[0.5068,44.824726667],[0.506807778,44.824769722],[0.506828611,44.824811667],[0.506856389,44.824841944],[0.506889722,44.824873889],[0.506933056,44.824901111],[0.506973056,44.824920278],[0.507017778,44.824936389],[0.507063611,44.824946667],[0.507100556,44.824954722],[0.507230278,44.824957222],[0.505942222,44.825025],[0.5061725,44.825012778]]]}},{"type":"Feature","id":"lfbe.area.filled.region.runway.concrete.56246","properties":{"name":"LFBE AVISO","layer":"Airfield surfaces","category":"Runway Concrete","object_type":"Area","style_id":"area.filled.region.runway.concrete","airport":"LFBE","geometry_role":"filled_region","vsmr_group_ids":[]},"geometry":{"type":"Polygon","coordinates":[[[0.5048625,44.8250825],[0.532661667,44.823577222],[0.532688889,44.8239775],[0.504895556,44.825475278],[0.5048625,44.8250825]]]}},{"type":"Feature","id":"lfbe.area.filled.region.runway.grass.56251","properties":{"name":"LFBE AVISO","layer":"Airfield surfaces","category":"Runway Grass","object_type":"Area","style_id":"area.filled.region.runway.grass","airport":"LFBE","geometry_role":"filled_region","vsmr_group_ids":[]},"geometry":{"type":"Polygon","coordinates":[[[0.508645,44.823981111],[0.51833,44.823453056],[0.518384722,44.823981111],[0.508698889,44.824508056],[0.508645,44.823981111]]]}},{"type":"Feature","id":"lfbe.area.filled.region.building.56256","properties":{"name":"LFBE AVISO","layer":"Airfield surfaces","category":"Building","object_type":"Area","style_id":"area.filled.region.building","airport":"LFBE","geometry_role":"filled_region","vsmr_group_ids":[]},"geometry":{"type":"Polygon","coordinates":[[[0.516388333,44.822263889],[0.516011667,44.822286389],[0.515987778,44.822109167],[0.516366667,44.822085278],[0.516388333,44.822263889]]]}},{"type":"Feature","id":"lfbe.area.filled.region.building.56261","properties":{"name":"LFBE AVISO","layer":"Airfield surfaces","category":"Building","object_type":"Area","style_id":"area.filled.region.building","airport":"LFBE","geometry_role":"filled_region","vsmr_group_ids":[]},"geometry":{"type":"Polygon","coordinates":[[[0.515833056,44.822278056],[0.515716667,44.822288333],[0.515711944,44.822186389],[0.515826667,44.822179444],[0.515833056,44.822278056]]]}},{"type":"Feature","id":"lfbe.area.filled.region.building.56266","properties":{"name":"LFBE AVISO","layer":"Airfield surfaces","category":"Building","object_type":"Area","style_id":"area.filled.region.building","airport":"LFBE","geometry_role":"filled_region","vsmr_group_ids":[]},"geometry":{"type":"Polygon","coordinates":[[[0.515676389,44.822303333],[0.515569444,44.822307778],[0.515564722,44.822224167],[0.515669722,44.822217222],[0.515676389,44.822303333]]]}},{"type":"Feature","id":"lfbe.area.filled.region.building.56271","properties":{"name":"LFBE AVISO","layer":"Airfield surfaces","category":"Building","object_type":"Area","style_id":"area.filled.region.building","airport":"LFBE","geometry_role":"filled_region","vsmr_group_ids":[]},"geometry":{"type":"Polygon","coordinates":[[[0.514700833,44.822298333],[0.514896944,44.822186944],[0.514919722,44.822203333],[0.515178611,44.822068056],[0.515311667,44.822206111],[0.515062222,44.82234],[0.515040556,44.822322778],[0.514841389,44.822425833],[0.514700833,44.822298333]]]}},{"type":"Feature","id":"lfbe.area.filled.region.building.56280","properties":{"name":"LFBE AVISO","layer":"Airfield surfaces","category":"Building","object_type":"Area","style_id":"area.filled.region.building","airport":"LFBE","geometry_role":"filled_region","vsmr_group_ids":[]},"geometry":{"type":"Polygon","coordinates":[[[0.51358,44.822284167],[0.514175833,44.822278333],[0.514181667,44.822404167],[0.5147975,44.822401389],[0.514805278,44.822507222],[0.514249444,44.822518611],[0.514251667,44.822590556],[0.513588056,44.822607778],[0.51358,44.822284167]]]}},{"type":"Feature","id":"lfbe.area.filled.region.building.56289","properties":{"name":"LFBE AVISO","layer":"Airfield surfaces","category":"Building","object_type":"Area","style_id":"area.filled.region.building","airport":"LFBE","geometry_role":"filled_region","vsmr_group_ids":[]},"geometry":{"type":"Polygon","coordinates":[[[0.512803889,44.822916944],[0.512996667,44.822926389],[0.512983611,44.822986389],[0.512796111,44.822973333],[0.512803889,44.822916944]]]}},{"type":"Feature","id":"lfbe.area.filled.region.building.56294","properties":{"name":"LFBE AVISO","layer":"Airfield surfaces","category":"Building","object_type":"Area","style_id":"area.filled.region.building","airport":"LFBE","geometry_role":"filled_region","vsmr_group_ids":[]},"geometry":{"type":"Polygon","coordinates":[[[0.513205556,44.822426111],[0.513421667,44.822425278],[0.513422222,44.822538611],[0.513202778,44.822536667],[0.513205556,44.822426111]]]}},{"type":"Feature","id":"lfbe.area.filled.region.building.56299","properties":{"name":"LFBE AVISO","layer":"Airfield surfaces","category":"Building","object_type":"Area","style_id":"area.filled.region.building","airport":"LFBE","geometry_role":"filled_region","vsmr_group_ids":[]},"geometry":{"type":"Polygon","coordinates":[[[0.511247222,44.8223725],[0.511033611,44.822356111],[0.511013889,44.822381389],[0.510853611,44.822373889],[0.510873333,44.822223611],[0.511334444,44.822254167],[0.511341667,44.822223611],[0.511676389,44.822240833],[0.511649167,44.822425278],[0.511241667,44.822401667],[0.511247222,44.8223725]]]}},{"type":"Feature","id":"lfbe.area.filled.region.building.56310","properties":{"name":"LFBE AVISO","layer":"Airfield surfaces","category":"Building","object_type":"Area","style_id":"area.filled.region.building","airport":"LFBE","geometry_role":"filled_region","vsmr_group_ids":[]},"geometry":{"type":"Polygon","coordinates":[[[0.511848611,44.8222225],[0.513117778,44.822309444],[0.513087222,44.822538056],[0.511818056,44.822454167],[0.511848611,44.8222225]]]}},{"type":"Feature","id":"lfbe.area.filled.region.stopbar.56315","properties":{"name":"LFBE AVISO","layer":"Airfield surfaces","category":"Stopbar","object_type":"Area","style_id":"area.filled.region.stopbar","airport":"LFBE","geometry_role":"filled_region","vsmr_group_ids":[]},"geometry":{"type":"Polygon","coordinates":[[[0.506731667,44.824011667],[0.506409167,44.824028889],[0.506406944,44.824007222],[0.506734444,44.823988889],[0.506731667,44.824011667]]]}},{"type":"Feature","id":"lfbe.area.filled.region.stopbar.56320","properties":{"name":"LFBE AVISO","layer":"Airfield surfaces","category":"Stopbar","object_type":"Area","style_id":"area.filled.region.stopbar","airport":"LFBE","geometry_role":"filled_region","vsmr_group_ids":[]},"geometry":{"type":"Polygon","coordinates":[[[0.512226389,44.823786111],[0.512104444,44.823793611],[0.512103333,44.823772222],[0.512223889,44.823764722],[0.512226389,44.823786111]]]}},{"type":"Feature","id":"lfbe.area.filled.region.stopbar.56325","properties":{"name":"LFBE AVISO","layer":"Airfield surfaces","category":"Stopbar","object_type":"Area","style_id":"area.filled.region.stopbar","airport":"LFBE","geometry_role":"filled_region","vsmr_group_ids":[]},"geometry":{"type":"Polygon","coordinates":[[[0.520231389,44.823242222],[0.520549722,44.823225278],[0.520554722,44.82325],[0.520238333,44.823265556],[0.520231389,44.823242222]]]}},{"type":"Feature","id":"LFBE-runway-09R-27L-4928","properties":{"name":"LFBE RWY 09R/27L","layer":"Runways","category":"Runway Markings","object_type":"Line","style_id":"line.runway.centerline.runway.markings","airport":"LFBE","geometry_role":"runway_centerline","vsmr_group_ids":[]},"geometry":{"type":"LineString","coordinates":[[0.508660833,44.824232778],[0.518366944,44.823710833]]}},{"type":"Feature","id":"LFBE-runway-09-27-4929","properties":{"name":"LFBE RWY 09/27","layer":"Runways","category":"Runway Markings","object_type":"Line","style_id":"line.runway.centerline.runway.markings","airport":"LFBE","geometry_role":"runway_centerline","vsmr_group_ids":[]},"geometry":{"type":"LineString","coordinates":[[0.507513889,44.825130833],[0.529577778,44.823941944]]}},{"type":"Feature","id":"lfbe.line.linework.taxiway.39802","properties":{"name":"LFBE Groundlayout AVISO","layer":"Ground linework","category":"Taxiway","object_type":"Line","style_id":"line.linework.taxiway","airport":"LFBE","geometry_role":"linework","vsmr_group_ids":[]},"geometry":{"type":"MultiLineString","coordinates":[[[0.51045,44.822936944],[0.510821944,44.823091944]],[[0.510263056,44.822832222],[0.510595833,44.822815]],[[0.510257222,44.822659722],[0.510625556,44.822634722]],[[0.511597778,44.822995278],[0.511265,44.823009722]],[[0.511455556,44.8228825],[0.511147222,44.823062778]],[[0.511629444,44.822828056],[0.511308056,44.822849444]],[[0.511616389,44.822673056],[0.511293056,44.822694167]],[[0.511606944,44.822580278],[0.5112875,44.8226]],[[0.511608889,44.8225325],[0.5112875,44.822548333]],[[0.512179167,44.822951389],[0.511956667,44.822830833]],[[0.512216667,44.822954167],[0.511962222,44.82297]],[[0.512184722,44.822816111],[0.511934167,44.822829444]],[[0.512141389,44.822721111],[0.511940556,44.822611389]],[[0.512281944,44.82266],[0.512299167,44.822530833]],[[0.512495556,44.822678333],[0.512514167,44.822542222]],[[0.512713333,44.822684444],[0.512729167,44.822559444]],[[0.512927222,44.822700833],[0.512944444,44.822571667]],[[0.514958056,44.822728889],[0.514580833,44.822748333]],[[0.515736667,44.822634167],[0.515381111,44.822844722]],[[0.516435,44.822556944],[0.516050833,44.822780833]],[[0.516677222,44.822553889],[0.516073611,44.822586389]],[[0.517116111,44.8222325],[0.516903889,44.822751111]]]}},{"type":"Feature","id":"LFBE-airport-reference","properties":{"name":"LFBE","layer":"Reference points","category":"Labels","object_type":"Point","style_id":"point.airport.reference.point.labels","airport":"LFBE","geometry_role":"airport_reference_point","text-field":"LFBE","vsmr_group_ids":[]},"geometry":{"type":"Point","coordinates":[0.520555833,44.824443889]}},{"type":"Feature","id":"LFBE-text-lfbb-21289","properties":{"name":"Terminal","layer":"Labels","category":"Labels","object_type":"Label","style_id":"label.text.label.labels","airport":"LFBE","geometry_role":"text_label","text-field":"Terminal","vsmr_group_ids":[]},"geometry":{"type":"Point","coordinates":[0.513647222,44.822494444]}},{"type":"Feature","id":"LFBE-text-lfbb-21290","properties":{"name":"TWR","layer":"Labels","category":"Labels","object_type":"Label","style_id":"label.text.label.labels","airport":"LFBE","geometry_role":"text_label","text-field":"TWR","vsmr_group_ids":[]},"geometry":{"type":"Point","coordinates":[0.514651111,44.822396111]}},{"type":"Feature","id":"LFBE-text-lfbb-21291","properties":{"name":"ACD","layer":"Labels","category":"Labels","object_type":"Label","style_id":"label.text.label.labels","airport":"LFBE","geometry_role":"text_label","text-field":"ACD","vsmr_group_ids":[]},"geometry":{"type":"Point","coordinates":[0.516083333,44.822225]}},{"type":"Feature","id":"LFBE-text-lfbb-21292","properties":{"name":"ACB","layer":"Labels","category":"Labels","object_type":"Label","style_id":"label.text.label.labels","airport":"LFBE","geometry_role":"text_label","text-field":"ACB","vsmr_group_ids":[]},"geometry":{"type":"Point","coordinates":[0.511926944,44.822330833]}},{"type":"Feature","id":"LFBE-text-lfbb-21293","properties":{"name":"RFFS","layer":"Labels","category":"Labels","object_type":"Label","style_id":"label.text.label.labels","airport":"LFBE","geometry_role":"text_label","text-field":"RFFS","vsmr_group_ids":[]},"geometry":{"type":"Point","coordinates":[0.511160278,44.822310278]}},{"type":"Feature","id":"LFBE-text-lfbb-21294","properties":{"name":"C1","layer":"Labels","category":"Labels","object_type":"Label","style_id":"label.text.label.labels","airport":"LFBE","geometry_role":"text_label","text-field":"C1","vsmr_group_ids":[]},"geometry":{"type":"Point","coordinates":[0.510472222,44.823013889]}},{"type":"Feature","id":"LFBE-text-lfbb-21295","properties":{"name":"C2","layer":"Labels","category":"Labels","object_type":"Label","style_id":"label.text.label.labels","airport":"LFBE","geometry_role":"text_label","text-field":"C2","vsmr_group_ids":[]},"geometry":{"type":"Point","coordinates":[0.5103,44.822866667]}},{"type":"Feature","id":"LFBE-text-lfbb-21296","properties":{"name":"C3","layer":"Labels","category":"Labels","object_type":"Label","style_id":"label.text.label.labels","airport":"LFBE","geometry_role":"text_label","text-field":"C3","vsmr_group_ids":[]},"geometry":{"type":"Point","coordinates":[0.510286111,44.822697222]}},{"type":"Feature","id":"LFBE-text-lfbb-21297","properties":{"name":"E1","layer":"Labels","category":"Labels","object_type":"Label","style_id":"label.text.label.labels","airport":"LFBE","geometry_role":"text_label","text-field":"E1","vsmr_group_ids":[]},"geometry":{"type":"Point","coordinates":[0.511458333,44.823027778]}},{"type":"Feature","id":"LFBE-text-lfbb-21298","properties":{"name":"E2","layer":"Labels","category":"Labels","object_type":"Label","style_id":"label.text.label.labels","airport":"LFBE","geometry_role":"text_label","text-field":"E2","vsmr_group_ids":[]},"geometry":{"type":"Point","coordinates":[0.511158333,44.822955556]}},{"type":"Feature","id":"LFBE-text-lfbb-21299","properties":{"name":"E3","layer":"Labels","category":"Labels","object_type":"Label","style_id":"label.text.label.labels","airport":"LFBE","geometry_role":"text_label","text-field":"E3","vsmr_group_ids":[]},"geometry":{"type":"Point","coordinates":[0.511527778,44.822863889]}},{"type":"Feature","id":"LFBE-text-lfbb-21300","properties":{"name":"E4","layer":"Labels","category":"Labels","object_type":"Label","style_id":"label.text.label.labels","airport":"LFBE","geometry_role":"text_label","text-field":"E4","vsmr_group_ids":[]},"geometry":{"type":"Point","coordinates":[0.511527778,44.822711111]}},{"type":"Feature","id":"LFBE-text-lfbb-21301","properties":{"name":"E5","layer":"Labels","category":"Labels","object_type":"Label","style_id":"label.text.label.labels","airport":"LFBE","geometry_role":"text_label","text-field":"E5","vsmr_group_ids":[]},"geometry":{"type":"Point","coordinates":[0.511427778,44.822608333]}},{"type":"Feature","id":"LFBE-text-lfbb-21302","properties":{"name":"E6","layer":"Labels","category":"Labels","object_type":"Label","style_id":"label.text.label.labels","airport":"LFBE","geometry_role":"text_label","text-field":"E6","vsmr_group_ids":[]},"geometry":{"type":"Point","coordinates":[0.511411111,44.8225]}},{"type":"Feature","id":"LFBE-text-lfbb-21303","properties":{"name":"G1","layer":"Labels","category":"Labels","object_type":"Label","style_id":"label.text.label.labels","airport":"LFBE","geometry_role":"text_label","text-field":"G1","vsmr_group_ids":[]},"geometry":{"type":"Point","coordinates":[0.511988889,44.822902778]}},{"type":"Feature","id":"LFBE-text-lfbb-21304","properties":{"name":"G2","layer":"Labels","category":"Labels","object_type":"Label","style_id":"label.text.label.labels","airport":"LFBE","geometry_role":"text_label","text-field":"G2","vsmr_group_ids":[]},"geometry":{"type":"Point","coordinates":[0.512072222,44.823002778]}},{"type":"Feature","id":"LFBE-text-lfbb-21305","properties":{"name":"G3","layer":"Labels","category":"Labels","object_type":"Label","style_id":"label.text.label.labels","airport":"LFBE","geometry_role":"text_label","text-field":"G3","vsmr_group_ids":[]},"geometry":{"type":"Point","coordinates":[0.512036111,44.822763889]}},{"type":"Feature","id":"LFBE-text-lfbb-21306","properties":{"name":"G4","layer":"Labels","category":"Labels","object_type":"Label","style_id":"label.text.label.labels","airport":"LFBE","geometry_role":"text_label","text-field":"G4","vsmr_group_ids":[]},"geometry":{"type":"Point","coordinates":[0.511930556,44.822644444]}},{"type":"Feature","id":"LFBE-text-lfbb-21307","properties":{"name":"G5","layer":"Labels","category":"Labels","object_type":"Label","style_id":"label.text.label.labels","airport":"LFBE","geometry_role":"text_label","text-field":"G5","vsmr_group_ids":[]},"geometry":{"type":"Point","coordinates":[0.512216667,44.822569444]}},{"type":"Feature","id":"LFBE-text-lfbb-21308","properties":{"name":"G6","layer":"Labels","category":"Labels","object_type":"Label","style_id":"label.text.label.labels","airport":"LFBE","geometry_role":"text_label","text-field":"G6","vsmr_group_ids":[]},"geometry":{"type":"Point","coordinates":[0.512419444,44.822608333]}},{"type":"Feature","id":"LFBE-text-lfbb-21309","properties":{"name":"G7","layer":"Labels","category":"Labels","object_type":"Label","style_id":"label.text.label.labels","airport":"LFBE","geometry_role":"text_label","text-field":"G7","vsmr_group_ids":[]},"geometry":{"type":"Point","coordinates":[0.512652778,44.822611111]}},{"type":"Feature","id":"LFBE-text-lfbb-21310","properties":{"name":"G8","layer":"Labels","category":"Labels","object_type":"Label","style_id":"label.text.label.labels","airport":"LFBE","geometry_role":"text_label","text-field":"G8","vsmr_group_ids":[]},"geometry":{"type":"Point","coordinates":[0.512872222,44.822627778]}},{"type":"Feature","id":"LFBE-text-lfbb-21311","properties":{"name":"Hangars","layer":"Labels","category":"Labels","object_type":"Label","style_id":"label.text.label.labels","airport":"LFBE","geometry_role":"text_label","text-field":"Hangars","vsmr_group_ids":[]},"geometry":{"type":"Point","coordinates":[0.512431667,44.822395]}},{"type":"Feature","id":"LFBE-text-lfbb-21312","properties":{"name":"D1","layer":"Labels","category":"Labels","object_type":"Label","style_id":"label.text.label.labels","airport":"LFBE","geometry_role":"text_label","text-field":"D1","vsmr_group_ids":[]},"geometry":{"type":"Point","coordinates":[0.514467778,44.822688611]}},{"type":"Feature","id":"LFBE-text-lfbb-21313","properties":{"name":"D2","layer":"Labels","category":"Labels","object_type":"Label","style_id":"label.text.label.labels","airport":"LFBE","geometry_role":"text_label","text-field":"D2","vsmr_group_ids":[]},"geometry":{"type":"Point","coordinates":[0.515302778,44.822861944]}},{"type":"Feature","id":"LFBE-text-lfbb-21314","properties":{"name":"D3","layer":"Labels","category":"Labels","object_type":"Label","style_id":"label.text.label.labels","airport":"LFBE","geometry_role":"text_label","text-field":"D3","vsmr_group_ids":[]},"geometry":{"type":"Point","coordinates":[0.516145,44.822559444]}},{"type":"Feature","id":"LFBE-text-lfbb-21315","properties":{"name":"D31","layer":"Labels","category":"Labels","object_type":"Label","style_id":"label.text.label.labels","airport":"LFBE","geometry_role":"text_label","text-field":"D31","vsmr_group_ids":[]},"geometry":{"type":"Point","coordinates":[0.516024444,44.822822222]}},{"type":"Feature","id":"LFBE-text-lfbb-21316","properties":{"name":"D4","layer":"Labels","category":"Labels","object_type":"Label","style_id":"label.text.label.labels","airport":"LFBE","geometry_role":"text_label","text-field":"D4","vsmr_group_ids":[]},"geometry":{"type":"Point","coordinates":[0.517145556,44.822753333]}},{"type":"Feature","id":"LFBE-text-lfbb-21318","properties":{"name":"NA","layer":"Labels","category":"Labels","object_type":"Label","style_id":"label.text.label.labels","airport":"LFBE","geometry_role":"text_label","text-field":"NA","vsmr_group_ids":[]},"geometry":{"type":"Point","coordinates":[0.548666667,44.875444444]}},{"type":"Feature","id":"LFBE-text-lfbb-21319","properties":{"name":"NE","layer":"Labels","category":"Labels","object_type":"Label","style_id":"label.text.label.labels","airport":"LFBE","geometry_role":"text_label","text-field":"NE","vsmr_group_ids":[]},"geometry":{"type":"Point","coordinates":[0.56075,44.919416667]}},{"type":"Feature","id":"LFBE-text-lfbb-21320","properties":{"name":"NW","layer":"Labels","category":"Labels","object_type":"Label","style_id":"label.text.label.labels","airport":"LFBE","geometry_role":"text_label","text-field":"NW","vsmr_group_ids":[]},"geometry":{"type":"Point","coordinates":[0.430361111,44.93125]}},{"type":"Feature","id":"LFBE-text-lfbb-21321","properties":{"name":"SA","layer":"Labels","category":"Labels","object_type":"Label","style_id":"label.text.label.labels","airport":"LFBE","geometry_role":"text_label","text-field":"SA","vsmr_group_ids":[]},"geometry":{"type":"Point","coordinates":[0.521861111,44.775194444]}},{"type":"Feature","id":"LFBE-text-lfbb-21322","properties":{"name":"SE","layer":"Labels","category":"Labels","object_type":"Label","style_id":"label.text.label.labels","airport":"LFBE","geometry_role":"text_label","text-field":"SE","vsmr_group_ids":[]},"geometry":{"type":"Point","coordinates":[0.607194444,44.730305556]}},{"type":"Feature","id":"LFBE-text-lfbb-21323","properties":{"name":"SW","layer":"Labels","category":"Labels","object_type":"Label","style_id":"label.text.label.labels","airport":"LFBE","geometry_role":"text_label","text-field":"SW","vsmr_group_ids":[]},"geometry":{"type":"Point","coordinates":[0.396416667,44.667694444]}},{"type":"Feature","id":"LFBE-text-lfbb-21325","properties":{"name":"A","layer":"Labels","category":"Labels","object_type":"Label","style_id":"label.text.label.labels","airport":"LFBE","geometry_role":"text_label","text-field":"A","vsmr_group_ids":[]},"geometry":{"type":"Point","coordinates":[0.506888333,44.8240225]}},{"type":"Feature","id":"LFBE-text-lfbb-21326","properties":{"name":"B","layer":"Labels","category":"Labels","object_type":"Label","style_id":"label.text.label.labels","airport":"LFBE","geometry_role":"text_label","text-field":"B","vsmr_group_ids":[]},"geometry":{"type":"Point","coordinates":[0.519901389,44.82328]}}]}
