{"type":"FeatureCollection","name":"LFBF AVISO","bbox":[1.355972222,43.538777778,1.379944444,43.54925],"metadata":{"schema":"vSMR AVISO","schema_version":2,"geometry_mode":"shared","airport":"LFBF","coordinate_reference_system":"WGS84","coordinate_order":"longitude, latitude","default_color_palette":"dark","color_palettes":["dark","light"],"background_colors":{"dark":"#434A4F","light":"#434A4F"},"feature_count":16,"style_count":5,"layer_counts":{"Guidance lines":3,"Labels":12,"Runways":1},"category_counts":{"Gates":12,"Landmark 3":1,"Runway centerlines":1,"Runways":1,"Taxiway Border":1},"runways":[{"ends":["11","29"],"headings":[113,293],"thresholds":[[1.357196944,43.549082778],[1.377402778,43.542268889]]}],"saved_active_runways":[],"saved_active_airport_modes":[],"geometry_source":"EuroScope sector pack","source_files":{"LFBB.sct":"fc92f16bc65e3a10b9aeb0cf4d1cae1add9856a4f4f2f653af5abaa0d98c77ed","LFBB.ese":"c7c252d4a274f6fd98bcefd2364b7bb9799385a6e602b62ccbe85cc32042ef62","LFBB.rwy":"d9387919da6406482f154f391ab2d20783610a60930f986e160686134ea8a7df","LFEE.sct":"10fcc997213ee24336ef8bd37f3a9423cb07bbdfb57b1494c61b8310b9641d8a","LFEE.ese":"3391dc3a47130a4a8c12ab895a6743c77668044183634bd45d425513ef5baa2f","LFFF.sct":"cb6698888ce3e8e8be34ea45922976a5fb3ebe1baef7814f040c91785f8641f2","LFFF.ese":"0c1e64c4a0524a6cdc30766699492d362f78011da36daeacfde4597a1761b64c","LFFF.rwy":"a12900bf1f18188caf2e598c44e55b2c0c6fb2c66cee43ff843cbe216617ae96","LFMM.sct":"fc0d266315a59cb027803be613657d9e9875a2a4b912535d08d1c7892a53b194","LFMM.ese":"6a319d7f7c1c2f7e457ae789f4aae2feafec03b24f5d3d95752e96922a971c9e","LFMM.rwy":"236563995d9b5be668ee3fc8d653cf8f33f20a511137652b197e5877b85d5693","LFRR.sct":"c5a55173543154d388eb65309d606b41ac5da09af59142e69878a4cde03add83","LFRR.ese":"e4542200e8322297f954327131cfe6e73da3ac264cf5610ff6871309cd6eeb40"},"airport_reference":[1.357221944,43.549166944]},"styles":{"line.taxiwayborder.0000ff":{"name":"Taxiway Border","layer":"Guidance lines","object_type":"Line","paint":{"stroke":"#0000FF","stroke-opacity":1,"stroke-width":1,"palette-overrides":{"light":{"stroke":"#0000FF"}}},"feature_count":1},"line.runwayconcrete.555555":{"name":"Runways","layer":"Guidance lines","object_type":"Line","paint":{"stroke":"#111318","stroke-opacity":1,"stroke-width":1,"palette-overrides":{"light":{"stroke":"#555555"}}},"feature_count":1},"line.landmark3.7e7e7e":{"name":"Landmark 3","layer":"Guidance lines","object_type":"Line","paint":{"stroke":"#7E7E7E","stroke-opacity":1,"stroke-width":1,"palette-overrides":{"light":{"stroke":"#7E7E7E"}}},"feature_count":1},"label.gates":{"name":"Gates","layer":"Labels","object_type":"Label","paint":{"text-color":"#CCCCCC","text-font":"Arial","text-size":12,"text-halo-color":"#000000","text-halo-width":1,"text-anchor":"center","zoomLevel":9},"feature_count":12},"runway.reference":{"name":"Runway centerlines","layer":"Runways","object_type":"Line","paint":{"stroke":"#CCCCCC","stroke-width":2,"stroke-opacity":1},"feature_count":1}},"vsmr_groups":[{"id":"stands-and-gates","name":"Stands & gates","visible":true,"accent":"#d4bd39"}],"features":[{"type":"Feature","id":"LFBF-ebed43e5eaae15b9226b","properties":{"airport":"LFBF","name":"LFBF Groundlayout Toulouse Francazal","layer":"Guidance lines","category":"Taxiway Border","object_type":"Line","style_id":"line.taxiwayborder.0000ff","source_group":"LFBF Groundlayout Toulouse Francazal","vsmr_group_ids":[],"geometry_role":"linework"},"geometry":{"type":"MultiLineString","coordinates":[[[1.360444444,43.545472222],[1.360416667,43.542194444]],[[1.36,43.545638889],[1.359972222,43.541944444]],[[1.360416667,43.542194444],[1.361611111,43.542]],[[1.359972222,43.541944444],[1.361333333,43.541722222]],[[1.361611111,43.542],[1.36325,43.54175]],[[1.361722222,43.541666667],[1.362972222,43.541444444]],[[1.36325,43.54175],[1.364888889,43.541472222]],[[1.363333333,43.541388889],[1.364611111,43.541194444]],[[1.364888889,43.541472222],[1.366472222,43.541222222]],[[1.364972222,43.541138889],[1.366194444,43.540944444]],[[1.366472222,43.541222222],[1.367861111,43.541]],[[1.366555556,43.540888889],[1.367583333,43.540722222]],[[1.367861111,43.541],[1.369472222,43.54075]],[[1.367944444,43.540666667],[1.369222222,43.540472222]],[[1.369472222,43.54075],[1.370111111,43.540638889]],[[1.369583333,43.540416667],[1.370277778,43.540305556]],[[1.370111111,43.540638889],[1.371611111,43.541722222]],[[1.370277778,43.540305556],[1.372055556,43.541583333]],[[1.357583333,43.548722222],[1.357388889,43.548416667]],[[1.357194444,43.548861111],[1.357,43.548555556]],[[1.357388889,43.548416667],[1.356583333,43.547138889]],[[1.357,43.548555556],[1.355972222,43.547]],[[1.356583333,43.547138889],[1.360111111,43.545944444]],[[1.355972222,43.547],[1.36,43.545638889]],[[1.360527778,43.545833333],[1.371888889,43.542]],[[1.360444444,43.545472222],[1.371611111,43.541722222]],[[1.372305556,43.541861111],[1.375805556,43.540694444]],[[1.372055556,43.541583333],[1.376027778,43.54025]],[[1.375805556,43.540694444],[1.376555556,43.541972222]],[[1.376027778,43.54025],[1.376972222,43.541833333]],[[1.376555556,43.541972222],[1.37675,43.542277778]],[[1.376972222,43.541833333],[1.377138889,43.542138889]],[[1.371888889,43.542],[1.372694444,43.543277778]],[[1.372305556,43.541861111],[1.373111111,43.543138889]],[[1.372694444,43.543277778],[1.372888889,43.543583333]],[[1.373111111,43.543138889],[1.373277778,43.543444444]],[[1.360111111,43.545944444],[1.360861111,43.54725]],[[1.360527778,43.545833333],[1.361277778,43.547111111]],[[1.360861111,43.54725],[1.361055556,43.547555556]],[[1.361277778,43.547111111],[1.361444444,43.547416667]],[[1.376972222,43.542638889],[1.377138889,43.542944444]],[[1.377361111,43.5425],[1.377555556,43.542805556]],[[1.377138889,43.542944444],[1.379027778,43.546166667]],[[1.377555556,43.542805556],[1.379444444,43.546055556]],[[1.379027778,43.546166667],[1.379444444,43.546055556]],[[1.361722222,43.541666667],[1.361611111,43.54125]],[[1.361333333,43.541722222],[1.36125,43.541305556]],[[1.361611111,43.54125],[1.361527778,43.540944444]],[[1.36125,43.541305556],[1.361166667,43.541]],[[1.361527778,43.540944444],[1.361444444,43.540666667]],[[1.361166667,43.541],[1.361083333,43.540722222]],[[1.361444444,43.540666667],[1.361361111,43.540361111]],[[1.361083333,43.540722222],[1.361,43.540416667]],[[1.361361111,43.540361111],[1.361,43.540416667]],[[1.365861111,43.539694444],[1.366027778,43.540277778]],[[1.366222222,43.539638889],[1.366388889,43.54025]],[[1.365861111,43.539694444],[1.366222222,43.539638889]],[[1.366027778,43.540277778],[1.366194444,43.540944444]],[[1.366388889,43.54025],[1.366555556,43.540888889]],[[1.369027778,43.539861111],[1.369222222,43.540472222]],[[1.369416667,43.539805556],[1.369583333,43.540416667]],[[1.369027778,43.539861111],[1.369416667,43.539805556]],[[1.367388889,43.540083333],[1.367583333,43.540722222]],[[1.36775,43.540027778],[1.367944444,43.540666667]],[[1.367388889,43.540083333],[1.36775,43.540027778]],[[1.362583333,43.540166667],[1.362694444,43.540472222]],[[1.362972222,43.540111111],[1.363055556,43.540416667]],[[1.362583333,43.540166667],[1.362972222,43.540111111]],[[1.362694444,43.540472222],[1.362777778,43.54075]],[[1.363055556,43.540416667],[1.363138889,43.540694444]],[[1.362777778,43.54075],[1.362861111,43.541055556]],[[1.363138889,43.540694444],[1.363222222,43.541]],[[1.362861111,43.541055556],[1.362972222,43.541444444]],[[1.363222222,43.541],[1.363333333,43.541388889]],[[1.36425,43.539944444],[1.364333333,43.54025]],[[1.364611111,43.539888889],[1.364694444,43.540194444]],[[1.36425,43.539944444],[1.364611111,43.539888889]],[[1.364333333,43.54025],[1.364416667,43.540527778]],[[1.364694444,43.540194444],[1.364777778,43.540472222]],[[1.364416667,43.540527778],[1.3645,43.540833333]],[[1.364777778,43.540472222],[1.364861111,43.540777778]],[[1.3645,43.540833333],[1.364611111,43.541194444]],[[1.364861111,43.540777778],[1.364972222,43.541138889]]]}},{"type":"Feature","id":"LFBF-51e292cbb1d4283cd040","properties":{"airport":"LFBF","name":"LFBF Groundlayout Toulouse Francazal","layer":"Guidance lines","category":"Runways","object_type":"Line","style_id":"line.runwayconcrete.555555","source_group":"LFBF Groundlayout Toulouse Francazal","vsmr_group_ids":[],"geometry_role":"linework"},"geometry":{"type":"MultiLineString","coordinates":[[[1.377277778,43.542083333],[1.377138889,43.542138889]],[[1.377527778,43.542472222],[1.377361111,43.5425]],[[1.377277778,43.542083333],[1.377527778,43.542472222]],[[1.37675,43.542277778],[1.373277778,43.543444444]],[[1.376972222,43.542638889],[1.373305556,43.543888889]],[[1.372888889,43.543583333],[1.361444444,43.547416667]],[[1.373305556,43.543888889],[1.361472222,43.547861111]],[[1.361055556,43.547555556],[1.357583333,43.548722222]],[[1.361472222,43.547861111],[1.357611111,43.549138889]],[[1.357194444,43.548861111],[1.357083333,43.548888889]],[[1.357638889,43.549138889],[1.357333333,43.54925]],[[1.357083333,43.548888889],[1.357333333,43.54925]],[[1.371527778,43.542666667],[1.36125,43.546138889]],[[1.371916667,43.543277778],[1.361638889,43.54675]],[[1.371527778,43.542666667],[1.371916667,43.543277778]],[[1.36125,43.546138889],[1.361638889,43.54675]]]}},{"type":"Feature","id":"LFBF-18db5e98d253110b7659","properties":{"airport":"LFBF","name":"LFBF Groundlayout Toulouse Francazal","layer":"Guidance lines","category":"Landmark 3","object_type":"Line","style_id":"line.landmark3.7e7e7e","source_group":"LFBF Groundlayout Toulouse Francazal","vsmr_group_ids":[],"geometry_role":"linework"},"geometry":{"type":"MultiLineString","coordinates":[[[1.360083333,43.542166667],[1.359611111,43.540222222],[1.369805556,43.538777778],[1.370305556,43.540527778]],[[1.360083333,43.542166667],[1.370305556,43.540527778]],[[1.359472222,43.546083333],[1.360555556,43.546333333],[1.360861111,43.5455]],[[1.359472222,43.546083333],[1.360861111,43.5455]],[[1.371333333,43.542027778],[1.372305556,43.542333333],[1.37275,43.5415]],[[1.371333333,43.542027778],[1.37275,43.5415]],[[1.375305556,43.540666667],[1.376361111,43.541055556],[1.376,43.540388889]],[[1.375305556,43.540666667],[1.376,43.540388889]],[[1.376638889,43.541833333],[1.377194444,43.542888889],[1.375833333,43.542888889]],[[1.376638889,43.541833333],[1.375833333,43.542888889]],[[1.372333333,43.543805556],[1.372833333,43.54325],[1.373944444,43.543305556]],[[1.372333333,43.543805556],[1.373944444,43.543305556]],[[1.3605,43.547805556],[1.361055556,43.54725],[1.362305556,43.547277778]],[[1.3605,43.547805556],[1.362305556,43.547277778]],[[1.356833333,43.548222222],[1.358194444,43.548638889],[1.357333333,43.548944444]],[[1.356833333,43.548222222],[1.357333333,43.548944444]],[[1.379944444,43.546916667],[1.379361111,43.545916667],[1.376944444,43.54675],[1.377583333,43.547694444],[1.377666667,43.547666667],[1.377777778,43.547694444],[1.378194444,43.547555556],[1.378222222,43.5475],[1.378555556,43.547388889],[1.378694444,43.547388889],[1.379027778,43.547277778],[1.379055556,43.547222222],[1.379416667,43.547083333],[1.379527778,43.547111111],[1.379805556,43.547027778],[1.379861111,43.546944444]],[[1.379944444,43.546916667],[1.379861111,43.546944444]]]}},{"type":"Feature","id":"LFBF-95f7aaf616b7d95a589a","properties":{"airport":"LFBF","name":"533","layer":"Labels","category":"Gates","object_type":"Label","style_id":"label.gates","source_group":"LFBF Gates","vsmr_group_ids":["stands-and-gates"],"geometry_role":"text_label","text-field":"533"},"geometry":{"type":"Point","coordinates":[1.362166667,43.54025]}},{"type":"Feature","id":"LFBF-a79e211f9e9f67d0315e","properties":{"airport":"LFBF","name":"523","layer":"Labels","category":"Gates","object_type":"Label","style_id":"label.gates","source_group":"LFBF Gates","vsmr_group_ids":["stands-and-gates"],"geometry_role":"text_label","text-field":"523"},"geometry":{"type":"Point","coordinates":[1.363583333,43.540027778]}},{"type":"Feature","id":"LFBF-024b990853780c44eee8","properties":{"airport":"LFBF","name":"512","layer":"Labels","category":"Gates","object_type":"Label","style_id":"label.gates","source_group":"LFBF Gates","vsmr_group_ids":["stands-and-gates"],"geometry_role":"text_label","text-field":"512"},"geometry":{"type":"Point","coordinates":[1.365416667,43.539777778]}},{"type":"Feature","id":"LFBF-d53e17ba28272f2186d2","properties":{"airport":"LFBF","name":"532","layer":"Labels","category":"Gates","object_type":"Label","style_id":"label.gates","source_group":"LFBF Gates","vsmr_group_ids":["stands-and-gates"],"geometry_role":"text_label","text-field":"532"},"geometry":{"type":"Point","coordinates":[1.36225,43.540555556]}},{"type":"Feature","id":"LFBF-b1eec0c960b104f79117","properties":{"airport":"LFBF","name":"522","layer":"Labels","category":"Gates","object_type":"Label","style_id":"label.gates","source_group":"LFBF Gates","vsmr_group_ids":["stands-and-gates"],"geometry_role":"text_label","text-field":"522"},"geometry":{"type":"Point","coordinates":[1.363638889,43.540333333]}},{"type":"Feature","id":"LFBF-72ec9bf61234df7730ad","properties":{"airport":"LFBF","name":"531","layer":"Labels","category":"Gates","object_type":"Label","style_id":"label.gates","source_group":"LFBF Gates","vsmr_group_ids":["stands-and-gates"],"geometry_role":"text_label","text-field":"531"},"geometry":{"type":"Point","coordinates":[1.362333333,43.540833333]}},{"type":"Feature","id":"LFBF-5871d4d302f5a00a26a6","properties":{"airport":"LFBF","name":"521","layer":"Labels","category":"Gates","object_type":"Label","style_id":"label.gates","source_group":"LFBF Gates","vsmr_group_ids":["stands-and-gates"],"geometry_role":"text_label","text-field":"521"},"geometry":{"type":"Point","coordinates":[1.363722222,43.540611111]}},{"type":"Feature","id":"LFBF-879330e924af94fe2b99","properties":{"airport":"LFBF","name":"510","layer":"Labels","category":"Gates","object_type":"Label","style_id":"label.gates","source_group":"LFBF Gates","vsmr_group_ids":["stands-and-gates"],"geometry_role":"text_label","text-field":"510"},"geometry":{"type":"Point","coordinates":[1.365555556,43.540361111]}},{"type":"Feature","id":"LFBF-151522ead8c75080b349","properties":{"airport":"LFBF","name":"501","layer":"Labels","category":"Gates","object_type":"Label","style_id":"label.gates","source_group":"LFBF Gates","vsmr_group_ids":["stands-and-gates"],"geometry_role":"text_label","text-field":"501"},"geometry":{"type":"Point","coordinates":[1.367,43.540166667]}},{"type":"Feature","id":"LFBF-707c70f2cefbe34ceb2b","properties":{"airport":"LFBF","name":"500","layer":"Labels","category":"Gates","object_type":"Label","style_id":"label.gates","source_group":"LFBF Gates","vsmr_group_ids":["stands-and-gates"],"geometry_role":"text_label","text-field":"500"},"geometry":{"type":"Point","coordinates":[1.368388889,43.539944444]}},{"type":"Feature","id":"LFBF-d0c9ab1be3212b4bc18e","properties":{"airport":"LFBF","name":"530","layer":"Labels","category":"Gates","object_type":"Label","style_id":"label.gates","source_group":"LFBF Gates","vsmr_group_ids":["stands-and-gates"],"geometry_role":"text_label","text-field":"530"},"geometry":{"type":"Point","coordinates":[1.362388889,43.541138889]}},{"type":"Feature","id":"LFBF-2f8833cbe4d8b45947c7","properties":{"airport":"LFBF","name":"520","layer":"Labels","category":"Gates","object_type":"Label","style_id":"label.gates","source_group":"LFBF Gates","vsmr_group_ids":["stands-and-gates"],"geometry_role":"text_label","text-field":"520"},"geometry":{"type":"Point","coordinates":[1.363805556,43.540944444]}},{"type":"Feature","id":"LFBF-c1392dbfa970d22d172f","properties":{"airport":"LFBF","name":"11/29","layer":"Runways","category":"Runway centerlines","object_type":"Line","style_id":"runway.reference","source_group":"LFBF Runways","vsmr_group_ids":[],"geometry_role":"runway_centerline"},"geometry":{"type":"LineString","coordinates":[[1.357196944,43.549082778],[1.377402778,43.542268889]]}}]}
