{"type":"FeatureCollection","name":"LFBI AVISO","bbox":[0.14722,46.5111,1.684850556,46.8724125],"metadata":{"schema":"vSMR AVISO","schema_version":2,"airport":"LFBI","coordinate_reference_system":"WGS84","coordinate_order":"longitude, latitude","feature_count":25,"style_count":6,"layer_counts":{"Ground linework":5,"Labels":16,"Reference points":1,"Runways":3},"category_counts":{"Apron Surface":1,"Labels":17,"Runway Concrete":2,"Runway Markings":3,"Taxiway":2}},"styles":{"label.text.label.labels":{"name":"Labels","layer":"Labels","object_type":"Label","paint":{"text-anchor":"center","text-color":"#CCCCCC","text-halo-color":"#000000","text-halo-width":1,"text-size":12},"feature_count":16},"line.linework.apron.surface":{"name":"Apron Surface","layer":"Ground linework","object_type":"Line","paint":{"stroke":"#808080","stroke-opacity":1.0,"stroke-width":1.5},"feature_count":1},"line.linework.runway.concrete":{"name":"Runway Concrete","layer":"Ground linework","object_type":"Line","paint":{"stroke":"#111318","stroke-opacity":1.0,"stroke-width":1.5},"feature_count":2},"line.linework.taxiway":{"name":"Taxiway","layer":"Ground linework","object_type":"Line","paint":{"stroke":"#4E5A69","stroke-opacity":1.0,"stroke-width":1.5},"feature_count":2},"line.runway.centerline.runway.markings":{"name":"Runway Markings","layer":"Runways","object_type":"Line","paint":{"stroke":"#FEFEFE","stroke-opacity":1.0,"stroke-width":1.5},"feature_count":3},"point.airport.reference.point.labels":{"name":"Labels","layer":"Reference points","object_type":"Point","paint":{"marker-color":"#808080","marker-size":"small"},"feature_count":1}},"features":[{"type":"Feature","id":"LFBI-runway-03R-21L-4921","properties":{"name":"LFBI RWY 03R/21L","layer":"Runways","category":"Runway Markings","object_type":"Line","style_id":"line.runway.centerline.runway.markings","airport":"LFBI","geometry_role":"runway_centerline","vsmr_group_ids":[[]]},"geometry":{"type":"LineString","coordinates":[[0.304027778,46.581563889],[0.307046944,46.585088889]]}},{"type":"Feature","id":"LFBI-runway-03L-21R-4922","properties":{"name":"LFBI RWY 03L/21R","layer":"Runways","category":"Runway Markings","object_type":"Line","style_id":"line.runway.centerline.runway.markings","airport":"LFBI","geometry_role":"runway_centerline","vsmr_group_ids":[[]]},"geometry":{"type":"LineString","coordinates":[[0.300302778,46.582482778],[0.308857778,46.592466944]]}},{"type":"Feature","id":"LFBI-runway-03-21-4923","properties":{"name":"LFBI RWY 03/21","layer":"Runways","category":"Runway Markings","object_type":"Line","style_id":"line.runway.centerline.runway.markings","airport":"LFBI","geometry_role":"runway_centerline","vsmr_group_ids":[[]]},"geometry":{"type":"LineString","coordinates":[[0.300116944,46.579618889],[0.315760833,46.597857778]]}},{"type":"Feature","id":"lfbi.line.linework.taxiway.40453","properties":{"name":"LFBI Groundlayout Poitiers","layer":"Ground linework","category":"Taxiway","object_type":"Line","style_id":"line.linework.taxiway","airport":"LFBI","geometry_role":"linework","vsmr_group_ids":[[]]},"geometry":{"type":"MultiLineString","coordinates":[[[0.310472222,46.587083333],[0.310166667,46.586694444]],[[0.310138889,46.587222222],[0.309805556,46.586833333]],[[0.310472222,46.587083333],[0.310138889,46.587222222]],[[0.310166667,46.586694444],[0.309722222,46.586194444]],[[0.309805556,46.586833333],[0.309388889,46.586333333]],[[0.309722222,46.586194444],[0.309611111,46.586083333]],[[0.309388889,46.586333333],[0.309333333,46.586277778]]]}},{"type":"Feature","id":"lfbi.line.linework.runway.concrete.40460","properties":{"name":"LFBI Groundlayout Poitiers","layer":"Ground linework","category":"Runway Concrete","object_type":"Line","style_id":"line.linework.runway.concrete","airport":"LFBI","geometry_role":"linework","vsmr_group_ids":[[]]},"geometry":{"type":"MultiLineString","coordinates":[[[0.307916667,46.589916667],[0.305888889,46.587694444]],[[0.30725,46.590222222],[0.305222222,46.587972222]],[[0.307916667,46.589916667],[0.30725,46.590222222]],[[0.305666667,46.587472222],[0.300527778,46.581805556]],[[0.305,46.58775],[0.299861111,46.582083333]],[[0.300527778,46.581805556],[0.299861111,46.582083333]],[[0.316,46.59775],[0.309666667,46.590361111]],[[0.3155,46.597944444],[0.30925,46.590666667]],[[0.316,46.59775],[0.3155,46.597944444]],[[0.309666667,46.590361111],[0.307,46.58725]],[[0.309055556,46.590444444],[0.3065,46.587444444]],[[0.306805556,46.587],[0.299972222,46.579055556]],[[0.306305556,46.587222222],[0.299472222,46.579277778]],[[0.299972222,46.579055556],[0.299472222,46.579277778]]]}},{"type":"Feature","id":"lfbi.line.linework.taxiway.40474","properties":{"name":"LFBI Groundlayout Poitiers","layer":"Ground linework","category":"Taxiway","object_type":"Line","style_id":"line.linework.taxiway","airport":"LFBI","geometry_role":"linework","vsmr_group_ids":[[]]},"geometry":{"type":"MultiLineString","coordinates":[[[0.309055556,46.590444444],[0.308722222,46.590583333]],[[0.30925,46.590666667],[0.308916667,46.590805556]],[[0.308722222,46.590583333],[0.306277778,46.591583333]],[[0.308916667,46.590805556],[0.306472222,46.591805556]],[[0.306277778,46.591583333],[0.306472222,46.591805556]],[[0.308305556,46.585777778],[0.308638889,46.585638889]],[[0.308111111,46.585555556],[0.308444444,46.585416667]],[[0.308638889,46.585638889],[0.308888889,46.585555556]],[[0.308444444,46.585416667],[0.308555556,46.585361111]],[[0.308888889,46.585555556],[0.30925,46.585527778]],[[0.308944444,46.585277778],[0.309194444,46.585277778]],[[0.303666667,46.580694444],[0.304,46.580555556]],[[0.303472222,46.580444444],[0.303805556,46.580305556]],[[0.304,46.580555556],[0.304305556,46.580416667]],[[0.303805556,46.580305556],[0.304444444,46.580055556]],[[0.304305556,46.580416667],[0.308555556,46.585361111]],[[0.304444444,46.580055556],[0.308944444,46.585277778]],[[0.309222222,46.586027778],[0.307138889,46.586861111]],[[0.309333333,46.586277778],[0.307333333,46.587111111]],[[0.307138889,46.586861111],[0.306805556,46.587]],[[0.307333333,46.587111111],[0.307,46.58725]],[[0.306305556,46.587222222],[0.306027778,46.587333333]],[[0.3065,46.587444444],[0.306222222,46.587555556]],[[0.306027778,46.587333333],[0.305944444,46.587361111]],[[0.306222222,46.587555556],[0.306166667,46.587583333]],[[0.305944444,46.587361111],[0.305666667,46.587472222]],[[0.306166667,46.587583333],[0.305888889,46.587694444]],[[0.305,46.58775],[0.304666667,46.587888889]],[[0.305222222,46.587972222],[0.304888889,46.588111111]],[[0.304666667,46.587888889],[0.304083333,46.588138889]],[[0.304888889,46.588111111],[0.304305556,46.588361111]],[[0.304083333,46.588138889],[0.304305556,46.588361111]],[[0.309611111,46.586083333],[0.309666667,46.585361111]],[[0.309222222,46.586027778],[0.30925,46.585527778]],[[0.309666667,46.585361111],[0.309416667,46.584861111]],[[0.309194444,46.585277778],[0.309,46.584861111]],[[0.309416667,46.584861111],[0.30975,46.584166667]],[[0.309,46.584861111],[0.3095,46.583833333]],[[0.309944444,46.583944444],[0.3095,46.583833333]],[[0.309833333,46.584194444],[0.30975,46.584166667]],[[0.309944444,46.583944444],[0.309833333,46.584194444]]]}},{"type":"Feature","id":"lfbi.line.linework.runway.concrete.40515","properties":{"name":"LFBI Groundlayout Poitiers","layer":"Ground linework","category":"Runway Concrete","object_type":"Line","style_id":"line.linework.runway.concrete","airport":"LFBI","geometry_role":"linework","vsmr_group_ids":[[]]},"geometry":{"type":"MultiLineString","coordinates":[[[0.308305556,46.585777778],[0.308305556,46.585777778]],[[0.307222222,46.58625],[0.307083333,46.586111111]],[[0.308305556,46.585777778],[0.307222222,46.58625]],[[0.308111111,46.585555556],[0.303666667,46.580694444]],[[0.307083333,46.586111111],[0.302472222,46.581027778]],[[0.303472222,46.580444444],[0.303472222,46.580444444]],[[0.302444444,46.581027778],[0.302361111,46.580916667]],[[0.303472222,46.580444444],[0.302361111,46.580916667]]]}},{"type":"Feature","id":"lfbi.line.linework.apron.surface.40523","properties":{"name":"LFBI Groundlayout Poitiers","layer":"Ground linework","category":"Apron Surface","object_type":"Line","style_id":"line.linework.apron.surface","airport":"LFBI","geometry_role":"linework","vsmr_group_ids":[[]]},"geometry":{"type":"MultiLineString","coordinates":[[[0.308972222,46.584861111],[0.309666667,46.583833333]],[[0.309666667,46.583833333],[0.309694444,46.58375]],[[0.309694444,46.58375],[0.309694444,46.583694444]],[[0.309694444,46.583694444],[0.309666667,46.583638889]],[[0.309666667,46.583638889],[0.309527778,46.5835]],[[0.309527778,46.5835],[0.309527778,46.583416667]],[[0.309527778,46.583416667],[0.309583333,46.583361111]],[[0.309583333,46.583361111],[0.309638889,46.583333333]],[[0.309638889,46.583333333],[0.309722222,46.583305556]],[[0.309722222,46.583305556],[0.309777778,46.583305556]],[[0.309777778,46.583305556],[0.309833333,46.583333333]],[[0.309833333,46.583333333],[0.310138889,46.583555556]],[[0.310138889,46.583555556],[0.310305556,46.583944444]],[[0.310305556,46.583944444],[0.310277778,46.583972222]],[[0.310277778,46.583972222],[0.31025,46.584]],[[0.31025,46.584],[0.310166667,46.584]],[[0.310166667,46.584],[0.310055556,46.583944444]],[[0.310055556,46.583944444],[0.309416667,46.584833333]],[[0.309416667,46.584833333],[0.310833333,46.586416667]],[[0.310833333,46.586416667],[0.311027778,46.586333333]],[[0.311027778,46.586333333],[0.311666667,46.587111111]],[[0.311666667,46.587111111],[0.310666667,46.587472222]],[[0.310666667,46.587472222],[0.310638889,46.5875]],[[0.310638889,46.5875],[0.310638889,46.587527778]],[[0.310638889,46.587527778],[0.31075,46.587694444]],[[0.31075,46.587694444],[0.310611111,46.587722222]],[[0.310611111,46.587722222],[0.309083333,46.586]],[[0.309083333,46.586],[0.309222222,46.585333333]],[[0.308972222,46.584861111],[0.309222222,46.585333333]],[[0.306194444,46.586611111],[0.307472222,46.586861111]],[[0.307472222,46.586861111],[0.307194444,46.587722222]],[[0.306194444,46.586611111],[0.307194444,46.587722222]],[[0.301,46.580416667],[0.300305556,46.579555556]],[[0.300305556,46.579555556],[0.300833333,46.579361111]],[[0.300833333,46.579361111],[0.301027778,46.579416667]],[[0.301027778,46.579416667],[0.301138889,46.579527778]],[[0.301138889,46.579527778],[0.301222222,46.579666667]],[[0.301222222,46.579666667],[0.301222222,46.579805556]],[[0.301,46.580416667],[0.301222222,46.579805556]],[[0.308722222,46.590722222],[0.308972222,46.590055556]],[[0.308972222,46.590055556],[0.309638889,46.590888889]],[[0.308722222,46.590722222],[0.309638889,46.590888889]],[[0.316333333,46.597611111],[0.315944444,46.59775]],[[0.315944444,46.59775],[0.315416667,46.597111111]],[[0.315416667,46.597111111],[0.316083333,46.597305556]],[[0.316083333,46.597305556],[0.316222222,46.597361111]],[[0.316222222,46.597361111],[0.316333333,46.597444444]],[[0.316333333,46.597611111],[0.316333333,46.597444444]]]}},{"type":"Feature","id":"LFBI-airport-reference","properties":{"name":"LFBI","layer":"Reference points","category":"Labels","object_type":"Point","style_id":"point.airport.reference.point.labels","airport":"LFBI","geometry_role":"airport_reference_point","text-field":"LFBI","vsmr_group_ids":[[]]},"geometry":{"type":"Point","coordinates":[0.306666944,46.587499722]}},{"type":"Feature","id":"LFBI-text-lfbb-21422","properties":{"name":"1","layer":"Labels","category":"Labels","object_type":"Label","style_id":"label.text.label.labels","airport":"LFBI","geometry_role":"text_label","text-field":"1","vsmr_group_ids":[[]]},"geometry":{"type":"Point","coordinates":[0.310916667,46.586916667]}},{"type":"Feature","id":"LFBI-text-lfbb-21423","properties":{"name":"2","layer":"Labels","category":"Labels","object_type":"Label","style_id":"label.text.label.labels","airport":"LFBI","geometry_role":"text_label","text-field":"2","vsmr_group_ids":[[]]},"geometry":{"type":"Point","coordinates":[0.310611111,46.586555556]}},{"type":"Feature","id":"LFBI-text-lfbb-21424","properties":{"name":"3","layer":"Labels","category":"Labels","object_type":"Label","style_id":"label.text.label.labels","airport":"LFBI","geometry_role":"text_label","text-field":"3","vsmr_group_ids":[[]]},"geometry":{"type":"Point","coordinates":[0.31025,46.586]}},{"type":"Feature","id":"LFBI-text-lfbb-21425","properties":{"name":"4","layer":"Labels","category":"Labels","object_type":"Label","style_id":"label.text.label.labels","airport":"LFBI","geometry_role":"text_label","text-field":"4","vsmr_group_ids":[[]]},"geometry":{"type":"Point","coordinates":[0.310027778,46.58575]}},{"type":"Feature","id":"LFBI-text-lfbb-21426","properties":{"name":"5","layer":"Labels","category":"Labels","object_type":"Label","style_id":"label.text.label.labels","airport":"LFBI","geometry_role":"text_label","text-field":"5","vsmr_group_ids":[[]]},"geometry":{"type":"Point","coordinates":[0.309805556,46.58375]}},{"type":"Feature","id":"LFBI-text-lfbb-21427","properties":{"name":"6","layer":"Labels","category":"Labels","object_type":"Label","style_id":"label.text.label.labels","airport":"LFBI","geometry_role":"text_label","text-field":"6","vsmr_group_ids":[[]]},"geometry":{"type":"Point","coordinates":[0.310055556,46.583833333]}},{"type":"Feature","id":"LFBI-text-lfbb-21429","properties":{"name":"SW","layer":"Labels","category":"Labels","object_type":"Label","style_id":"label.text.label.labels","airport":"LFBI","geometry_role":"text_label","text-field":"SW","vsmr_group_ids":[[]]},"geometry":{"type":"Point","coordinates":[0.14722,46.5111]}},{"type":"Feature","id":"LFBI-text-lfbb-21430","properties":{"name":"EA","layer":"Labels","category":"Labels","object_type":"Label","style_id":"label.text.label.labels","airport":"LFBI","geometry_role":"text_label","text-field":"EA","vsmr_group_ids":[[]]},"geometry":{"type":"Point","coordinates":[0.39444,46.5917]}},{"type":"Feature","id":"LFBI-text-lfbb-21431","properties":{"name":"N","layer":"Labels","category":"Labels","object_type":"Label","style_id":"label.text.label.labels","airport":"LFBI","geometry_role":"text_label","text-field":"N","vsmr_group_ids":[[]]},"geometry":{"type":"Point","coordinates":[0.25222,46.6917]}},{"type":"Feature","id":"LFBI-text-lfbb-21432","properties":{"name":"WA","layer":"Labels","category":"Labels","object_type":"Label","style_id":"label.text.label.labels","airport":"LFBI","geometry_role":"text_label","text-field":"WA","vsmr_group_ids":[[]]},"geometry":{"type":"Point","coordinates":[0.26417,46.6286]}},{"type":"Feature","id":"LFBI-text-lfbb-21433","properties":{"name":"S1","layer":"Labels","category":"Labels","object_type":"Label","style_id":"label.text.label.labels","airport":"LFBI","geometry_role":"text_label","text-field":"S1","vsmr_group_ids":[[]]},"geometry":{"type":"Point","coordinates":[0.335,46.5444]}},{"type":"Feature","id":"LFBI-text-lfbb-21434","properties":{"name":"E","layer":"Labels","category":"Labels","object_type":"Label","style_id":"label.text.label.labels","airport":"LFBI","geometry_role":"text_label","text-field":"E","vsmr_group_ids":[[]]},"geometry":{"type":"Point","coordinates":[0.50056,46.5589]}},{"type":"Feature","id":"LFBI-text-lfbb-21435","properties":{"name":"W","layer":"Labels","category":"Labels","object_type":"Label","style_id":"label.text.label.labels","airport":"LFBI","geometry_role":"text_label","text-field":"W","vsmr_group_ids":[[]]},"geometry":{"type":"Point","coordinates":[0.17028,46.6467]}},{"type":"Feature","id":"LFBI-text-lfbb-21437","properties":{"name":"5000","layer":"Labels","category":"Labels","object_type":"Label","style_id":"label.text.label.labels","airport":"LFBI","geometry_role":"text_label","text-field":"5000","vsmr_group_ids":[[]]},"geometry":{"type":"Point","coordinates":[1.236768611,46.716706111]}},{"type":"Feature","id":"LFBI-text-lfbb-21438","properties":{"name":"3000","layer":"Labels","category":"Labels","object_type":"Label","style_id":"label.text.label.labels","airport":"LFBI","geometry_role":"text_label","text-field":"3000","vsmr_group_ids":[[]]},"geometry":{"type":"Point","coordinates":[1.684850556,46.8724125]}},{"type":"Feature","id":"LFBI-text-lfbb-21439","properties":{"name":"3000","layer":"Labels","category":"Labels","object_type":"Label","style_id":"label.text.label.labels","airport":"LFBI","geometry_role":"text_label","text-field":"3000","vsmr_group_ids":[[]]},"geometry":{"type":"Point","coordinates":[0.530552778,46.627586389]}}]}
