{"type":"FeatureCollection","name":"LFBK AVISO","bbox":[2.359,46.214327778,2.367611111,46.231388889],"metadata":{"schema":"vSMR AVISO","schema_version":2,"airport":"LFBK","coordinate_reference_system":"WGS84","coordinate_order":"longitude, latitude","default_color_palette":"night","color_palettes":["night","day"],"feature_count":5,"style_count":4,"layer_counts":{"Ground linework":2,"Reference points":1,"Runways":2},"category_counts":{"Labels":1,"Runway Concrete":1,"Runway Grass":1,"Runway Markings":2}},"styles":{"line.linework.runway.concrete":{"name":"Runway Concrete","layer":"Ground linework","object_type":"Line","paint":{"stroke":"#111318","stroke-opacity":1.0,"stroke-width":1.5},"feature_count":1},"line.linework.runway.grass":{"name":"Runway Grass","layer":"Ground linework","object_type":"Line","paint":{"stroke":"#008000","stroke-opacity":1.0,"stroke-width":1.5},"feature_count":1},"line.runway.centerline.runway.markings":{"name":"Runway Markings","layer":"Runways","object_type":"Line","paint":{"stroke":"#FEFEFE","stroke-opacity":1.0,"stroke-width":1.5},"feature_count":2},"point.airport.reference.point.labels":{"name":"Labels","layer":"Reference points","object_type":"Point","paint":{"marker-color":"#808080","marker-size":"small"},"feature_count":1}},"features":[{"type":"Feature","id":"LFBK-runway-17R-35L-4919","properties":{"name":"LFBK RWY 17R/35L","layer":"Runways","category":"Runway Markings","object_type":"Line","style_id":"line.runway.centerline.runway.markings","airport":"LFBK","geometry_role":"runway_centerline","vsmr_group_ids":[]},"geometry":{"type":"LineString","coordinates":[[2.361980833,46.224577778],[2.364513889,46.216780833]]}},{"type":"Feature","id":"LFBK-runway-17-35-4920","properties":{"name":"LFBK RWY 17/35","layer":"Runways","category":"Runway Markings","object_type":"Line","style_id":"line.runway.centerline.runway.markings","airport":"LFBK","geometry_role":"runway_centerline","vsmr_group_ids":[]},"geometry":{"type":"LineString","coordinates":[[2.361221944,46.231002778],[2.366649722,46.214327778]]}},{"type":"Feature","id":"lfbk.line.linework.runway.grass.40572","properties":{"name":"LFBK Groundlayout Montlucon","layer":"Ground linework","category":"Runway Grass","object_type":"Line","style_id":"line.linework.runway.grass","airport":"LFBK","geometry_role":"linework","vsmr_group_ids":[]},"geometry":{"type":"MultiLineString","coordinates":[[[2.364222222,46.224972222],[2.366722222,46.217194444]],[[2.359777778,46.224222222],[2.362277778,46.216416667]],[[2.364222222,46.224972222],[2.359777778,46.224222222]],[[2.366722222,46.217194444],[2.362277778,46.216416667]]]}},{"type":"Feature","id":"lfbk.line.linework.runway.concrete.40576","properties":{"name":"LFBK Groundlayout Montlucon","layer":"Ground linework","category":"Runway Concrete","object_type":"Line","style_id":"line.linework.runway.concrete","airport":"LFBK","geometry_role":"linework","vsmr_group_ids":[]},"geometry":{"type":"MultiLineString","coordinates":[[[2.363416667,46.231388889],[2.367611111,46.218694444]],[[2.359,46.230611111],[2.363194444,46.217916667]],[[2.363416667,46.231388889],[2.359,46.230611111]],[[2.367611111,46.218694444],[2.363194444,46.217916667]]]}},{"type":"Feature","id":"LFBK-airport-reference","properties":{"name":"LFBK","layer":"Reference points","category":"Labels","object_type":"Point","style_id":"point.airport.reference.point.labels","airport":"LFBK","geometry_role":"airport_reference_point","text-field":"LFBK","vsmr_group_ids":[]},"geometry":{"type":"Point","coordinates":[2.362777778,46.226110833]}}]}
