{"type":"FeatureCollection","name":"LFBL AVISO","bbox":[0.376475833,45.010103056,1.9305625,46.304836667],"metadata":{"schema":"vSMR AVISO","schema_version":2,"airport":"LFBL","coordinate_reference_system":"WGS84","coordinate_order":"longitude, latitude","feature_count":51,"style_count":11,"layer_counts":{"Ground linework":8,"Labels":40,"Reference points":1,"Runways":2},"category_counts":{"Apron Surface":1,"Centerlines":1,"Labels":42,"Runway Concrete":1,"Runway Grass":1,"Runway Markings":2,"Stopbar":1,"Taxiway":1,"TWR CTR":1}},"styles":{"label.text.label.labels":{"name":"Labels","layer":"Labels","object_type":"Label","paint":{"text-anchor":"center","text-color":"#CCCCCC","text-halo-color":"#000000","text-halo-width":1,"text-size":12},"feature_count":40},"line.linework.apron.surface":{"name":"Apron Surface","layer":"Ground linework","object_type":"Line","paint":{"stroke":"#808080","stroke-opacity":1.0,"stroke-width":1.5},"feature_count":1},"line.linework.centerlines":{"name":"Centerlines","layer":"Ground linework","object_type":"Line","paint":{"stroke":"#FFFF00","stroke-opacity":1.0,"stroke-width":1.5},"feature_count":1},"line.linework.labels":{"name":"Labels","layer":"Ground linework","object_type":"Line","paint":{"stroke":"#808080","stroke-opacity":1.0,"stroke-width":1.5},"feature_count":1},"line.linework.runway.concrete":{"name":"Runway Concrete","layer":"Ground linework","object_type":"Line","paint":{"stroke":"#111318","stroke-opacity":1.0,"stroke-width":1.5},"feature_count":1},"line.linework.runway.grass":{"name":"Runway Grass","layer":"Ground linework","object_type":"Line","paint":{"stroke":"#008000","stroke-opacity":1.0,"stroke-width":1.5},"feature_count":1},"line.linework.stopbar":{"name":"Stopbar","layer":"Ground linework","object_type":"Line","paint":{"stroke":"#7E0000","stroke-opacity":1.0,"stroke-width":1.5},"feature_count":1},"line.linework.taxiway":{"name":"Taxiway","layer":"Ground linework","object_type":"Line","paint":{"stroke":"#4E5A69","stroke-opacity":1.0,"stroke-width":1.5},"feature_count":1},"line.linework.twr.ctr":{"name":"TWR CTR","layer":"Ground linework","object_type":"Line","paint":{"stroke":"#000000","stroke-opacity":1.0,"stroke-width":1.5},"feature_count":1},"line.runway.centerline.runway.markings":{"name":"Runway Markings","layer":"Runways","object_type":"Line","paint":{"stroke":"#FEFEFE","stroke-opacity":1.0,"stroke-width":1.5},"feature_count":2},"point.airport.reference.point.labels":{"name":"Labels","layer":"Reference points","object_type":"Point","paint":{"marker-color":"#808080","marker-size":"small"},"feature_count":1}},"features":[{"type":"Feature","id":"LFBL-runway-03R-21L-4917","properties":{"name":"LFBL RWY 03R/21L","layer":"Runways","category":"Runway Markings","object_type":"Line","style_id":"line.runway.centerline.runway.markings","airport":"LFBL","geometry_role":"runway_centerline","vsmr_group_ids":[[]]},"geometry":{"type":"LineString","coordinates":[[1.175282778,45.852955833],[1.180930833,45.858968889]]}},{"type":"Feature","id":"LFBL-runway-03-21-4918","properties":{"name":"LFBL RWY 03/21","layer":"Runways","category":"Runway Markings","object_type":"Line","style_id":"line.runway.centerline.runway.markings","airport":"LFBL","geometry_role":"runway_centerline","vsmr_group_ids":[[]]},"geometry":{"type":"LineString","coordinates":[[1.172538889,45.852488889],[1.189138889,45.870175]]}},{"type":"Feature","id":"lfbl.line.linework.runway.concrete.40581","properties":{"name":"LFBL Groundlayout Limoges","layer":"Ground linework","category":"Runway Concrete","object_type":"Line","style_id":"line.linework.runway.concrete","airport":"LFBL","geometry_role":"linework","vsmr_group_ids":[[]]},"geometry":{"type":"MultiLineString","coordinates":[[[1.179703056,45.860506389],[1.178867222,45.859602778]],[[1.173040278,45.853518056],[1.173035278,45.853474444]],[[1.173035278,45.853474444],[1.173015278,45.853422222]],[[1.173015278,45.853422222],[1.172980278,45.853378611]],[[1.172980278,45.853378611],[1.1729075,45.853287778]],[[1.1729075,45.853287778],[1.172857222,45.853268611]],[[1.172857222,45.853268611],[1.172797222,45.853259722]],[[1.172797222,45.853259722],[1.172671944,45.8532425]],[[1.172671944,45.8532425],[1.172468889,45.853216111]],[[1.172468889,45.853216111],[1.172361111,45.853179444]],[[1.172361111,45.853179444],[1.172298611,45.853156944]],[[1.172298611,45.853156944],[1.172230833,45.853120278]],[[1.172230833,45.853120278],[1.172173333,45.853073056]],[[1.172173333,45.853073056],[1.172133056,45.853038056]],[[1.172133056,45.853038056],[1.172113056,45.8529875]],[[1.172113056,45.8529875],[1.172095556,45.852945556]],[[1.172095556,45.852945556],[1.172088056,45.852893333]],[[1.172088056,45.852893333],[1.172087222,45.852845]],[[1.172087222,45.852845],[1.172093056,45.852799444]],[[1.172093056,45.852799444],[1.17211,45.85276]],[[1.17211,45.85276],[1.172132778,45.852716667]],[[1.172132778,45.852716667],[1.172163889,45.852681111]],[[1.172163889,45.852681111],[1.172192222,45.8526475]],[[1.172192222,45.8526475],[1.172226389,45.852606111]],[[1.172226389,45.852606111],[1.172756667,45.852359167]],[[1.172756667,45.852359167],[1.1896575,45.870365833]],[[1.1896575,45.870365833],[1.189695278,45.870389167]],[[1.189695278,45.870389167],[1.189805,45.870424444]],[[1.189805,45.870424444],[1.189891389,45.870449444]],[[1.189891389,45.870449444],[1.190439167,45.870645833]],[[1.190439167,45.870645833],[1.190510833,45.870692778]],[[1.190510833,45.870692778],[1.190559167,45.870733889]],[[1.190559167,45.870733889],[1.190595,45.870779167]],[[1.190595,45.870779167],[1.190613889,45.870821944]],[[1.190613889,45.870821944],[1.190639167,45.870879167]],[[1.190639167,45.870879167],[1.190641389,45.870942222]],[[1.190641389,45.870942222],[1.190630833,45.870993333]],[[1.190630833,45.870993333],[1.190618889,45.871054722]],[[1.190618889,45.871054722],[1.190590556,45.871098333]],[[1.190590556,45.871098333],[1.190560833,45.871141111]],[[1.190560833,45.871141111],[1.190519444,45.871174444]],[[1.190519444,45.871174444],[1.190479722,45.871198611]],[[1.190479722,45.871198611],[1.189966667,45.871436111]],[[1.189966667,45.871436111],[1.180465833,45.861302778]],[[1.178804167,45.859530278],[1.173814167,45.854214167]]]}},{"type":"Feature","id":"lfbl.line.linework.runway.grass.40626","properties":{"name":"LFBL Groundlayout Limoges","layer":"Ground linework","category":"Runway Grass","object_type":"Line","style_id":"line.linework.runway.grass","airport":"LFBL","geometry_role":"linework","vsmr_group_ids":[[]]},"geometry":{"type":"MultiLineString","coordinates":[[[1.1764025,45.853498333],[1.175711111,45.852764722]],[[1.175711111,45.852764722],[1.1748575,45.853154167]],[[1.1748575,45.853154167],[1.180504167,45.859169722]],[[1.180504167,45.859169722],[1.181362778,45.858775833]],[[1.181362778,45.858775833],[1.176957778,45.854092222]]]}},{"type":"Feature","id":"lfbl.line.linework.taxiway.40631","properties":{"name":"LFBL Groundlayout Limoges","layer":"Ground linework","category":"Taxiway","object_type":"Line","style_id":"line.linework.taxiway","airport":"LFBL","geometry_role":"linework","vsmr_group_ids":[[]]},"geometry":{"type":"MultiLineString","coordinates":[[[1.180466111,45.861306389],[1.180395278,45.861244722]],[[1.180395278,45.861244722],[1.180335556,45.861209722]],[[1.180335556,45.861209722],[1.180271111,45.861181667]],[[1.180271111,45.861181667],[1.180211667,45.861158333]],[[1.180211667,45.861158333],[1.180156667,45.861143333]],[[1.180156667,45.861143333],[1.180094722,45.861135]],[[1.180094722,45.861135],[1.180013611,45.861123333]],[[1.180013611,45.861123333],[1.179951667,45.86112]],[[1.179951667,45.86112],[1.179899167,45.861121667]],[[1.179899167,45.861121667],[1.179846944,45.861125]],[[1.179846944,45.861125],[1.179784722,45.861135]],[[1.179784722,45.861135],[1.179720556,45.861148333]],[[1.179720556,45.861148333],[1.179675278,45.861165]],[[1.179675278,45.861165],[1.178861944,45.861535556]],[[1.178861944,45.861535556],[1.178806667,45.861560278]],[[1.178806667,45.861560278],[1.178769167,45.861579722]],[[1.178769167,45.861579722],[1.178733333,45.8616025]],[[1.178733333,45.8616025],[1.178700556,45.861625]],[[1.178700556,45.861625],[1.178677778,45.861644444]],[[1.176961111,45.854092222],[1.177095278,45.853946944]],[[1.177095278,45.853946944],[1.177121667,45.853908333]],[[1.177121667,45.853908333],[1.177149722,45.853863889]],[[1.177149722,45.853863889],[1.177180556,45.853814722]],[[1.177180556,45.853814722],[1.177201667,45.853785278]],[[1.177201667,45.853785278],[1.177225278,45.853762222]],[[1.177225278,45.853762222],[1.177260833,45.853735833]],[[1.177260833,45.853735833],[1.177317222,45.853703056]],[[1.176403611,45.853498056],[1.176821389,45.853346389]],[[1.179701389,45.860505],[1.179727222,45.860567778]],[[1.179727222,45.860567778],[1.179746389,45.860629167]],[[1.179746389,45.860629167],[1.179750833,45.860668056]],[[1.179750833,45.860668056],[1.179744444,45.860705556]],[[1.179744444,45.860705556],[1.179735833,45.860743056]],[[1.179735833,45.860743056],[1.179729167,45.8607775]],[[1.179729167,45.8607775],[1.179714167,45.860810278]],[[1.179714167,45.860810278],[1.179696944,45.860837222]],[[1.179696944,45.860837222],[1.179681944,45.860868611]],[[1.179681944,45.860868611],[1.179651944,45.860904444]],[[1.179651944,45.860904444],[1.179618333,45.860935833]],[[1.179618333,45.860935833],[1.1795725,45.860974722]],[[1.1795725,45.860974722],[1.179536389,45.861002222]],[[1.179536389,45.861002222],[1.1794875,45.861031667]],[[1.1794875,45.861031667],[1.178975278,45.861269722]],[[1.178975278,45.861269722],[1.178918889,45.861288056]],[[1.178918889,45.861288056],[1.17887,45.861301111]],[[1.17887,45.861301111],[1.178808056,45.861314167]],[[1.178808056,45.861314167],[1.178757222,45.861321944]],[[1.178757222,45.861321944],[1.178700833,45.861327222]],[[1.178700833,45.861327222],[1.1786425,45.861331111]],[[1.1786425,45.861331111],[1.178571111,45.861327222]],[[1.178571111,45.861327222],[1.178501667,45.861319444]],[[1.17735,45.860316944],[1.177343611,45.860303333]],[[1.177343611,45.860303333],[1.177344722,45.860291667]],[[1.177344722,45.860291667],[1.177345833,45.860279444]],[[1.177345833,45.860279444],[1.177347778,45.860268056]],[[1.177347778,45.860268056],[1.177357222,45.860258056]],[[1.177357222,45.860258056],[1.1773725,45.860248056]],[[1.1773725,45.860248056],[1.178789444,45.859593611]],[[1.178789444,45.859593611],[1.178799722,45.859591111]],[[1.178799722,45.859591111],[1.178808333,45.859591667]],[[1.178808333,45.859591667],[1.178818611,45.859593056]],[[1.178818611,45.859593056],[1.1788675,45.859602778]],[[1.178805278,45.859530833],[1.178798333,45.859547222]],[[1.178798333,45.859547222],[1.178766389,45.859560833]],[[1.178766389,45.859560833],[1.178599722,45.85964]],[[1.178599722,45.85964],[1.177340833,45.860221111]],[[1.177340833,45.860221111],[1.177321111,45.860226111]],[[1.177321111,45.860226111],[1.177299167,45.860224444]],[[1.177299167,45.860224444],[1.177281944,45.860221111]],[[1.177281944,45.860221111],[1.177253889,45.860211667]],[[1.177253889,45.860211667],[1.177233056,45.860204167]],[[1.177233056,45.860204167],[1.177213611,45.860181111]],[[1.177213611,45.860181111],[1.173506389,45.856233056]],[[1.173506389,45.856233056],[1.173136389,45.855828056]],[[1.173136389,45.855828056],[1.173093889,45.855783333]],[[1.173093889,45.855783333],[1.173061944,45.855732778]],[[1.173061944,45.855732778],[1.172989444,45.855629167]],[[1.172989444,45.855629167],[1.172949167,45.855570278]],[[1.172949167,45.855570278],[1.172905,45.855481944]],[[1.172905,45.855481944],[1.172844444,45.855348889]],[[1.172844444,45.855348889],[1.172792222,45.855213056]],[[1.172792222,45.855213056],[1.172735833,45.855058889]],[[1.172735833,45.855058889],[1.172675556,45.854891944]],[[1.172675556,45.854891944],[1.172645278,45.854763056]],[[1.172645278,45.854763056],[1.172623333,45.854659444]],[[1.172623333,45.854659444],[1.172601111,45.854540278]],[[1.172601111,45.854540278],[1.172609167,45.854484167]],[[1.172609167,45.854484167],[1.172615278,45.854442222]],[[1.172615278,45.854442222],[1.172633333,45.8543975]],[[1.172633333,45.8543975],[1.172663611,45.854348333]],[[1.172663611,45.854348333],[1.172693611,45.854300833]],[[1.172693611,45.854300833],[1.17273,45.854262778]],[[1.17273,45.854262778],[1.172764167,45.854223611]],[[1.172764167,45.854223611],[1.172824444,45.854183056]],[[1.172824444,45.854183056],[1.172886111,45.854138889]],[[1.172886111,45.854138889],[1.172954167,45.854103611]],[[1.172954167,45.854103611],[1.173019167,45.854078333]],[[1.173019167,45.854078333],[1.173087222,45.854057222]],[[1.173087222,45.854057222],[1.173172778,45.854039722]],[[1.173172778,45.854039722],[1.173261389,45.8540275]],[[1.173261389,45.8540275],[1.173355,45.854018611]],[[1.173355,45.854018611],[1.173435833,45.854023056]],[[1.173435833,45.854023056],[1.173500833,45.854034167]],[[1.173500833,45.854034167],[1.1735625,45.854055]],[[1.1735625,45.854055],[1.173618056,45.854079444]],[[1.173618056,45.854079444],[1.173668611,45.854104722]],[[1.173668611,45.854104722],[1.173736667,45.854148889]],[[1.173736667,45.854148889],[1.1738175,45.854218333]],[[1.17304,45.853519722],[1.173049444,45.85358]],[[1.173049444,45.85358],[1.1730425,45.853631111]],[[1.1730425,45.853631111],[1.173024167,45.853676111]],[[1.173024167,45.853676111],[1.173001111,45.8537175]],[[1.173001111,45.8537175],[1.172973611,45.8537575]],[[1.172973611,45.8537575],[1.172939167,45.853799167]],[[1.172939167,45.853799167],[1.172888611,45.853840556]],[[1.172888611,45.853840556],[1.172833611,45.853878889]],[[1.172833611,45.853878889],[1.172746389,45.853922222]],[[1.172746389,45.853922222],[1.172611111,45.853989167]],[[1.172611111,45.853989167],[1.172540278,45.854036944]],[[1.172540278,45.854036944],[1.1724575,45.854094444]],[[1.1724575,45.854094444],[1.172379167,45.854171944]],[[1.172379167,45.854171944],[1.172327778,45.854243611]],[[1.172327778,45.854243611],[1.172292222,45.854308056]],[[1.172292222,45.854308056],[1.172273611,45.854359722]],[[1.172273611,45.854359722],[1.172259167,45.854406667]],[[1.172259167,45.854406667],[1.172255,45.854456111]],[[1.172255,45.854456111],[1.172252222,45.854503056]],[[1.172252222,45.854503056],[1.172256389,45.854545556]],[[1.172256389,45.854545556],[1.172262222,45.854589444]],[[1.172262222,45.854589444],[1.172276389,45.854646944]],[[1.172276389,45.854646944],[1.172295,45.854699722]],[[1.172295,45.854699722],[1.172316389,45.854751389]],[[1.172316389,45.854751389],[1.172530278,45.855308889]],[[1.172530278,45.855308889],[1.172607222,45.855495556]],[[1.172607222,45.855495556],[1.172693056,45.855649722]],[[1.172693056,45.855649722],[1.172764167,45.855756111]],[[1.172764167,45.855756111],[1.172834167,45.855856389]],[[1.172834167,45.855856389],[1.172998333,45.856048056]],[[1.172998333,45.856048056],[1.173130833,45.856193333]],[[1.173130833,45.856193333],[1.173230833,45.8563025]],[[1.173230833,45.8563025],[1.173313611,45.856386944]],[[1.173313611,45.856386944],[1.173518889,45.856606667]],[[1.173518889,45.856606667],[1.173703056,45.856800278]],[[1.173703056,45.856800278],[1.173792778,45.856895833]],[[1.173792778,45.856895833],[1.174045556,45.857163056]],[[1.174045556,45.857163056],[1.174220833,45.857350833]],[[1.174220833,45.857350833],[1.174310833,45.857442222]],[[1.174310833,45.857442222],[1.174773056,45.857937222]],[[1.174773056,45.857937222],[1.175751667,45.858979167]],[[1.175751667,45.858979167],[1.176361389,45.859641111]],[[1.176361389,45.859641111],[1.176377222,45.859675556]],[[1.176377222,45.859675556],[1.176387778,45.859711111]],[[1.176387778,45.859711111],[1.176389722,45.859748056]],[[1.176389722,45.859748056],[1.176386111,45.859788611]],[[1.176386111,45.859788611],[1.176380833,45.859821944]],[[1.176380833,45.859821944],[1.176361389,45.859861111]],[[1.176361389,45.859861111],[1.176348889,45.859893056]],[[1.176348889,45.859893056],[1.176331389,45.859920278]],[[1.176331389,45.859920278],[1.176318333,45.859936389]],[[1.176318333,45.859936389],[1.176304444,45.859955278]],[[1.176304444,45.859955278],[1.176284444,45.859964167]],[[1.176284444,45.859964167],[1.176258611,45.859976389]],[[1.176258611,45.859976389],[1.176211944,45.859995]],[[1.176343333,45.860121667],[1.176343333,45.860106111]],[[1.176343333,45.860106111],[1.1763525,45.860088889]],[[1.1763525,45.860088889],[1.176360833,45.860074167]],[[1.176360833,45.860074167],[1.176375,45.860061944]],[[1.176375,45.860061944],[1.176398333,45.860051389]],[[1.176398333,45.860051389],[1.176426389,45.860044167]],[[1.176426389,45.860044167],[1.176462778,45.860041667]],[[1.176462778,45.860041667],[1.176513056,45.860039167]],[[1.176513056,45.860039167],[1.176554167,45.8600425]],[[1.176554167,45.8600425],[1.176623333,45.860050556]],[[1.176623333,45.860050556],[1.176658333,45.860058889]],[[1.176658333,45.860058889],[1.176688889,45.860068611]],[[1.176688889,45.860068611],[1.176723889,45.860079167]],[[1.176723889,45.860079167],[1.176756667,45.860092222]],[[1.176756667,45.860092222],[1.176786111,45.860107778]],[[1.176786111,45.860107778],[1.176810556,45.8601225]],[[1.176810556,45.8601225],[1.176832778,45.860137778]],[[1.176832778,45.860137778],[1.176909167,45.860217778]],[[1.176909167,45.860217778],[1.176933611,45.860246389]],[[1.176933611,45.860246389],[1.177001667,45.860326389]],[[1.177001667,45.860326389],[1.177008611,45.860341944]],[[1.177008611,45.860341944],[1.177008611,45.860356389]],[[1.177008611,45.860356389],[1.176999167,45.860368889]],[[1.176999167,45.860368889],[1.176982778,45.860376944]],[[1.176982778,45.860376944],[1.17697,45.8603875]],[[1.17697,45.8603875],[1.1769525,45.860395]]]}},{"type":"Feature","id":"lfbl.line.linework.apron.surface.40820","properties":{"name":"LFBL Groundlayout Limoges","layer":"Ground linework","category":"Apron Surface","object_type":"Line","style_id":"line.linework.apron.surface","airport":"LFBL","geometry_role":"linework","vsmr_group_ids":[[]]},"geometry":{"type":"MultiLineString","coordinates":[[[1.178501389,45.861320278],[1.178436667,45.8613075]],[[1.178436667,45.8613075],[1.178366944,45.861287778]],[[1.178366944,45.861287778],[1.178325278,45.861271667]],[[1.178325278,45.861271667],[1.178286111,45.861253056]],[[1.178286111,45.861253056],[1.178251944,45.861235]],[[1.178251944,45.861235],[1.178200556,45.861206944]],[[1.178200556,45.861206944],[1.1781575,45.861178889]],[[1.1781575,45.861178889],[1.178130556,45.8611525]],[[1.178130556,45.8611525],[1.178087778,45.861108889]],[[1.178087778,45.861108889],[1.177349167,45.860316389]],[[1.177315556,45.853705278],[1.177403611,45.853658333]],[[1.177403611,45.853658333],[1.177029722,45.8532625]],[[1.177029722,45.8532625],[1.176821111,45.853346111]],[[1.176213889,45.859993611],[1.176196667,45.859994167]],[[1.176196667,45.859994167],[1.176173611,45.859993611]],[[1.176173611,45.859993611],[1.176160556,45.859990556]],[[1.176160556,45.859990556],[1.176146667,45.859984444]],[[1.176146667,45.859984444],[1.176135278,45.859973333]],[[1.176135278,45.859973333],[1.175895278,45.859724722]],[[1.175895278,45.859724722],[1.175596111,45.859861389]],[[1.175596111,45.859861389],[1.175577778,45.859865278]],[[1.175577778,45.859865278],[1.175560556,45.859865833]],[[1.175560556,45.859865833],[1.175544722,45.859862778]],[[1.175544722,45.859862778],[1.175529167,45.859856667]],[[1.175529167,45.859856667],[1.175515,45.859846667]],[[1.175515,45.859846667],[1.175505556,45.859836389]],[[1.175505556,45.859836389],[1.175466111,45.859794167]],[[1.175466111,45.859794167],[1.175394722,45.859720833]],[[1.175394722,45.859720833],[1.174874722,45.8591625]],[[1.174874722,45.8591625],[1.174590278,45.858859722]],[[1.174590278,45.858859722],[1.174356111,45.858968333]],[[1.174356111,45.858968333],[1.174202778,45.858811667]],[[1.174202778,45.858811667],[1.173926944,45.858519444]],[[1.173926944,45.858519444],[1.173820556,45.858411111]],[[1.173820556,45.858411111],[1.174016667,45.858319444]],[[1.174016667,45.858319444],[1.173886389,45.858162222]],[[1.173886389,45.858162222],[1.173563889,45.858305556]],[[1.173563889,45.858305556],[1.175254444,45.860108056]],[[1.175254444,45.860108056],[1.175275833,45.8601025]],[[1.175275833,45.8601025],[1.175281667,45.860122778]],[[1.175281667,45.860122778],[1.175266111,45.860140278]],[[1.175266111,45.860140278],[1.175151944,45.860190278]],[[1.175151944,45.860190278],[1.1751925,45.860230556]],[[1.1751925,45.860230556],[1.175314444,45.860178056]],[[1.175314444,45.860178056],[1.175345278,45.860180833]],[[1.175345278,45.860180833],[1.175707222,45.860559444]],[[1.175707222,45.860559444],[1.175775556,45.860527222]],[[1.175775556,45.860527222],[1.1758125,45.860567222]],[[1.1758125,45.860567222],[1.176460556,45.860273333]],[[1.176460556,45.860273333],[1.176430278,45.860238889]],[[1.176430278,45.860238889],[1.176361389,45.860163611]],[[1.176361389,45.860163611],[1.176349722,45.860148889]],[[1.176349722,45.860148889],[1.176346389,45.860141667]],[[1.176346389,45.860141667],[1.176344167,45.860135]],[[1.176344167,45.860135],[1.176343333,45.860128889]],[[1.176343333,45.860128889],[1.176343333,45.860120833]],[[1.176950278,45.860395],[1.176419722,45.860638889]],[[1.176419722,45.860638889],[1.176400278,45.860641667]],[[1.176400278,45.860641667],[1.176376944,45.860640556]],[[1.176376944,45.860640556],[1.176358611,45.860637222]],[[1.176358611,45.860637222],[1.176344167,45.860633889]],[[1.176344167,45.860633889],[1.176325,45.860627778]],[[1.176325,45.860627778],[1.176180833,45.86048]],[[1.176180833,45.86048],[1.175876944,45.86062]],[[1.175876944,45.86062],[1.178783333,45.863726111]],[[1.178783333,45.863726111],[1.179685833,45.863307222]],[[1.179685833,45.863307222],[1.178593611,45.862136944]],[[1.178593611,45.862136944],[1.178564722,45.862091944]],[[1.178564722,45.862091944],[1.178546111,45.862048333]],[[1.178546111,45.862048333],[1.1785325,45.862009444]],[[1.1785325,45.862009444],[1.1785275,45.861963333]],[[1.1785275,45.861963333],[1.178525833,45.861924444]],[[1.178525833,45.861924444],[1.178529167,45.86189]],[[1.178529167,45.86189],[1.1785325,45.861858333]],[[1.1785325,45.861858333],[1.178542778,45.861825278]],[[1.178542778,45.861825278],[1.178554722,45.861795556]],[[1.178554722,45.861795556],[1.178575,45.861766111]],[[1.178575,45.861766111],[1.178593611,45.861734167]],[[1.178593611,45.861734167],[1.1786175,45.861704722]],[[1.1786175,45.861704722],[1.178641667,45.861677222]],[[1.178641667,45.861677222],[1.17868,45.861642222]]]}},{"type":"Feature","id":"lfbl.line.linework.centerlines.40901","properties":{"name":"LFBL Groundlayout Limoges","layer":"Ground linework","category":"Centerlines","object_type":"Line","style_id":"line.linework.centerlines","airport":"LFBL","geometry_role":"linework","vsmr_group_ids":[[]]},"geometry":{"type":"MultiLineString","coordinates":[[[1.176446111,45.860891667],[1.177146667,45.861038611]],[[1.179308056,45.863346944],[1.179168889,45.8632025]],[[1.179134444,45.863425833],[1.178998889,45.8632825]],[[1.178960278,45.863502222],[1.178896111,45.863430556]],[[1.178896111,45.863430556],[1.178823889,45.863353333]],[[1.178924167,45.863548333],[1.178766667,45.863375833]],[[1.1787875,45.863578056],[1.178648056,45.863432222]],[[1.177454444,45.861950278],[1.178123889,45.862090278]],[[1.177913056,45.861934167],[1.177436667,45.86159]],[[1.176929722,45.861415833],[1.177615833,45.86156]],[[1.176156944,45.860296667],[1.176051111,45.860185833]],[[1.175995278,45.86037],[1.175891111,45.860261111]],[[1.175835278,45.860445833],[1.175735,45.860340278]]]}},{"type":"Feature","id":"lfbl.line.linework.stopbar.40914","properties":{"name":"LFBL Groundlayout Limoges","layer":"Ground linework","category":"Stopbar","object_type":"Line","style_id":"line.linework.stopbar","airport":"LFBL","geometry_role":"linework","vsmr_group_ids":[[]]},"geometry":{"type":"MultiLineString","coordinates":[[[1.172511389,45.854054722],[1.172770833,45.854221667]],[[1.178369167,45.862364444],[1.178672778,45.862225]],[[1.178803889,45.861562222],[1.178589167,45.861328333]],[[1.177894444,45.861276389],[1.178137778,45.861163333]],[[1.176892222,45.860191667],[1.177121667,45.860086389]],[[1.176342222,45.860106667],[1.176231944,45.859988889]]]}},{"type":"Feature","id":"lfbl.line.linework.twr.ctr.40920","properties":{"name":"LFBL Groundlayout Limoges","layer":"Ground linework","category":"TWR CTR","object_type":"Line","style_id":"line.linework.twr.ctr","airport":"LFBL","geometry_role":"linework","vsmr_group_ids":[[]]},"geometry":{"type":"MultiLineString","coordinates":[[[1.176083333,45.861422778],[1.176130278,45.861399444]],[[1.176130278,45.861399444],[1.176138333,45.861359167]],[[1.176138333,45.861359167],[1.176103611,45.861322778]],[[1.176103611,45.861322778],[1.176049722,45.861313333]],[[1.176049722,45.861313333],[1.176001667,45.861335833]],[[1.176001667,45.861335833],[1.175989444,45.861376111]],[[1.175989444,45.861376111],[1.176024444,45.861410556]],[[1.176024444,45.861410556],[1.176083333,45.861422778]]]}},{"type":"Feature","id":"lfbl.line.linework.labels.40928","properties":{"name":"LFBL Groundlayout Limoges","layer":"Ground linework","category":"Labels","object_type":"Line","style_id":"line.linework.labels","airport":"LFBL","geometry_role":"linework","vsmr_group_ids":[[]]},"geometry":{"type":"MultiLineString","coordinates":[[[1.189359722,45.870516944],[1.189379444,45.870508333]],[[1.189379444,45.870508333],[1.189271667,45.870395278]],[[1.189271667,45.870395278],[1.189280556,45.870392778]],[[1.189280556,45.870392778],[1.189261944,45.870372778]],[[1.189261944,45.870372778],[1.189248333,45.870370833]],[[1.189248333,45.870370833],[1.189229444,45.870380278]],[[1.189229444,45.870380278],[1.189359722,45.870516944]],[[1.172781944,45.852893889],[1.172911667,45.853029167]],[[1.172911667,45.853029167],[1.172980833,45.852996944]],[[1.172980833,45.852996944],[1.172849444,45.852859722]],[[1.172849444,45.852859722],[1.172781944,45.852893889]],[[1.173092222,45.852944722],[1.173054722,45.852905556]],[[1.173054722,45.852905556],[1.1730175,45.852901111]],[[1.1730175,45.852901111],[1.173026389,45.852874444]],[[1.173026389,45.852874444],[1.172964722,45.852808889]],[[1.172964722,45.852808889],[1.172896389,45.85284]],[[1.172896389,45.85284],[1.172919167,45.852864444]],[[1.172919167,45.852864444],[1.172966389,45.852842222]],[[1.172966389,45.852842222],[1.173000278,45.852877222]],[[1.173000278,45.852877222],[1.172993889,45.852910278]],[[1.172993889,45.852910278],[1.173040278,45.852920833]],[[1.173040278,45.852920833],[1.173049167,45.852931111]],[[1.173049167,45.852931111],[1.173004444,45.852952778]],[[1.173004444,45.852952778],[1.173026389,45.852976389]],[[1.173026389,45.852976389],[1.173092222,45.852944722]],[[1.172906667,45.852995],[1.172933056,45.852982222]],[[1.172933056,45.852982222],[1.172852778,45.852895833]],[[1.172852778,45.852895833],[1.172824722,45.852907778]],[[1.172824722,45.852907778],[1.172906667,45.852995]],[[1.189496667,45.870454167],[1.189460556,45.870413611]],[[1.189460556,45.870413611],[1.189363611,45.8703825]],[[1.189363611,45.8703825],[1.189344444,45.870362222]],[[1.189344444,45.870362222],[1.189371111,45.870350278]],[[1.189371111,45.870350278],[1.189384444,45.870364444]],[[1.189384444,45.870364444],[1.189404167,45.870355556]],[[1.189404167,45.870355556],[1.189368333,45.870316111]],[[1.189368333,45.870316111],[1.189299722,45.870348611]],[[1.189299722,45.870348611],[1.189345556,45.870398056]],[[1.189345556,45.870398056],[1.189441944,45.8704275]],[[1.189441944,45.8704275],[1.189454167,45.870439722]],[[1.189454167,45.870439722],[1.189408333,45.870461111]],[[1.189408333,45.870461111],[1.189432778,45.870485278]],[[1.189432778,45.870485278],[1.189496667,45.870454167]]]}},{"type":"Feature","id":"LFBL-airport-reference","properties":{"name":"LFBL","layer":"Reference points","category":"Labels","object_type":"Point","style_id":"point.airport.reference.point.labels","airport":"LFBL","geometry_role":"airport_reference_point","text-field":"LFBL","vsmr_group_ids":[[]]},"geometry":{"type":"Point","coordinates":[1.180277778,45.860832778]}},{"type":"Feature","id":"LFBL-text-lfbb-21441","properties":{"name":"TWR","layer":"Labels","category":"Labels","object_type":"Label","style_id":"label.text.label.labels","airport":"LFBL","geometry_role":"text_label","text-field":"TWR","vsmr_group_ids":[[]]},"geometry":{"type":"Point","coordinates":[1.1760375,45.861369444]}},{"type":"Feature","id":"LFBL-text-lfbb-21442","properties":{"name":"P Vol a Voile","layer":"Labels","category":"Labels","object_type":"Label","style_id":"label.text.label.labels","airport":"LFBL","geometry_role":"text_label","text-field":"P Vol a Voile","vsmr_group_ids":[[]]},"geometry":{"type":"Point","coordinates":[1.177322778,45.8533925]}},{"type":"Feature","id":"LFBL-text-lfbb-21443","properties":{"name":"P P","layer":"Labels","category":"Labels","object_type":"Label","style_id":"label.text.label.labels","airport":"LFBL","geometry_role":"text_label","text-field":"P P","vsmr_group_ids":[[]]},"geometry":{"type":"Point","coordinates":[1.178343333,45.862798056]}},{"type":"Feature","id":"LFBL-text-lfbb-21444","properties":{"name":"4P","layer":"Labels","category":"Labels","object_type":"Label","style_id":"label.text.label.labels","airport":"LFBL","geometry_role":"text_label","text-field":"4P","vsmr_group_ids":[[]]},"geometry":{"type":"Point","coordinates":[1.178738889,45.863613333]}},{"type":"Feature","id":"LFBL-text-lfbb-21445","properties":{"name":"5P","layer":"Labels","category":"Labels","object_type":"Label","style_id":"label.text.label.labels","airport":"LFBL","geometry_role":"text_label","text-field":"5P","vsmr_group_ids":[[]]},"geometry":{"type":"Point","coordinates":[1.178731944,45.863385556]}},{"type":"Feature","id":"LFBL-text-lfbb-21446","properties":{"name":"3P","layer":"Labels","category":"Labels","object_type":"Label","style_id":"label.text.label.labels","airport":"LFBL","geometry_role":"text_label","text-field":"3P","vsmr_group_ids":[[]]},"geometry":{"type":"Point","coordinates":[1.178970278,45.863531667]}},{"type":"Feature","id":"LFBL-text-lfbb-21447","properties":{"name":"2P","layer":"Labels","category":"Labels","object_type":"Label","style_id":"label.text.label.labels","airport":"LFBL","geometry_role":"text_label","text-field":"2P","vsmr_group_ids":[[]]},"geometry":{"type":"Point","coordinates":[1.179163889,45.863460556]}},{"type":"Feature","id":"LFBL-text-lfbb-21448","properties":{"name":"1P","layer":"Labels","category":"Labels","object_type":"Label","style_id":"label.text.label.labels","airport":"LFBL","geometry_role":"text_label","text-field":"1P","vsmr_group_ids":[[]]},"geometry":{"type":"Point","coordinates":[1.179314444,45.863375556]}},{"type":"Feature","id":"LFBL-text-lfbb-21449","properties":{"name":"P A","layer":"Labels","category":"Labels","object_type":"Label","style_id":"label.text.label.labels","airport":"LFBL","geometry_role":"text_label","text-field":"P A","vsmr_group_ids":[[]]},"geometry":{"type":"Point","coordinates":[1.177528611,45.8612125]}},{"type":"Feature","id":"LFBL-text-lfbb-21450","properties":{"name":"3A","layer":"Labels","category":"Labels","object_type":"Label","style_id":"label.text.label.labels","airport":"LFBL","geometry_role":"text_label","text-field":"3A","vsmr_group_ids":[[]]},"geometry":{"type":"Point","coordinates":[1.177861944,45.862156667]}},{"type":"Feature","id":"LFBL-text-lfbb-21451","properties":{"name":"4A","layer":"Labels","category":"Labels","object_type":"Label","style_id":"label.text.label.labels","airport":"LFBL","geometry_role":"text_label","text-field":"4A","vsmr_group_ids":[[]]},"geometry":{"type":"Point","coordinates":[1.177968056,45.861887222]}},{"type":"Feature","id":"LFBL-text-lfbb-21452","properties":{"name":"2A","layer":"Labels","category":"Labels","object_type":"Label","style_id":"label.text.label.labels","airport":"LFBL","geometry_role":"text_label","text-field":"2A","vsmr_group_ids":[[]]},"geometry":{"type":"Point","coordinates":[1.176973333,45.861545278]}},{"type":"Feature","id":"LFBL-text-lfbb-21453","properties":{"name":"1A","layer":"Labels","category":"Labels","object_type":"Label","style_id":"label.text.label.labels","airport":"LFBL","geometry_role":"text_label","text-field":"1A","vsmr_group_ids":[[]]},"geometry":{"type":"Point","coordinates":[1.176470833,45.861000278]}},{"type":"Feature","id":"LFBL-text-lfbb-21454","properties":{"name":"Terminal","layer":"Labels","category":"Labels","object_type":"Label","style_id":"label.text.label.labels","airport":"LFBL","geometry_role":"text_label","text-field":"Terminal","vsmr_group_ids":[[]]},"geometry":{"type":"Point","coordinates":[1.176545278,45.861876944]}},{"type":"Feature","id":"LFBL-text-lfbb-21455","properties":{"name":"ACB","layer":"Labels","category":"Labels","object_type":"Label","style_id":"label.text.label.labels","airport":"LFBL","geometry_role":"text_label","text-field":"ACB","vsmr_group_ids":[[]]},"geometry":{"type":"Point","coordinates":[1.174226944,45.859398333]}},{"type":"Feature","id":"LFBL-text-lfbb-21456","properties":{"name":"P L","layer":"Labels","category":"Labels","object_type":"Label","style_id":"label.text.label.labels","airport":"LFBL","geometry_role":"text_label","text-field":"P L","vsmr_group_ids":[[]]},"geometry":{"type":"Point","coordinates":[1.175549167,45.860091111]}},{"type":"Feature","id":"LFBL-text-lfbb-21457","properties":{"name":"1L","layer":"Labels","category":"Labels","object_type":"Label","style_id":"label.text.label.labels","airport":"LFBL","geometry_role":"text_label","text-field":"1L","vsmr_group_ids":[[]]},"geometry":{"type":"Point","coordinates":[1.176174444,45.860333611]}},{"type":"Feature","id":"LFBL-text-lfbb-21458","properties":{"name":"2L","layer":"Labels","category":"Labels","object_type":"Label","style_id":"label.text.label.labels","airport":"LFBL","geometry_role":"text_label","text-field":"2L","vsmr_group_ids":[[]]},"geometry":{"type":"Point","coordinates":[1.176002222,45.8603975]}},{"type":"Feature","id":"LFBL-text-lfbb-21459","properties":{"name":"3L","layer":"Labels","category":"Labels","object_type":"Label","style_id":"label.text.label.labels","airport":"LFBL","geometry_role":"text_label","text-field":"3L","vsmr_group_ids":[[]]},"geometry":{"type":"Point","coordinates":[1.175826389,45.860479722]}},{"type":"Feature","id":"LFBL-text-lfbb-21461","properties":{"name":"4200","layer":"Labels","category":"Labels","object_type":"Label","style_id":"label.text.label.labels","airport":"LFBL","geometry_role":"text_label","text-field":"4200","vsmr_group_ids":[[]]},"geometry":{"type":"Point","coordinates":[1.9305625,46.164513333]}},{"type":"Feature","id":"LFBL-text-lfbb-21462","properties":{"name":"3700","layer":"Labels","category":"Labels","object_type":"Label","style_id":"label.text.label.labels","airport":"LFBL","geometry_role":"text_label","text-field":"3700","vsmr_group_ids":[[]]},"geometry":{"type":"Point","coordinates":[1.202645556,45.880501389]}},{"type":"Feature","id":"LFBL-text-lfbb-21463","properties":{"name":"2800","layer":"Labels","category":"Labels","object_type":"Label","style_id":"label.text.label.labels","airport":"LFBL","geometry_role":"text_label","text-field":"2800","vsmr_group_ids":[[]]},"geometry":{"type":"Point","coordinates":[0.376475833,45.717109444]}},{"type":"Feature","id":"LFBL-text-lfbb-21464","properties":{"name":"4000","layer":"Labels","category":"Labels","object_type":"Label","style_id":"label.text.label.labels","airport":"LFBL","geometry_role":"text_label","text-field":"4000","vsmr_group_ids":[[]]},"geometry":{"type":"Point","coordinates":[1.33079,46.304836667]}},{"type":"Feature","id":"LFBL-text-lfbb-21465","properties":{"name":"4500","layer":"Labels","category":"Labels","object_type":"Label","style_id":"label.text.label.labels","airport":"LFBL","geometry_role":"text_label","text-field":"4500","vsmr_group_ids":[[]]},"geometry":{"type":"Point","coordinates":[1.797335278,45.094188056]}},{"type":"Feature","id":"LFBL-text-lfbb-21466","properties":{"name":"3000","layer":"Labels","category":"Labels","object_type":"Label","style_id":"label.text.label.labels","airport":"LFBL","geometry_role":"text_label","text-field":"3000","vsmr_group_ids":[[]]},"geometry":{"type":"Point","coordinates":[1.531185556,45.010103056]}},{"type":"Feature","id":"LFBL-text-lfbb-21467","properties":{"name":"10000","layer":"Labels","category":"Labels","object_type":"Label","style_id":"label.text.label.labels","airport":"LFBL","geometry_role":"text_label","text-field":"10000","vsmr_group_ids":[[]]},"geometry":{"type":"Point","coordinates":[1.247686389,45.352965833]}},{"type":"Feature","id":"LFBL-text-lfbb-21469","properties":{"name":"SA","layer":"Labels","category":"Labels","object_type":"Label","style_id":"label.text.label.labels","airport":"LFBL","geometry_role":"text_label","text-field":"SA","vsmr_group_ids":[[]]},"geometry":{"type":"Point","coordinates":[1.239444444,45.766666667]}},{"type":"Feature","id":"LFBL-text-lfbb-21470","properties":{"name":"WA","layer":"Labels","category":"Labels","object_type":"Label","style_id":"label.text.label.labels","airport":"LFBL","geometry_role":"text_label","text-field":"WA","vsmr_group_ids":[[]]},"geometry":{"type":"Point","coordinates":[1.083333333,45.866666667]}},{"type":"Feature","id":"LFBL-text-lfbb-21471","properties":{"name":"EA","layer":"Labels","category":"Labels","object_type":"Label","style_id":"label.text.label.labels","airport":"LFBL","geometry_role":"text_label","text-field":"EA","vsmr_group_ids":[[]]},"geometry":{"type":"Point","coordinates":[1.293888889,45.895]}},{"type":"Feature","id":"LFBL-text-lfbb-21472","properties":{"name":"NW","layer":"Labels","category":"Labels","object_type":"Label","style_id":"label.text.label.labels","airport":"LFBL","geometry_role":"text_label","text-field":"NW","vsmr_group_ids":[[]]},"geometry":{"type":"Point","coordinates":[1.033333333,45.932222222]}},{"type":"Feature","id":"LFBL-text-lfbb-21473","properties":{"name":"E","layer":"Labels","category":"Labels","object_type":"Label","style_id":"label.text.label.labels","airport":"LFBL","geometry_role":"text_label","text-field":"E","vsmr_group_ids":[[]]},"geometry":{"type":"Point","coordinates":[1.4,45.883333333]}},{"type":"Feature","id":"LFBL-text-lfbb-21474","properties":{"name":"W","layer":"Labels","category":"Labels","object_type":"Label","style_id":"label.text.label.labels","airport":"LFBL","geometry_role":"text_label","text-field":"W","vsmr_group_ids":[[]]},"geometry":{"type":"Point","coordinates":[1.016666667,45.883333333]}},{"type":"Feature","id":"LFBL-text-lfbb-21475","properties":{"name":"S","layer":"Labels","category":"Labels","object_type":"Label","style_id":"label.text.label.labels","airport":"LFBL","geometry_role":"text_label","text-field":"S","vsmr_group_ids":[[]]},"geometry":{"type":"Point","coordinates":[1.277777778,45.755555556]}},{"type":"Feature","id":"LFBL-text-lfbb-21477","properties":{"name":"S","layer":"Labels","category":"Labels","object_type":"Label","style_id":"label.text.label.labels","airport":"LFBL","geometry_role":"text_label","text-field":"S","vsmr_group_ids":[[]]},"geometry":{"type":"Point","coordinates":[1.173514444,45.857251667]}},{"type":"Feature","id":"LFBL-text-lfbb-21478","properties":{"name":"S","layer":"Labels","category":"Labels","object_type":"Label","style_id":"label.text.label.labels","airport":"LFBL","geometry_role":"text_label","text-field":"S","vsmr_group_ids":[[]]},"geometry":{"type":"Point","coordinates":[1.171931389,45.854095]}},{"type":"Feature","id":"LFBL-text-lfbb-21479","properties":{"name":"S1","layer":"Labels","category":"Labels","object_type":"Label","style_id":"label.text.label.labels","airport":"LFBL","geometry_role":"text_label","text-field":"S1","vsmr_group_ids":[[]]},"geometry":{"type":"Point","coordinates":[1.176148333,45.860063889]}},{"type":"Feature","id":"LFBL-text-lfbb-21480","properties":{"name":"S2","layer":"Labels","category":"Labels","object_type":"Label","style_id":"label.text.label.labels","airport":"LFBL","geometry_role":"text_label","text-field":"S2","vsmr_group_ids":[[]]},"geometry":{"type":"Point","coordinates":[1.177168333,45.860061389]}},{"type":"Feature","id":"LFBL-text-lfbb-21481","properties":{"name":"S3","layer":"Labels","category":"Labels","object_type":"Label","style_id":"label.text.label.labels","airport":"LFBL","geometry_role":"text_label","text-field":"S3","vsmr_group_ids":[[]]},"geometry":{"type":"Point","coordinates":[1.178168889,45.861128333]}},{"type":"Feature","id":"LFBL-text-lfbb-21482","properties":{"name":"C","layer":"Labels","category":"Labels","object_type":"Label","style_id":"label.text.label.labels","airport":"LFBL","geometry_role":"text_label","text-field":"C","vsmr_group_ids":[[]]},"geometry":{"type":"Point","coordinates":[1.178891389,45.861569167]}},{"type":"Feature","id":"LFBL-text-lfbb-21483","properties":{"name":"C1","layer":"Labels","category":"Labels","object_type":"Label","style_id":"label.text.label.labels","airport":"LFBL","geometry_role":"text_label","text-field":"C1","vsmr_group_ids":[[]]},"geometry":{"type":"Point","coordinates":[1.178749722,45.862205278]}}]}
