{"type":"FeatureCollection","name":"LFBM AVISO","bbox":[-0.531916667,43.909027778,-0.488388889,43.913861111],"metadata":{"schema":"vSMR AVISO","schema_version":2,"airport":"LFBM","coordinate_reference_system":"WGS84","coordinate_order":"longitude, latitude","default_color_palette":"night","color_palettes":["night","day"],"feature_count":3,"style_count":3,"layer_counts":{"Ground linework":1,"Reference points":1,"Runways":1},"category_counts":{"Labels":1,"Runway Concrete":1,"Runway Markings":1}},"styles":{"line.linework.runway.concrete":{"name":"Runway Concrete","layer":"Ground linework","object_type":"Line","paint":{"stroke":"#111318","stroke-opacity":1.0,"stroke-width":1.5},"feature_count":1},"line.runway.centerline.runway.markings":{"name":"Runway Markings","layer":"Runways","object_type":"Line","paint":{"stroke":"#FEFEFE","stroke-opacity":1.0,"stroke-width":1.5},"feature_count":1},"point.airport.reference.point.labels":{"name":"Labels","layer":"Reference points","object_type":"Point","paint":{"marker-color":"#808080","marker-size":"small"},"feature_count":1}},"features":[{"type":"Feature","id":"LFBM-runway-09-27-4916","properties":{"name":"LFBM RWY 09/27","layer":"Runways","category":"Runway Markings","object_type":"Line","style_id":"line.runway.centerline.runway.markings","airport":"LFBM","geometry_role":"runway_centerline","vsmr_group_ids":[[]]},"geometry":{"type":"LineString","coordinates":[[-0.531777778,43.910716944],[-0.488471944,43.912241944]]}},{"type":"Feature","id":"lfbm.line.linework.runway.concrete.40972","properties":{"name":"LFBM Groundlayout Mont de Marsan","layer":"Ground linework","category":"Runway Concrete","object_type":"Line","style_id":"line.linework.runway.concrete","airport":"LFBM","geometry_role":"linework","vsmr_group_ids":[[]]},"geometry":{"type":"MultiLineString","coordinates":[[[-0.531916667,43.912361111],[-0.488611111,43.913861111]],[[-0.531694444,43.909027778],[-0.488388889,43.910527778]],[[-0.531916667,43.912361111],[-0.531694444,43.909027778]],[[-0.488611111,43.913861111],[-0.488388889,43.910527778]]]}},{"type":"Feature","id":"LFBM-airport-reference","properties":{"name":"LFBM","layer":"Reference points","category":"Labels","object_type":"Point","style_id":"point.airport.reference.point.labels","airport":"LFBM","geometry_role":"airport_reference_point","text-field":"LFBM","vsmr_group_ids":[[]]},"geometry":{"type":"Point","coordinates":[-0.51,43.911388889]}}]}
