{"type":"FeatureCollection","name":"LFBN AVISO","bbox":[-0.412777778,46.307027778,-0.389916667,46.315861111],"metadata":{"schema":"vSMR AVISO","schema_version":2,"airport":"LFBN","coordinate_reference_system":"WGS84","coordinate_order":"longitude, latitude","feature_count":5,"style_count":4,"layer_counts":{"Ground linework":2,"Reference points":1,"Runways":2},"category_counts":{"Labels":1,"Runway Concrete":1,"Runway Grass":1,"Runway Markings":2}},"styles":{"line.linework.runway.concrete":{"name":"Runway Concrete","layer":"Ground linework","object_type":"Line","paint":{"stroke":"#111318","stroke-opacity":1.0,"stroke-width":1.5},"feature_count":1},"line.linework.runway.grass":{"name":"Runway Grass","layer":"Ground linework","object_type":"Line","paint":{"stroke":"#008000","stroke-opacity":1.0,"stroke-width":1.5},"feature_count":1},"line.runway.centerline.runway.markings":{"name":"Runway Markings","layer":"Runways","object_type":"Line","paint":{"stroke":"#FEFEFE","stroke-opacity":1.0,"stroke-width":1.5},"feature_count":2},"point.airport.reference.point.labels":{"name":"Labels","layer":"Reference points","object_type":"Point","paint":{"marker-color":"#808080","marker-size":"small"},"feature_count":1}},"features":[{"type":"Feature","id":"LFBN-runway-07L-25R-4966","properties":{"name":"LFBN RWY 07L/25R","layer":"Runways","category":"Runway Markings","object_type":"Line","style_id":"line.runway.centerline.runway.markings","airport":"LFBN","geometry_role":"runway_centerline","vsmr_group_ids":[[]]},"geometry":{"type":"LineString","coordinates":[[-0.403771944,46.312188889],[-0.397113889,46.314163889]]}},{"type":"Feature","id":"LFBN-runway-07-25-4967","properties":{"name":"LFBN RWY 07/25","layer":"Runways","category":"Runway Markings","object_type":"Line","style_id":"line.runway.centerline.runway.markings","airport":"LFBN","geometry_role":"runway_centerline","vsmr_group_ids":[[]]},"geometry":{"type":"LineString","coordinates":[[-0.412096944,46.308335833],[-0.392532778,46.313971944]]}},{"type":"Feature","id":"lfbn.line.linework.runway.concrete.40977","properties":{"name":"LFBN Groundlayout Niort","layer":"Ground linework","category":"Runway Concrete","object_type":"Line","style_id":"line.linework.runway.concrete","airport":"LFBN","geometry_role":"linework","vsmr_group_ids":[[]]},"geometry":{"type":"MultiLineString","coordinates":[[[-0.404583333,46.313666667],[-0.397777778,46.315472222]],[[-0.403027778,46.310527778],[-0.396222222,46.312333333]],[[-0.404583333,46.313666667],[-0.403027778,46.310527778]],[[-0.397777778,46.315472222],[-0.396222222,46.312333333]]]}},{"type":"Feature","id":"lfbn.line.linework.runway.grass.40981","properties":{"name":"LFBN Groundlayout Niort","layer":"Ground linework","category":"Runway Grass","object_type":"Line","style_id":"line.linework.runway.grass","airport":"LFBN","geometry_role":"linework","vsmr_group_ids":[[]]},"geometry":{"type":"MultiLineString","coordinates":[[[-0.412777778,46.310166667],[-0.391472222,46.315861111]],[[-0.411222222,46.307027778],[-0.389916667,46.312722222]],[[-0.412777778,46.310166667],[-0.411222222,46.307027778]],[[-0.391472222,46.315861111],[-0.389916667,46.312722222]]]}},{"type":"Feature","id":"LFBN-airport-reference","properties":{"name":"LFBN","layer":"Reference points","category":"Labels","object_type":"Point","style_id":"point.airport.reference.point.labels","airport":"LFBN","geometry_role":"airport_reference_point","text-field":"LFBN","vsmr_group_ids":[[]]},"geometry":{"type":"Point","coordinates":[-0.394443889,46.313332778]}}]}
