{"type":"FeatureCollection","name":"LFBP AVISO","bbox":[-0.577777778,42.981493889,0.573251944,43.892763611],"metadata":{"schema":"vSMR AVISO","schema_version":2,"airport":"LFBP","coordinate_reference_system":"WGS84","coordinate_order":"longitude, latitude","default_color_palette":"night","color_palettes":["night","day"],"feature_count":82,"style_count":10,"layer_counts":{"Ground linework":7,"Labels":73,"Reference points":1,"Runways":1},"category_counts":{"Apron Surface":1,"Centerlines":1,"Labels":75,"Runway Concrete":1,"Runway Markings":1,"Stopbar":1,"Taxiway":1,"TWR CTR":1}},"styles":{"label.text.label.labels":{"name":"Labels","layer":"Labels","object_type":"Label","paint":{"text-anchor":"center","text-color":"#CCCCCC","text-halo-color":"#000000","text-halo-width":1,"text-size":12,"zoomLevel":11},"feature_count":73},"line.linework.apron.surface":{"name":"Apron Surface","layer":"Ground linework","object_type":"Line","paint":{"stroke":"#808080","stroke-opacity":1.0,"stroke-width":1.5},"feature_count":1},"line.linework.centerlines":{"name":"Centerlines","layer":"Ground linework","object_type":"Line","paint":{"stroke":"#FFFF00","stroke-opacity":1.0,"stroke-width":1.5},"feature_count":1},"line.linework.labels":{"name":"Labels","layer":"Ground linework","object_type":"Line","paint":{"stroke":"#808080","stroke-opacity":1.0,"stroke-width":1.5},"feature_count":1},"line.linework.runway.concrete":{"name":"Runway Concrete","layer":"Ground linework","object_type":"Line","paint":{"stroke":"#111318","stroke-opacity":1.0,"stroke-width":1.5},"feature_count":1},"line.linework.stopbar":{"name":"Stopbar","layer":"Ground linework","object_type":"Line","paint":{"stroke":"#7E0000","stroke-opacity":1.0,"stroke-width":1.5},"feature_count":1},"line.linework.taxiway":{"name":"Taxiway","layer":"Ground linework","object_type":"Line","paint":{"stroke":"#4E5A69","stroke-opacity":1.0,"stroke-width":1.5},"feature_count":1},"line.linework.twr.ctr":{"name":"TWR CTR","layer":"Ground linework","object_type":"Line","paint":{"stroke":"#000000","stroke-opacity":1.0,"stroke-width":1.5},"feature_count":1},"line.runway.centerline.runway.markings":{"name":"Runway Markings","layer":"Runways","object_type":"Line","paint":{"stroke":"#FEFEFE","stroke-opacity":1.0,"stroke-width":1.5},"feature_count":1},"point.airport.reference.point.labels":{"name":"Labels","layer":"Reference points","object_type":"Point","paint":{"marker-color":"#808080","marker-size":"small"},"feature_count":1}},"features":[{"type":"Feature","id":"LFBP-runway-13-31-4913","properties":{"name":"LFBP RWY 13/31","layer":"Runways","category":"Runway Markings","object_type":"Line","style_id":"line.runway.centerline.runway.markings","airport":"LFBP","geometry_role":"runway_centerline","vsmr_group_ids":[]},"geometry":{"type":"LineString","coordinates":[[-0.433260833,43.387657778],[-0.408241944,43.374496944]]}},{"type":"Feature","id":"lfbp.line.linework.runway.concrete.41108","properties":{"name":"LFBP Groundlayout Pau-Pyrenees","layer":"Ground linework","category":"Runway Concrete","object_type":"Line","style_id":"line.linework.runway.concrete","airport":"LFBP","geometry_role":"linework","vsmr_group_ids":[]},"geometry":{"type":"MultiLineString","coordinates":[[[-0.418883889,43.380346944],[-0.428167222,43.385228056]],[[-0.42924,43.3857925],[-0.432287778,43.387393889]],[[-0.432287778,43.387393889],[-0.432299444,43.387416667]],[[-0.432299444,43.387416667],[-0.432358056,43.387528889]],[[-0.432358056,43.387528889],[-0.432425556,43.387659722]],[[-0.432425556,43.387659722],[-0.432479444,43.387763056]],[[-0.432479444,43.387763056],[-0.432498889,43.387804444]],[[-0.432498889,43.387804444],[-0.432518333,43.387829722]],[[-0.432518333,43.387829722],[-0.432543889,43.387854722]],[[-0.432543889,43.387854722],[-0.432563333,43.387873056]],[[-0.432563333,43.387873056],[-0.432597222,43.387896667]],[[-0.432597222,43.387896667],[-0.432645,43.387916944]],[[-0.432645,43.387916944],[-0.43269,43.387933333]],[[-0.43269,43.387933333],[-0.432735278,43.387940556]],[[-0.432735278,43.387940556],[-0.432787222,43.387945556]],[[-0.432787222,43.387945556],[-0.432836389,43.387947778]],[[-0.432836389,43.387947778],[-0.432883056,43.387941389]],[[-0.432883056,43.387941389],[-0.4329225,43.387932222]],[[-0.4329225,43.387932222],[-0.432974444,43.387915833]],[[-0.432974444,43.387915833],[-0.433006944,43.3878975]],[[-0.433006944,43.3878975],[-0.433043611,43.387873056]],[[-0.433043611,43.387873056],[-0.433073056,43.387847222]],[[-0.433073056,43.387847222],[-0.433423611,43.387504444]],[[-0.433423611,43.387504444],[-0.432745833,43.387148333]],[[-0.432745833,43.387148333],[-0.421581389,43.381275833]],[[-0.421005,43.380972222],[-0.412577222,43.376539722]],[[-0.412004444,43.376237778],[-0.409355,43.374843333]],[[-0.408492778,43.374229444],[-0.408383889,43.374173056]],[[-0.408383889,43.374173056],[-0.407842222,43.374721667]],[[-0.407842222,43.374721667],[-0.407961389,43.374785556]],[[-0.408813333,43.375047778],[-0.417803333,43.379776944]]]}},{"type":"Feature","id":"lfbp.line.linework.taxiway.41139","properties":{"name":"LFBP Groundlayout Pau-Pyrenees","layer":"Ground linework","category":"Taxiway","object_type":"Line","style_id":"line.linework.taxiway","airport":"LFBP","geometry_role":"linework","vsmr_group_ids":[]},"geometry":{"type":"MultiLineString","coordinates":[[[-0.416334167,43.375376389],[-0.415723056,43.376008889]],[[-0.415723056,43.376008889],[-0.415627778,43.376084722]],[[-0.415627778,43.376084722],[-0.415552222,43.376116389]],[[-0.415552222,43.376116389],[-0.415464722,43.376134722]],[[-0.415464722,43.376134722],[-0.415377222,43.376138333]],[[-0.415377222,43.376138333],[-0.41531,43.376126111]],[[-0.41531,43.376126111],[-0.415242778,43.376100556]],[[-0.415242778,43.376100556],[-0.414707778,43.375821667]],[[-0.414707778,43.375821667],[-0.413727222,43.375307222]],[[-0.413727222,43.375307222],[-0.41369,43.375275]],[[-0.41369,43.375275],[-0.413676944,43.375250278]],[[-0.413676944,43.375250278],[-0.413671111,43.375204167]],[[-0.413671111,43.375204167],[-0.41367,43.37515]],[[-0.41367,43.37515],[-0.413678056,43.375125278]],[[-0.413678056,43.375125278],[-0.413693889,43.375101389]],[[-0.413693889,43.375101389],[-0.413715556,43.375078889]],[[-0.413715556,43.375078889],[-0.413766667,43.375040278]],[[-0.413766667,43.375040278],[-0.413810833,43.375020278]],[[-0.413810833,43.375020278],[-0.413859722,43.375008889]],[[-0.413859722,43.375008889],[-0.413925,43.3750025]],[[-0.429237222,43.385791944],[-0.429200833,43.385790556]],[[-0.429200833,43.385790556],[-0.429125,43.385791944]],[[-0.429125,43.385791944],[-0.429055833,43.385801389]],[[-0.429055833,43.385801389],[-0.428988333,43.385814722]],[[-0.428988333,43.385814722],[-0.428932222,43.385830278]],[[-0.428932222,43.385830278],[-0.428881111,43.385850556]],[[-0.428881111,43.385850556],[-0.428825,43.385872222]],[[-0.428825,43.385872222],[-0.428778889,43.385901944]],[[-0.428778889,43.385901944],[-0.428732778,43.385928333]],[[-0.428732778,43.385928333],[-0.428661944,43.385978611]],[[-0.428661944,43.385978611],[-0.428515278,43.386097222]],[[-0.428515278,43.386097222],[-0.428298889,43.386274167]],[[-0.428298889,43.386274167],[-0.428264444,43.386309167]],[[-0.428264444,43.386309167],[-0.428213611,43.386360278]],[[-0.428213611,43.386360278],[-0.428156944,43.386409167]],[[-0.428156944,43.386409167],[-0.428106111,43.386446111]],[[-0.428106111,43.386446111],[-0.428059722,43.386475278]],[[-0.428059722,43.386475278],[-0.428004444,43.386503611]],[[-0.428004444,43.386503611],[-0.427930278,43.386533611]],[[-0.427930278,43.386533611],[-0.427853611,43.386560278]],[[-0.427853611,43.386560278],[-0.4277675,43.3865825]],[[-0.4277675,43.3865825],[-0.427684722,43.386592778]],[[-0.427684722,43.386592778],[-0.427596944,43.386601111]],[[-0.427596944,43.386601111],[-0.427482222,43.386602222]],[[-0.427482222,43.386602222],[-0.427391111,43.386595278]],[[-0.427391111,43.386595278],[-0.427308333,43.3865825]],[[-0.427308333,43.3865825],[-0.427230278,43.386560556]],[[-0.427230278,43.386560556],[-0.427131389,43.386529167]],[[-0.427131389,43.386529167],[-0.427038889,43.386489722]],[[-0.427038889,43.386489722],[-0.426874722,43.386404444]],[[-0.426874722,43.386404444],[-0.425520833,43.385690833]],[[-0.425520833,43.385690833],[-0.421566667,43.383608056]],[[-0.421566667,43.383608056],[-0.420196944,43.382888611]],[[-0.420196944,43.382888611],[-0.419848611,43.382727222]],[[-0.419848611,43.382727222],[-0.4196,43.382647222]],[[-0.4196,43.382647222],[-0.419549167,43.382639722]],[[-0.419549167,43.382639722],[-0.419506111,43.382640278]],[[-0.419506111,43.382640278],[-0.419470278,43.382645]],[[-0.419470278,43.382645],[-0.4194375,43.3826575]],[[-0.4194375,43.3826575],[-0.419407222,43.3826725]],[[-0.419407222,43.3826725],[-0.419383056,43.3826925]],[[-0.419383056,43.3826925],[-0.4193625,43.382713889]],[[-0.4193625,43.382713889],[-0.419348333,43.382736667]],[[-0.419348333,43.382736667],[-0.419339444,43.382768333]],[[-0.419339444,43.382768333],[-0.4193025,43.382894167]],[[-0.4193025,43.382894167],[-0.419294722,43.382928889]],[[-0.419294722,43.382928889],[-0.419291944,43.382952222]],[[-0.419291944,43.382952222],[-0.419296111,43.382979722]],[[-0.428164444,43.3852275],[-0.4281925,43.385258056]],[[-0.4281925,43.385258056],[-0.428263056,43.385336389]],[[-0.428263056,43.385336389],[-0.428328611,43.3854225]],[[-0.428328611,43.3854225],[-0.428368611,43.385493333]],[[-0.428368611,43.385493333],[-0.428394444,43.385553056]],[[-0.428394444,43.385553056],[-0.428411389,43.385616667]],[[-0.428411389,43.385616667],[-0.4284175,43.385706944]],[[-0.4284175,43.385706944],[-0.428413056,43.385781111]],[[-0.428413056,43.385781111],[-0.428396389,43.385833333]],[[-0.428396389,43.385833333],[-0.4283575,43.3858825]],[[-0.4283575,43.3858825],[-0.428234722,43.386041667]],[[-0.428234722,43.386041667],[-0.428116944,43.386190556]],[[-0.428116944,43.386190556],[-0.4280775,43.386224722]],[[-0.4280775,43.386224722],[-0.428013333,43.386265833]],[[-0.428013333,43.386265833],[-0.427879722,43.386336667]],[[-0.427879722,43.386336667],[-0.427743333,43.386390278]],[[-0.427743333,43.386390278],[-0.427674167,43.386403889]],[[-0.427674167,43.386403889],[-0.427583056,43.386413056]],[[-0.427583056,43.386413056],[-0.427476389,43.386414167]],[[-0.427476389,43.386414167],[-0.427371111,43.386402778]],[[-0.427371111,43.386402778],[-0.427272222,43.386375556]],[[-0.427272222,43.386375556],[-0.427063611,43.386308056]],[[-0.427063611,43.386308056],[-0.426361667,43.385938056]],[[-0.426361667,43.385938056],[-0.424698056,43.385062222]],[[-0.424698056,43.385062222],[-0.420208056,43.382699722]],[[-0.420208056,43.382699722],[-0.4194325,43.382291111]],[[-0.4194325,43.382291111],[-0.419349444,43.382245833]],[[-0.419349444,43.382245833],[-0.419199167,43.382156111]],[[-0.419199167,43.382156111],[-0.4190725,43.382085]],[[-0.4190725,43.382085],[-0.418835833,43.381953611]],[[-0.418835833,43.381953611],[-0.418457222,43.381750278]],[[-0.418457222,43.381750278],[-0.418209167,43.381605556]],[[-0.418209167,43.381605556],[-0.417983611,43.381462222]],[[-0.417983611,43.381462222],[-0.417902778,43.381400556]],[[-0.417902778,43.381400556],[-0.417838889,43.381347222]],[[-0.417838889,43.381347222],[-0.417775278,43.381289722]],[[-0.417775278,43.381289722],[-0.417745556,43.381256667]],[[-0.417745556,43.381256667],[-0.417723889,43.381190278]],[[-0.417723889,43.381190278],[-0.417711944,43.381137222]],[[-0.417711944,43.381137222],[-0.417706111,43.381075278]],[[-0.417706111,43.381075278],[-0.417711944,43.381021944]],[[-0.417711944,43.381021944],[-0.417723889,43.3809975]],[[-0.417723889,43.3809975],[-0.417803056,43.380866389]],[[-0.417803056,43.380866389],[-0.417892222,43.380735278]],[[-0.417892222,43.380735278],[-0.417943333,43.380683056]],[[-0.417943333,43.380683056],[-0.418110833,43.380533611]],[[-0.418110833,43.380533611],[-0.418265278,43.380425833]],[[-0.418265278,43.380425833],[-0.418348333,43.380389722]],[[-0.418348333,43.380389722],[-0.418454722,43.380358056]],[[-0.418454722,43.380358056],[-0.418534722,43.380338889]],[[-0.418534722,43.380338889],[-0.418590278,43.380335833]],[[-0.418590278,43.380335833],[-0.418663333,43.380331667]],[[-0.418663333,43.380331667],[-0.418737778,43.380333611]],[[-0.418737778,43.380333611],[-0.418819444,43.380340278]],[[-0.418819444,43.380340278],[-0.418886667,43.380346667]],[[-0.418814722,43.382841389],[-0.418873333,43.382769167]],[[-0.418873333,43.382769167],[-0.418906944,43.382720278]],[[-0.418906944,43.382720278],[-0.418931944,43.382676944]],[[-0.418931944,43.382676944],[-0.418945556,43.382645278]],[[-0.418945556,43.382645278],[-0.418953056,43.382618056]],[[-0.418953056,43.382618056],[-0.418956667,43.382590833]],[[-0.418956667,43.382590833],[-0.418958056,43.382555556]],[[-0.418958056,43.382555556],[-0.418950556,43.382502222]],[[-0.418950556,43.382502222],[-0.418945556,43.382470556]],[[-0.418945556,43.382470556],[-0.418936944,43.382434444]],[[-0.418936944,43.382434444],[-0.418921944,43.3824]],[[-0.418921944,43.3824],[-0.418900833,43.382364722]],[[-0.418900833,43.382364722],[-0.418874722,43.382329444]],[[-0.418874722,43.382329444],[-0.418836667,43.382297222]],[[-0.418836667,43.382297222],[-0.418758333,43.382225833]],[[-0.418758333,43.382225833],[-0.418707222,43.382189722]],[[-0.418707222,43.382189722],[-0.418618056,43.382123056]],[[-0.418618056,43.382123056],[-0.418525278,43.382064167]],[[-0.418525278,43.382064167],[-0.418423056,43.382002222]],[[-0.418423056,43.382002222],[-0.418296111,43.381926944]],[[-0.418296111,43.381926944],[-0.41815,43.381841944]],[[-0.41815,43.381841944],[-0.418016944,43.381762778]],[[-0.418016944,43.381762778],[-0.4179,43.381705]],[[-0.4179,43.381705],[-0.417773333,43.381647222]],[[-0.417773333,43.381647222],[-0.417662778,43.3816]],[[-0.417662778,43.3816],[-0.417575278,43.381575278]],[[-0.417575278,43.381575278],[-0.417490833,43.38156]],[[-0.417490833,43.38156],[-0.417409444,43.381556389]],[[-0.417409444,43.381556389],[-0.417338056,43.381559722]],[[-0.417338056,43.381559722],[-0.417268333,43.381568056]],[[-0.417268333,43.381568056],[-0.417201111,43.3815875]],[[-0.417201111,43.3815875],[-0.417126667,43.3816125]],[[-0.417126667,43.3816125],[-0.417055833,43.381640833]],[[-0.417055833,43.381640833],[-0.416939722,43.381702778]],[[-0.416939722,43.381702778],[-0.416906944,43.381729444]],[[-0.416906944,43.381729444],[-0.416842222,43.381788889]],[[-0.416842222,43.381788889],[-0.416750833,43.381875]],[[-0.417804722,43.379776667],[-0.417843333,43.379812222]],[[-0.417843333,43.379812222],[-0.417904444,43.379883611]],[[-0.417904444,43.379883611],[-0.417953611,43.379958889]],[[-0.417953611,43.379958889],[-0.417978056,43.380017222]],[[-0.417978056,43.380017222],[-0.417984444,43.380056111]],[[-0.417984444,43.380056111],[-0.417984444,43.380086389]],[[-0.417984444,43.380086389],[-0.417976111,43.380141944]],[[-0.417976111,43.380141944],[-0.417962778,43.380176111]],[[-0.417962778,43.380176111],[-0.417944167,43.380211944]],[[-0.417944167,43.380211944],[-0.417913611,43.380254444]],[[-0.417913611,43.380254444],[-0.417847222,43.380338889]],[[-0.417847222,43.380338889],[-0.417551944,43.380684444]],[[-0.417551944,43.380684444],[-0.417312222,43.380933889]],[[-0.417312222,43.380933889],[-0.417273611,43.380951389]],[[-0.417273611,43.380951389],[-0.417221389,43.380972778]],[[-0.417221389,43.380972778],[-0.417163611,43.380990833]],[[-0.417163611,43.380990833],[-0.4171125,43.380999167]],[[-0.4171125,43.380999167],[-0.417055556,43.381]],[[-0.417055556,43.381],[-0.417005833,43.380995]],[[-0.417005833,43.380995],[-0.416951111,43.380982778]],[[-0.416951111,43.380982778],[-0.4169,43.380966111]],[[-0.4169,43.380966111],[-0.41192,43.378348611]],[[-0.41192,43.378348611],[-0.407711944,43.376124444]],[[-0.407711944,43.376124444],[-0.407653889,43.376089444]],[[-0.407653889,43.376089444],[-0.407607222,43.376047778]],[[-0.407607222,43.376047778],[-0.407574722,43.376011944]],[[-0.407574722,43.376011944],[-0.407539444,43.375968889]],[[-0.407539444,43.375968889],[-0.407513611,43.375925833]],[[-0.407513611,43.375925833],[-0.407496389,43.375883611]],[[-0.407496389,43.375883611],[-0.407481389,43.375835833]],[[-0.407481389,43.375835833],[-0.407473611,43.375786389]],[[-0.407473611,43.375786389],[-0.407474444,43.375723611]],[[-0.407474444,43.375723611],[-0.407487778,43.375670556]],[[-0.407487778,43.375670556],[-0.407498889,43.375631944]],[[-0.407498889,43.375631944],[-0.407521944,43.375590278]],[[-0.407521944,43.375590278],[-0.407551944,43.3755475]],[[-0.407551944,43.3755475],[-0.407608333,43.375487222]],[[-0.407608333,43.375487222],[-0.407870278,43.375218611]],[[-0.407870278,43.375218611],[-0.407956389,43.375136389]],[[-0.407956389,43.375136389],[-0.408002778,43.375100833]],[[-0.408002778,43.375100833],[-0.408046944,43.375074722]],[[-0.408046944,43.375074722],[-0.408129167,43.375035556]],[[-0.408129167,43.375035556],[-0.408203056,43.375005]],[[-0.408203056,43.375005],[-0.4083025,43.37498]],[[-0.4083025,43.37498],[-0.408381667,43.374969167]],[[-0.408381667,43.374969167],[-0.408461667,43.374969722]],[[-0.408461667,43.374969722],[-0.408517778,43.374972222]],[[-0.408517778,43.374972222],[-0.408603611,43.374983889]],[[-0.408603611,43.374983889],[-0.408671667,43.374999444]],[[-0.408671667,43.374999444],[-0.408743056,43.375024167]],[[-0.408743056,43.375024167],[-0.408790833,43.375041111]],[[-0.408790833,43.375041111],[-0.408816944,43.375048889]],[[-0.416261667,43.381561111],[-0.416325833,43.381562222]],[[-0.416325833,43.381562222],[-0.416444167,43.381564722]],[[-0.416444167,43.381564722],[-0.416508611,43.381563611]],[[-0.416508611,43.381563611],[-0.416554167,43.381555]],[[-0.416554167,43.381555],[-0.41661,43.381531667]],[[-0.41661,43.381531667],[-0.416676111,43.381498333]],[[-0.416676111,43.381498333],[-0.416755556,43.381439444]],[[-0.416755556,43.381439444],[-0.416802778,43.3813975]],[[-0.416802778,43.3813975],[-0.416825,43.381361944]],[[-0.416825,43.381361944],[-0.416835,43.381321389]],[[-0.416835,43.381321389],[-0.416831667,43.381281944]],[[-0.416831667,43.381281944],[-0.416816389,43.381248889]],[[-0.416816389,43.381248889],[-0.416799444,43.381219444]],[[-0.416799444,43.381219444],[-0.4167775,43.3811825]],[[-0.4167775,43.3811825],[-0.416650278,43.381090556]],[[-0.416650278,43.381090556],[-0.415956944,43.380720833]],[[-0.415956944,43.380720833],[-0.413397778,43.379385]],[[-0.413397778,43.379385],[-0.413291389,43.379358611]],[[-0.413291389,43.379358611],[-0.413192222,43.379346389]],[[-0.413192222,43.379346389],[-0.413089444,43.379353333]],[[-0.413089444,43.379353333],[-0.413081944,43.379353333]],[[-0.413081944,43.379353333],[-0.413016389,43.379366944]],[[-0.413016389,43.379366944],[-0.412950833,43.379396667]],[[-0.412950833,43.379396667],[-0.412909722,43.379430833]],[[-0.412909722,43.379430833],[-0.412870278,43.379481111]],[[-0.412870278,43.379481111],[-0.412844167,43.379549167]],[[-0.412844167,43.379549167],[-0.412838333,43.379602222]],[[-0.412838333,43.379602222],[-0.412855278,43.379659444]],[[-0.412855278,43.379659444],[-0.412877778,43.379708333]],[[-0.412877778,43.379708333],[-0.412916944,43.379766944]],[[-0.412916944,43.379766944],[-0.412961944,43.379815833]],[[-0.412961944,43.379815833],[-0.413021944,43.379862222]],[[-0.413021944,43.379862222],[-0.413117222,43.379932778]],[[-0.413117222,43.379932778],[-0.413315278,43.380052778]],[[-0.413315278,43.380052778],[-0.413418056,43.380117778]],[[-0.413418056,43.380117778],[-0.413741667,43.380289444]],[[-0.411934444,43.379510278],[-0.411985,43.379531667]],[[-0.411985,43.379531667],[-0.412047778,43.379550278]],[[-0.412047778,43.379550278],[-0.412108056,43.379558889]],[[-0.412108056,43.379558889],[-0.412178889,43.379564722]],[[-0.412178889,43.379564722],[-0.412248333,43.379564722]],[[-0.412248333,43.379564722],[-0.4122925,43.379556111]],[[-0.4122925,43.379556111],[-0.412339167,43.379539444]],[[-0.412339167,43.379539444],[-0.412383333,43.379516111]],[[-0.412383333,43.379516111],[-0.412426111,43.379483056]],[[-0.412426111,43.379483056],[-0.412482222,43.379429722]],[[-0.412482222,43.379429722],[-0.412518333,43.379384167]],[[-0.412518333,43.379384167],[-0.412538333,43.379359722]],[[-0.412538333,43.379359722],[-0.412542222,43.379330833]],[[-0.412542222,43.379330833],[-0.412545,43.379281111]],[[-0.412545,43.379281111],[-0.412536944,43.379215556]],[[-0.412536944,43.379215556],[-0.412522222,43.3791425]],[[-0.412522222,43.3791425],[-0.412498333,43.379076944]],[[-0.412498333,43.379076944],[-0.412470278,43.379009167]],[[-0.412470278,43.379009167],[-0.412430556,43.378952222]],[[-0.412430556,43.378952222],[-0.412396389,43.378911389]],[[-0.412396389,43.378911389],[-0.41233,43.378855556]],[[-0.41233,43.378855556],[-0.412256111,43.378807222]],[[-0.412256111,43.378807222],[-0.412113889,43.378710833]],[[-0.412113889,43.378710833],[-0.412079444,43.378685]],[[-0.412079444,43.378685],[-0.412,43.3786425]],[[-0.412,43.3786425],[-0.411552778,43.378406944]],[[-0.411552778,43.378406944],[-0.409306944,43.377224444]],[[-0.409306944,43.377224444],[-0.409265556,43.377216389]],[[-0.409265556,43.377216389],[-0.409217778,43.377213056]],[[-0.409217778,43.377213056],[-0.409161667,43.377215]],[[-0.409161667,43.377215],[-0.409104722,43.377220278]],[[-0.409104722,43.377220278],[-0.409057222,43.377233611]],[[-0.409057222,43.377233611],[-0.409006667,43.377249722]],[[-0.409006667,43.377249722],[-0.408963333,43.377278333]],[[-0.408963333,43.377278333],[-0.4089275,43.377311111]],[[-0.4089275,43.377311111],[-0.408849444,43.377393333]],[[-0.408849444,43.377393333],[-0.408678611,43.377570278]],[[-0.408678611,43.377570278],[-0.408647778,43.377620278]],[[-0.408647778,43.377620278],[-0.408626944,43.377667778]],[[-0.408626944,43.377667778],[-0.408623889,43.377714167]],[[-0.408623889,43.377714167],[-0.408638889,43.3777525]],[[-0.408638889,43.3777525],[-0.408675556,43.377785833]],[[-0.408675556,43.377785833],[-0.40875,43.377825278]],[[-0.40875,43.377825278],[-0.409092222,43.378021667]],[[-0.409092222,43.378021667],[-0.40994,43.378465833]],[[-0.40994,43.378465833],[-0.411543889,43.379309167]],[[-0.411543889,43.379309167],[-0.411895833,43.3794925]],[[-0.411895833,43.3794925],[-0.411934444,43.379510278]],[[-0.408644167,43.376870833],[-0.407989444,43.37653]],[[-0.407989444,43.37653],[-0.407509167,43.3762675]],[[-0.407509167,43.3762675],[-0.407427778,43.376208889]],[[-0.407427778,43.376208889],[-0.407381111,43.3761675]],[[-0.407381111,43.3761675],[-0.407341389,43.376122778]],[[-0.407341389,43.376122778],[-0.407307778,43.376084444]],[[-0.407307778,43.376084444],[-0.407278611,43.376041389]],[[-0.407278611,43.376041389],[-0.407247222,43.375989722]],[[-0.407247222,43.375989722],[-0.407219167,43.375921667]],[[-0.407219167,43.375921667],[-0.407200278,43.375853611]],[[-0.407200278,43.375853611],[-0.407193611,43.375795278]],[[-0.407193611,43.375795278],[-0.407104444,43.375941111]],[[-0.407104444,43.375941111],[-0.407078333,43.375994444]],[[-0.407078333,43.375994444],[-0.407071111,43.376025]],[[-0.407071111,43.376025],[-0.407071111,43.376056944]],[[-0.407071111,43.376056944],[-0.407090556,43.376095]],[[-0.407090556,43.376095],[-0.407185,43.376245278]],[[-0.407185,43.376245278],[-0.407193056,43.376266944]],[[-0.407193056,43.376266944],[-0.407277222,43.376354722]],[[-0.407277222,43.376354722],[-0.407974167,43.377093333]],[[-0.407974167,43.377093333],[-0.408235278,43.377374167]],[[-0.408235278,43.377374167],[-0.408276667,43.377394722]],[[-0.408276667,43.377394722],[-0.4083225,43.377409167]],[[-0.4083225,43.377409167],[-0.408370556,43.377418611]],[[-0.408370556,43.377418611],[-0.408416111,43.377418611]],[[-0.408416111,43.377418611],[-0.408455556,43.3774075]],[[-0.408455556,43.3774075],[-0.408501111,43.377383889]],[[-0.408501111,43.377383889],[-0.408716944,43.377161944]],[[-0.408716944,43.377161944],[-0.408728611,43.377134722]],[[-0.408728611,43.377134722],[-0.408741667,43.377101111]],[[-0.408741667,43.377101111],[-0.408741667,43.377068056]],[[-0.408741667,43.377068056],[-0.408743889,43.377033611]],[[-0.408743889,43.377033611],[-0.408737222,43.376999722]],[[-0.408737222,43.376999722],[-0.4087275,43.376969444]],[[-0.4087275,43.376969444],[-0.408711944,43.376934722]],[[-0.408711944,43.376934722],[-0.408690833,43.376909167]],[[-0.408690833,43.376909167],[-0.408668889,43.376886667]],[[-0.408668889,43.376886667],[-0.408644167,43.376870833]],[[-0.407958889,43.374785556],[-0.407666944,43.375081389]],[[-0.407666944,43.375081389],[-0.407321944,43.3754325]],[[-0.407321944,43.3754325],[-0.407274167,43.375496944]],[[-0.407274167,43.375496944],[-0.407242778,43.3755575]],[[-0.407242778,43.3755575],[-0.407215556,43.375618889]],[[-0.407215556,43.375618889],[-0.407199167,43.375685278]],[[-0.407199167,43.375685278],[-0.407168611,43.375706667]],[[-0.407168611,43.375706667],[-0.407113333,43.375727778]],[[-0.407113333,43.375727778],[-0.407041389,43.375701389]],[[-0.407041389,43.375701389],[-0.4069575,43.375692778]],[[-0.4069575,43.375692778],[-0.406881667,43.375698611]],[[-0.406665556,43.375936389],[-0.407227778,43.376537222]],[[-0.407227778,43.376537222],[-0.407373333,43.3766975]],[[-0.407373333,43.3766975],[-0.407379722,43.376725833]],[[-0.407379722,43.376725833],[-0.407366944,43.376750833]],[[-0.407366944,43.376750833],[-0.407349444,43.376774444]],[[-0.407349444,43.376774444],[-0.407228611,43.376834167]],[[-0.407364722,43.37701],[-0.407551944,43.376915278]],[[-0.407551944,43.376915278],[-0.407566389,43.3769125]],[[-0.407566389,43.3769125],[-0.407583611,43.376918333]],[[-0.407583611,43.376918333],[-0.407602222,43.376935556]],[[-0.407602222,43.376935556],[-0.407818611,43.377171944]],[[-0.407818611,43.377171944],[-0.407623611,43.377274722]],[[-0.407623611,43.377274722],[-0.407521944,43.377274722]],[[-0.407601667,43.377366111],[-0.4078625,43.377233333]],[[-0.4078625,43.377233333],[-0.407874167,43.3772325]],[[-0.407874167,43.3772325],[-0.408144444,43.3775125]],[[-0.408144444,43.3775125],[-0.408185278,43.377562778]],[[-0.408185278,43.377562778],[-0.408189167,43.377571111]],[[-0.408189167,43.377571111],[-0.408181944,43.3775775]],[[-0.408181944,43.3775775],[-0.407919167,43.377706667]],[[-0.408446389,43.378098889],[-0.408443056,43.378059444]],[[-0.408443056,43.378059444],[-0.408449722,43.3780175]],[[-0.408449722,43.3780175],[-0.408483611,43.377990556]],[[-0.408483611,43.377990556],[-0.408558333,43.377943611]],[[-0.408558333,43.377943611],[-0.408626111,43.377960833]],[[-0.408626111,43.377960833],[-0.409331389,43.378311111]],[[-0.409331389,43.378311111],[-0.40935,43.378341944]],[[-0.40935,43.378341944],[-0.409363333,43.378385833]],[[-0.409363333,43.378385833],[-0.409355,43.378421389]],[[-0.409355,43.378421389],[-0.409335,43.378450556]],[[-0.409335,43.378450556],[-0.409293056,43.378473889]],[[-0.409293056,43.378473889],[-0.409245833,43.378487222]],[[-0.409245833,43.378487222],[-0.409198889,43.378487222]],[[-0.409198889,43.378487222],[-0.409158611,43.3784775]],[[-0.409158611,43.3784775],[-0.40912,43.378460278]],[[-0.412175278,43.379980556],[-0.412230833,43.379925]],[[-0.412230833,43.379925],[-0.412237222,43.379900556]],[[-0.412237222,43.379900556],[-0.412232222,43.379874722]],[[-0.412232222,43.379874722],[-0.412225833,43.379849444]],[[-0.412225833,43.379849444],[-0.412229722,43.379836944]],[[-0.412229722,43.379836944],[-0.412211111,43.379823333]],[[-0.412211111,43.379823333],[-0.411784444,43.379597778]],[[-0.411784444,43.379597778],[-0.4097275,43.378522222]],[[-0.4097275,43.378522222],[-0.409696111,43.378512222]],[[-0.409696111,43.378512222],[-0.409668889,43.378512222]],[[-0.409668889,43.378512222],[-0.409633333,43.378515278]],[[-0.409633333,43.378515278],[-0.409601944,43.378523056]],[[-0.409601944,43.378523056],[-0.409566389,43.378538889]],[[-0.409566389,43.378538889],[-0.409419167,43.378619167]],[[-0.409419167,43.378619167],[-0.409457222,43.378638056]],[[-0.409457222,43.378638056],[-0.409544722,43.378676667]],[[-0.409544722,43.378676667],[-0.409702778,43.378739167]],[[-0.409702778,43.378739167],[-0.409881389,43.378805833]],[[-0.409881389,43.378805833],[-0.409955,43.378836389]],[[-0.409955,43.378836389],[-0.410032778,43.378872222]],[[-0.410032778,43.378872222],[-0.41012,43.378910833]],[[-0.41012,43.378910833],[-0.410216944,43.37896]],[[-0.410216944,43.37896],[-0.410335556,43.379023056]],[[-0.410335556,43.379023056],[-0.410508889,43.379114444]],[[-0.410508889,43.379114444],[-0.4105925,43.379157222]],[[-0.4105925,43.379157222],[-0.411285833,43.379523611]],[[-0.411285833,43.379523611],[-0.411480833,43.379626111]],[[-0.411480833,43.379626111],[-0.412123056,43.379962778]],[[-0.412123056,43.379962778],[-0.412155556,43.379977222]],[[-0.412155556,43.379977222],[-0.412175278,43.379980556]],[[-0.411728333,43.380418889],[-0.4121275,43.380024167]],[[-0.4121275,43.380024167],[-0.412120833,43.380010556]],[[-0.412120833,43.380010556],[-0.412073889,43.379984722]],[[-0.412073889,43.379984722],[-0.411375278,43.379618611]],[[-0.411375278,43.379618611],[-0.410232222,43.379017222]],[[-0.410232222,43.379017222],[-0.410148056,43.378974722]],[[-0.410148056,43.378974722],[-0.410083611,43.378940556]],[[-0.410083611,43.378940556],[-0.4100225,43.378913611]],[[-0.4100225,43.378913611],[-0.409953889,43.378883333]],[[-0.409953889,43.378883333],[-0.409876944,43.378851389]],[[-0.409876944,43.378851389],[-0.4098125,43.3788275]],[[-0.4098125,43.3788275],[-0.409744167,43.378804722]],[[-0.409744167,43.378804722],[-0.40968,43.378783889]],[[-0.40968,43.378783889],[-0.409615833,43.378758889]],[[-0.409615833,43.378758889],[-0.40953,43.378725833]],[[-0.40953,43.378725833],[-0.409424444,43.37868]],[[-0.409424444,43.37868],[-0.409362222,43.378647222]],[[-0.4135175,43.3805075],[-0.412448333,43.379941111]],[[-0.412448333,43.379941111],[-0.412367222,43.379945833]],[[-0.412367222,43.379945833],[-0.412313333,43.379955556]],[[-0.412313333,43.379955556],[-0.412284167,43.379981944]],[[-0.412284167,43.379981944],[-0.412246111,43.3800225]],[[-0.412246111,43.3800225],[-0.413402778,43.380625]],[[-0.413365278,43.380661944],[-0.412441667,43.380178333]],[[-0.412441667,43.380178333],[-0.412213611,43.380061111]],[[-0.412213611,43.380061111],[-0.411798333,43.380465556]],[[-0.421002778,43.380971111],[-0.421035556,43.380976944]],[[-0.421035556,43.380976944],[-0.421101667,43.380990833]],[[-0.421101667,43.380990833],[-0.421139167,43.380994167]],[[-0.421139167,43.380994167],[-0.421178056,43.380995]],[[-0.421178056,43.380995],[-0.421215556,43.3809925]],[[-0.421215556,43.3809925],[-0.421258056,43.380986389]],[[-0.421258056,43.380986389],[-0.421293333,43.380975278]],[[-0.421293333,43.380975278],[-0.421323889,43.380965]],[[-0.421323889,43.380965],[-0.421352222,43.380951389]],[[-0.421352222,43.380951389],[-0.421376944,43.3809325]],[[-0.421376944,43.3809325],[-0.421562778,43.380765]],[[-0.421562778,43.380765],[-0.421914167,43.380404722]],[[-0.421914167,43.380404722],[-0.421993611,43.3803125]],[[-0.421993611,43.3803125],[-0.422018889,43.380263611]],[[-0.422018889,43.380263611],[-0.4220425,43.380218056]],[[-0.4220425,43.380218056],[-0.422052778,43.380170278]],[[-0.422052778,43.380170278],[-0.422056111,43.380126111]],[[-0.422056111,43.380126111],[-0.422054444,43.380062222]],[[-0.422054444,43.380062222],[-0.422043611,43.379981389]],[[-0.422043611,43.379981389],[-0.422004167,43.379911944]],[[-0.422004167,43.379911944],[-0.421949722,43.379843611]],[[-0.421949722,43.379843611],[-0.421861667,43.379765833]],[[-0.421861667,43.379765833],[-0.421745278,43.379697778]],[[-0.421745278,43.379697778],[-0.421163333,43.379391944]],[[-0.421163333,43.379391944],[-0.420022778,43.378789167]],[[-0.420022778,43.378789167],[-0.419356389,43.378435]],[[-0.419356389,43.378435],[-0.416691111,43.377034167]],[[-0.416691111,43.377034167],[-0.414194444,43.375718611]],[[-0.414194444,43.375718611],[-0.4138775,43.375563056]],[[-0.4138775,43.375563056],[-0.413767778,43.375533611]],[[-0.413767778,43.375533611],[-0.413658056,43.375523333]],[[-0.413658056,43.375523333],[-0.413562778,43.375523333]],[[-0.413562778,43.375523333],[-0.413452778,43.375532222]],[[-0.413452778,43.375532222],[-0.413343056,43.375558611]],[[-0.413343056,43.375558611],[-0.413241667,43.375597222]],[[-0.413241667,43.375597222],[-0.413154167,43.375653333]],[[-0.413154167,43.375653333],[-0.413085,43.375707778]],[[-0.413085,43.375707778],[-0.413001667,43.3757875]],[[-0.413001667,43.3757875],[-0.412594722,43.376206111]],[[-0.412594722,43.376206111],[-0.412523889,43.376285]],[[-0.412523889,43.376285],[-0.412503611,43.376315278]],[[-0.412503611,43.376315278],[-0.412493056,43.376346944]],[[-0.412493056,43.376346944],[-0.412490556,43.376383056]],[[-0.412490556,43.376383056],[-0.412495833,43.376408333]],[[-0.412495833,43.376408333],[-0.412507222,43.376445556]],[[-0.412507222,43.376445556],[-0.412525556,43.376476111]],[[-0.412525556,43.376476111],[-0.412547222,43.376500556]],[[-0.412547222,43.376500556],[-0.4125675,43.376524444]],[[-0.4125675,43.376524444],[-0.412579722,43.376541389]],[[-0.412003611,43.376237222],[-0.412058889,43.376251944]],[[-0.412058889,43.376251944],[-0.412112222,43.376260556]],[[-0.412112222,43.376260556],[-0.412154722,43.376263611]],[[-0.412154722,43.376263611],[-0.412203611,43.376258889]],[[-0.412203611,43.376258889],[-0.412238611,43.376255833]],[[-0.412238611,43.376255833],[-0.412274722,43.376245833]],[[-0.412274722,43.376245833],[-0.412304444,43.376235833]],[[-0.412304444,43.376235833],[-0.412334167,43.376219444]],[[-0.412334167,43.376219444],[-0.412367222,43.3761925]],[[-0.412367222,43.3761925],[-0.412439444,43.376123056]],[[-0.412439444,43.376123056],[-0.413172778,43.375399722]],[[-0.413172778,43.375399722],[-0.413700833,43.374861389]],[[-0.408491667,43.374229722],[-0.410511389,43.372193611]],[[-0.409357778,43.374845556],[-0.409304444,43.374799444]],[[-0.409304444,43.374799444],[-0.409259444,43.374764444]],[[-0.409259444,43.374764444],[-0.409219444,43.374723333]],[[-0.409219444,43.374723333],[-0.409164444,43.374644444]],[[-0.409164444,43.374644444],[-0.409039444,43.374433611]],[[-0.409039444,43.374433611],[-0.408979444,43.374341667]],[[-0.408979444,43.374341667],[-0.408920278,43.374253333]],[[-0.408920278,43.374253333],[-0.408895,43.374199167]],[[-0.408895,43.374199167],[-0.408876389,43.374152778]],[[-0.408876389,43.374152778],[-0.408873056,43.374117222]],[[-0.408873056,43.374117222],[-0.408881667,43.374085278]],[[-0.408881667,43.374085278],[-0.408901667,43.374059444]],[[-0.408901667,43.374059444],[-0.409203889,43.373761389]],[[-0.409203889,43.373761389],[-0.410699722,43.372266389]],[[-0.421580833,43.381278056],[-0.421563056,43.381250556]],[[-0.421563056,43.381250556],[-0.421530278,43.381206389]],[[-0.421530278,43.381206389],[-0.421516389,43.381169722]],[[-0.421516389,43.381169722],[-0.421508611,43.381125556]],[[-0.421508611,43.381125556],[-0.42151,43.381089722]],[[-0.42151,43.381089722],[-0.421518889,43.381053889]],[[-0.421518889,43.381053889],[-0.421536667,43.381024444]],[[-0.421536667,43.381024444],[-0.421579444,43.380974722]],[[-0.421579444,43.380974722],[-0.422126944,43.380406944]],[[-0.422126944,43.380406944],[-0.422156667,43.380363889]],[[-0.422156667,43.380363889],[-0.42219,43.380305556]],[[-0.42219,43.380305556],[-0.422213333,43.380246389]],[[-0.422213333,43.380246389],[-0.422240556,43.380130556]],[[-0.422240556,43.380130556],[-0.422236944,43.380056944]],[[-0.422236944,43.380056944],[-0.422223056,43.379987222]],[[-0.422223056,43.379987222],[-0.422191667,43.379904722]],[[-0.422191667,43.379904722],[-0.422142778,43.37982]],[[-0.422142778,43.37982],[-0.422094167,43.379757778]],[[-0.422094167,43.379757778],[-0.422015556,43.379685556]],[[-0.422015556,43.379685556],[-0.421944167,43.379635]],[[-0.421944167,43.379635],[-0.421787222,43.37955]],[[-0.421787222,43.37955],[-0.419164444,43.378169722]],[[-0.419164444,43.378169722],[-0.416118056,43.376561944]],[[-0.416118056,43.376561944],[-0.416031389,43.376491944]],[[-0.416031389,43.376491944],[-0.415985833,43.376436944]],[[-0.415985833,43.376436944],[-0.415946389,43.376385]],[[-0.415946389,43.376385],[-0.415918056,43.376325833]],[[-0.415918056,43.376325833],[-0.415904722,43.37626]],[[-0.415904722,43.37626],[-0.415906667,43.376184444]],[[-0.415906667,43.376184444],[-0.415914167,43.376106111]],[[-0.415914167,43.376106111],[-0.415944444,43.376041667]],[[-0.415944444,43.376041667],[-0.415963333,43.375995]],[[-0.415963333,43.375995],[-0.416030278,43.375925]],[[-0.416030278,43.375925],[-0.416543611,43.375401389]]]}},{"type":"Feature","id":"lfbp.line.linework.apron.surface.41685","properties":{"name":"LFBP Groundlayout Pau-Pyrenees","layer":"Ground linework","category":"Apron Surface","object_type":"Line","style_id":"line.linework.apron.surface","airport":"LFBP","geometry_role":"linework","vsmr_group_ids":[]},"geometry":{"type":"MultiLineString","coordinates":[[[-0.4127525,43.3705025],[-0.412575556,43.370666944]],[[-0.412575556,43.370666944],[-0.412570556,43.370673889]],[[-0.412570556,43.370673889],[-0.412569722,43.370681944]],[[-0.412569722,43.370681944],[-0.412573889,43.370689444]],[[-0.412573889,43.370689444],[-0.4125825,43.370693333]],[[-0.4125825,43.370693333],[-0.412603333,43.370693889]],[[-0.412603333,43.370693889],[-0.413155,43.370683333]],[[-0.413155,43.370683333],[-0.413281667,43.370681111]],[[-0.413281667,43.370681111],[-0.413310556,43.370676389]],[[-0.413310556,43.370676389],[-0.413340278,43.370669167]],[[-0.413340278,43.370669167],[-0.413375833,43.370658333]],[[-0.413375833,43.370658333],[-0.413464167,43.370617778]],[[-0.413464167,43.370617778],[-0.413705278,43.370441111]],[[-0.413705278,43.370441111],[-0.413692222,43.370433889]],[[-0.413692222,43.370433889],[-0.413633333,43.370435]],[[-0.413633333,43.370435],[-0.412869722,43.370449444]],[[-0.412869722,43.370449444],[-0.412826944,43.370454167]],[[-0.412826944,43.370454167],[-0.412799167,43.37046]],[[-0.412799167,43.37046],[-0.412774722,43.370480278]],[[-0.412774722,43.370480278],[-0.4127525,43.3705025]],[[-0.407522222,43.377273889],[-0.407303611,43.377050556]],[[-0.407303611,43.377050556],[-0.407368889,43.377008889]],[[-0.40792,43.377706944],[-0.407599722,43.377371667]],[[-0.407599722,43.377371667],[-0.407602778,43.377365556]],[[-0.407863611,43.377732778],[-0.407532222,43.377904722]],[[-0.407532222,43.377904722],[-0.407520556,43.377909167]],[[-0.407520556,43.377909167],[-0.407505556,43.377905833]],[[-0.407505556,43.377905833],[-0.407490556,43.377898889]],[[-0.407490556,43.377898889],[-0.407471111,43.377883333]],[[-0.407471111,43.377883333],[-0.407285556,43.377694444]],[[-0.407285556,43.377694444],[-0.407272222,43.377674722]],[[-0.407272222,43.377674722],[-0.407284722,43.377654722]],[[-0.407284722,43.377654722],[-0.407264722,43.377631667]],[[-0.407264722,43.377631667],[-0.407248889,43.377607778]],[[-0.407248889,43.377607778],[-0.407245,43.377580833]],[[-0.407245,43.377580833],[-0.407230278,43.377548889]],[[-0.407230278,43.377548889],[-0.407203889,43.377517222]],[[-0.407203889,43.377517222],[-0.407173611,43.377482778]],[[-0.407173611,43.377482778],[-0.407140556,43.377446944]],[[-0.407140556,43.377446944],[-0.407104722,43.377406667]],[[-0.407104722,43.377406667],[-0.407070278,43.377376944]],[[-0.407070278,43.377376944],[-0.40702,43.377348889]],[[-0.40702,43.377348889],[-0.406969722,43.377323889]],[[-0.406969722,43.377323889],[-0.406915556,43.377301667]],[[-0.406915556,43.377301667],[-0.406879167,43.377280556]],[[-0.406879167,43.377280556],[-0.406861944,43.377264167]],[[-0.406861944,43.377264167],[-0.407160278,43.377110556]],[[-0.407160278,43.377110556],[-0.407181111,43.377111667]],[[-0.407181111,43.377111667],[-0.407194722,43.377125556]],[[-0.407194722,43.377125556],[-0.407229444,43.377160833]],[[-0.407229444,43.377160833],[-0.407226111,43.377183611]],[[-0.407226111,43.377183611],[-0.407215556,43.377208889]],[[-0.407215556,43.377208889],[-0.407206944,43.377232778]],[[-0.407206944,43.377232778],[-0.407201667,43.377258056]],[[-0.407201667,43.377258056],[-0.407212222,43.377275556]],[[-0.407212222,43.377275556],[-0.407336944,43.377409167]],[[-0.407336944,43.377409167],[-0.407473889,43.377431944]],[[-0.407473889,43.377431944],[-0.407553889,43.377395278]],[[-0.407553889,43.377395278],[-0.407858889,43.377718333]],[[-0.407858889,43.377718333],[-0.407864444,43.377723889]],[[-0.407864444,43.377723889],[-0.407863611,43.377732778]],[[-0.407224444,43.377685556],[-0.406911389,43.377353889]],[[-0.406911389,43.377353889],[-0.406919722,43.377346667]],[[-0.406919722,43.377346667],[-0.40693,43.377346111]],[[-0.40693,43.377346111],[-0.406946111,43.377348611]],[[-0.406946111,43.377348611],[-0.406970833,43.377355833]],[[-0.406970833,43.377355833],[-0.406991111,43.377365833]],[[-0.406991111,43.377365833],[-0.407005556,43.377372778]],[[-0.407005556,43.377372778],[-0.407068611,43.377432778]],[[-0.407068611,43.377432778],[-0.407144444,43.37751]],[[-0.407144444,43.37751],[-0.407185278,43.377558889]],[[-0.407185278,43.377558889],[-0.407220556,43.377630556]],[[-0.407220556,43.377630556],[-0.407228611,43.377649444]],[[-0.407228611,43.377649444],[-0.407231667,43.377666667]],[[-0.407231667,43.377666667],[-0.407224444,43.377685556]],[[-0.409125278,43.378463889],[-0.408446944,43.378096944]],[[-0.406878056,43.375700556],[-0.406491944,43.375276111]],[[-0.406491944,43.375276111],[-0.405958889,43.375536111]],[[-0.405958889,43.375536111],[-0.405894722,43.375472778]],[[-0.405894722,43.375472778],[-0.405149444,43.375815833]],[[-0.405149444,43.375815833],[-0.405718333,43.376371944]],[[-0.405718333,43.376371944],[-0.406647778,43.375936389]],[[-0.406647778,43.375936389],[-0.406665,43.375936944]],[[-0.411725833,43.380424722],[-0.410860278,43.379965]],[[-0.410860278,43.379965],[-0.410747778,43.380078333]],[[-0.410747778,43.380078333],[-0.410229167,43.3798025]],[[-0.410229167,43.3798025],[-0.409863333,43.379611389]],[[-0.409863333,43.379611389],[-0.409858889,43.379575]],[[-0.409858889,43.379575],[-0.409988333,43.379454167]],[[-0.409988333,43.379454167],[-0.409729444,43.379315833]],[[-0.409729444,43.379315833],[-0.409034167,43.378941667]],[[-0.409034167,43.378941667],[-0.409022222,43.378921944]],[[-0.409022222,43.378921944],[-0.409025,43.3788975]],[[-0.409025,43.3788975],[-0.409028889,43.378861944]],[[-0.409028889,43.378861944],[-0.40904,43.378833333]],[[-0.40904,43.378833333],[-0.409053333,43.378813611]],[[-0.409053333,43.378813611],[-0.409073889,43.378795]],[[-0.409073889,43.378795],[-0.409110278,43.378775278]],[[-0.409110278,43.378775278],[-0.409361111,43.378647222]],[[-0.416263056,43.381560556],[-0.416203333,43.381548056]],[[-0.416203333,43.381548056],[-0.416127778,43.381523056]],[[-0.416127778,43.381523056],[-0.416062778,43.381501667]],[[-0.416062778,43.381501667],[-0.41601,43.381477778]],[[-0.41601,43.381477778],[-0.415963611,43.381458333]],[[-0.415963611,43.381458333],[-0.415917222,43.381436389]],[[-0.415917222,43.381436389],[-0.415643056,43.381292778]],[[-0.415643056,43.381292778],[-0.413737778,43.380288333]],[[-0.413521944,43.380510833],[-0.413406389,43.380627222]],[[-0.413363889,43.380661944],[-0.413029167,43.381008611]],[[-0.413029167,43.381008611],[-0.412787778,43.380888889]],[[-0.412787778,43.380888889],[-0.412665556,43.381010833]],[[-0.412665556,43.381010833],[-0.412001667,43.380668889]],[[-0.412001667,43.380668889],[-0.412058889,43.380608611]],[[-0.412058889,43.380608611],[-0.411796389,43.380467778]],[[-0.419295556,43.382979167],[-0.419367778,43.383377222]],[[-0.419367778,43.383377222],[-0.41937,43.383400556]],[[-0.41937,43.383400556],[-0.419371944,43.383434444]],[[-0.419371944,43.383434444],[-0.419363611,43.383482222]],[[-0.419363611,43.383482222],[-0.419348611,43.383557778]],[[-0.419348611,43.383557778],[-0.419399722,43.383588611]],[[-0.419399722,43.383588611],[-0.419004444,43.383995]],[[-0.419004444,43.383995],[-0.4182025,43.383571944]],[[-0.4182025,43.383571944],[-0.418233611,43.383534167]],[[-0.418233611,43.383534167],[-0.417933333,43.383374722]],[[-0.417933333,43.383374722],[-0.418293889,43.383011111]],[[-0.418293889,43.383011111],[-0.418422222,43.383078889]],[[-0.418422222,43.383078889],[-0.418685833,43.382969722]],[[-0.418685833,43.382969722],[-0.418700556,43.382959167]],[[-0.418700556,43.382959167],[-0.418815278,43.382841667]],[[-0.416750556,43.381874167],[-0.416744167,43.381891389]],[[-0.416744167,43.381891389],[-0.416745833,43.381923333]],[[-0.416745833,43.381923333],[-0.416748889,43.381958889]],[[-0.416748889,43.381958889],[-0.41676,43.382000278]],[[-0.41676,43.382000278],[-0.416777778,43.382033056]],[[-0.416777778,43.382033056],[-0.416803056,43.382067778]],[[-0.416803056,43.382067778],[-0.416815,43.382083056]],[[-0.416815,43.382083056],[-0.416837778,43.382098889]],[[-0.416837778,43.382098889],[-0.416873333,43.382120278]],[[-0.416873333,43.382120278],[-0.417024167,43.382200556]],[[-0.417024167,43.382200556],[-0.417373333,43.382378056]],[[-0.417373333,43.382378056],[-0.417535556,43.382218889]],[[-0.417535556,43.382218889],[-0.417663889,43.382286111]],[[-0.417663889,43.382286111],[-0.417498333,43.382448889]],[[-0.417498333,43.382448889],[-0.4177675,43.382593889]],[[-0.4177675,43.382593889],[-0.417362778,43.383011944]],[[-0.417362778,43.383011944],[-0.417513056,43.383090833]],[[-0.417513056,43.383090833],[-0.417444167,43.383160556]],[[-0.417444167,43.383160556],[-0.417308611,43.3830925]],[[-0.417308611,43.3830925],[-0.416974722,43.3831925]],[[-0.416974722,43.3831925],[-0.416937222,43.383187778]],[[-0.416937222,43.383187778],[-0.416901944,43.383175833]],[[-0.416901944,43.383175833],[-0.41686,43.383153056]],[[-0.41686,43.383153056],[-0.414991667,43.382198333]],[[-0.414991667,43.382198333],[-0.413603889,43.381480833]],[[-0.413603889,43.381480833],[-0.413472778,43.381693889]],[[-0.413472778,43.381693889],[-0.411856667,43.380835833]],[[-0.411856667,43.380835833],[-0.408337778,43.378965278]],[[-0.408337778,43.378965278],[-0.408081111,43.378813889]],[[-0.408081111,43.378813889],[-0.408103889,43.378766389]],[[-0.408103889,43.378766389],[-0.408084444,43.378701944]],[[-0.408084444,43.378701944],[-0.408045,43.378630278]],[[-0.408045,43.378630278],[-0.407989167,43.378568333]],[[-0.407989167,43.378568333],[-0.407171944,43.377726111]],[[-0.407171944,43.377726111],[-0.406326944,43.3768175]],[[-0.406326944,43.3768175],[-0.406524444,43.3767275]],[[-0.406524444,43.3767275],[-0.406749167,43.376958611]],[[-0.406749167,43.376958611],[-0.407051667,43.376820556]],[[-0.407051667,43.376820556],[-0.407101944,43.376834444]],[[-0.407101944,43.376834444],[-0.40716,43.376843056]],[[-0.40716,43.376843056],[-0.407187778,43.376837778]],[[-0.407187778,43.376837778],[-0.407217222,43.376835278]],[[-0.407217222,43.376835278],[-0.407233611,43.376831667]],[[-0.416335556,43.375376111],[-0.416339722,43.375358889]],[[-0.416339722,43.375358889],[-0.416336389,43.375335278]],[[-0.416336389,43.375335278],[-0.416325278,43.375314444]],[[-0.416325278,43.375314444],[-0.416313333,43.375297778]],[[-0.416313333,43.375297778],[-0.416294722,43.375281667]],[[-0.416294722,43.375281667],[-0.416271667,43.375264722]],[[-0.416271667,43.375264722],[-0.416241944,43.375248889]],[[-0.416241944,43.375248889],[-0.416214722,43.375237778]],[[-0.416214722,43.375237778],[-0.416183056,43.375228333]],[[-0.416183056,43.375228333],[-0.4161475,43.375220833]],[[-0.4161475,43.375220833],[-0.416111667,43.375218333]],[[-0.416111667,43.375218333],[-0.416088611,43.375220278]],[[-0.416088611,43.375220278],[-0.416075833,43.375223333]],[[-0.416075833,43.375223333],[-0.416057222,43.375241389]],[[-0.416057222,43.375241389],[-0.415847778,43.375454722]],[[-0.415847778,43.375454722],[-0.415504444,43.375798889]],[[-0.415504444,43.375798889],[-0.415113889,43.375591389]],[[-0.415113889,43.375591389],[-0.414067778,43.375042222]],[[-0.414067778,43.375042222],[-0.414017778,43.375025833]],[[-0.414017778,43.375025833],[-0.4139775,43.375013889]],[[-0.4139775,43.375013889],[-0.413948333,43.375005833]],[[-0.413948333,43.375005833],[-0.413920833,43.375002222]],[[-0.413696111,43.374862222],[-0.413695833,43.374852778]],[[-0.413695833,43.374852778],[-0.413693889,43.374844167]],[[-0.413693889,43.374844167],[-0.4136775,43.374836389]],[[-0.4136775,43.374836389],[-0.413573056,43.374781389]],[[-0.413573056,43.374781389],[-0.413755278,43.374590556]],[[-0.413755278,43.374590556],[-0.414089444,43.374251667]],[[-0.414089444,43.374251667],[-0.414043611,43.374164167]],[[-0.414043611,43.374164167],[-0.414029444,43.374157222]],[[-0.414029444,43.374157222],[-0.413990278,43.374194167]],[[-0.413990278,43.374194167],[-0.41222,43.373261667]],[[-0.41222,43.373261667],[-0.412423333,43.373051944]],[[-0.412423333,43.373051944],[-0.41261,43.373155556]],[[-0.41261,43.373155556],[-0.412546667,43.372752222]],[[-0.412546667,43.372752222],[-0.412543611,43.372728333]],[[-0.412543611,43.372728333],[-0.412534444,43.372712778]],[[-0.412534444,43.372712778],[-0.412510278,43.372695278]],[[-0.412510278,43.372695278],[-0.412056111,43.372450278]],[[-0.412056111,43.372450278],[-0.411951667,43.372398333]],[[-0.411951667,43.372398333],[-0.411884722,43.372366111]],[[-0.411884722,43.372366111],[-0.411820833,43.372345556]],[[-0.411820833,43.372345556],[-0.411764167,43.3723325]],[[-0.411764167,43.3723325],[-0.411700278,43.372327222]],[[-0.411700278,43.372327222],[-0.411646944,43.372323889]],[[-0.411646944,43.372323889],[-0.411465556,43.372325]],[[-0.411465556,43.372325],[-0.4112025,43.372341111]],[[-0.4112025,43.372341111],[-0.411135,43.372337222]],[[-0.411135,43.372337222],[-0.411071389,43.372333056]],[[-0.411071389,43.372333056],[-0.411011944,43.372323056]],[[-0.411011944,43.372323056],[-0.410941667,43.372308889]],[[-0.410941667,43.372308889],[-0.410879444,43.372298056]],[[-0.410879444,43.372298056],[-0.410801944,43.372285]],[[-0.410801944,43.372285],[-0.4107425,43.372272778]],[[-0.4107425,43.372272778],[-0.410699722,43.372267778]],[[-0.414166944,43.374040278],[-0.414386389,43.3738225]],[[-0.414386389,43.3738225],[-0.414144722,43.373691111]],[[-0.414144722,43.373691111],[-0.413995556,43.373922222]],[[-0.413995556,43.373922222],[-0.413989444,43.373950278]],[[-0.413989444,43.373950278],[-0.413996944,43.373980833]],[[-0.413996944,43.373980833],[-0.414013333,43.374008889]],[[-0.414013333,43.374008889],[-0.414040278,43.374033889]],[[-0.414040278,43.374033889],[-0.414065556,43.37405]],[[-0.414065556,43.37405],[-0.4140925,43.374060833]],[[-0.4140925,43.374060833],[-0.414125278,43.374076111]],[[-0.414125278,43.374076111],[-0.414166944,43.374040278]],[[-0.412970833,43.373139722],[-0.412765278,43.373035278]],[[-0.412765278,43.373035278],[-0.4127125,43.372804722]],[[-0.4127125,43.372804722],[-0.412796944,43.3728475]],[[-0.412796944,43.3728475],[-0.412825278,43.373006944]],[[-0.412825278,43.373006944],[-0.413025556,43.373111389]],[[-0.413025556,43.373111389],[-0.412993056,43.373141944]],[[-0.412993056,43.373141944],[-0.412970833,43.373139722]],[[-0.416544167,43.375401667],[-0.416847222,43.375105]],[[-0.416847222,43.375105],[-0.416508333,43.374878333]],[[-0.416508333,43.374878333],[-0.416433611,43.374880556]],[[-0.416433611,43.374880556],[-0.416385,43.374866389]],[[-0.416385,43.374866389],[-0.414839722,43.374034444]],[[-0.414839722,43.374034444],[-0.414788889,43.373798889]],[[-0.414788889,43.373798889],[-0.4147325,43.373755833]],[[-0.4147325,43.373755833],[-0.414704444,43.3737825]],[[-0.414704444,43.3737825],[-0.413413333,43.37308]],[[-0.413413333,43.37308],[-0.4135325,43.372943889]],[[-0.4135325,43.372943889],[-0.412953056,43.3726425]],[[-0.412953056,43.3726425],[-0.412626389,43.372671389]],[[-0.412626389,43.372671389],[-0.411984722,43.372336944]],[[-0.411984722,43.372336944],[-0.411873333,43.372290278]],[[-0.411873333,43.372290278],[-0.411784167,43.372264167]],[[-0.411784167,43.372264167],[-0.411729444,43.372257778]],[[-0.411729444,43.372257778],[-0.411643611,43.372254167]],[[-0.411643611,43.372254167],[-0.411122778,43.372275278]],[[-0.411122778,43.372275278],[-0.411059444,43.372266667]],[[-0.411059444,43.372266667],[-0.410975556,43.372247778]],[[-0.410975556,43.372247778],[-0.410883611,43.372221667]],[[-0.410883611,43.372221667],[-0.410826111,43.372203889]],[[-0.410826111,43.372203889],[-0.410829722,43.372193611]],[[-0.410829722,43.372193611],[-0.410838333,43.372183611]],[[-0.410838333,43.372183611],[-0.410880278,43.372165833]],[[-0.410880278,43.372165833],[-0.410913333,43.372144167]],[[-0.410913333,43.372144167],[-0.411014722,43.372101111]],[[-0.411014722,43.372101111],[-0.411112222,43.372071944]],[[-0.411112222,43.372071944],[-0.41121,43.372050278]],[[-0.41121,43.372050278],[-0.411311389,43.37203]],[[-0.411311389,43.37203],[-0.411417778,43.372014722]],[[-0.411417778,43.372014722],[-0.411538056,43.372004722]],[[-0.411538056,43.372004722],[-0.411681111,43.371998333]],[[-0.411681111,43.371998333],[-0.411894167,43.371991944]],[[-0.411894167,43.371991944],[-0.413123056,43.371957222]],[[-0.413123056,43.371957222],[-0.413706944,43.371934722]],[[-0.413706944,43.371934722],[-0.413761111,43.371938611]],[[-0.413761111,43.371938611],[-0.4138,43.371949722]],[[-0.4138,43.371949722],[-0.413833611,43.371966667]],[[-0.413833611,43.371966667],[-0.413854167,43.371993056]],[[-0.413854167,43.371993056],[-0.413864444,43.372056667]],[[-0.413864444,43.372056667],[-0.413934167,43.373028889]],[[-0.413934167,43.373028889],[-0.414545278,43.373008611]],[[-0.414545278,43.373008611],[-0.414515,43.372569444]],[[-0.414515,43.372569444],[-0.414151667,43.372564444]],[[-0.414151667,43.372564444],[-0.41411,43.372556111]],[[-0.41411,43.372556111],[-0.414086944,43.3725275]],[[-0.414086944,43.3725275],[-0.414070833,43.372483611]],[[-0.414070833,43.372483611],[-0.414066111,43.372435]],[[-0.414066111,43.372435],[-0.414037778,43.371928889]],[[-0.414037778,43.371928889],[-0.414069722,43.371920556]],[[-0.414069722,43.371920556],[-0.414126111,43.3719125]],[[-0.414126111,43.3719125],[-0.414184444,43.371911111]],[[-0.414184444,43.371911111],[-0.414251944,43.371911111]],[[-0.414251944,43.371911111],[-0.414306389,43.371909722]],[[-0.414306389,43.371909722],[-0.414345833,43.371915278]],[[-0.414345833,43.371915278],[-0.414385278,43.371920556]],[[-0.414385278,43.371920556],[-0.414428611,43.371938333]],[[-0.414428611,43.371938333],[-0.414488611,43.371968333]],[[-0.414488611,43.371968333],[-0.417048611,43.373289167]],[[-0.417048611,43.373289167],[-0.417846111,43.372519444]],[[-0.417846111,43.372519444],[-0.418288333,43.372743611]],[[-0.418288333,43.372743611],[-0.423163611,43.375255]],[[-0.423163611,43.375255],[-0.423390278,43.375046944]],[[-0.423390278,43.375046944],[-0.425981667,43.376387222]],[[-0.425981667,43.376387222],[-0.426491667,43.375863611]],[[-0.426491667,43.375863611],[-0.423451944,43.374223611]],[[-0.423451944,43.374223611],[-0.421026667,43.372968611]],[[-0.421026667,43.372968611],[-0.416838333,43.370725556]],[[-0.416838333,43.370725556],[-0.416613611,43.370605556]],[[-0.416613611,43.370605556],[-0.416435278,43.370466111]],[[-0.416435278,43.370466111],[-0.41629,43.370336667]],[[-0.41629,43.370336667],[-0.416124722,43.370149167]],[[-0.416124722,43.370149167],[-0.415986111,43.369952222]],[[-0.415986111,43.369952222],[-0.415904444,43.369781667]],[[-0.415904444,43.369781667],[-0.4158375,43.369624722]],[[-0.4158375,43.369624722],[-0.415781111,43.369441944]],[[-0.415781111,43.369441944],[-0.415770833,43.369244167]],[[-0.415770833,43.369244167],[-0.415735,43.368565]],[[-0.415735,43.368565],[-0.415719444,43.368341111]],[[-0.415719444,43.368341111],[-0.413313889,43.368391111]],[[-0.413313889,43.368391111],[-0.413313889,43.368429722]],[[-0.413313889,43.368429722],[-0.409880833,43.368513333]],[[-0.409880833,43.368513333],[-0.409906667,43.369081111]],[[-0.409906667,43.369081111],[-0.410436111,43.369067222]],[[-0.410436111,43.369067222],[-0.410524722,43.370585278]],[[-0.410524722,43.370585278],[-0.410230833,43.370599444]],[[-0.410230833,43.370599444],[-0.410131667,43.370625]],[[-0.410131667,43.370625],[-0.410060833,43.370661111]],[[-0.410060833,43.370661111],[-0.410004167,43.37071]],[[-0.410004167,43.37071],[-0.409968611,43.370756389]],[[-0.409968611,43.370756389],[-0.409950833,43.370813056]],[[-0.409950833,43.370813056],[-0.409961667,43.370869722]],[[-0.409961667,43.370869722],[-0.409982778,43.370929167]],[[-0.409982778,43.370929167],[-0.410053611,43.370996111]],[[-0.410053611,43.370996111],[-0.410138611,43.371037222]],[[-0.410138611,43.371037222],[-0.410238056,43.371060556]],[[-0.410238056,43.371060556],[-0.410326667,43.371070833]],[[-0.410326667,43.371070833],[-0.410425833,43.371075833]],[[-0.410425833,43.371075833],[-0.410535556,43.371070833]],[[-0.410535556,43.371070833],[-0.410585278,43.371075833]],[[-0.410585278,43.371075833],[-0.410595833,43.371117222]],[[-0.410595833,43.371117222],[-0.410618333,43.371932222]],[[-0.410618333,43.371932222],[-0.410612222,43.372009167]],[[-0.410612222,43.372009167],[-0.410581111,43.372065556]],[[-0.410581111,43.372065556],[-0.41055,43.372135556]],[[-0.41055,43.372135556],[-0.410506389,43.372201111]],[[-0.411352778,43.371878611],[-0.413090278,43.371825278]],[[-0.413090278,43.371825278],[-0.413522778,43.371803611]],[[-0.413522778,43.371803611],[-0.413615278,43.371783889]],[[-0.413615278,43.371783889],[-0.413686111,43.371752222]],[[-0.413686111,43.371752222],[-0.413731667,43.371715]],[[-0.413731667,43.371715],[-0.413771389,43.371675556]],[[-0.413771389,43.371675556],[-0.413793333,43.371641111]],[[-0.413793333,43.371641111],[-0.413806111,43.371596389]],[[-0.413806111,43.371596389],[-0.413816944,43.371536944]],[[-0.413816944,43.371536944],[-0.413816944,43.371472222]],[[-0.413816944,43.371472222],[-0.413811389,43.371254444]],[[-0.413811389,43.371254444],[-0.413755833,43.370505833]],[[-0.413755833,43.370505833],[-0.413598611,43.370611667]],[[-0.413598611,43.370611667],[-0.413489444,43.370672778]],[[-0.413489444,43.370672778],[-0.41341,43.370705833]],[[-0.41341,43.370705833],[-0.413334722,43.370719167]],[[-0.413334722,43.370719167],[-0.413250556,43.370725833]],[[-0.413250556,43.370725833],[-0.412467778,43.370747222]],[[-0.412467778,43.370747222],[-0.41242,43.370765278]],[[-0.41242,43.370765278],[-0.412358611,43.370770278]],[[-0.412358611,43.370770278],[-0.412310833,43.370761944]],[[-0.412310833,43.370761944],[-0.412207778,43.370788611]],[[-0.412207778,43.370788611],[-0.411974722,43.370656944]],[[-0.411974722,43.370656944],[-0.411996389,43.370606667]],[[-0.411996389,43.370606667],[-0.411780833,43.370490833]],[[-0.411780833,43.370490833],[-0.410804722,43.370513333]],[[-0.410804722,43.370513333],[-0.4107675,43.370540556]],[[-0.4107675,43.370540556],[-0.410740278,43.3705675]],[[-0.410740278,43.3705675],[-0.410743889,43.370626667]],[[-0.410743889,43.370626667],[-0.410764167,43.371282778]],[[-0.410764167,43.371282778],[-0.410790833,43.371646667]],[[-0.410790833,43.371646667],[-0.410823889,43.371709444]],[[-0.410823889,43.371709444],[-0.410886944,43.371767222]],[[-0.410886944,43.371767222],[-0.410969722,43.371812778]],[[-0.410969722,43.371812778],[-0.4110525,43.371856111]],[[-0.4110525,43.371856111],[-0.411135278,43.371875556]],[[-0.411135278,43.371875556],[-0.411211667,43.371882778]],[[-0.411211667,43.371882778],[-0.411281111,43.371877778]],[[-0.411281111,43.371877778],[-0.411352778,43.371878611]],[[-0.412172778,43.370484722],[-0.412394167,43.370604722]],[[-0.412394167,43.370604722],[-0.412526667,43.370470278]],[[-0.412526667,43.370470278],[-0.412188333,43.3704725]],[[-0.412188333,43.3704725],[-0.412172778,43.370484722]],[[-0.413936389,43.370570833],[-0.414017778,43.371400833]],[[-0.414017778,43.371400833],[-0.414035278,43.371468333]],[[-0.414035278,43.371468333],[-0.414059444,43.371515]],[[-0.414059444,43.371515],[-0.414079444,43.371553056]],[[-0.414079444,43.371553056],[-0.414103333,43.371585]],[[-0.414103333,43.371585],[-0.414135556,43.371609722]],[[-0.414135556,43.371609722],[-0.414183611,43.371641944]],[[-0.414183611,43.371641944],[-0.414610556,43.371869167]],[[-0.414610556,43.371869167],[-0.414979444,43.372069444]],[[-0.414979444,43.372069444],[-0.414985278,43.372031111]],[[-0.414985278,43.372031111],[-0.4149975,43.372008056]],[[-0.4149975,43.372008056],[-0.415015556,43.371976389]],[[-0.415015556,43.371976389],[-0.415060556,43.371925]],[[-0.415060556,43.371925],[-0.4153,43.371680833]],[[-0.4153,43.371680833],[-0.415635278,43.371346667]],[[-0.415635278,43.371346667],[-0.415530556,43.371289167]],[[-0.415530556,43.371289167],[-0.415446944,43.371238611]],[[-0.415446944,43.371238611],[-0.4153975,43.371204444]],[[-0.4153975,43.371204444],[-0.415281111,43.371120556]],[[-0.415281111,43.371120556],[-0.415157778,43.371003056]],[[-0.415157778,43.371003056],[-0.415042222,43.370907778]],[[-0.415042222,43.370907778],[-0.414944444,43.370799167]],[[-0.414944444,43.370799167],[-0.414877778,43.370705833]],[[-0.414877778,43.370705833],[-0.414823611,43.370586389]],[[-0.414823611,43.370586389],[-0.414769722,43.370483611]],[[-0.414769722,43.370483611],[-0.414711667,43.370365278]],[[-0.414711667,43.370365278],[-0.414663056,43.370363889]],[[-0.414663056,43.370363889],[-0.414650833,43.370384444]],[[-0.414650833,43.370384444],[-0.414261667,43.370396389]],[[-0.414261667,43.370396389],[-0.414239444,43.370409722]],[[-0.414239444,43.370409722],[-0.414235278,43.370427222]],[[-0.414235278,43.370427222],[-0.4142475,43.370447778]],[[-0.4142475,43.370447778],[-0.414292222,43.370480278]],[[-0.414292222,43.370480278],[-0.414318333,43.370508333]],[[-0.414318333,43.370508333],[-0.414344722,43.370528889]],[[-0.414344722,43.370528889],[-0.414427778,43.3706025]],[[-0.414427778,43.3706025],[-0.414624444,43.370468611]],[[-0.414624444,43.370468611],[-0.414673056,43.370506944]],[[-0.414673056,43.370506944],[-0.414545278,43.370615833]],[[-0.414545278,43.370615833],[-0.414486667,43.370652778]],[[-0.414486667,43.370652778],[-0.414435833,43.370677778]],[[-0.414435833,43.370677778],[-0.414385278,43.370688056]],[[-0.414385278,43.370688056],[-0.414334722,43.370683611]],[[-0.414334722,43.370683611],[-0.414288056,43.370670278]],[[-0.414288056,43.370670278],[-0.4142575,43.370661389]],[[-0.4142575,43.370661389],[-0.414205,43.370702778]],[[-0.414205,43.370702778],[-0.414160278,43.370707222]],[[-0.414160278,43.370707222],[-0.414093611,43.3706675]],[[-0.414093611,43.3706675],[-0.413936389,43.370570833]],[[-0.415501389,43.371714167],[-0.415189444,43.372024167]],[[-0.415189444,43.372024167],[-0.415164444,43.372053611]],[[-0.415164444,43.372053611],[-0.415158611,43.372069444]],[[-0.415158611,43.372069444],[-0.415158611,43.372089722]],[[-0.415158611,43.372089722],[-0.415171389,43.372167222]],[[-0.415171389,43.372167222],[-0.415181944,43.372176389]],[[-0.415181944,43.372176389],[-0.416159167,43.372685]],[[-0.416159167,43.372685],[-0.416894167,43.373070556]],[[-0.416894167,43.373070556],[-0.416929167,43.373070556]],[[-0.416929167,43.373070556],[-0.416973889,43.373072222]],[[-0.416973889,43.373072222],[-0.417018611,43.373061389]],[[-0.417018611,43.373061389],[-0.417065833,43.373045278]],[[-0.417065833,43.373045278],[-0.417098333,43.37302]],[[-0.417098333,43.37302],[-0.417648333,43.372457222]],[[-0.417648333,43.372457222],[-0.417646667,43.372416111]],[[-0.417646667,43.372416111],[-0.417599167,43.372381667]],[[-0.417599167,43.372381667],[-0.417530556,43.372349167]],[[-0.417530556,43.372349167],[-0.416621944,43.371865278]],[[-0.416621944,43.371865278],[-0.415793333,43.371424444]],[[-0.415793333,43.371424444],[-0.415582222,43.3716325]],[[-0.415582222,43.3716325],[-0.415501389,43.371714167]],[[-0.413892222,43.369579444],[-0.413900833,43.369884722]],[[-0.413900833,43.369884722],[-0.413922222,43.370189444]],[[-0.413922222,43.370189444],[-0.413933333,43.370206111]],[[-0.413933333,43.370206111],[-0.413948611,43.3702225]],[[-0.413948611,43.3702225],[-0.413966389,43.370240833]],[[-0.413966389,43.370240833],[-0.413988889,43.370252778]],[[-0.413988889,43.370252778],[-0.414015556,43.370261111]],[[-0.414015556,43.370261111],[-0.414034444,43.370266667]],[[-0.414034444,43.370266667],[-0.414066111,43.370268333]],[[-0.414066111,43.370268333],[-0.414350278,43.370264722]],[[-0.414350278,43.370264722],[-0.414640833,43.370261667]],[[-0.414640833,43.370261667],[-0.414645,43.37028]],[[-0.414645,43.37028],[-0.414693056,43.37028]],[[-0.414693056,43.37028],[-0.414661667,43.3701575]],[[-0.414661667,43.3701575],[-0.414650833,43.370110278]],[[-0.414650833,43.370110278],[-0.414647778,43.370063889]],[[-0.414647778,43.370063889],[-0.414645,43.369979167]],[[-0.414645,43.369979167],[-0.414587778,43.369216944]],[[-0.414587778,43.369216944],[-0.413865833,43.369234167]],[[-0.413865833,43.369234167],[-0.413892222,43.369579444]]]}},{"type":"Feature","id":"lfbp.line.linework.stopbar.42170","properties":{"name":"LFBP Groundlayout Pau-Pyrenees","layer":"Ground linework","category":"Stopbar","object_type":"Line","style_id":"line.linework.stopbar","airport":"LFBP","geometry_role":"linework","vsmr_group_ids":[]},"geometry":{"type":"MultiLineString","coordinates":[[[-0.422225278,43.380190278],[-0.422054167,43.38017]],[[-0.427713333,43.386588611],[-0.427669444,43.386405278]],[[-0.419293611,43.382923056],[-0.418907778,43.382721111]],[[-0.417710833,43.381145278],[-0.417305833,43.380936111]],[[-0.416949722,43.381694444],[-0.416626389,43.381524444]],[[-0.412861667,43.379498056],[-0.412514444,43.379391944]],[[-0.408802222,43.377436389],[-0.408569167,43.377314722]],[[-0.407492778,43.375873056],[-0.407219167,43.375920833]],[[-0.409468056,43.373496944],[-0.409302222,43.3734125]],[[-0.410025556,43.37294],[-0.409861111,43.372848889]],[[-0.413383333,43.3755475],[-0.413149444,43.375424167]]]}},{"type":"Feature","id":"lfbp.line.linework.centerlines.42181","properties":{"name":"LFBP Groundlayout Pau-Pyrenees","layer":"Ground linework","category":"Centerlines","object_type":"Line","style_id":"line.linework.centerlines","airport":"LFBP","geometry_role":"linework","vsmr_group_ids":[]},"geometry":{"type":"MultiLineString","coordinates":[[[-0.419083611,43.383538889],[-0.418922778,43.383702222]],[[-0.418885556,43.383455556],[-0.418724444,43.383621944]],[[-0.418704444,43.383356389],[-0.418567222,43.383495278]],[[-0.41838,43.383396944],[-0.418525556,43.3832525]],[[-0.418194722,43.3833],[-0.418330278,43.383161667]],[[-0.418832778,43.383613333],[-0.418187778,43.383273889]],[[-0.418344167,43.383352222],[-0.418311667,43.383162222]],[[-0.418864722,43.383453611],[-0.418825,43.383228611]],[[-0.417225833,43.382933889],[-0.417465278,43.382688889]],[[-0.416918056,43.382784167],[-0.417146944,43.382551944]],[[-0.416614722,43.382629444],[-0.416847222,43.382395]],[[-0.417048056,43.382735833],[-0.416596944,43.382426389]],[[-0.413398889,43.381054722],[-0.413646667,43.380806944]],[[-0.411807778,43.379062222],[-0.411999722,43.378873889]],[[-0.411999722,43.378873889],[-0.4116925,43.378709444]],[[-0.4116925,43.378709444],[-0.411499167,43.378898611]],[[-0.411499167,43.378898611],[-0.411807778,43.379062222]],[[-0.413728889,43.380951667],[-0.413396944,43.381129444]],[[-0.413640556,43.381104444],[-0.4140475,43.381128333]],[[-0.414445,43.381455833],[-0.414056111,43.381251944]],[[-0.414679444,43.381551111],[-0.414271944,43.3816225]],[[-0.414930833,43.381990833],[-0.415188056,43.381731389]],[[-0.414944444,43.381773611],[-0.415349722,43.3819825]],[[-0.415343611,43.382228056],[-0.415608611,43.381956667]],[[-0.415545556,43.382353333],[-0.415818611,43.382074444]],[[-0.415781111,43.382438611],[-0.416037778,43.382176111]]]}},{"type":"Feature","id":"lfbp.line.linework.twr.ctr.42207","properties":{"name":"LFBP Groundlayout Pau-Pyrenees","layer":"Ground linework","category":"TWR CTR","object_type":"Line","style_id":"line.linework.twr.ctr","airport":"LFBP","geometry_role":"linework","vsmr_group_ids":[]},"geometry":{"type":"MultiLineString","coordinates":[[[-0.415757778,43.382846944],[-0.41571,43.382846944]],[[-0.41571,43.382846944],[-0.415668056,43.382826389]],[[-0.415668056,43.382826389],[-0.415650278,43.3828025]],[[-0.415650278,43.3828025],[-0.415648889,43.382776667]],[[-0.415648889,43.382776667],[-0.415666667,43.382751667]],[[-0.415666667,43.382751667],[-0.415690556,43.382735278]],[[-0.415690556,43.382735278],[-0.415729444,43.382725556]],[[-0.415729444,43.382725556],[-0.415775556,43.382728889]],[[-0.415775556,43.382728889],[-0.415805278,43.382746111]],[[-0.415805278,43.382746111],[-0.415818889,43.38277]],[[-0.415818889,43.38277],[-0.415817222,43.382798333]],[[-0.415817222,43.382798333],[-0.415806944,43.382821111]],[[-0.415806944,43.382821111],[-0.415790556,43.382836111]],[[-0.415790556,43.382836111],[-0.415757778,43.382846944]]]}},{"type":"Feature","id":"lfbp.line.linework.labels.42221","properties":{"name":"LFBP Groundlayout Pau-Pyrenees","layer":"Ground linework","category":"Labels","object_type":"Line","style_id":"line.linework.labels","airport":"LFBP","geometry_role":"linework","vsmr_group_ids":[]},"geometry":{"type":"MultiLineString","coordinates":[[[-0.408946111,43.374800833],[-0.408901667,43.374845556]],[[-0.408901667,43.374845556],[-0.408848611,43.374819722]],[[-0.408848611,43.374819722],[-0.408842778,43.374791944]],[[-0.408842778,43.374791944],[-0.4088075,43.374796667]],[[-0.4088075,43.374796667],[-0.408718333,43.374750556]],[[-0.408718333,43.374750556],[-0.408761667,43.374705833]],[[-0.408761667,43.374705833],[-0.408795556,43.374721111]],[[-0.408795556,43.374721111],[-0.408765,43.374753889]],[[-0.408765,43.374753889],[-0.4088125,43.374778056]],[[-0.4088125,43.374778056],[-0.408860556,43.374771944]],[[-0.408860556,43.374771944],[-0.4088725,43.374809444]],[[-0.4088725,43.374809444],[-0.408883056,43.374815278]],[[-0.408883056,43.374815278],[-0.408914167,43.374784444]],[[-0.408914167,43.374784444],[-0.408946111,43.374800833]],[[-0.4327525,43.387434167],[-0.432739444,43.3874475]],[[-0.432739444,43.3874475],[-0.432592778,43.387368889]],[[-0.432592778,43.387368889],[-0.432588056,43.387374167]],[[-0.432588056,43.387374167],[-0.432560556,43.387359722]],[[-0.432560556,43.387359722],[-0.432559167,43.387351944]],[[-0.432559167,43.387351944],[-0.432571667,43.387339444]],[[-0.432571667,43.387339444],[-0.4327525,43.387434167]],[[-0.432629722,43.387328611],[-0.4325975,43.387311667]],[[-0.4325975,43.387311667],[-0.432641389,43.387267222]],[[-0.432641389,43.387267222],[-0.432696111,43.387293611]],[[-0.432696111,43.387293611],[-0.432700278,43.387321944]],[[-0.432700278,43.387321944],[-0.432737222,43.387316667]],[[-0.432737222,43.387316667],[-0.432823889,43.387362222]],[[-0.432823889,43.387362222],[-0.432780278,43.387408611]],[[-0.432780278,43.387408611],[-0.4327475,43.387391667]],[[-0.4327475,43.387391667],[-0.432778889,43.387359722]],[[-0.432778889,43.387359722],[-0.432733611,43.387334444]],[[-0.432733611,43.387334444],[-0.4326825,43.38734]],[[-0.4326825,43.38734],[-0.432673611,43.387304722]],[[-0.432673611,43.387304722],[-0.432661111,43.387298611]],[[-0.432661111,43.387298611],[-0.432629722,43.387328611]],[[-0.408671111,43.374798333],[-0.408683889,43.374784722]],[[-0.408683889,43.374784722],[-0.408832222,43.374863611]],[[-0.408832222,43.374863611],[-0.408838611,43.37486]],[[-0.408838611,43.37486],[-0.408861944,43.374871111]],[[-0.408861944,43.374871111],[-0.408864722,43.374881389]],[[-0.408864722,43.374881389],[-0.408851389,43.374894444]],[[-0.408851389,43.374894444],[-0.408671111,43.374798333]]]}},{"type":"Feature","id":"LFBP-airport-reference","properties":{"name":"LFBP","layer":"Reference points","category":"Labels","object_type":"Point","style_id":"point.airport.reference.point.labels","airport":"LFBP","geometry_role":"airport_reference_point","text-field":"LFBP","vsmr_group_ids":[]},"geometry":{"type":"Point","coordinates":[-0.418610833,43.38]}},{"type":"Feature","id":"LFBP-text-lfbb-21704","properties":{"name":"G8","layer":"Labels","category":"Labels","object_type":"Label","style_id":"label.text.label.labels","airport":"LFBP","geometry_role":"text_label","text-field":"G8","vsmr_group_ids":[]},"geometry":{"type":"Point","coordinates":[-0.418977778,43.3837575]}},{"type":"Feature","id":"LFBP-text-lfbb-21705","properties":{"name":"G7","layer":"Labels","category":"Labels","object_type":"Label","style_id":"label.text.label.labels","airport":"LFBP","geometry_role":"text_label","text-field":"G7","vsmr_group_ids":[]},"geometry":{"type":"Point","coordinates":[-0.4187475,43.383658611]}},{"type":"Feature","id":"LFBP-text-lfbb-21706","properties":{"name":"G3","layer":"Labels","category":"Labels","object_type":"Label","style_id":"label.text.label.labels","airport":"LFBP","geometry_role":"text_label","text-field":"G3","vsmr_group_ids":[]},"geometry":{"type":"Point","coordinates":[-0.4189325,43.383258889]}},{"type":"Feature","id":"LFBP-text-lfbb-21707","properties":{"name":"G6","layer":"Labels","category":"Labels","object_type":"Label","style_id":"label.text.label.labels","airport":"LFBP","geometry_role":"text_label","text-field":"G6","vsmr_group_ids":[]},"geometry":{"type":"Point","coordinates":[-0.418570833,43.383528889]}},{"type":"Feature","id":"LFBP-text-lfbb-21708","properties":{"name":"G5","layer":"Labels","category":"Labels","object_type":"Label","style_id":"label.text.label.labels","airport":"LFBP","geometry_role":"text_label","text-field":"G5","vsmr_group_ids":[]},"geometry":{"type":"Point","coordinates":[-0.418405556,43.383430556]}},{"type":"Feature","id":"LFBP-text-lfbb-21709","properties":{"name":"G4","layer":"Labels","category":"Labels","object_type":"Label","style_id":"label.text.label.labels","airport":"LFBP","geometry_role":"text_label","text-field":"G4","vsmr_group_ids":[]},"geometry":{"type":"Point","coordinates":[-0.418201944,43.383336111]}},{"type":"Feature","id":"LFBP-text-lfbb-21710","properties":{"name":"G2","layer":"Labels","category":"Labels","object_type":"Label","style_id":"label.text.label.labels","airport":"LFBP","geometry_role":"text_label","text-field":"G2","vsmr_group_ids":[]},"geometry":{"type":"Point","coordinates":[-0.418378056,43.383235556]}},{"type":"Feature","id":"LFBP-text-lfbb-21711","properties":{"name":"G1","layer":"Labels","category":"Labels","object_type":"Label","style_id":"label.text.label.labels","airport":"LFBP","geometry_role":"text_label","text-field":"G1","vsmr_group_ids":[]},"geometry":{"type":"Point","coordinates":[-0.418168056,43.383261389]}},{"type":"Feature","id":"LFBP-text-lfbb-21712","properties":{"name":"8C","layer":"Labels","category":"Labels","object_type":"Label","style_id":"label.text.label.labels","airport":"LFBP","geometry_role":"text_label","text-field":"8C","vsmr_group_ids":[]},"geometry":{"type":"Point","coordinates":[-0.417261389,43.382974444]}},{"type":"Feature","id":"LFBP-text-lfbb-21713","properties":{"name":"8B","layer":"Labels","category":"Labels","object_type":"Label","style_id":"label.text.label.labels","airport":"LFBP","geometry_role":"text_label","text-field":"8B","vsmr_group_ids":[]},"geometry":{"type":"Point","coordinates":[-0.416941389,43.3828375]}},{"type":"Feature","id":"LFBP-text-lfbb-21714","properties":{"name":"8A","layer":"Labels","category":"Labels","object_type":"Label","style_id":"label.text.label.labels","airport":"LFBP","geometry_role":"text_label","text-field":"8A","vsmr_group_ids":[]},"geometry":{"type":"Point","coordinates":[-0.416621111,43.382685833]}},{"type":"Feature","id":"LFBP-text-lfbb-21715","properties":{"name":"7","layer":"Labels","category":"Labels","object_type":"Label","style_id":"label.text.label.labels","airport":"LFBP","geometry_role":"text_label","text-field":"7","vsmr_group_ids":[]},"geometry":{"type":"Point","coordinates":[-0.416653611,43.382385556]}},{"type":"Feature","id":"LFBP-text-lfbb-21716","properties":{"name":"6","layer":"Labels","category":"Labels","object_type":"Label","style_id":"label.text.label.labels","airport":"LFBP","geometry_role":"text_label","text-field":"6","vsmr_group_ids":[]},"geometry":{"type":"Point","coordinates":[-0.415893611,43.382486667]}},{"type":"Feature","id":"LFBP-text-lfbb-21717","properties":{"name":"6B","layer":"Labels","category":"Labels","object_type":"Label","style_id":"label.text.label.labels","airport":"LFBP","geometry_role":"text_label","text-field":"6B","vsmr_group_ids":[]},"geometry":{"type":"Point","coordinates":[-0.415548889,43.382389444]}},{"type":"Feature","id":"LFBP-text-lfbb-21718","properties":{"name":"5","layer":"Labels","category":"Labels","object_type":"Label","style_id":"label.text.label.labels","airport":"LFBP","geometry_role":"text_label","text-field":"5","vsmr_group_ids":[]},"geometry":{"type":"Point","coordinates":[-0.415364722,43.382259167]}},{"type":"Feature","id":"LFBP-text-lfbb-21719","properties":{"name":"5B","layer":"Labels","category":"Labels","object_type":"Label","style_id":"label.text.label.labels","airport":"LFBP","geometry_role":"text_label","text-field":"5B","vsmr_group_ids":[]},"geometry":{"type":"Point","coordinates":[-0.414975556,43.381731389]}},{"type":"Feature","id":"LFBP-text-lfbb-21720","properties":{"name":"4","layer":"Labels","category":"Labels","object_type":"Label","style_id":"label.text.label.labels","airport":"LFBP","geometry_role":"text_label","text-field":"4","vsmr_group_ids":[]},"geometry":{"type":"Point","coordinates":[-0.414993611,43.382041111]}},{"type":"Feature","id":"LFBP-text-lfbb-21721","properties":{"name":"3","layer":"Labels","category":"Labels","object_type":"Label","style_id":"label.text.label.labels","airport":"LFBP","geometry_role":"text_label","text-field":"3","vsmr_group_ids":[]},"geometry":{"type":"Point","coordinates":[-0.414336389,43.381683611]}},{"type":"Feature","id":"LFBP-text-lfbb-21722","properties":{"name":"3B","layer":"Labels","category":"Labels","object_type":"Label","style_id":"label.text.label.labels","airport":"LFBP","geometry_role":"text_label","text-field":"3B","vsmr_group_ids":[]},"geometry":{"type":"Point","coordinates":[-0.414022222,43.381304722]}},{"type":"Feature","id":"LFBP-text-lfbb-21723","properties":{"name":"2","layer":"Labels","category":"Labels","object_type":"Label","style_id":"label.text.label.labels","airport":"LFBP","geometry_role":"text_label","text-field":"2","vsmr_group_ids":[]},"geometry":{"type":"Point","coordinates":[-0.413698056,43.381161944]}},{"type":"Feature","id":"LFBP-text-lfbb-21724","properties":{"name":"1B","layer":"Labels","category":"Labels","object_type":"Label","style_id":"label.text.label.labels","airport":"LFBP","geometry_role":"text_label","text-field":"1B","vsmr_group_ids":[]},"geometry":{"type":"Point","coordinates":[-0.413454722,43.381186667]}},{"type":"Feature","id":"LFBP-text-lfbb-21725","properties":{"name":"1","layer":"Labels","category":"Labels","object_type":"Label","style_id":"label.text.label.labels","airport":"LFBP","geometry_role":"text_label","text-field":"1","vsmr_group_ids":[]},"geometry":{"type":"Point","coordinates":[-0.413333056,43.381043889]}},{"type":"Feature","id":"LFBP-text-lfbb-21726","properties":{"name":"TWR","layer":"Labels","category":"Labels","object_type":"Label","style_id":"label.text.label.labels","airport":"LFBP","geometry_role":"text_label","text-field":"TWR","vsmr_group_ids":[]},"geometry":{"type":"Point","coordinates":[-0.415428333,43.382810556]}},{"type":"Feature","id":"LFBP-text-lfbb-21727","properties":{"name":"P-G Gros Porteurs","layer":"Labels","category":"Labels","object_type":"Label","style_id":"label.text.label.labels","airport":"LFBP","geometry_role":"text_label","text-field":"P-G Gros Porteurs","vsmr_group_ids":[]},"geometry":{"type":"Point","coordinates":[-0.419518056,43.383916667]}},{"type":"Feature","id":"LFBP-text-lfbb-21728","properties":{"name":"Fuel","layer":"Labels","category":"Labels","object_type":"Label","style_id":"label.text.label.labels","airport":"LFBP","geometry_role":"text_label","text-field":"Fuel","vsmr_group_ids":[]},"geometry":{"type":"Point","coordinates":[-0.417828056,43.383477222]}},{"type":"Feature","id":"LFBP-text-lfbb-21729","properties":{"name":"Securite Civile","layer":"Labels","category":"Labels","object_type":"Label","style_id":"label.text.label.labels","airport":"LFBP","geometry_role":"text_label","text-field":"Securite Civile","vsmr_group_ids":[]},"geometry":{"type":"Point","coordinates":[-0.417174444,43.383316389]}},{"type":"Feature","id":"LFBP-text-lfbb-21730","properties":{"name":"Terminal","layer":"Labels","category":"Labels","object_type":"Label","style_id":"label.text.label.labels","airport":"LFBP","geometry_role":"text_label","text-field":"Terminal","vsmr_group_ids":[]},"geometry":{"type":"Point","coordinates":[-0.414718889,43.382296944]}},{"type":"Feature","id":"LFBP-text-lfbb-21731","properties":{"name":"P-A Civil","layer":"Labels","category":"Labels","object_type":"Label","style_id":"label.text.label.labels","airport":"LFBP","geometry_role":"text_label","text-field":"P-A Civil","vsmr_group_ids":[]},"geometry":{"type":"Point","coordinates":[-0.415563333,43.3816325]}},{"type":"Feature","id":"LFBP-text-lfbb-21732","properties":{"name":"Fret","layer":"Labels","category":"Labels","object_type":"Label","style_id":"label.text.label.labels","airport":"LFBP","geometry_role":"text_label","text-field":"Fret","vsmr_group_ids":[]},"geometry":{"type":"Point","coordinates":[-0.412312222,43.381279167]}},{"type":"Feature","id":"LFBP-text-lfbb-21733","properties":{"name":"HE","layer":"Labels","category":"Labels","object_type":"Label","style_id":"label.text.label.labels","airport":"LFBP","geometry_role":"text_label","text-field":"HE","vsmr_group_ids":[]},"geometry":{"type":"Point","coordinates":[-0.411793056,43.378875833]}},{"type":"Feature","id":"LFBP-text-lfbb-21734","properties":{"name":"Zone Activites","layer":"Labels","category":"Labels","object_type":"Label","style_id":"label.text.label.labels","airport":"LFBP","geometry_role":"text_label","text-field":"Zone Activites","vsmr_group_ids":[]},"geometry":{"type":"Point","coordinates":[-0.408871389,43.379542222]}},{"type":"Feature","id":"LFBP-text-lfbb-21735","properties":{"name":"P-D","layer":"Labels","category":"Labels","object_type":"Label","style_id":"label.text.label.labels","airport":"LFBP","geometry_role":"text_label","text-field":"P-D","vsmr_group_ids":[]},"geometry":{"type":"Point","coordinates":[-0.408759167,43.378600278]}},{"type":"Feature","id":"LFBP-text-lfbb-21736","properties":{"name":"P-Postal","layer":"Labels","category":"Labels","object_type":"Label","style_id":"label.text.label.labels","airport":"LFBP","geometry_role":"text_label","text-field":"P-Postal","vsmr_group_ids":[]},"geometry":{"type":"Point","coordinates":[-0.40814,43.378180278]}},{"type":"Feature","id":"LFBP-text-lfbb-21737","properties":{"name":"Postal","layer":"Labels","category":"Labels","object_type":"Label","style_id":"label.text.label.labels","airport":"LFBP","geometry_role":"text_label","text-field":"Postal","vsmr_group_ids":[]},"geometry":{"type":"Point","coordinates":[-0.407490556,43.378330556]}},{"type":"Feature","id":"LFBP-text-lfbb-21738","properties":{"name":"ACB","layer":"Labels","category":"Labels","object_type":"Label","style_id":"label.text.label.labels","airport":"LFBP","geometry_role":"text_label","text-field":"ACB","vsmr_group_ids":[]},"geometry":{"type":"Point","coordinates":[-0.406659722,43.377506111]}},{"type":"Feature","id":"LFBP-text-lfbb-21739","properties":{"name":"Hangars","layer":"Labels","category":"Labels","object_type":"Label","style_id":"label.text.label.labels","airport":"LFBP","geometry_role":"text_label","text-field":"Hangars","vsmr_group_ids":[]},"geometry":{"type":"Point","coordinates":[-0.406109722,43.376874167]}},{"type":"Feature","id":"LFBP-text-lfbb-21740","properties":{"name":"100 LL","layer":"Labels","category":"Labels","object_type":"Label","style_id":"label.text.label.labels","airport":"LFBP","geometry_role":"text_label","text-field":"100 LL","vsmr_group_ids":[]},"geometry":{"type":"Point","coordinates":[-0.407643611,43.377111389]}},{"type":"Feature","id":"LFBP-text-lfbb-21741","properties":{"name":"P-Mil","layer":"Labels","category":"Labels","object_type":"Label","style_id":"label.text.label.labels","airport":"LFBP","geometry_role":"text_label","text-field":"P-Mil","vsmr_group_ids":[]},"geometry":{"type":"Point","coordinates":[-0.415342222,43.374941389]}},{"type":"Feature","id":"LFBP-text-lfbb-21742","properties":{"name":"H2","layer":"Labels","category":"Labels","object_type":"Label","style_id":"label.text.label.labels","airport":"LFBP","geometry_role":"text_label","text-field":"H2","vsmr_group_ids":[]},"geometry":{"type":"Point","coordinates":[-0.423211111,43.375014444]}},{"type":"Feature","id":"LFBP-text-lfbb-21743","properties":{"name":"P-HEL Mil","layer":"Labels","category":"Labels","object_type":"Label","style_id":"label.text.label.labels","airport":"LFBP","geometry_role":"text_label","text-field":"P-HEL Mil","vsmr_group_ids":[]},"geometry":{"type":"Point","coordinates":[-0.421949167,43.373838056]}},{"type":"Feature","id":"LFBP-text-lfbb-21744","properties":{"name":"H4","layer":"Labels","category":"Labels","object_type":"Label","style_id":"label.text.label.labels","airport":"LFBP","geometry_role":"text_label","text-field":"H4","vsmr_group_ids":[]},"geometry":{"type":"Point","coordinates":[-0.411276111,43.370918889]}},{"type":"Feature","id":"LFBP-text-lfbb-21745","properties":{"name":"P-Mil","layer":"Labels","category":"Labels","object_type":"Label","style_id":"label.text.label.labels","airport":"LFBP","geometry_role":"text_label","text-field":"P-Mil","vsmr_group_ids":[]},"geometry":{"type":"Point","coordinates":[-0.412853889,43.369356111]}},{"type":"Feature","id":"LFBP-text-lfbb-21747","properties":{"name":"S","layer":"Labels","category":"Labels","object_type":"Label","style_id":"label.text.label.labels","airport":"LFBP","geometry_role":"text_label","text-field":"S","vsmr_group_ids":[]},"geometry":{"type":"Point","coordinates":[-0.486666667,43.298611111]}},{"type":"Feature","id":"LFBP-text-lfbb-21748","properties":{"name":"N","layer":"Labels","category":"Labels","object_type":"Label","style_id":"label.text.label.labels","airport":"LFBP","geometry_role":"text_label","text-field":"N","vsmr_group_ids":[]},"geometry":{"type":"Point","coordinates":[-0.37,43.494722222]}},{"type":"Feature","id":"LFBP-text-lfbb-21749","properties":{"name":"NE","layer":"Labels","category":"Labels","object_type":"Label","style_id":"label.text.label.labels","airport":"LFBP","geometry_role":"text_label","text-field":"NE","vsmr_group_ids":[]},"geometry":{"type":"Point","coordinates":[-0.322777778,43.46]}},{"type":"Feature","id":"LFBP-text-lfbb-21750","properties":{"name":"SW","layer":"Labels","category":"Labels","object_type":"Label","style_id":"label.text.label.labels","airport":"LFBP","geometry_role":"text_label","text-field":"SW","vsmr_group_ids":[]},"geometry":{"type":"Point","coordinates":[-0.577777778,43.321111111]}},{"type":"Feature","id":"LFBP-text-lfbb-21751","properties":{"name":"NA","layer":"Labels","category":"Labels","object_type":"Label","style_id":"label.text.label.labels","airport":"LFBP","geometry_role":"text_label","text-field":"NA","vsmr_group_ids":[]},"geometry":{"type":"Point","coordinates":[-0.346111111,43.42]}},{"type":"Feature","id":"LFBP-text-lfbb-21752","properties":{"name":"SA","layer":"Labels","category":"Labels","object_type":"Label","style_id":"label.text.label.labels","airport":"LFBP","geometry_role":"text_label","text-field":"SA","vsmr_group_ids":[]},"geometry":{"type":"Point","coordinates":[-0.460555556,43.336666667]}},{"type":"Feature","id":"LFBP-text-lfbb-21753","properties":{"name":"SE","layer":"Labels","category":"Labels","object_type":"Label","style_id":"label.text.label.labels","airport":"LFBP","geometry_role":"text_label","text-field":"SE","vsmr_group_ids":[]},"geometry":{"type":"Point","coordinates":[-0.387777778,43.278888889]}},{"type":"Feature","id":"LFBP-text-lfbb-21754","properties":{"name":"W","layer":"Labels","category":"Labels","object_type":"Label","style_id":"label.text.label.labels","airport":"LFBP","geometry_role":"text_label","text-field":"W","vsmr_group_ids":[]},"geometry":{"type":"Point","coordinates":[-0.575555556,43.415]}},{"type":"Feature","id":"LFBP-text-lfbb-21756","properties":{"name":"10000","layer":"Labels","category":"Labels","object_type":"Label","style_id":"label.text.label.labels","airport":"LFBP","geometry_role":"text_label","text-field":"10000","vsmr_group_ids":[]},"geometry":{"type":"Point","coordinates":[-0.137501389,43.892763611]}},{"type":"Feature","id":"LFBP-text-lfbb-21757","properties":{"name":"4500","layer":"Labels","category":"Labels","object_type":"Label","style_id":"label.text.label.labels","airport":"LFBP","geometry_role":"text_label","text-field":"4500","vsmr_group_ids":[]},"geometry":{"type":"Point","coordinates":[-0.380523611,43.544542778]}},{"type":"Feature","id":"LFBP-text-lfbb-21758","properties":{"name":"6000","layer":"Labels","category":"Labels","object_type":"Label","style_id":"label.text.label.labels","airport":"LFBP","geometry_role":"text_label","text-field":"6000","vsmr_group_ids":[]},"geometry":{"type":"Point","coordinates":[-0.300393056,43.639549722]}},{"type":"Feature","id":"LFBP-text-lfbb-21759","properties":{"name":"3000","layer":"Labels","category":"Labels","object_type":"Label","style_id":"label.text.label.labels","airport":"LFBP","geometry_role":"text_label","text-field":"3000","vsmr_group_ids":[]},"geometry":{"type":"Point","coordinates":[-0.188506389,43.369818056]}},{"type":"Feature","id":"LFBP-text-lfbb-21760","properties":{"name":"14000","layer":"Labels","category":"Labels","object_type":"Label","style_id":"label.text.label.labels","airport":"LFBP","geometry_role":"text_label","text-field":"14000","vsmr_group_ids":[]},"geometry":{"type":"Point","coordinates":[-0.181186111,42.981493889]}},{"type":"Feature","id":"LFBP-text-lfbb-21761","properties":{"name":"4500","layer":"Labels","category":"Labels","object_type":"Label","style_id":"label.text.label.labels","airport":"LFBP","geometry_role":"text_label","text-field":"4500","vsmr_group_ids":[]},"geometry":{"type":"Point","coordinates":[0.495338056,43.529176667]}},{"type":"Feature","id":"LFBP-text-lfbb-21762","properties":{"name":"6000","layer":"Labels","category":"Labels","object_type":"Label","style_id":"label.text.label.labels","airport":"LFBP","geometry_role":"text_label","text-field":"6000","vsmr_group_ids":[]},"geometry":{"type":"Point","coordinates":[0.573251944,43.146186389]}},{"type":"Feature","id":"LFBP-text-lfbb-21763","properties":{"name":"8800","layer":"Labels","category":"Labels","object_type":"Label","style_id":"label.text.label.labels","airport":"LFBP","geometry_role":"text_label","text-field":"8800","vsmr_group_ids":[]},"geometry":{"type":"Point","coordinates":[0.302583889,43.068563889]}},{"type":"Feature","id":"LFBP-text-lfbb-21765","properties":{"name":"N5","layer":"Labels","category":"Labels","object_type":"Label","style_id":"label.text.label.labels","airport":"LFBP","geometry_role":"text_label","text-field":"N5","vsmr_group_ids":[]},"geometry":{"type":"Point","coordinates":[-0.427839167,43.386038333]}},{"type":"Feature","id":"LFBP-text-lfbb-21766","properties":{"name":"NW","layer":"Labels","category":"Labels","object_type":"Label","style_id":"label.text.label.labels","airport":"LFBP","geometry_role":"text_label","text-field":"NW","vsmr_group_ids":[]},"geometry":{"type":"Point","coordinates":[-0.422711389,43.384450556]}},{"type":"Feature","id":"LFBP-text-lfbb-21767","properties":{"name":"G","layer":"Labels","category":"Labels","object_type":"Label","style_id":"label.text.label.labels","airport":"LFBP","geometry_role":"text_label","text-field":"G","vsmr_group_ids":[]},"geometry":{"type":"Point","coordinates":[-0.419197222,43.382730556]}},{"type":"Feature","id":"LFBP-text-lfbb-21768","properties":{"name":"NG","layer":"Labels","category":"Labels","object_type":"Label","style_id":"label.text.label.labels","airport":"LFBP","geometry_role":"text_label","text-field":"NG","vsmr_group_ids":[]},"geometry":{"type":"Point","coordinates":[-0.418216944,43.382080833]}},{"type":"Feature","id":"LFBP-text-lfbb-21769","properties":{"name":"C","layer":"Labels","category":"Labels","object_type":"Label","style_id":"label.text.label.labels","airport":"LFBP","geometry_role":"text_label","text-field":"C","vsmr_group_ids":[]},"geometry":{"type":"Point","coordinates":[-0.416983056,43.381534167]}},{"type":"Feature","id":"LFBP-text-lfbb-21770","properties":{"name":"N3","layer":"Labels","category":"Labels","object_type":"Label","style_id":"label.text.label.labels","airport":"LFBP","geometry_role":"text_label","text-field":"N3","vsmr_group_ids":[]},"geometry":{"type":"Point","coordinates":[-0.418206111,43.380815]}},{"type":"Feature","id":"LFBP-text-lfbb-21771","properties":{"name":"M","layer":"Labels","category":"Labels","object_type":"Label","style_id":"label.text.label.labels","airport":"LFBP","geometry_role":"text_label","text-field":"M","vsmr_group_ids":[]},"geometry":{"type":"Point","coordinates":[-0.413128889,43.3796375]}},{"type":"Feature","id":"LFBP-text-lfbb-21772","properties":{"name":"N","layer":"Labels","category":"Labels","object_type":"Label","style_id":"label.text.label.labels","airport":"LFBP","geometry_role":"text_label","text-field":"N","vsmr_group_ids":[]},"geometry":{"type":"Point","coordinates":[-0.410908333,43.379204167]}},{"type":"Feature","id":"LFBP-text-lfbb-21773","properties":{"name":"E","layer":"Labels","category":"Labels","object_type":"Label","style_id":"label.text.label.labels","airport":"LFBP","geometry_role":"text_label","text-field":"E","vsmr_group_ids":[]},"geometry":{"type":"Point","coordinates":[-0.408959167,43.377596944]}},{"type":"Feature","id":"LFBP-text-lfbb-21774","properties":{"name":"N1","layer":"Labels","category":"Labels","object_type":"Label","style_id":"label.text.label.labels","airport":"LFBP","geometry_role":"text_label","text-field":"N1","vsmr_group_ids":[]},"geometry":{"type":"Point","coordinates":[-0.407749167,43.375860556]}},{"type":"Feature","id":"LFBP-text-lfbb-21775","properties":{"name":"NE","layer":"Labels","category":"Labels","object_type":"Label","style_id":"label.text.label.labels","airport":"LFBP","geometry_role":"text_label","text-field":"NE","vsmr_group_ids":[]},"geometry":{"type":"Point","coordinates":[-0.412762778,43.378458333]}},{"type":"Feature","id":"LFBP-text-lfbb-21776","properties":{"name":"S0","layer":"Labels","category":"Labels","object_type":"Label","style_id":"label.text.label.labels","airport":"LFBP","geometry_role":"text_label","text-field":"S0","vsmr_group_ids":[]},"geometry":{"type":"Point","coordinates":[-0.409561111,43.373706944]}},{"type":"Feature","id":"LFBP-text-lfbb-21777","properties":{"name":"S1","layer":"Labels","category":"Labels","object_type":"Label","style_id":"label.text.label.labels","airport":"LFBP","geometry_role":"text_label","text-field":"S1","vsmr_group_ids":[]},"geometry":{"type":"Point","coordinates":[-0.413249722,43.375914444]}},{"type":"Feature","id":"LFBP-text-lfbb-21778","properties":{"name":"S","layer":"Labels","category":"Labels","object_type":"Label","style_id":"label.text.label.labels","airport":"LFBP","geometry_role":"text_label","text-field":"S","vsmr_group_ids":[]},"geometry":{"type":"Point","coordinates":[-0.418270833,43.378103333]}},{"type":"Feature","id":"LFBP-text-lfbb-21779","properties":{"name":"S2","layer":"Labels","category":"Labels","object_type":"Label","style_id":"label.text.label.labels","airport":"LFBP","geometry_role":"text_label","text-field":"S2","vsmr_group_ids":[]},"geometry":{"type":"Point","coordinates":[-0.422534722,43.380636111]}}]}
