{"type":"FeatureCollection","name":"LFBR AVISO","bbox":[1.257527778,43.446805556,1.271833333,43.452611111],"metadata":{"schema":"vSMR AVISO","schema_version":2,"geometry_mode":"shared","airport":"LFBR","coordinate_reference_system":"WGS84","coordinate_order":"longitude, latitude","default_color_palette":"dark","color_palettes":["dark","light"],"background_colors":{"dark":"#434A4F","light":"#434A4F"},"feature_count":10,"style_count":5,"layer_counts":{"Guidance lines":3,"Labels":5,"Runways":2},"category_counts":{"Gates":5,"Landmark 3":1,"Runway centerlines":2,"Runways":1,"Taxiway Border":1},"runways":[{"ends":["12R","30L"],"headings":[116,296],"thresholds":[[1.258680833,43.450571944],[1.267782778,43.447232778]]},{"ends":["12","30"],"headings":[116,296],"thresholds":[[1.257618889,43.451382778],[1.269757778,43.446930833]]}],"saved_active_runways":[],"saved_active_airport_modes":[],"geometry_source":"EuroScope sector pack","source_files":{"LFBB.sct":"fc92f16bc65e3a10b9aeb0cf4d1cae1add9856a4f4f2f653af5abaa0d98c77ed","LFBB.ese":"c7c252d4a274f6fd98bcefd2364b7bb9799385a6e602b62ccbe85cc32042ef62","LFBB.rwy":"d9387919da6406482f154f391ab2d20783610a60930f986e160686134ea8a7df","LFEE.sct":"10fcc997213ee24336ef8bd37f3a9423cb07bbdfb57b1494c61b8310b9641d8a","LFEE.ese":"3391dc3a47130a4a8c12ab895a6743c77668044183634bd45d425513ef5baa2f","LFFF.sct":"cb6698888ce3e8e8be34ea45922976a5fb3ebe1baef7814f040c91785f8641f2","LFFF.ese":"0c1e64c4a0524a6cdc30766699492d362f78011da36daeacfde4597a1761b64c","LFFF.rwy":"a12900bf1f18188caf2e598c44e55b2c0c6fb2c66cee43ff843cbe216617ae96","LFMM.sct":"fc0d266315a59cb027803be613657d9e9875a2a4b912535d08d1c7892a53b194","LFMM.ese":"6a319d7f7c1c2f7e457ae789f4aae2feafec03b24f5d3d95752e96922a971c9e","LFMM.rwy":"236563995d9b5be668ee3fc8d653cf8f33f20a511137652b197e5877b85d5693","LFRR.sct":"c5a55173543154d388eb65309d606b41ac5da09af59142e69878a4cde03add83","LFRR.ese":"e4542200e8322297f954327131cfe6e73da3ac264cf5610ff6871309cd6eeb40"},"airport_reference":[1.263610833,43.449166944]},"styles":{"line.taxiwayborder.0000ff":{"name":"Taxiway Border","layer":"Guidance lines","object_type":"Line","paint":{"stroke":"#0000FF","stroke-opacity":1,"stroke-width":1,"palette-overrides":{"light":{"stroke":"#0000FF"}}},"feature_count":1},"line.runwayconcrete.555555":{"name":"Runways","layer":"Guidance lines","object_type":"Line","paint":{"stroke":"#111318","stroke-opacity":1,"stroke-width":1,"palette-overrides":{"light":{"stroke":"#555555"}}},"feature_count":1},"line.landmark3.7e7e7e":{"name":"Landmark 3","layer":"Guidance lines","object_type":"Line","paint":{"stroke":"#7E7E7E","stroke-opacity":1,"stroke-width":1,"palette-overrides":{"light":{"stroke":"#7E7E7E"}}},"feature_count":1},"label.gates":{"name":"Gates","layer":"Labels","object_type":"Label","paint":{"text-color":"#CCCCCC","text-font":"Arial","text-size":12,"text-halo-color":"#000000","text-halo-width":1,"text-anchor":"center","zoomLevel":9},"feature_count":5},"runway.reference":{"name":"Runway centerlines","layer":"Runways","object_type":"Line","paint":{"stroke":"#CCCCCC","stroke-width":2,"stroke-opacity":1},"feature_count":2}},"vsmr_groups":[{"id":"stands-and-gates","name":"Stands & gates","visible":true,"accent":"#d4bd39"}],"features":[{"type":"Feature","id":"LFBR-54403fabd3b3d2416171","properties":{"airport":"LFBR","name":"LFBR Groundlayout Muret","layer":"Guidance lines","category":"Taxiway Border","object_type":"Line","style_id":"line.taxiwayborder.0000ff","source_group":"LFBR Groundlayout Muret","vsmr_group_ids":[],"geometry_role":"linework"},"geometry":{"type":"MultiLineString","coordinates":[[[1.269138889,43.448166667],[1.269222222,43.448361111]],[[1.269388889,43.448055556],[1.269611111,43.448472222]],[[1.266694444,43.449055556],[1.266805556,43.449222222]],[[1.266972222,43.448972222],[1.267083333,43.449111111]],[[1.268222222,43.4485],[1.268361111,43.448666667]],[[1.2685,43.448388889],[1.268611111,43.448583333]],[[1.25775,43.451472222],[1.257861111,43.451666667]],[[1.258027778,43.451388889],[1.258138889,43.451583333]],[[1.257861111,43.451666667],[1.258194444,43.452166667]],[[1.258138889,43.451583333],[1.258333333,43.451861111]],[[1.258194444,43.452166667],[1.260388889,43.451361111]],[[1.258333333,43.451861111],[1.260138889,43.451222222]],[[1.260388889,43.451361111],[1.262472222,43.450611111]],[[1.260388889,43.451111111],[1.262222222,43.450444444]],[[1.262472222,43.450611111],[1.265166667,43.449611111]],[[1.262472222,43.450361111],[1.265194444,43.449361111]],[[1.265444444,43.449527778],[1.266694444,43.449055556]],[[1.265194444,43.449361111],[1.266694444,43.448805556]],[[1.266972222,43.448972222],[1.268,43.448583333]],[[1.266694444,43.448805556],[1.26775,43.448416667]],[[1.268,43.448583333],[1.268222222,43.4485]],[[1.268027778,43.448333333],[1.268222222,43.44825]],[[1.2685,43.448388889],[1.269138889,43.448166667]],[[1.268222222,43.44825],[1.269138889,43.447916667]],[[1.269388889,43.448055556],[1.270111111,43.447805556]],[[1.269138889,43.447916667],[1.269833333,43.447666667]],[[1.270111111,43.447805556],[1.27175,43.447194444]],[[1.270111111,43.447555556],[1.271611111,43.447]],[[1.27175,43.447194444],[1.271611111,43.447]],[[1.267416667,43.447944444],[1.267555556,43.448138889]],[[1.267694444,43.447833333],[1.267833333,43.448027778]],[[1.267555556,43.448138889],[1.26775,43.448416667]],[[1.267833333,43.448027778],[1.268027778,43.448333333]],[[1.265166667,43.449611111],[1.265388889,43.449972222]],[[1.265444444,43.449527778],[1.265555556,43.449666667]],[[1.265388889,43.449972222],[1.265972222,43.449777778]],[[1.265555556,43.449666667],[1.265833333,43.449583333]],[[1.265972222,43.449777778],[1.266722222,43.4495]],[[1.265833333,43.449583333],[1.266583333,43.449305556]],[[1.266722222,43.4495],[1.267083333,43.449361111]],[[1.266583333,43.449305556],[1.266805556,43.449222222]],[[1.267083333,43.449361111],[1.267555556,43.449194444]],[[1.267083333,43.449111111],[1.267416667,43.449]],[[1.267555556,43.449194444],[1.26825,43.448944444]],[[1.267416667,43.449],[1.268111111,43.44875]],[[1.26825,43.448944444],[1.268611111,43.448805556]],[[1.268111111,43.44875],[1.268361111,43.448666667]],[[1.268611111,43.448805556],[1.269055556,43.448666667]],[[1.268611111,43.448583333],[1.268916667,43.448472222]],[[1.269055556,43.448666667],[1.269611111,43.448472222]],[[1.268916667,43.448472222],[1.269222222,43.448361111]],[[1.2695,43.447166667],[1.269638889,43.447361111]],[[1.269777778,43.447083333],[1.269916667,43.447277778]],[[1.269638889,43.447361111],[1.269833333,43.447666667]],[[1.269916667,43.447277778],[1.270111111,43.447555556]],[[1.259805556,43.450722222],[1.259944444,43.450916667]],[[1.260083333,43.450638889],[1.260222222,43.450833333]],[[1.259944444,43.450916667],[1.260138889,43.451222222]],[[1.260222222,43.450833333],[1.260388889,43.451111111]],[[1.261888889,43.449972222],[1.262027778,43.450166667]],[[1.262166667,43.449861111],[1.262277778,43.450055556]],[[1.262027778,43.450166667],[1.262222222,43.450444444]],[[1.262277778,43.450055556],[1.262472222,43.450361111]]]}},{"type":"Feature","id":"LFBR-0c76c68569cbfc4e12fb","properties":{"airport":"LFBR","name":"LFBR Groundlayout Muret","layer":"Guidance lines","category":"Runways","object_type":"Line","style_id":"line.runwayconcrete.555555","source_group":"LFBR Groundlayout Muret","vsmr_group_ids":[],"geometry_role":"linework"},"geometry":{"type":"MultiLineString","coordinates":[[[1.264444444,43.451611111],[1.262444444,43.452388889]],[[1.264583333,43.451833333],[1.262583333,43.452611111]],[[1.264444444,43.451611111],[1.264583333,43.451833333]],[[1.262444444,43.452388889],[1.262583333,43.452611111]],[[1.269666667,43.446805556],[1.269472222,43.446888889]],[[1.269833333,43.447055556],[1.269777778,43.447083333]],[[1.269666667,43.446805556],[1.269833333,43.447055556]],[[1.269472222,43.446888889],[1.267388889,43.447638889]],[[1.2695,43.447166667],[1.267694444,43.447833333]],[[1.267388889,43.447638889],[1.261861111,43.449666667]],[[1.267416667,43.447944444],[1.262166667,43.449861111]],[[1.261861111,43.449666667],[1.259777778,43.450444444]],[[1.261888889,43.449972222],[1.260083333,43.450638889]],[[1.259777778,43.450444444],[1.257722222,43.451194444]],[[1.259805556,43.450722222],[1.258027778,43.451388889]],[[1.257722222,43.451194444],[1.257527778,43.45125]],[[1.25775,43.451472222],[1.257694444,43.4515]],[[1.257527778,43.45125],[1.257694444,43.4515]],[[1.267638889,43.446916667],[1.2585,43.450222222]],[[1.267916667,43.447305556],[1.258777778,43.450638889]],[[1.267638889,43.446916667],[1.267916667,43.447305556]],[[1.2585,43.450222222],[1.258777778,43.450638889]]]}},{"type":"Feature","id":"LFBR-bd5745d1ccbcbea80743","properties":{"airport":"LFBR","name":"LFBR Groundlayout Muret","layer":"Guidance lines","category":"Landmark 3","object_type":"Line","style_id":"line.landmark3.7e7e7e","source_group":"LFBR Groundlayout Muret","vsmr_group_ids":[],"geometry_role":"linework"},"geometry":{"type":"MultiLineString","coordinates":[[[1.265305556,43.449777778],[1.269416667,43.448277778],[1.269277778,43.448055556],[1.269722222,43.447888889],[1.269527778,43.448166667],[1.269583333,43.448444444],[1.26975,43.448722222],[1.265611111,43.450222222]],[[1.265305556,43.449777778],[1.265611111,43.450222222]],[[1.270305556,43.447638889],[1.270444444,43.447861111],[1.270277778,43.447916667],[1.270611111,43.448444444],[1.271833333,43.448],[1.2715,43.447472222],[1.271055556,43.447638889],[1.270888889,43.447388889]],[[1.270305556,43.447638889],[1.270888889,43.447388889]],[[1.2615,43.450027778],[1.262111111,43.450166667],[1.261972222,43.449805556]],[[1.2615,43.450027778],[1.261972222,43.449805556]],[[1.261972222,43.450611111],[1.262166667,43.450166667],[1.262805556,43.450305556]],[[1.261972222,43.450611111],[1.262805556,43.450305556]]]}},{"type":"Feature","id":"LFBR-b8d89e570c8307c66761","properties":{"airport":"LFBR","name":"1","layer":"Labels","category":"Gates","object_type":"Label","style_id":"label.gates","source_group":"LFBR Gates","vsmr_group_ids":["stands-and-gates"],"geometry_role":"text_label","text-field":"1"},"geometry":{"type":"Point","coordinates":[1.266083333,43.449944444]}},{"type":"Feature","id":"LFBR-414d8813823d00e93061","properties":{"airport":"LFBR","name":"2","layer":"Labels","category":"Gates","object_type":"Label","style_id":"label.gates","source_group":"LFBR Gates","vsmr_group_ids":["stands-and-gates"],"geometry_role":"text_label","text-field":"2"},"geometry":{"type":"Point","coordinates":[1.266861111,43.449666667]}},{"type":"Feature","id":"LFBR-29c8fc56795801047146","properties":{"airport":"LFBR","name":"3","layer":"Labels","category":"Gates","object_type":"Label","style_id":"label.gates","source_group":"LFBR Gates","vsmr_group_ids":["stands-and-gates"],"geometry_role":"text_label","text-field":"3"},"geometry":{"type":"Point","coordinates":[1.267666667,43.449361111]}},{"type":"Feature","id":"LFBR-6779372fe031bbaa73da","properties":{"airport":"LFBR","name":"4","layer":"Labels","category":"Gates","object_type":"Label","style_id":"label.gates","source_group":"LFBR Gates","vsmr_group_ids":["stands-and-gates"],"geometry_role":"text_label","text-field":"4"},"geometry":{"type":"Point","coordinates":[1.268361111,43.449111111]}},{"type":"Feature","id":"LFBR-8463dd53e669fd6da627","properties":{"airport":"LFBR","name":"5","layer":"Labels","category":"Gates","object_type":"Label","style_id":"label.gates","source_group":"LFBR Gates","vsmr_group_ids":["stands-and-gates"],"geometry_role":"text_label","text-field":"5"},"geometry":{"type":"Point","coordinates":[1.269166667,43.448833333]}},{"type":"Feature","id":"LFBR-dcd2ea42e01691d83990","properties":{"airport":"LFBR","name":"12R/30L","layer":"Runways","category":"Runway centerlines","object_type":"Line","style_id":"runway.reference","source_group":"LFBR Runways","vsmr_group_ids":[],"geometry_role":"runway_centerline"},"geometry":{"type":"LineString","coordinates":[[1.258680833,43.450571944],[1.267782778,43.447232778]]}},{"type":"Feature","id":"LFBR-f73cec62a3d91907022b","properties":{"airport":"LFBR","name":"12/30","layer":"Runways","category":"Runway centerlines","object_type":"Line","style_id":"runway.reference","source_group":"LFBR Runways","vsmr_group_ids":[],"geometry_role":"runway_centerline"},"geometry":{"type":"LineString","coordinates":[[1.257618889,43.451382778],[1.269757778,43.446930833]]}}]}
