{"type":"FeatureCollection","name":"LFBT AVISO","bbox":[-0.116388889,43.165691389,0.193055556,43.197222222],"metadata":{"schema":"vSMR AVISO","schema_version":2,"airport":"LFBT","coordinate_reference_system":"WGS84","coordinate_order":"longitude, latitude","default_color_palette":"night","color_palettes":["night","day"],"feature_count":47,"style_count":10,"layer_counts":{"Ground linework":7,"Labels":38,"Reference points":1,"Runways":1},"category_counts":{"Apron Surface":1,"Centerlines":1,"Labels":40,"Runway Concrete":1,"Runway Markings":1,"Stopbar":1,"Taxiway":1,"TWR CTR":1}},"styles":{"label.text.label.labels":{"name":"Labels","layer":"Labels","object_type":"Label","paint":{"text-anchor":"center","text-color":"#CCCCCC","text-halo-color":"#000000","text-halo-width":1,"text-size":12,"zoomLevel":12},"feature_count":38},"line.linework.apron.surface":{"name":"Apron Surface","layer":"Ground linework","object_type":"Line","paint":{"stroke":"#808080","stroke-opacity":1.0,"stroke-width":1.5},"feature_count":1},"line.linework.centerlines":{"name":"Centerlines","layer":"Ground linework","object_type":"Line","paint":{"stroke":"#FFFF00","stroke-opacity":1.0,"stroke-width":1.5},"feature_count":1},"line.linework.labels":{"name":"Labels","layer":"Ground linework","object_type":"Line","paint":{"stroke":"#808080","stroke-opacity":1.0,"stroke-width":1.5},"feature_count":1},"line.linework.runway.concrete":{"name":"Runway Concrete","layer":"Ground linework","object_type":"Line","paint":{"stroke":"#111318","stroke-opacity":1.0,"stroke-width":1.5},"feature_count":1},"line.linework.stopbar":{"name":"Stopbar","layer":"Ground linework","object_type":"Line","paint":{"stroke":"#7E0000","stroke-opacity":1.0,"stroke-width":1.5},"feature_count":1},"line.linework.taxiway":{"name":"Taxiway","layer":"Ground linework","object_type":"Line","paint":{"stroke":"#4E5A69","stroke-opacity":1.0,"stroke-width":1.5},"feature_count":1},"line.linework.twr.ctr":{"name":"TWR CTR","layer":"Ground linework","object_type":"Line","paint":{"stroke":"#000000","stroke-opacity":1.0,"stroke-width":1.5},"feature_count":1},"line.runway.centerline.runway.markings":{"name":"Runway Markings","layer":"Runways","object_type":"Line","paint":{"stroke":"#FEFEFE","stroke-opacity":1.0,"stroke-width":1.5},"feature_count":1},"point.airport.reference.point.labels":{"name":"Labels","layer":"Reference points","object_type":"Point","paint":{"marker-color":"#808080","marker-size":"small"},"feature_count":1}},"features":[{"type":"Feature","id":"LFBT-runway-02-20-4939","properties":{"name":"LFBT RWY 02/20","layer":"Runways","category":"Runway Markings","object_type":"Line","style_id":"line.runway.centerline.runway.markings","airport":"LFBT","geometry_role":"runway_centerline","vsmr_group_ids":[[]]},"geometry":{"type":"LineString","coordinates":[[-0.0099,43.171613889],[6.8889E-05,43.191299722]]}},{"type":"Feature","id":"lfbt.line.linework.runway.concrete.42933","properties":{"name":"LFBT Groundlayout Tarbes-Lourdes","layer":"Ground linework","category":"Runway Concrete","object_type":"Line","style_id":"line.linework.runway.concrete","airport":"LFBT","geometry_role":"linework","vsmr_group_ids":[[]]},"geometry":{"type":"MultiLineString","coordinates":[[[-0.004855,43.181007778],[-0.002824444,43.185014167]],[[-0.002366389,43.1859175],[0.000323611,43.1912375]],[[0.000323611,43.1912375],[-0.0001725,43.191380833]],[[-0.0001725,43.191380833],[-0.002829444,43.186132222]],[[-0.003364444,43.185083889],[-0.005758333,43.180349167]],[[-0.006185,43.179510278],[-0.013001389,43.166059722]],[[-0.013001389,43.166059722],[-0.012190556,43.165835278]],[[-0.011898611,43.167115556],[-0.010125,43.170609167]],[[-0.009647778,43.171546389],[-0.005316111,43.180091111]]]}},{"type":"Feature","id":"lfbt.line.linework.taxiway.42942","properties":{"name":"LFBT Groundlayout Tarbes-Lourdes","layer":"Ground linework","category":"Taxiway","object_type":"Line","style_id":"line.linework.taxiway","airport":"LFBT","geometry_role":"linework","vsmr_group_ids":[[]]},"geometry":{"type":"MultiLineString","coordinates":[[[-0.006185,43.179507778],[-0.006170278,43.179553611]],[[-0.006170278,43.179553611],[-0.006172778,43.179609167]],[[-0.006172778,43.179609167],[-0.0061825,43.179656944]],[[-0.0061825,43.179656944],[-0.0062,43.179695556]],[[-0.0062,43.179695556],[-0.006231389,43.179738333]],[[-0.006231389,43.179738333],[-0.006262778,43.179764167]],[[-0.006262778,43.179764167],[-0.006313056,43.179798889]],[[-0.006313056,43.179798889],[-0.006408333,43.179854444]],[[-0.006408333,43.179854444],[-0.006491389,43.179896111]],[[-0.006491389,43.179896111],[-0.006625,43.179955833]],[[-0.006625,43.179955833],[-0.006738611,43.179998611]],[[-0.006738611,43.179998611],[-0.006874722,43.180045833]],[[-0.006874722,43.180045833],[-0.006989444,43.180083056]],[[-0.006989444,43.180083056],[-0.007085,43.180114444]],[[-0.007085,43.180114444],[-0.007405,43.180207778]],[[-0.007405,43.180207778],[-0.007539722,43.180245278]],[[-0.007539722,43.180245278],[-0.007716667,43.180293333]],[[-0.007716667,43.180293333],[-0.007862778,43.180333056]],[[-0.007862778,43.180333056],[-0.008384167,43.180479167]],[[-0.008384167,43.180479167],[-0.008478056,43.180517778]],[[-0.008478056,43.180517778],[-0.008720833,43.180598889]],[[-0.008720833,43.180598889],[-0.008821389,43.180645]],[[-0.008821389,43.180645],[-0.008882222,43.180684167]],[[-0.008882222,43.180684167],[-0.008940833,43.180731944]],[[-0.008940833,43.180731944],[-0.008999167,43.180788333]],[[-0.008999167,43.180788333],[-0.009031944,43.180825833]],[[-0.009031944,43.180825833],[-0.00906,43.180839444]],[[-0.002362778,43.185921389],[-0.002372222,43.185849167]],[[-0.002372222,43.185849167],[-0.002377778,43.185782222]],[[-0.002377778,43.185782222],[-0.002372222,43.185729167]],[[-0.002372222,43.185729167],[-0.002353333,43.185680278]],[[-0.002353333,43.185680278],[-0.002325278,43.185621667]],[[-0.002325278,43.185621667],[-0.002303056,43.185576667]],[[-0.002303056,43.185576667],[-0.0022675,43.185533056]],[[-0.0022675,43.185533056],[-0.002217222,43.185495]],[[-0.002217222,43.185495],[-0.002163056,43.185454167]],[[-0.002163056,43.185454167],[-0.002091944,43.185413333]],[[-0.002091944,43.185413333],[-0.001994722,43.185375]],[[-0.001994722,43.185375],[-0.001905278,43.185353333]],[[-0.001905278,43.185353333],[-0.001494167,43.185283889]],[[-0.001494167,43.185283889],[-0.000883611,43.1851725]],[[-0.000883611,43.1851725],[-0.000811111,43.185166389]],[[-0.000811111,43.185166389],[-0.000732222,43.185165]],[[-0.000732222,43.185165],[-0.000678333,43.185175]],[[-0.000678333,43.185175],[-0.000631111,43.185189722]],[[-0.000631111,43.185189722],[-0.000590833,43.185211667]],[[-0.000590833,43.185211667],[-0.000546944,43.185244722]],[[-0.000546944,43.185244722],[-0.000511667,43.185282778]],[[-0.000511667,43.185282778],[-0.000479722,43.185335556]],[[-0.000479722,43.185335556],[-0.000392222,43.185507222]],[[-0.000392222,43.185507222],[-0.0002925,43.185718333]],[[-0.0002925,43.185718333],[-0.000274444,43.185744722]],[[-0.000274444,43.185744722],[-0.00025,43.185766667]],[[-0.00025,43.185766667],[-0.000213889,43.1857975]],[[-0.000213889,43.1857975],[-2.7778E-05,43.185938611]],[[-2.7778E-05,43.185938611],[-1.4167E-05,43.185949722]],[[-1.4167E-05,43.185949722],[-5.278E-06,43.185966111]],[[-5.278E-06,43.185966111],[2.3611E-05,43.186025556]],[[2.3611E-05,43.186025556],[0.000431389,43.186826389]],[[0.000431389,43.186826389],[0.000558056,43.187081667]],[[0.000558056,43.187081667],[0.000637222,43.18724]],[[0.000637222,43.18724],[0.000680278,43.187355]],[[0.000680278,43.187355],[0.0007125,43.187459722]],[[0.0007125,43.187459722],[0.000875278,43.188070556]],[[0.000875278,43.188070556],[0.000890278,43.1881175]],[[0.000890278,43.1881175],[0.000919167,43.188171111]],[[0.000919167,43.188171111],[0.000954444,43.188213333]],[[0.000954444,43.188213333],[0.0009975,43.188247222]],[[0.0009975,43.188247222],[0.001056944,43.188284444]],[[0.001056944,43.188284444],[0.001109722,43.188310278]],[[0.001109722,43.188310278],[0.001175556,43.188321944]],[[0.001175556,43.188321944],[0.001247778,43.18833]],[[0.001247778,43.18833],[0.001332778,43.188328889]],[[0.001332778,43.188328889],[0.001414444,43.188324167]],[[0.001414444,43.188324167],[0.001515556,43.1883125]],[[0.001515556,43.1883125],[0.001698333,43.188289167]],[[0.001698333,43.188289167],[0.002013889,43.188249167]],[[0.001980278,43.188136667],[0.001780278,43.1881725]],[[0.001780278,43.1881725],[0.0015325,43.188211944]],[[0.0015325,43.188211944],[0.001419444,43.188225]],[[0.001419444,43.188225],[0.001319167,43.188233611]],[[0.001319167,43.188233611],[0.001242222,43.188234722]],[[0.001242222,43.188234722],[0.001199444,43.188231111]],[[0.001199444,43.188231111],[0.001151944,43.188218056]],[[0.001151944,43.188218056],[0.001110833,43.1882]],[[0.001110833,43.1882],[0.001079722,43.188177222]],[[0.001079722,43.188177222],[0.001051944,43.188148611]],[[0.001051944,43.188148611],[0.001028889,43.188112778]],[[0.001028889,43.188112778],[0.001005833,43.188064722]],[[0.001005833,43.188064722],[0.00095,43.187832778]],[[0.00095,43.187832778],[0.000838611,43.187441111]],[[0.000838611,43.187441111],[0.000811667,43.187352222]],[[0.000811667,43.187352222],[0.000791944,43.187292222]],[[0.000791944,43.187292222],[0.000766944,43.187228056]],[[0.000766944,43.187228056],[0.000741944,43.187166667]],[[0.000741944,43.187166667],[0.000711389,43.187106667]],[[0.000711389,43.187106667],[0.0006775,43.187045278]],[[0.0006775,43.187045278],[0.000605278,43.186897778]],[[0.000605278,43.186897778],[0.000608611,43.186884444]],[[0.000608611,43.186884444],[0.000625278,43.186880833]],[[0.000625278,43.186880833],[0.000648611,43.186883333]],[[0.000648611,43.186883333],[0.000680278,43.186885833]],[[0.000680278,43.186885833],[0.000720278,43.186883333]],[[0.000720278,43.186883333],[0.000758611,43.186878333]],[[0.000758611,43.186878333],[0.000803611,43.186873611]],[[0.000803611,43.186873611],[0.000870556,43.1868625]],[[0.000870556,43.1868625],[0.000965556,43.186846667]],[[0.000938611,43.186758889],[0.000856111,43.186773889]],[[0.000856111,43.186773889],[0.000774722,43.186786389]],[[0.000774722,43.186786389],[0.000734167,43.186790833]],[[0.000734167,43.186790833],[0.000702222,43.186792778]],[[0.000702222,43.186792778],[0.000671389,43.186791944]],[[0.000671389,43.186791944],[0.000636944,43.186784722]],[[0.000636944,43.186784722],[0.0006,43.186772222]],[[0.0006,43.186772222],[0.000561667,43.1867525]],[[0.000561667,43.1867525],[0.000532222,43.186736111]],[[0.000532222,43.186736111],[0.000516111,43.186722778]],[[0.000516111,43.186722778],[0.000502778,43.186702222]],[[0.000502778,43.186702222],[0.000479167,43.186658889]],[[0.000479167,43.186658889],[0.000406667,43.186511667]],[[0.000406667,43.186511667],[0.000136667,43.185982778]],[[0.000136667,43.185982778],[0.000118056,43.1859375]],[[0.000118056,43.1859375],[0.0001125,43.185911667]],[[0.0001125,43.185911667],[0.000125556,43.185885833]],[[0.000125556,43.185885833],[0.000148056,43.185861111]],[[0.000148056,43.185861111],[0.000170556,43.185843333]],[[0.000170556,43.185843333],[0.000206111,43.185829722]],[[-0.002822778,43.185011111],[-0.002778056,43.185058056]],[[-0.002778056,43.185058056],[-0.002702222,43.185120556]],[[-0.002702222,43.185120556],[-0.002632778,43.185159167]],[[-0.002632778,43.185159167],[-0.002565278,43.185191667]],[[-0.002565278,43.185191667],[-0.002474444,43.185220556]],[[-0.002474444,43.185220556],[-0.002381944,43.185237222]],[[-0.002381944,43.185237222],[-0.002310833,43.185242222]],[[-0.002310833,43.185242222],[-0.00223,43.185239722]],[[-0.00223,43.185239722],[-0.002154167,43.18523]],[[-0.002154167,43.18523],[-0.001827222,43.185171111]],[[-0.001827222,43.185171111],[-0.000170278,43.184863889]],[[-0.000170278,43.184863889],[0.000794167,43.184681389]],[[0.000794167,43.184681389],[0.000838056,43.1846675]],[[0.000838056,43.1846675],[0.000885,43.184646389]],[[0.000885,43.184646389],[0.000938611,43.184613056]],[[0.000938611,43.184613056],[0.000991111,43.184570833]],[[0.000991111,43.184570833],[0.001046389,43.184503056]],[[0.001046389,43.184503056],[0.001070833,43.184453611]],[[0.001070833,43.184453611],[0.001085278,43.184407778]],[[0.001085278,43.184407778],[0.001088889,43.184360278]],[[0.001088889,43.184360278],[0.001087778,43.184310833]],[[0.001087778,43.184310833],[0.001069167,43.184260278]],[[0.001069167,43.184260278],[0.001027222,43.184202778]],[[0.001027222,43.184202778],[0.000931389,43.184077222]],[[0.000931389,43.184077222],[0.000296944,43.183243611]],[[0.000296944,43.183243611],[-0.000149444,43.182659444]],[[-0.000149444,43.182659444],[-0.000773889,43.181843333]],[[-0.000773889,43.181843333],[-0.000984444,43.18157]],[[-0.000984444,43.18157],[-0.001071111,43.181479722]],[[-0.001071111,43.181479722],[-0.001361667,43.181215833]],[[-0.001361667,43.181215833],[-0.001546389,43.181071667]],[[-0.001546389,43.181071667],[-0.0016825,43.180983889]],[[-0.0016825,43.180983889],[-0.001969722,43.180816389]],[[-0.001969722,43.180816389],[-0.002161944,43.180720278]],[[-0.002161944,43.180720278],[-0.002343056,43.180641667]],[[-0.002343056,43.180641667],[-0.002511667,43.180576944]],[[-0.002511667,43.180576944],[-0.002654722,43.180528889]],[[-0.002654722,43.180528889],[-0.002755,43.180498611]],[[-0.002755,43.180498611],[-0.002889444,43.180460278]],[[-0.002889444,43.180460278],[-0.003034722,43.180420278]],[[-0.003034722,43.180420278],[-0.003172778,43.180388889]],[[-0.003172778,43.180388889],[-0.003451944,43.180338056]],[[-0.003451944,43.180338056],[-0.003546111,43.180326111]],[[-0.003546111,43.180326111],[-0.003641667,43.180322222]],[[-0.003641667,43.180322222],[-0.003767222,43.180325278]],[[-0.003767222,43.180325278],[-0.003902222,43.180338056]],[[-0.003902222,43.180338056],[-0.004043889,43.180360833]],[[-0.004043889,43.180360833],[-0.004154444,43.180393889]],[[-0.004154444,43.180393889],[-0.004284167,43.180445278]],[[-0.004284167,43.180445278],[-0.004485556,43.180560278]],[[-0.004485556,43.180560278],[-0.004581944,43.180625556]],[[-0.004581944,43.180625556],[-0.004655833,43.180684444]],[[-0.004655833,43.180684444],[-0.004711111,43.180748611]],[[-0.004711111,43.180748611],[-0.004761944,43.1808275]],[[-0.004761944,43.1808275],[-0.004801111,43.180886389]],[[-0.004801111,43.180886389],[-0.004835556,43.180950278]],[[-0.004835556,43.180950278],[-0.004854167,43.181005833]],[[-0.005311667,43.180084722],[-0.005262222,43.180140278]],[[-0.005262222,43.180140278],[-0.005182778,43.180205278]],[[-0.005182778,43.180205278],[-0.005096667,43.180253611]],[[-0.005096667,43.180253611],[-0.004984167,43.180292222]],[[-0.004984167,43.180292222],[-0.004855,43.180323611]],[[-0.004855,43.180323611],[-0.004758889,43.180335833]],[[-0.004758889,43.180335833],[-0.00463,43.180326111]],[[-0.00463,43.180326111],[-0.004510833,43.180309167]],[[-0.004510833,43.180309167],[-0.004404722,43.1802875]],[[-0.004404722,43.1802875],[-0.004275556,43.180248889]],[[-0.004275556,43.180248889],[-0.00412,43.180210278]],[[-0.00412,43.180210278],[-0.003981111,43.180178889]],[[-0.003981111,43.180178889],[-0.003868611,43.180161944]],[[-0.003868611,43.180161944],[-0.003749444,43.180154722]],[[-0.003749444,43.180154722],[-0.003620278,43.180152222]],[[-0.003620278,43.180152222],[-0.003507778,43.180161944]],[[-0.003507778,43.180161944],[-0.003315556,43.180188611]],[[-0.003315556,43.180188611],[-0.002991667,43.18026]],[[-0.002991667,43.18026],[-0.002776667,43.180317222]],[[-0.002776667,43.180317222],[-0.002546667,43.180381667]],[[-0.002546667,43.180381667],[-0.0023875,43.180438889]],[[-0.0023875,43.180438889],[-0.002218056,43.180503333]],[[-0.002218056,43.180503333],[-0.002056389,43.180571667]],[[-0.002056389,43.180571667],[-0.001866667,43.180669167]],[[-0.001866667,43.180669167],[-0.001753056,43.180728333]],[[-0.001753056,43.180728333],[-0.001531667,43.180854722]],[[-0.001531667,43.180854722],[-0.00161,43.180744722]],[[-0.00161,43.180744722],[-0.0019075,43.180349444]],[[-0.0019075,43.180349444],[-0.002525278,43.179544722]],[[-0.002525278,43.179544722],[-0.003036111,43.178864444]],[[-0.003036111,43.178864444],[-0.003747222,43.177937222]],[[-0.003747222,43.177937222],[-0.004227222,43.177305]],[[-0.004227222,43.177305],[-0.004556944,43.176868056]],[[-0.004556944,43.176868056],[-0.004853611,43.176441111]],[[-0.004853611,43.176441111],[-0.005003611,43.176194722]],[[-0.005003611,43.176194722],[-0.0052325,43.175838889]],[[-0.0052325,43.175838889],[-0.005773056,43.174828333]],[[-0.005773056,43.174828333],[-0.005997778,43.174382222]],[[-0.005997778,43.174382222],[-0.006113611,43.174155556]],[[-0.006113611,43.174155556],[-0.006945556,43.1725075]],[[-0.006945556,43.1725075],[-0.007144444,43.172118611]],[[-0.007144444,43.172118611],[-0.007499722,43.171419722]],[[-0.007499722,43.171419722],[-0.007563889,43.171306667]],[[-0.007563889,43.171306667],[-0.00763,43.171219722]],[[-0.00763,43.171219722],[-0.007703056,43.171150278]],[[-0.007703056,43.171150278],[-0.007798056,43.171082778]],[[-0.007798056,43.171082778],[-0.007868889,43.171034444]],[[-0.007868889,43.171034444],[-0.008010278,43.170964167]],[[-0.008010278,43.170964167],[-0.008129722,43.170926111]],[[-0.008129722,43.170926111],[-0.008264722,43.170888333]],[[-0.008264722,43.170888333],[-0.008417778,43.170861667]],[[-0.008417778,43.170861667],[-0.0085425,43.170854167]],[[-0.0085425,43.170854167],[-0.008688056,43.170856111]],[[-0.008688056,43.170856111],[-0.008836111,43.170880556]],[[-0.008836111,43.170880556],[-0.009030833,43.170926111]],[[-0.009030833,43.170926111],[-0.009215,43.171008333]],[[-0.009215,43.171008333],[-0.009374444,43.171104167]],[[-0.009374444,43.171104167],[-0.009493889,43.171223333]],[[-0.009493889,43.171223333],[-0.009577778,43.171325278]],[[-0.009577778,43.171325278],[-0.009633333,43.171438611]],[[-0.009633333,43.171438611],[-0.009645556,43.171549167]],[[-0.010125833,43.170610556],[-0.0100825,43.170660556]],[[-0.0100825,43.170660556],[-0.010045278,43.170701944]],[[-0.010045278,43.170701944],[-0.009993056,43.17074]],[[-0.009993056,43.17074],[-0.009928889,43.170781389]],[[-0.009928889,43.170781389],[-0.009853056,43.170819444]],[[-0.009853056,43.170819444],[-0.0097725,43.170843333]],[[-0.0097725,43.170843333],[-0.00968,43.170860556]],[[-0.00968,43.170860556],[-0.009601111,43.170870556]],[[-0.009601111,43.170870556],[-0.009536944,43.170868333]],[[-0.009536944,43.170868333],[-0.009463889,43.170862778]],[[-0.009463889,43.170862778],[-0.009401389,43.170850833]],[[-0.009401389,43.170850833],[-0.009322222,43.170830278]],[[-0.009322222,43.170830278],[-0.009064444,43.170759444]],[[-0.009064444,43.170759444],[-0.008486389,43.170598611]],[[-0.008486389,43.170598611],[-0.008418889,43.170564444]],[[-0.008418889,43.170564444],[-0.008364444,43.170528889]],[[-0.008364444,43.170528889],[-0.008304444,43.170486389]],[[-0.008304444,43.170486389],[-0.008255556,43.170435833]],[[-0.008255556,43.170435833],[-0.008218056,43.170381111]],[[-0.008218056,43.170381111],[-0.008193889,43.170316667]],[[-0.008193889,43.170316667],[-0.0081675,43.170256667]],[[-0.0081675,43.170256667],[-0.00816,43.170185556]],[[-0.00816,43.170185556],[-0.008159722,43.170138056]],[[-0.008159722,43.170138056],[-0.008179167,43.170080278]],[[-0.008179167,43.170080278],[-0.008403611,43.169635]],[[-0.008403611,43.169635],[-0.008899444,43.168663611]],[[-0.008899444,43.168663611],[-0.009327222,43.167819167]],[[-0.009327222,43.167819167],[-0.009526389,43.167426111]],[[-0.009526389,43.167426111],[-0.009637222,43.167209722]],[[-0.009637222,43.167209722],[-0.009700278,43.167111667]],[[-0.009700278,43.167111667],[-0.009761389,43.167028611]],[[-0.009761389,43.167028611],[-0.009842778,43.166931944]],[[-0.009842778,43.166931944],[-0.0099325,43.166842778]],[[-0.0099325,43.166842778],[-0.010085,43.166703333]],[[-0.010085,43.166703333],[-0.010455,43.166408889]],[[-0.010455,43.166408889],[-0.010853333,43.166139444]],[[-0.010853333,43.166139444],[-0.011058056,43.166012778]],[[-0.011058056,43.166012778],[-0.011186944,43.165960833]],[[-0.011186944,43.165960833],[-0.011302778,43.16593]],[[-0.011302778,43.16593],[-0.011388889,43.165921667]],[[-0.011388889,43.165921667],[-0.011475,43.165915]],[[-0.011475,43.165915],[-0.011602222,43.165928333]],[[-0.011602222,43.165928333],[-0.011647222,43.165938333]],[[-0.011647222,43.165938333],[-0.011907222,43.166013333]],[[-0.011907222,43.166013333],[-0.011702222,43.166418333]],[[-0.011702222,43.166418333],[-0.01183,43.167029722]],[[-0.01183,43.167029722],[-0.011863889,43.167067778]],[[-0.011863889,43.167067778],[-0.011892778,43.167094444]],[[-0.011892778,43.167094444],[-0.011890278,43.167123056]],[[-0.012193611,43.165836667],[-0.011708333,43.165713056]],[[-0.011708333,43.165713056],[-0.011600278,43.165694444]],[[-0.011600278,43.165694444],[-0.011490278,43.165691389]],[[-0.011490278,43.165691389],[-0.011392778,43.165693056]],[[-0.011392778,43.165693056],[-0.011295278,43.165700556]],[[-0.011295278,43.165700556],[-0.011191389,43.165714722]],[[-0.011191389,43.165714722],[-0.011081111,43.165743889]],[[-0.011081111,43.165743889],[-0.010985833,43.165773333]],[[-0.010985833,43.165773333],[-0.010903333,43.165810556]],[[-0.010903333,43.165810556],[-0.0108375,43.165849167]],[[-0.0108375,43.165849167],[-0.010763333,43.165898611]],[[-0.010763333,43.165898611],[-0.0098675,43.166633333]],[[-0.0098675,43.166633333],[-0.009618333,43.166874167]],[[-0.009618333,43.166874167],[-0.009552778,43.166963889]],[[-0.009552778,43.166963889],[-0.009486944,43.167059722]],[[-0.009486944,43.167059722],[-0.009336667,43.167338889]],[[-0.009336667,43.167338889],[-0.009191667,43.16761]],[[-0.009191667,43.16761],[-0.007925833,43.170094167]],[[-0.007925833,43.170094167],[-0.007216389,43.171493611]],[[-0.007216389,43.171493611],[-0.007143333,43.171542222]],[[-0.007143333,43.171542222],[-0.007079722,43.171575556]],[[-0.007079722,43.171575556],[-0.006991667,43.171593056]],[[-0.006991667,43.171593056],[-0.006906667,43.171608611]],[[-0.006906667,43.171608611],[-0.006821667,43.171604167]],[[-0.006821667,43.171604167],[-0.006751944,43.171584167]],[[-0.006751944,43.171584167],[-0.006666944,43.17156]],[[-0.006666944,43.17156],[-0.006572778,43.171515556]],[[-0.006572778,43.171515556],[-0.006533333,43.171480278]],[[-0.006533333,43.171480278],[-0.006509167,43.171436111]],[[-0.006509167,43.171436111],[-0.006503056,43.171396111]],[[-0.006503056,43.171396111],[-0.006524167,43.171349722]],[[-0.00628,43.171819167],[-0.006299722,43.171786111]],[[-0.006299722,43.171786111],[-0.006336944,43.171756111]],[[-0.006336944,43.171756111],[-0.006378333,43.171734444]],[[-0.006378333,43.171734444],[-0.006425556,43.171720278]],[[-0.006425556,43.171720278],[-0.006484444,43.171708889]],[[-0.006484444,43.171708889],[-0.006543333,43.171708889]],[[-0.006543333,43.171708889],[-0.006600556,43.171713056]],[[-0.006600556,43.171713056],[-0.006671111,43.171731667]],[[-0.006671111,43.171731667],[-0.006795,43.171771944]],[[-0.006795,43.171771944],[-0.006846111,43.171799167]],[[-0.006846111,43.171799167],[-0.006881667,43.171836389]],[[-0.006881667,43.171836389],[-0.006913056,43.171875]],[[-0.006913056,43.171875],[-0.006932778,43.171919444]],[[-0.006932778,43.171919444],[-0.006950556,43.1719625]],[[-0.006950556,43.1719625],[-0.006954444,43.171991389]],[[-0.006954444,43.171991389],[-0.006950556,43.172018611]],[[-0.006950556,43.172018611],[-0.006938611,43.172051389]],[[-0.006938611,43.172051389],[-0.006274167,43.173358333]],[[-0.006274167,43.173358333],[-0.005644722,43.174598333]],[[-0.005644722,43.174598333],[-0.005547778,43.174791667]],[[-0.005547778,43.174791667],[-0.005505278,43.174823611]],[[-0.005505278,43.174823611],[-0.005464444,43.174864167]],[[-0.005464444,43.174864167],[-0.005410833,43.174893889]],[[-0.005410833,43.174893889],[-0.005348611,43.174923611]],[[-0.005348611,43.174923611],[-0.005299722,43.174941667]],[[-0.005299722,43.174941667],[-0.0052425,43.174955833]],[[-0.0052425,43.174955833],[-0.005182222,43.174971389]],[[-0.005182222,43.174971389],[-0.005126667,43.174978611]],[[-0.005126667,43.174978611],[-0.005079444,43.174983333]],[[-0.005079444,43.174983333],[-0.005035278,43.174979722]],[[-0.005035278,43.174979722],[-0.005009167,43.174966667]],[[-0.005009167,43.174966667],[-0.004983056,43.174936944]],[[-0.004983056,43.174936944],[-0.004937222,43.174890278]],[[-0.004937222,43.174890278],[-0.004895,43.174825]],[[-0.004895,43.174825],[-0.004871944,43.174777222]],[[-0.004871944,43.174777222],[-0.0048525,43.174723889]],[[-0.0048525,43.174723889],[-0.0048475,43.174680833]],[[-0.0048475,43.174680833],[-0.004849167,43.174651111]],[[-0.004849167,43.174651111],[-0.004857222,43.174616667]],[[-0.004857222,43.174616667],[-0.004878611,43.174580833]],[[-0.004406389,43.175467778],[-0.004445278,43.175421667]],[[-0.004445278,43.175421667],[-0.0044775,43.1753975]],[[-0.0044775,43.1753975],[-0.004523889,43.175369167]],[[-0.004523889,43.175369167],[-0.004580556,43.175343333]],[[-0.004580556,43.175343333],[-0.004645,43.175314167]],[[-0.004645,43.175314167],[-0.004705833,43.175293889]],[[-0.004705833,43.175293889],[-0.004760278,43.175279444]],[[-0.004760278,43.175279444],[-0.0048325,43.175269722]],[[-0.0048325,43.175269722],[-0.004886389,43.175267222]],[[-0.004886389,43.175267222],[-0.004921944,43.175266111]],[[-0.004921944,43.175266111],[-0.004957778,43.175302778]],[[-0.004957778,43.175302778],[-0.005001389,43.175355556]],[[-0.005001389,43.175355556],[-0.005041111,43.175411667]],[[-0.005041111,43.175411667],[-0.005058333,43.175460833]],[[-0.005058333,43.175460833],[-0.005075556,43.175507222]],[[-0.005075556,43.175507222],[-0.005084722,43.175558333]],[[-0.005084722,43.175558333],[-0.005078056,43.175599722]],[[-0.005078056,43.175599722],[-0.0050675,43.175636389]],[[-0.0050675,43.175636389],[-0.005065,43.175666111]],[[-0.005065,43.175666111],[-0.005062222,43.175705833]],[[-0.005062222,43.175705833],[-0.004934722,43.175909444]],[[-0.004934722,43.175909444],[-0.004386111,43.176750833]],[[-0.004386111,43.176750833],[-0.004146111,43.177068333]],[[-0.004146111,43.177068333],[-0.003300556,43.178179722]],[[-0.003300556,43.178179722],[-0.003176667,43.178341111]],[[-0.003176667,43.178341111],[-0.001831389,43.180109444]],[[-0.001831389,43.180109444],[-0.000709444,43.181583333]],[[-0.000709444,43.181583333],[-0.000568889,43.181769444]],[[-0.000568889,43.181769444],[0.000131944,43.182686944]],[[0.000131944,43.182686944],[0.000213333,43.182787778]],[[0.000213333,43.182787778],[0.000259722,43.182815]],[[0.000259722,43.182815],[0.000310278,43.182835]],[[0.000310278,43.182835],[0.000361944,43.182850833]],[[0.000361944,43.182850833],[0.000418611,43.182859444]],[[0.000418611,43.182859444],[0.000480833,43.182858333]],[[0.000480833,43.182858333],[0.0005375,43.182852778]],[[0.0005375,43.182852778],[0.000588056,43.182839722]],[[0.000588056,43.182839722],[0.000631944,43.1828225]],[[-0.00283,43.186130833],[-0.002873056,43.186084722]],[[-0.002873056,43.186084722],[-0.002950278,43.185999444]],[[-0.002950278,43.185999444],[-0.003030556,43.185947222]],[[-0.003030556,43.185947222],[-0.003106389,43.185913056]],[[-0.003106389,43.185913056],[-0.003188889,43.185885556]],[[-0.003188889,43.185885556],[-0.003278056,43.185870833]],[[-0.003278056,43.185870833],[-0.003378611,43.185862778]],[[-0.003378611,43.185862778],[-0.003445556,43.185869167]],[[-0.003445556,43.185869167],[-0.003552778,43.185888611]],[[-0.003552778,43.185888611],[-0.003956667,43.185971667]],[[-0.003956667,43.185971667],[-0.004356944,43.186051667]],[[-0.004356944,43.186051667],[-0.004399444,43.186059722]],[[-0.004399444,43.186059722],[-0.004445556,43.186073611]],[[-0.004445556,43.186073611],[-0.004668611,43.186134722]],[[-0.004668611,43.186134722],[-0.005418056,43.1863375]],[[-0.005418056,43.1863375],[-0.006691111,43.186683333]],[[-0.006691111,43.186683333],[-0.006766389,43.18671]],[[-0.006766389,43.18671],[-0.006814167,43.186738056]],[[-0.006814167,43.186738056],[-0.006850833,43.186778333]],[[-0.006850833,43.186778333],[-0.006883889,43.186814444]],[[-0.006883889,43.186814444],[-0.006898611,43.186865278]],[[-0.006898611,43.186865278],[-0.006898611,43.186906944]],[[-0.003364722,43.185080556],[-0.003341944,43.185176944]],[[-0.003341944,43.185176944],[-0.003341944,43.185243889]],[[-0.003341944,43.185243889],[-0.003348611,43.185290833]],[[-0.003348611,43.185290833],[-0.003363333,43.185333611]],[[-0.003363333,43.185333611],[-0.003380556,43.185366667]],[[-0.003380556,43.185366667],[-0.003408611,43.1854075]],[[-0.003408611,43.1854075],[-0.003444722,43.185448333]],[[-0.003444722,43.185448333],[-0.003472778,43.185477778]],[[-0.003472778,43.185477778],[-0.003514444,43.185510833]],[[-0.003514444,43.185510833],[-0.003551111,43.185533889]],[[-0.003551111,43.185533889],[-0.003586667,43.185551389]],[[-0.003586667,43.185551389],[-0.003633333,43.185570833]],[[-0.003633333,43.185570833],[-0.00388,43.185658611]],[[-0.00388,43.185658611],[-0.003993889,43.185698056]],[[-0.003993889,43.185698056],[-0.004496111,43.185870278]],[[-0.004496111,43.185870278],[-0.004546667,43.185883889]],[[-0.004546667,43.185883889],[-0.004744722,43.185938056]],[[-0.004744722,43.185938056],[-0.005516944,43.186148889]],[[-0.005516944,43.186148889],[-0.005829444,43.186235556]],[[-0.005829444,43.186235556],[-0.006962778,43.186542222]],[[-0.006962778,43.186542222],[-0.006994722,43.186550278]],[[-0.006994722,43.186550278],[-0.007026667,43.186553889]],[[-0.007026667,43.186553889],[-0.007053611,43.186555556]],[[-0.007053611,43.186555556],[-0.007080833,43.186553889]],[[-0.007080833,43.186553889],[-0.007110833,43.186549167]],[[-0.007110833,43.186549167],[-0.007135,43.186542778]],[[-0.007135,43.186542778],[-0.007162222,43.186534167]],[[-0.007162222,43.186534167],[-0.007189722,43.186521389]],[[-0.007189722,43.186521389],[-0.007215833,43.186505278]],[[-0.007215833,43.186505278],[-0.007241111,43.186487778]],[[-0.007241111,43.186487778],[-0.0072575,43.186472778]],[[-0.0072575,43.186472778],[-0.007270556,43.18646]],[[-0.005755,43.180353056],[-0.005781389,43.180312222]],[[-0.005781389,43.180312222],[-0.005841389,43.180267778]],[[-0.005841389,43.180267778],[-0.005891389,43.180235]],[[-0.005891389,43.180235],[-0.005954167,43.180208611]],[[-0.005954167,43.180208611],[-0.005996111,43.180196389]],[[-0.005996111,43.180196389],[-0.006052222,43.180189167]],[[-0.006052222,43.180189167],[-0.006145278,43.180187778]],[[-0.006145278,43.180187778],[-0.006230833,43.180190278]],[[-0.006230833,43.180190278],[-0.00629,43.180194167]],[[-0.00629,43.180194167],[-0.006358889,43.180200556]],[[-0.006358889,43.180200556],[-0.006566944,43.1802325]],[[-0.006566944,43.1802325],[-0.006676111,43.180251667]],[[-0.006676111,43.180251667],[-0.006810833,43.180277778]],[[-0.006810833,43.180277778],[-0.006871667,43.180290556]],[[-0.006871667,43.180290556],[-0.006986111,43.1803175]],[[-0.006986111,43.1803175],[-0.007155833,43.180365556]],[[-0.007155833,43.180365556],[-0.007248611,43.180391111]],[[-0.007248611,43.180391111],[-0.008290556,43.180678889]],[[-0.008290556,43.180678889],[-0.008374444,43.180697222]],[[-0.008374444,43.180697222],[-0.008541944,43.1807425]],[[-0.008541944,43.1807425],[-0.008645833,43.180779167]],[[-0.008645833,43.180779167],[-0.008697778,43.180805278]],[[-0.008697778,43.180805278],[-0.008746667,43.180844167]],[[-0.008746667,43.180844167],[-0.008791111,43.180885278]],[[-0.008791111,43.180885278],[-0.0088475,43.180955556]]]}},{"type":"Feature","id":"lfbt.line.linework.apron.surface.43424","properties":{"name":"LFBT Groundlayout Tarbes-Lourdes","layer":"Ground linework","category":"Apron Surface","object_type":"Line","style_id":"line.linework.apron.surface","airport":"LFBT","geometry_role":"linework","vsmr_group_ids":[[]]},"geometry":{"type":"MultiLineString","coordinates":[[[-0.007270278,43.186461111],[-0.007294167,43.186426389]],[[-0.007294167,43.186426389],[-0.007353333,43.186314444]],[[-0.007353333,43.186314444],[-0.007380833,43.186259167]],[[-0.007380833,43.186259167],[-0.007388611,43.186239167]],[[-0.007388611,43.186239167],[-0.007389722,43.186211667]],[[-0.007389722,43.186211667],[-0.007384722,43.186190556]],[[-0.007384722,43.186190556],[-0.007368333,43.186154722]],[[-0.007368333,43.186154722],[-0.007338056,43.186113333]],[[-0.007338056,43.186113333],[-0.007315556,43.186087778]],[[-0.007315556,43.186087778],[-0.007280278,43.186061111]],[[-0.007280278,43.186061111],[-0.00724,43.186044444]],[[-0.00724,43.186044444],[-0.007197222,43.186030833]],[[-0.007197222,43.186030833],[-0.005869722,43.185670278]],[[-0.005869722,43.185670278],[-0.005944167,43.185517222]],[[-0.005944167,43.185517222],[-0.006368333,43.185632222]],[[-0.006368333,43.185632222],[-0.007296111,43.18589]],[[-0.007296111,43.18589],[-0.00734,43.185894444]],[[-0.00734,43.185894444],[-0.007381944,43.185894444]],[[-0.007381944,43.185894444],[-0.007432222,43.185892222]],[[-0.007432222,43.185892222],[-0.007478889,43.185881944]],[[-0.007478889,43.185881944],[-0.007518056,43.185868333]],[[-0.007518056,43.185868333],[-0.007557222,43.185844444]],[[-0.007557222,43.185844444],[-0.007593056,43.185814722]],[[-0.007593056,43.185814722],[-0.007625833,43.185773611]],[[-0.007625833,43.185773611],[-0.007654167,43.185730278]],[[-0.007654167,43.185730278],[-0.007672778,43.185685833]],[[-0.007672778,43.185685833],[-0.007686944,43.185643611]],[[-0.007686944,43.185643611],[-0.00769,43.185599167]],[[-0.00769,43.185599167],[-0.007686944,43.185570833]],[[-0.007686944,43.185570833],[-0.007674444,43.185545556]],[[-0.007674444,43.185545556],[-0.007654167,43.185515]],[[-0.007654167,43.185515],[-0.007605278,43.185466389]],[[-0.007605278,43.185466389],[-0.007555556,43.185441111]],[[-0.007555556,43.185441111],[-0.007479444,43.185416944]],[[-0.007479444,43.185416944],[-0.006178333,43.185063889]],[[-0.006178333,43.185063889],[-0.006252778,43.184912778]],[[-0.006252778,43.184912778],[-0.006852222,43.185073611]],[[-0.006852222,43.185073611],[-0.007593333,43.185278611]],[[-0.007593333,43.185278611],[-0.007648056,43.185285556]],[[-0.007648056,43.185285556],[-0.007695833,43.185288611]],[[-0.007695833,43.185288611],[-0.007738333,43.185285556]],[[-0.007738333,43.185285556],[-0.007803889,43.185273611]],[[-0.007803889,43.185273611],[-0.007840833,43.185257778]],[[-0.007840833,43.185257778],[-0.007878889,43.185235833]],[[-0.007878889,43.185235833],[-0.007903611,43.185214722]],[[-0.007903611,43.185214722],[-0.007926667,43.185185833]],[[-0.007926667,43.185185833],[-0.007954167,43.185135]],[[-0.007954167,43.185135],[-0.008034444,43.184982778]],[[-0.008034444,43.184982778],[-0.008043889,43.184949167]],[[-0.008043889,43.184949167],[-0.00804,43.184923333]],[[-0.00804,43.184923333],[-0.008031667,43.184901389]],[[-0.008031667,43.184901389],[-0.008016667,43.184886389]],[[-0.008016667,43.184886389],[-0.007996944,43.184873333]],[[-0.007996944,43.184873333],[-0.0079725,43.184861944]],[[-0.0079725,43.184861944],[-0.007933333,43.184849444]],[[-0.007933333,43.184849444],[-0.007686944,43.184781944]],[[-0.007686944,43.184781944],[-0.006488056,43.184454167]],[[-0.006488056,43.184454167],[-0.006561944,43.184305278]],[[-0.006561944,43.184305278],[-0.007156389,43.1844675]],[[-0.007156389,43.1844675],[-0.008025,43.184704167]],[[-0.008025,43.184704167],[-0.008053333,43.184708611]],[[-0.008053333,43.184708611],[-0.008083889,43.184709444]],[[-0.008083889,43.184709444],[-0.008118056,43.184705]],[[-0.008118056,43.184705],[-0.008146111,43.184695278]],[[-0.008146111,43.184695278],[-0.008169444,43.184682778]],[[-0.008169444,43.184682778],[-0.008195,43.184663056]],[[-0.008195,43.184663056],[-0.008208333,43.184641667]],[[-0.008208333,43.184641667],[-0.008224444,43.184609722]],[[-0.008224444,43.184609722],[-0.008262222,43.184532222]],[[-0.008262222,43.184532222],[-0.008349722,43.184362778]],[[-0.008349722,43.184362778],[-0.008356667,43.184344722]],[[-0.008356667,43.184344722],[-0.008354444,43.184325278]],[[-0.008354444,43.184325278],[-0.008347222,43.184307222]],[[-0.008347222,43.184307222],[-0.008333333,43.18429]],[[-0.008333333,43.18429],[-0.008319167,43.184275556]],[[-0.008319167,43.184275556],[-0.008299167,43.184262778]],[[-0.008299167,43.184262778],[-0.008269722,43.184250556]],[[-0.008269722,43.184250556],[-0.008194722,43.184229167]],[[-0.008194722,43.184229167],[-0.006793611,43.183846944]],[[-0.006793611,43.183846944],[-0.006868611,43.183697222]],[[-0.006868611,43.183697222],[-0.0079225,43.183985]],[[-0.0079225,43.183985],[-0.008335833,43.1840975]],[[-0.008335833,43.1840975],[-0.008375833,43.184099722]],[[-0.008375833,43.184099722],[-0.008420833,43.1840975]],[[-0.008420833,43.1840975],[-0.0084625,43.184085]],[[-0.0084625,43.184085],[-0.008488611,43.184066944]],[[-0.008488611,43.184066944],[-0.008510278,43.18404]],[[-0.008510278,43.18404],[-0.008530278,43.184002778]],[[-0.008530278,43.184002778],[-0.008548889,43.183971111]],[[-0.008548889,43.183971111],[-0.008558056,43.183925]],[[-0.008558056,43.183925],[-0.008553611,43.183887778]],[[-0.008553611,43.183887778],[-0.008528889,43.183843889]],[[-0.008528889,43.183843889],[-0.008504167,43.183819167]],[[-0.008504167,43.183819167],[-0.008468611,43.183786667]],[[-0.008468611,43.183786667],[-0.008423889,43.183762778]],[[-0.008423889,43.183762778],[-0.008372778,43.183746111]],[[-0.008372778,43.183746111],[-0.008133333,43.183683056]],[[-0.008133333,43.183683056],[-0.007053056,43.183387778]],[[-0.007053056,43.183387778],[-0.007125833,43.1832375]],[[-0.007125833,43.1832375],[-0.008349167,43.183567778]],[[-0.008349167,43.183567778],[-0.008478333,43.183605833]],[[-0.008478333,43.183605833],[-0.008516667,43.183610833]],[[-0.008516667,43.183610833],[-0.008556667,43.18361]],[[-0.008556667,43.18361],[-0.008611944,43.183604722]],[[-0.008611944,43.183604722],[-0.008659167,43.183594444]],[[-0.008659167,43.183594444],[-0.008703333,43.183571389]],[[-0.008703333,43.183571389],[-0.008738889,43.183544444]],[[-0.008738889,43.183544444],[-0.008773056,43.183513333]],[[-0.008773056,43.183513333],[-0.0088,43.183469722]],[[-0.0088,43.183469722],[-0.00882,43.183426111]],[[-0.00882,43.183426111],[-0.008844167,43.183364722]],[[-0.008844167,43.183364722],[-0.008854167,43.183335833]],[[-0.008854167,43.183335833],[-0.008848333,43.183301389]],[[-0.008848333,43.183301389],[-0.008835556,43.183275556]],[[-0.008835556,43.183275556],[-0.00881,43.183239167]],[[-0.00881,43.183239167],[-0.008775833,43.183205]],[[-0.008775833,43.183205],[-0.008723056,43.183172222]],[[-0.008723056,43.183172222],[-0.008656389,43.183147778]],[[-0.008656389,43.183147778],[-0.007493611,43.182836111]],[[-0.007493611,43.182836111],[-0.0071975,43.182753611]],[[-0.0071975,43.182753611],[-0.007261667,43.182602778]],[[-0.007261667,43.182602778],[-0.0082925,43.182878889]],[[-0.0082925,43.182878889],[-0.008751944,43.18301]],[[-0.008751944,43.18301],[-0.008831667,43.183020833]],[[-0.008831667,43.183020833],[-0.008909167,43.183017778]],[[-0.008909167,43.183017778],[-0.00897,43.1830025]],[[-0.00897,43.1830025],[-0.009024444,43.182970278]],[[-0.009024444,43.182970278],[-0.009060278,43.182930556]],[[-0.009060278,43.182930556],[-0.009098056,43.182878611]],[[-0.009098056,43.182878611],[-0.009127222,43.182821944]],[[-0.009127222,43.182821944],[-0.009154444,43.182754722]],[[-0.009154444,43.182754722],[-0.009154444,43.182718056]],[[-0.009154444,43.182718056],[-0.009137778,43.182679722]],[[-0.009137778,43.182679722],[-0.009110556,43.182643056]],[[-0.009110556,43.182643056],[-0.009076944,43.182609444]],[[-0.009076944,43.182609444],[-0.009033056,43.182580556]],[[-0.009033056,43.182580556],[-0.008942778,43.182552778]],[[-0.008942778,43.182552778],[-0.007489167,43.182158611]],[[-0.007489167,43.182158611],[-0.0075675,43.182009444]],[[-0.0075675,43.182009444],[-0.008274167,43.182201389]],[[-0.008274167,43.182201389],[-0.009034444,43.182413889]],[[-0.009034444,43.182413889],[-0.009089444,43.182422222]],[[-0.009089444,43.182422222],[-0.009149167,43.182426944]],[[-0.009149167,43.182426944],[-0.0092075,43.182423333]],[[-0.0092075,43.182423333],[-0.009256111,43.182415278]],[[-0.009256111,43.182415278],[-0.009294722,43.182399722]],[[-0.009294722,43.182399722],[-0.009335278,43.182379722]],[[-0.009335278,43.182379722],[-0.009369167,43.182353889]],[[-0.009369167,43.182353889],[-0.009395,43.182320833]],[[-0.009395,43.182320833],[-0.009416111,43.182285556]],[[-0.009416111,43.182285556],[-0.009432222,43.182245278]],[[-0.009432222,43.182245278],[-0.009443611,43.18221]],[[-0.009443611,43.18221],[-0.009440278,43.182176944]],[[-0.009440278,43.182176944],[-0.009417778,43.182150833]],[[-0.009417778,43.182150833],[-0.009390278,43.182129722]],[[-0.009390278,43.182129722],[-0.009315833,43.182105]],[[-0.009315833,43.182105],[-0.007736389,43.181685833]],[[-0.007736389,43.181685833],[-0.007805,43.181555556]],[[-0.007805,43.181555556],[-0.008391111,43.181715833]],[[-0.008391111,43.181715833],[-0.009462222,43.182011667]],[[-0.009462222,43.182011667],[-0.009494444,43.182016944]],[[-0.009494444,43.182016944],[-0.009519444,43.182017778]],[[-0.009519444,43.182017778],[-0.009544722,43.182010833]],[[-0.009544722,43.182010833],[-0.009556667,43.181997778]],[[-0.009556667,43.181997778],[-0.009565,43.181974167]],[[-0.009565,43.181974167],[-0.009553056,43.181960278]],[[-0.009553056,43.181960278],[-0.009528056,43.181945556]],[[-0.009528056,43.181945556],[-0.009495556,43.181921944]],[[-0.009495556,43.181921944],[-0.009458611,43.181895]],[[-0.009458611,43.181895],[-0.009428611,43.181860833]],[[-0.009428611,43.181860833],[-0.0094025,43.1818225]],[[-0.0094025,43.1818225],[-0.009385556,43.181781667]],[[-0.009385556,43.181781667],[-0.009380833,43.181744167]],[[-0.009380833,43.181744167],[-0.009379722,43.181705]],[[-0.009379722,43.181705],[-0.009386944,43.181662222]],[[-0.009386944,43.181662222],[-0.009396944,43.181629722]],[[-0.009396944,43.181629722],[-0.009395556,43.181618056]],[[-0.009395556,43.181618056],[-0.009381944,43.181605278]],[[-0.009381944,43.181605278],[-0.009220556,43.181405278]],[[-0.009220556,43.181405278],[-0.008845833,43.180953611]],[[0.001979444,43.188136389],[0.001972222,43.188110556]],[[0.001972222,43.188110556],[0.002316944,43.188047778]],[[0.002316944,43.188047778],[0.002260278,43.187867778]],[[0.002260278,43.187867778],[0.002243611,43.187842778]],[[0.002243611,43.187842778],[0.002221389,43.187822222]],[[0.002221389,43.187822222],[0.002191667,43.187808333]],[[0.002191667,43.187808333],[0.00216,43.187793889]],[[0.00216,43.187793889],[0.002126944,43.187786944]],[[0.002126944,43.187786944],[0.002096111,43.187780833]],[[0.002096111,43.187780833],[0.002066667,43.187780833]],[[0.002066667,43.187780833],[0.0020325,43.187780833]],[[0.0020325,43.187780833],[0.002004167,43.187781667]],[[0.002004167,43.187781667],[0.001971111,43.187785278]],[[0.001971111,43.187785278],[0.001929722,43.187791389]],[[0.001929722,43.187791389],[0.001695,43.187833333]],[[0.001695,43.187833333],[0.001673056,43.187836667]],[[0.001673056,43.187836667],[0.001640278,43.187840556]],[[0.001640278,43.187840556],[0.001610833,43.187839722]],[[0.001610833,43.187839722],[0.001589444,43.187836667]],[[0.001589444,43.187836667],[0.001557778,43.187830833]],[[0.001557778,43.187830833],[0.001518056,43.187818333]],[[0.001518056,43.187818333],[0.001481944,43.187802778]],[[0.001481944,43.187802778],[0.0014525,43.187785556]],[[0.0014525,43.187785556],[0.001433611,43.187771944]],[[0.001433611,43.187771944],[0.0014175,43.187752778]],[[0.0014175,43.187752778],[0.001402222,43.187733611]],[[0.001402222,43.187733611],[0.001393333,43.187709167]],[[0.001393333,43.187709167],[0.001381111,43.187676944]],[[0.001381111,43.187676944],[0.0013575,43.187603889]],[[0.0013575,43.187603889],[0.001163056,43.187025833]],[[0.001163056,43.187025833],[0.001136667,43.186945556]],[[0.001136667,43.186945556],[0.001123611,43.186922778]],[[0.001123611,43.186922778],[0.001109444,43.186907222]],[[0.001109444,43.186907222],[0.001090833,43.186888333]],[[0.001090833,43.186888333],[0.001068889,43.186875]],[[0.001068889,43.186875],[0.001048333,43.186864722]],[[0.001048333,43.186864722],[0.001021111,43.186854722]],[[0.001021111,43.186854722],[0.000998889,43.186849167]],[[0.000998889,43.186849167],[0.000985,43.186847222]],[[0.000985,43.186847222],[0.000963889,43.186846667]],[[0.002012222,43.188249444],[0.002087778,43.188238056]],[[0.002087778,43.188238056],[0.00211,43.188310556]],[[0.00211,43.188310556],[0.002385556,43.188264444]],[[0.002385556,43.188264444],[0.002435278,43.188411667]],[[0.002435278,43.188411667],[0.002916667,43.188326667]],[[0.002916667,43.188326667],[0.002783056,43.187907222]],[[0.002783056,43.187907222],[0.002626111,43.187451389]],[[0.002626111,43.187451389],[0.002496944,43.187471389]],[[0.002496944,43.187471389],[0.002463056,43.18736]],[[0.002463056,43.18736],[0.002388611,43.1873675]],[[0.002388611,43.1873675],[0.002358056,43.187386111]],[[0.002358056,43.187386111],[0.002314444,43.187417778]],[[0.002314444,43.187417778],[0.002283611,43.187453333]],[[0.002283611,43.187453333],[0.002286111,43.187483333]],[[0.002286111,43.187483333],[0.002270833,43.187503889]],[[0.002270833,43.187503889],[0.002224722,43.187518611]],[[0.002224722,43.187518611],[0.001963889,43.186751111]],[[0.001963889,43.186751111],[0.001945556,43.186712222]],[[0.001945556,43.186712222],[0.0019225,43.186682778]],[[0.0019225,43.186682778],[0.001896944,43.186660556]],[[0.001896944,43.186660556],[0.001864167,43.186639444]],[[0.001864167,43.186639444],[0.00183,43.186628611]],[[0.00183,43.186628611],[0.001795833,43.1866225]],[[0.001795833,43.1866225],[0.001764444,43.186618889]],[[0.001764444,43.186618889],[0.001735,43.18662]],[[0.001735,43.18662],[0.001703611,43.186621667]],[[0.001703611,43.186621667],[0.001653611,43.186629722]],[[0.001653611,43.186629722],[0.000937778,43.186757778]],[[0.000205278,43.185829722],[0.0004225,43.185786944]],[[0.0004225,43.185786944],[0.000894722,43.1856975]],[[0.000894722,43.1856975],[0.001641944,43.185557222]],[[0.001641944,43.185557222],[0.001675278,43.185559722]],[[0.001675278,43.185559722],[0.0016925,43.1855675]],[[0.0016925,43.1855675],[0.001708056,43.185577778]],[[0.001708056,43.185577778],[0.001759167,43.1856775]],[[0.001759167,43.1856775],[0.002240278,43.1855825]],[[0.002240278,43.1855825],[0.002151667,43.185282222]],[[0.002151667,43.185282222],[0.002246944,43.185263611]],[[0.002246944,43.185263611],[0.002293333,43.185395278]],[[0.002293333,43.185395278],[0.003230833,43.185219722]],[[0.003230833,43.185219722],[0.003181667,43.185078333]],[[0.003181667,43.185078333],[0.003299167,43.185056389]],[[0.003299167,43.185056389],[0.003353611,43.185234722]],[[0.003353611,43.185234722],[0.003544167,43.185198889]],[[0.003544167,43.185198889],[0.003567778,43.185167778]],[[0.003567778,43.185167778],[0.003640556,43.185195833]],[[0.003640556,43.185195833],[0.004023889,43.185120833]],[[0.004023889,43.185120833],[0.004156667,43.185020833]],[[0.004156667,43.185020833],[0.004394167,43.184967222]],[[0.004394167,43.184967222],[0.004384722,43.184918889]],[[0.004384722,43.184918889],[0.006136667,43.184587222]],[[0.006136667,43.184587222],[0.006079722,43.184425]],[[0.006079722,43.184425],[0.005705556,43.184494167]],[[0.005705556,43.184494167],[0.005573056,43.184100556]],[[0.005573056,43.184100556],[0.006013333,43.184014167]],[[0.006013333,43.184014167],[0.005975556,43.183924444]],[[0.005975556,43.183924444],[0.005558889,43.184003889]],[[0.005558889,43.184003889],[0.0053875,43.183465556]],[[0.0053875,43.183465556],[0.005087778,43.183510556]],[[0.005087778,43.183510556],[0.005125,43.183701944]],[[0.005125,43.183701944],[0.005108333,43.183770833]],[[0.005108333,43.183770833],[0.005063333,43.183824722]],[[0.005063333,43.183824722],[0.005014167,43.183869722]],[[0.005014167,43.183869722],[0.0049525,43.183896667]],[[0.0049525,43.183896667],[0.004886944,43.1839175]],[[0.004886944,43.1839175],[0.003963611,43.184088056]],[[0.003963611,43.184088056],[0.003898056,43.184094167]],[[0.003898056,43.184094167],[0.003855556,43.184092778]],[[0.003855556,43.184092778],[0.003820556,43.184083889]],[[0.003820556,43.184083889],[0.003787778,43.184068889]],[[0.003787778,43.184068889],[0.003765,43.184040278]],[[0.003765,43.184040278],[0.003748611,43.183995278]],[[0.003748611,43.183995278],[0.003450278,43.183110278]],[[0.003450278,43.183110278],[0.002781667,43.183239444]],[[0.002781667,43.183239444],[0.002584444,43.183268889]],[[0.002584444,43.183268889],[0.002451667,43.183289444]],[[0.002451667,43.183289444],[0.002355,43.183298056]],[[0.002355,43.183298056],[0.002278333,43.183289444]],[[0.002278333,43.183289444],[0.00221,43.183268889]],[[0.00221,43.183268889],[0.002153611,43.183227778]],[[0.002153611,43.183227778],[0.002097222,43.183166111]],[[0.002097222,43.183166111],[0.001548333,43.182439167]],[[0.001548333,43.182439167],[0.001523056,43.182456111]],[[0.001523056,43.182456111],[0.001489444,43.182471389]],[[0.001489444,43.182471389],[0.000626944,43.182821389]],[[0.004036389,43.184806667],[0.004321389,43.184750556]],[[0.004321389,43.184750556],[0.004296667,43.184671389]],[[0.004296667,43.184671389],[0.0051,43.184516111]],[[0.0051,43.184516111],[0.004945833,43.184075556]],[[0.004945833,43.184075556],[0.004927778,43.184050833]],[[0.004927778,43.184050833],[0.004905278,43.184034444]],[[0.004905278,43.184034444],[0.004873611,43.184024444]],[[0.004873611,43.184024444],[0.004835,43.184026111]],[[0.004835,43.184026111],[0.004099722,43.184164722]],[[0.004099722,43.184164722],[0.004045278,43.184181111]],[[0.004045278,43.184181111],[0.003993333,43.184201111]],[[0.003993333,43.184201111],[0.003957222,43.184234167]],[[0.003957222,43.184234167],[0.003920833,43.184273611]],[[0.003920833,43.184273611],[0.003900556,43.184313333]],[[0.003900556,43.184313333],[0.003889167,43.184361111]],[[0.003889167,43.184361111],[0.003891389,43.184405556]],[[0.003891389,43.184405556],[0.003905,43.184446944]],[[0.003905,43.184446944],[0.004036389,43.184806667]],[[-0.004409167,43.175463889],[-0.004384722,43.175495556]],[[-0.004384722,43.175495556],[-0.004344444,43.175561389]],[[-0.004344444,43.175561389],[-0.004231944,43.175754722]],[[-0.004231944,43.175754722],[-0.0041075,43.175953333]],[[-0.0041075,43.175953333],[-0.003956667,43.176185833]],[[-0.003956667,43.176185833],[-0.003674167,43.176590833]],[[-0.003674167,43.176590833],[-0.003430278,43.176913056]],[[-0.003430278,43.176913056],[-0.002993056,43.177491389]],[[-0.002993056,43.177491389],[-0.002516944,43.178118056]],[[-0.002516944,43.178118056],[-0.0019825,43.17882]],[[-0.0019825,43.17882],[-0.001702222,43.179173056]],[[-0.001702222,43.179173056],[-0.001459444,43.179086389]],[[-0.001459444,43.179086389],[-0.001986667,43.178376667]],[[-0.001986667,43.178376667],[-0.003038333,43.177001667]],[[-0.003038333,43.177001667],[-0.003412778,43.176521389]],[[-0.003412778,43.176521389],[-0.003615,43.176213889]],[[-0.003615,43.176213889],[-0.003860278,43.175846944]],[[-0.003860278,43.175846944],[-0.004120556,43.175434444]],[[-0.004120556,43.175434444],[-0.004418056,43.174897778]],[[-0.004418056,43.174897778],[-0.004641111,43.174445]],[[-0.004641111,43.174445],[-0.004860278,43.174019444]],[[-0.004860278,43.174019444],[-0.005471667,43.172810278]],[[-0.005471667,43.172810278],[-0.005713333,43.172319444]],[[-0.005713333,43.172319444],[-0.006209444,43.171339722]],[[-0.006209444,43.171339722],[-0.006472778,43.170808333]],[[-0.006472778,43.170808333],[-0.00686,43.170048889]],[[-0.00686,43.170048889],[-0.007452778,43.168892778]],[[-0.007452778,43.168892778],[-0.007719167,43.168966944]],[[-0.007719167,43.168966944],[-0.007594722,43.169205]],[[-0.007594722,43.169205],[-0.006722222,43.170935]],[[-0.006722222,43.170935],[-0.006588333,43.1712275]],[[-0.006588333,43.1712275],[-0.00652,43.171356944]],[[-0.006278889,43.171816667],[-0.004876667,43.174582778]],[[-0.006896389,43.186907222],[-0.006887778,43.186943611]],[[-0.006887778,43.186943611],[-0.006856667,43.187006667]],[[-0.006856667,43.187006667],[-0.006829722,43.1870575]],[[-0.006829722,43.1870575],[-0.006502778,43.18713]],[[-0.006502778,43.18713],[-0.006215833,43.187189167]],[[-0.006215833,43.187189167],[-0.0052275,43.186920556]],[[-0.0052275,43.186920556],[-0.005144444,43.187088333]],[[-0.005144444,43.187088333],[-0.0059875,43.187321944]],[[-0.0059875,43.187321944],[-0.005701944,43.187889444]],[[-0.005701944,43.187889444],[-0.004856111,43.187663333]],[[-0.004856111,43.187663333],[-0.004771389,43.1878275]],[[-0.004771389,43.1878275],[-0.006405556,43.188268056]],[[-0.006405556,43.188268056],[-0.006526389,43.188229167]],[[-0.006526389,43.188229167],[-0.006604722,43.188208333]],[[-0.006604722,43.188208333],[-0.006718611,43.188203056]],[[-0.006718611,43.188203056],[-0.006803889,43.188195278]],[[-0.006803889,43.188195278],[-0.007336111,43.187211389]],[[-0.007336111,43.187211389],[-0.007468611,43.187366944]],[[-0.007468611,43.187366944],[-0.007321667,43.187699722]],[[-0.007321667,43.187699722],[-0.008046389,43.187876667]],[[-0.008046389,43.187876667],[-0.008219167,43.187806944]],[[-0.008219167,43.187806944],[-0.008458056,43.186068889]],[[-0.008458056,43.186068889],[-0.008474722,43.186023889]],[[-0.008474722,43.186023889],[-0.008536389,43.186003611]],[[-0.008536389,43.186003611],[-0.008620556,43.185991111]],[[-0.008620556,43.185991111],[-0.008867222,43.1860075]],[[-0.008867222,43.1860075],[-0.008995278,43.185084722]],[[-0.008995278,43.185084722],[-0.010166389,43.185176944]],[[-0.010166389,43.185176944],[-0.010176111,43.185099167]],[[-0.010176111,43.185099167],[-0.008975556,43.185021667]],[[-0.008975556,43.185021667],[-0.008883333,43.18505]],[[-0.008883333,43.18505],[-0.008835,43.185099444]],[[-0.008835,43.185099444],[-0.008820556,43.185162778]],[[-0.008820556,43.185162778],[-0.008796389,43.185314722]],[[-0.008796389,43.185314722],[-0.008617222,43.185388889]],[[-0.008617222,43.185388889],[-0.008535,43.185399444]],[[-0.008535,43.185399444],[-0.0084525,43.185385278]],[[-0.0084525,43.185385278],[-0.008355833,43.18535]],[[-0.008355833,43.18535],[-0.0083025,43.185307778]],[[-0.0083025,43.185307778],[-0.008268611,43.185258333]],[[-0.008268611,43.185258333],[-0.008278333,43.185198333]],[[-0.008278333,43.185198333],[-0.008312222,43.185120556]],[[-0.008312222,43.185120556],[-0.008404167,43.184944167]],[[-0.008404167,43.184944167],[-0.008462222,43.184912222]],[[-0.008462222,43.184912222],[-0.008549444,43.1848875]],[[-0.008549444,43.1848875],[-0.011523611,43.184053611]],[[-0.011523611,43.184053611],[-0.011671111,43.183806111]],[[-0.011671111,43.183806111],[-0.009436667,43.184411111]],[[-0.009436667,43.184411111],[-0.0085075,43.184733333]],[[-0.0085075,43.184733333],[-0.008855833,43.184032778]],[[-0.008855833,43.184032778],[-0.008891111,43.183994444]],[[-0.008891111,43.183994444],[-0.008920278,43.183970833]],[[-0.008920278,43.183970833],[-0.0089525,43.183953889]],[[-0.0089525,43.183953889],[-0.009019722,43.183930278]],[[-0.009019722,43.183930278],[-0.009383056,43.183821389]],[[-0.009383056,43.183821389],[-0.012005556,43.183094167]],[[-0.012005556,43.183094167],[-0.012130833,43.182891667]],[[-0.012130833,43.182891667],[-0.008991944,43.183766944]],[[-0.008991944,43.183766944],[-0.009359167,43.183058333]],[[-0.009359167,43.183058333],[-0.009390556,43.1830225]],[[-0.009390556,43.1830225],[-0.009435278,43.182996389]],[[-0.009435278,43.182996389],[-0.010886111,43.182581667]],[[-0.010886111,43.182581667],[-0.012533889,43.182119444]],[[-0.012533889,43.182119444],[-0.012616389,43.181935833]],[[-0.012616389,43.181935833],[-0.009556111,43.182787222]],[[-0.009556111,43.182787222],[-0.00951,43.182803056]],[[-0.00951,43.182803056],[-0.009488611,43.182796111]],[[-0.009488611,43.182796111],[-0.009503889,43.182769444]],[[-0.009503889,43.182769444],[-0.0097125,43.182355278]],[[-0.0097125,43.182355278],[-0.009869167,43.182068611]],[[-0.009869167,43.182068611],[-0.009896667,43.182050833]],[[-0.009896667,43.182050833],[-0.009961111,43.182048611]],[[-0.009961111,43.182048611],[-0.010056389,43.182035]],[[-0.010056389,43.182035],[-0.010123889,43.182023889]],[[-0.010123889,43.182023889],[-0.010179167,43.182001389]],[[-0.010179167,43.182001389],[-0.010228889,43.181976389]],[[-0.010228889,43.181976389],[-0.010276389,43.181941667]],[[-0.010276389,43.181941667],[-0.010303056,43.181913333]],[[-0.010303056,43.181913333],[-0.010327778,43.181872778]],[[-0.010327778,43.181872778],[-0.010591111,43.181320556]],[[-0.010591111,43.181320556],[-0.009680556,43.181065833]],[[-0.009680556,43.181065833],[-0.0095075,43.181405278]],[[-0.0095075,43.181405278],[-0.009095278,43.180889167]],[[-0.009095278,43.180889167],[-0.0090525,43.180836111]],[[-0.007631944,43.186436944],[-0.007861111,43.185980556]],[[-0.007861111,43.185980556],[-0.008053889,43.185605278]],[[-0.008053889,43.185605278],[-0.008080556,43.185585]],[[-0.008080556,43.185585],[-0.0081125,43.185568611]],[[-0.0081125,43.185568611],[-0.008161667,43.185551111]],[[-0.008161667,43.185551111],[-0.008203611,43.185541111]],[[-0.008203611,43.185541111],[-0.008251111,43.18554]],[[-0.008251111,43.18554],[-0.008321111,43.185541944]],[[-0.008321111,43.185541944],[-0.008481944,43.185552222]],[[-0.008481944,43.185552222],[-0.008514167,43.185555278]],[[-0.008514167,43.185555278],[-0.008547778,43.185565556]],[[-0.008547778,43.185565556],[-0.008598056,43.185586944]],[[-0.008598056,43.185586944],[-0.008701667,43.185650278]],[[-0.008701667,43.185650278],[-0.008761111,43.185691111]],[[-0.008761111,43.185691111],[-0.0087625,43.185714444]],[[-0.0087625,43.185714444],[-0.008736111,43.185874722]],[[-0.008736111,43.185874722],[-0.008724167,43.185900833]],[[-0.008724167,43.185900833],[-0.0087075,43.185918333]],[[-0.0087075,43.185918333],[-0.008686111,43.185928611]],[[-0.008686111,43.185928611],[-0.008659722,43.1859375]],[[-0.008659722,43.1859375],[-0.008626389,43.18594]],[[-0.008626389,43.18594],[-0.008585556,43.18594]],[[-0.008585556,43.18594],[-0.008545,43.185939167]],[[-0.008545,43.185939167],[-0.008512778,43.185938333]],[[-0.008512778,43.185938333],[-0.008474722,43.185948889]],[[-0.008474722,43.185948889],[-0.0084375,43.185961944]],[[-0.0084375,43.185961944],[-0.008413611,43.1859775]],[[-0.008413611,43.1859775],[-0.008398333,43.185995833]],[[-0.008398333,43.185995833],[-0.008311667,43.186537778]],[[-0.008311667,43.186537778],[-0.008296944,43.186583611]],[[-0.008296944,43.186583611],[-0.008269444,43.186620833]],[[-0.008269444,43.186620833],[-0.008226944,43.186643889]],[[-0.008226944,43.186643889],[-0.008154444,43.186664167]],[[-0.008154444,43.186664167],[-0.008071667,43.186676667]],[[-0.008071667,43.186676667],[-0.007986667,43.186685833]],[[-0.007986667,43.186685833],[-0.007914444,43.186690556]],[[-0.007914444,43.186690556],[-0.007844167,43.186684444]],[[-0.007844167,43.186684444],[-0.007763333,43.186671944]],[[-0.007763333,43.186671944],[-0.007686944,43.186655]],[[-0.007686944,43.186655],[-0.00764,43.186637778]],[[-0.00764,43.186637778],[-0.007608056,43.186611389]],[[-0.007608056,43.186611389],[-0.007593333,43.186578889]],[[-0.007593333,43.186578889],[-0.007584722,43.186549444]],[[-0.007584722,43.186549444],[-0.007588889,43.186518333]],[[-0.007588889,43.186518333],[-0.007601667,43.186492222]],[[-0.007601667,43.186492222],[-0.007631944,43.186436944]]]}},{"type":"Feature","id":"lfbt.line.linework.stopbar.43910","properties":{"name":"LFBT Groundlayout Tarbes-Lourdes","layer":"Ground linework","category":"Stopbar","object_type":"Line","style_id":"line.linework.stopbar","airport":"LFBT","geometry_role":"linework","vsmr_group_ids":[[]]},"geometry":{"type":"MultiLineString","coordinates":[[[-0.004199444,43.185769444],[-0.004084444,43.185996667]],[[0.000560278,43.187079167],[0.00068,43.187051389]],[[0.000926111,43.1868525],[0.000894722,43.186767222]],[[8.7222E-05,43.186155278],[0.000209444,43.186125278]],[[-0.001773611,43.185330833],[-0.001828611,43.185173611]],[[-0.000478889,43.185333611],[-0.000267778,43.185282778]],[[0.004149722,43.184153056],[0.004114167,43.184059444]],[[-6.5833E-05,43.182766667],[0.000130278,43.182685278]],[[-0.004333333,43.180267222],[-0.004234167,43.180425556]],[[-0.008428611,43.170571944],[-0.008275833,43.170883611]],[[-0.009129722,43.170776389],[-0.009050556,43.170932778]],[[-0.011690556,43.165710556],[-0.011596389,43.165928056]],[[-0.007085,43.180114722],[-0.006981111,43.180318889]]]}},{"type":"Feature","id":"lfbt.line.linework.centerlines.43923","properties":{"name":"LFBT Groundlayout Tarbes-Lourdes","layer":"Ground linework","category":"Centerlines","object_type":"Line","style_id":"line.linework.centerlines","airport":"LFBT","geometry_role":"linework","vsmr_group_ids":[[]]},"geometry":{"type":"MultiLineString","coordinates":[[[0.001672222,43.187789722],[0.002092222,43.187716944]],[[0.001608056,43.187526667],[0.001935,43.187469444]],[[0.001514722,43.187267222],[0.001848056,43.187208333]],[[0.001425833,43.187005],[0.001730556,43.186953056]],[[0.000138611,43.185656389],[0.000327778,43.185142778]],[[0.000738056,43.1855375],[0.000955278,43.185001944]],[[0.001444167,43.185416111],[0.001335833,43.185076667]],[[0.001538889,43.185428333],[0.001813333,43.185167222]],[[0.002215833,43.185168889],[0.001913056,43.184957778]],[[0.002068889,43.184944722],[0.002778056,43.184811667]],[[0.002162778,43.184773611],[0.002601389,43.185146944]],[[0.00257,43.185205278],[0.002374167,43.184692778]],[[0.002995833,43.184658611],[0.003385556,43.185039167]],[[0.003683056,43.184988611],[0.003322222,43.184582222]],[[0.003701111,43.184993611],[0.00354,43.184546944]],[[0.000868333,43.183011389],[0.001343056,43.182819722]],[[0.001795278,43.183168056],[0.001188056,43.183418889]],[[0.001481944,43.183813611],[0.002086389,43.183568611]],[[0.001275278,43.182813333],[0.001841389,43.184045556]]]}},{"type":"Feature","id":"lfbt.line.linework.twr.ctr.43942","properties":{"name":"LFBT Groundlayout Tarbes-Lourdes","layer":"Ground linework","category":"TWR CTR","object_type":"Line","style_id":"line.linework.twr.ctr","airport":"LFBT","geometry_role":"linework","vsmr_group_ids":[[]]},"geometry":{"type":"MultiLineString","coordinates":[[[0.002073889,43.185839444],[0.002206389,43.185814722]],[[0.002206389,43.185814722],[0.002173889,43.185721389]],[[0.002173889,43.185721389],[0.002307778,43.185693611]],[[0.002307778,43.185693611],[0.002275556,43.185598056]],[[0.002275556,43.185598056],[0.001988611,43.185649444]],[[0.001988611,43.185649444],[0.002025278,43.185746111]],[[0.002025278,43.185746111],[0.002038611,43.185745]],[[0.002038611,43.185745],[0.002073889,43.185839444]]]}},{"type":"Feature","id":"lfbt.line.linework.labels.43950","properties":{"name":"LFBT Groundlayout Tarbes-Lourdes","layer":"Ground linework","category":"Labels","object_type":"Line","style_id":"line.linework.labels","airport":"LFBT","geometry_role":"linework","vsmr_group_ids":[[]]},"geometry":{"type":"MultiLineString","coordinates":[[[-0.000181944,43.190742222],[-0.000154444,43.190800556]],[[-0.000154444,43.190800556],[-7.4444E-05,43.190843611]],[[-7.4444E-05,43.190843611],[-6.8611E-05,43.190855556]],[[-6.8611E-05,43.190855556],[-0.000116389,43.190868333]],[[-0.000116389,43.190868333],[-0.000104167,43.190897222]],[[-0.000104167,43.190897222],[-3.3056E-05,43.190877778]],[[-3.3056E-05,43.190877778],[-5.4722E-05,43.190831667]],[[-5.4722E-05,43.190831667],[-0.000134722,43.190788333]],[[-0.000134722,43.190788333],[-0.000145,43.190765278]],[[-0.000145,43.190765278],[-0.000118333,43.190757778]],[[-0.000118333,43.190757778],[-0.000109444,43.190773056]],[[-0.000109444,43.190773056],[-8.9167E-05,43.190766667]],[[-8.9167E-05,43.190766667],[-0.000109444,43.190723333]],[[-0.000109444,43.190723333],[-0.000181944,43.190742222]],[[-0.000218056,43.190895556],[-0.000191111,43.190888333]],[[-0.000191111,43.190888333],[-0.000241944,43.190790833]],[[-0.000241944,43.190790833],[-0.000267778,43.190798889]],[[-0.000267778,43.190798889],[-0.000218056,43.190895556]],[[-0.000226667,43.19093],[-0.000153889,43.190910833]],[[-0.000153889,43.190910833],[-0.000231944,43.190757222]],[[-0.000231944,43.190757222],[-0.000305556,43.190776944]],[[-0.000305556,43.190776944],[-0.000226667,43.19093]],[[-0.009698889,43.172185],[-0.009667778,43.172177778]],[[-0.009667778,43.172177778],[-0.009716111,43.172078333]],[[-0.009716111,43.172078333],[-0.00975,43.1720875]],[[-0.00975,43.1720875],[-0.009698889,43.172185]],[[-0.009705278,43.172219722],[-0.009633611,43.1722]],[[-0.009633611,43.1722],[-0.009713889,43.172045]],[[-0.009713889,43.172045],[-0.009786389,43.172066389]],[[-0.009786389,43.172066389],[-0.009705278,43.172219722]],[[-0.009583333,43.172185556],[-0.009512778,43.172166667]],[[-0.009512778,43.172166667],[-0.009539167,43.172113056]],[[-0.009539167,43.172113056],[-0.009624444,43.172067222]],[[-0.009624444,43.172067222],[-0.00963,43.172055556]],[[-0.00963,43.172055556],[-0.0095775,43.172040833]],[[-0.0095775,43.172040833],[-0.009593056,43.172013056]],[[-0.009593056,43.172013056],[-0.009662778,43.172032222]],[[-0.009662778,43.172032222],[-0.009640833,43.172077778]],[[-0.009640833,43.172077778],[-0.009560556,43.172123889]],[[-0.009560556,43.172123889],[-0.009549722,43.172145]],[[-0.009549722,43.172145],[-0.009578889,43.172153333]],[[-0.009578889,43.172153333],[-0.0095875,43.172139444]],[[-0.0095875,43.172139444],[-0.009606667,43.172143889]],[[-0.009606667,43.172143889],[-0.009583333,43.172185556]]]}},{"type":"Feature","id":"LFBT-airport-reference","properties":{"name":"LFBT","layer":"Reference points","category":"Labels","object_type":"Point","style_id":"point.airport.reference.point.labels","airport":"LFBT","geometry_role":"airport_reference_point","text-field":"LFBT","vsmr_group_ids":[[]]},"geometry":{"type":"Point","coordinates":[-0.002777778,43.185555833]}},{"type":"Feature","id":"LFBT-text-lfbb-21802","properties":{"name":"TWR","layer":"Labels","category":"Labels","object_type":"Label","style_id":"label.text.label.labels","airport":"LFBT","geometry_role":"text_label","text-field":"TWR","vsmr_group_ids":[[]]},"geometry":{"type":"Point","coordinates":[0.002311111,43.185782222]}},{"type":"Feature","id":"LFBT-text-lfbb-21803","properties":{"name":"P-Aviation Generale","layer":"Labels","category":"Labels","object_type":"Label","style_id":"label.text.label.labels","airport":"LFBT","geometry_role":"text_label","text-field":"P-Aviation Generale","vsmr_group_ids":[[]]},"geometry":{"type":"Point","coordinates":[0.002473333,43.187088056]}},{"type":"Feature","id":"LFBT-text-lfbb-21804","properties":{"name":"Terminal","layer":"Labels","category":"Labels","object_type":"Label","style_id":"label.text.label.labels","airport":"LFBT","geometry_role":"text_label","text-field":"Terminal","vsmr_group_ids":[[]]},"geometry":{"type":"Point","coordinates":[0.0034375,43.185469444]}},{"type":"Feature","id":"LFBT-text-lfbb-21805","properties":{"name":"RFFS","layer":"Labels","category":"Labels","object_type":"Label","style_id":"label.text.label.labels","airport":"LFBT","geometry_role":"text_label","text-field":"RFFS","vsmr_group_ids":[[]]},"geometry":{"type":"Point","coordinates":[0.002794167,43.1815575]}},{"type":"Feature","id":"LFBT-text-lfbb-21806","properties":{"name":"Fuel","layer":"Labels","category":"Labels","object_type":"Label","style_id":"label.text.label.labels","airport":"LFBT","geometry_role":"text_label","text-field":"Fuel","vsmr_group_ids":[[]]},"geometry":{"type":"Point","coordinates":[0.002683611,43.180711667]}},{"type":"Feature","id":"LFBT-text-lfbb-21807","properties":{"name":"Hangar TARMAC","layer":"Labels","category":"Labels","object_type":"Label","style_id":"label.text.label.labels","airport":"LFBT","geometry_role":"text_label","text-field":"Hangar TARMAC","vsmr_group_ids":[[]]},"geometry":{"type":"Point","coordinates":[-0.011133333,43.1865725]}},{"type":"Feature","id":"LFBT-text-lfbb-21808","properties":{"name":"P-G","layer":"Labels","category":"Labels","object_type":"Label","style_id":"label.text.label.labels","airport":"LFBT","geometry_role":"text_label","text-field":"P-G","vsmr_group_ids":[[]]},"geometry":{"type":"Point","coordinates":[0.0023675,43.1878275]}},{"type":"Feature","id":"LFBT-text-lfbb-21809","properties":{"name":"P10","layer":"Labels","category":"Labels","object_type":"Label","style_id":"label.text.label.labels","airport":"LFBT","geometry_role":"text_label","text-field":"P10","vsmr_group_ids":[[]]},"geometry":{"type":"Point","coordinates":[0.000155556,43.185715556]}},{"type":"Feature","id":"LFBT-text-lfbb-21810","properties":{"name":"P9","layer":"Labels","category":"Labels","object_type":"Label","style_id":"label.text.label.labels","airport":"LFBT","geometry_role":"text_label","text-field":"P9","vsmr_group_ids":[[]]},"geometry":{"type":"Point","coordinates":[0.000748889,43.185620556]}},{"type":"Feature","id":"LFBT-text-lfbb-21811","properties":{"name":"P8","layer":"Labels","category":"Labels","object_type":"Label","style_id":"label.text.label.labels","airport":"LFBT","geometry_role":"text_label","text-field":"P8","vsmr_group_ids":[[]]},"geometry":{"type":"Point","coordinates":[0.001308333,43.185492778]}},{"type":"Feature","id":"LFBT-text-lfbb-21812","properties":{"name":"P7","layer":"Labels","category":"Labels","object_type":"Label","style_id":"label.text.label.labels","airport":"LFBT","geometry_role":"text_label","text-field":"P7","vsmr_group_ids":[[]]},"geometry":{"type":"Point","coordinates":[0.001646667,43.185164167]}},{"type":"Feature","id":"LFBT-text-lfbb-21813","properties":{"name":"P6","layer":"Labels","category":"Labels","object_type":"Label","style_id":"label.text.label.labels","airport":"LFBT","geometry_role":"text_label","text-field":"P6","vsmr_group_ids":[[]]},"geometry":{"type":"Point","coordinates":[0.002156111,43.185227222]}},{"type":"Feature","id":"LFBT-text-lfbb-21814","properties":{"name":"P6B","layer":"Labels","category":"Labels","object_type":"Label","style_id":"label.text.label.labels","airport":"LFBT","geometry_role":"text_label","text-field":"P6B","vsmr_group_ids":[[]]},"geometry":{"type":"Point","coordinates":[0.002663056,43.184773056]}},{"type":"Feature","id":"LFBT-text-lfbb-21815","properties":{"name":"P5","layer":"Labels","category":"Labels","object_type":"Label","style_id":"label.text.label.labels","airport":"LFBT","geometry_role":"text_label","text-field":"P5","vsmr_group_ids":[[]]},"geometry":{"type":"Point","coordinates":[0.002640556,43.185123889]}},{"type":"Feature","id":"LFBT-text-lfbb-21816","properties":{"name":"Parking","layer":"Labels","category":"Labels","object_type":"Label","style_id":"label.text.label.labels","airport":"LFBT","geometry_role":"text_label","text-field":"Parking","vsmr_group_ids":[[]]},"geometry":{"type":"Point","coordinates":[0.002176944,43.184308056]}},{"type":"Feature","id":"LFBT-text-lfbb-21817","properties":{"name":"P4","layer":"Labels","category":"Labels","object_type":"Label","style_id":"label.text.label.labels","airport":"LFBT","geometry_role":"text_label","text-field":"P4","vsmr_group_ids":[[]]},"geometry":{"type":"Point","coordinates":[0.002527778,43.185255]}},{"type":"Feature","id":"LFBT-text-lfbb-21818","properties":{"name":"P3","layer":"Labels","category":"Labels","object_type":"Label","style_id":"label.text.label.labels","airport":"LFBT","geometry_role":"text_label","text-field":"P3","vsmr_group_ids":[[]]},"geometry":{"type":"Point","coordinates":[0.003216111,43.185021389]}},{"type":"Feature","id":"LFBT-text-lfbb-21819","properties":{"name":"P2","layer":"Labels","category":"Labels","object_type":"Label","style_id":"label.text.label.labels","airport":"LFBT","geometry_role":"text_label","text-field":"P2","vsmr_group_ids":[[]]},"geometry":{"type":"Point","coordinates":[0.003566111,43.184991389]}},{"type":"Feature","id":"LFBT-text-lfbb-21820","properties":{"name":"P1","layer":"Labels","category":"Labels","object_type":"Label","style_id":"label.text.label.labels","airport":"LFBT","geometry_role":"text_label","text-field":"P1","vsmr_group_ids":[[]]},"geometry":{"type":"Point","coordinates":[0.003744167,43.184963056]}},{"type":"Feature","id":"LFBT-text-lfbb-21821","properties":{"name":"S1","layer":"Labels","category":"Labels","object_type":"Label","style_id":"label.text.label.labels","airport":"LFBT","geometry_role":"text_label","text-field":"S1","vsmr_group_ids":[[]]},"geometry":{"type":"Point","coordinates":[0.001418333,43.182801389]}},{"type":"Feature","id":"LFBT-text-lfbb-21822","properties":{"name":"S2","layer":"Labels","category":"Labels","object_type":"Label","style_id":"label.text.label.labels","airport":"LFBT","geometry_role":"text_label","text-field":"S2","vsmr_group_ids":[[]]},"geometry":{"type":"Point","coordinates":[0.001754722,43.183231389]}},{"type":"Feature","id":"LFBT-text-lfbb-21823","properties":{"name":"S3","layer":"Labels","category":"Labels","object_type":"Label","style_id":"label.text.label.labels","airport":"LFBT","geometry_role":"text_label","text-field":"S3","vsmr_group_ids":[[]]},"geometry":{"type":"Point","coordinates":[0.002105833,43.183638333]}},{"type":"Feature","id":"LFBT-text-lfbb-21824","properties":{"name":"S15","layer":"Labels","category":"Labels","object_type":"Label","style_id":"label.text.label.labels","airport":"LFBT","geometry_role":"text_label","text-field":"S15","vsmr_group_ids":[[]]},"geometry":{"type":"Point","coordinates":[0.001932778,43.184008333]}},{"type":"Feature","id":"LFBT-text-lfbb-21826","properties":{"name":"EA","layer":"Labels","category":"Labels","object_type":"Label","style_id":"label.text.label.labels","airport":"LFBT","geometry_role":"text_label","text-field":"EA","vsmr_group_ids":[[]]},"geometry":{"type":"Point","coordinates":[0.087777778,43.176388889]}},{"type":"Feature","id":"LFBT-text-lfbb-21827","properties":{"name":"W","layer":"Labels","category":"Labels","object_type":"Label","style_id":"label.text.label.labels","airport":"LFBT","geometry_role":"text_label","text-field":"W","vsmr_group_ids":[[]]},"geometry":{"type":"Point","coordinates":[-0.116388889,43.192777778]}},{"type":"Feature","id":"LFBT-text-lfbb-21828","properties":{"name":"E","layer":"Labels","category":"Labels","object_type":"Label","style_id":"label.text.label.labels","airport":"LFBT","geometry_role":"text_label","text-field":"E","vsmr_group_ids":[[]]},"geometry":{"type":"Point","coordinates":[0.193055556,43.197222222]}},{"type":"Feature","id":"LFBT-text-lfbb-21830","properties":{"name":"A","layer":"Labels","category":"Labels","object_type":"Label","style_id":"label.text.label.labels","airport":"LFBT","geometry_role":"text_label","text-field":"A","vsmr_group_ids":[[]]},"geometry":{"type":"Point","coordinates":[-0.001778889,43.1855225]}},{"type":"Feature","id":"LFBT-text-lfbb-21831","properties":{"name":"T7","layer":"Labels","category":"Labels","object_type":"Label","style_id":"label.text.label.labels","airport":"LFBT","geometry_role":"text_label","text-field":"T7","vsmr_group_ids":[[]]},"geometry":{"type":"Point","coordinates":[-0.004063056,43.186184722]}},{"type":"Feature","id":"LFBT-text-lfbb-21832","properties":{"name":"N7","layer":"Labels","category":"Labels","object_type":"Label","style_id":"label.text.label.labels","airport":"LFBT","geometry_role":"text_label","text-field":"N7","vsmr_group_ids":[[]]},"geometry":{"type":"Point","coordinates":[-7.3611E-05,43.186526111]}},{"type":"Feature","id":"LFBT-text-lfbb-21833","properties":{"name":"N8","layer":"Labels","category":"Labels","object_type":"Label","style_id":"label.text.label.labels","airport":"LFBT","geometry_role":"text_label","text-field":"N8","vsmr_group_ids":[[]]},"geometry":{"type":"Point","coordinates":[0.000807222,43.186936667]}},{"type":"Feature","id":"LFBT-text-lfbb-21834","properties":{"name":"N9","layer":"Labels","category":"Labels","object_type":"Label","style_id":"label.text.label.labels","airport":"LFBT","geometry_role":"text_label","text-field":"N9","vsmr_group_ids":[[]]},"geometry":{"type":"Point","coordinates":[0.000548333,43.187762778]}},{"type":"Feature","id":"LFBT-text-lfbb-21835","properties":{"name":"M","layer":"Labels","category":"Labels","object_type":"Label","style_id":"label.text.label.labels","airport":"LFBT","geometry_role":"text_label","text-field":"M","vsmr_group_ids":[[]]},"geometry":{"type":"Point","coordinates":[-0.000820278,43.182002778]}},{"type":"Feature","id":"LFBT-text-lfbb-21836","properties":{"name":"B","layer":"Labels","category":"Labels","object_type":"Label","style_id":"label.text.label.labels","airport":"LFBT","geometry_role":"text_label","text-field":"B","vsmr_group_ids":[[]]},"geometry":{"type":"Point","coordinates":[-0.004134722,43.180605]}},{"type":"Feature","id":"LFBT-text-lfbb-21837","properties":{"name":"T6","layer":"Labels","category":"Labels","object_type":"Label","style_id":"label.text.label.labels","airport":"LFBT","geometry_role":"text_label","text-field":"T6","vsmr_group_ids":[[]]},"geometry":{"type":"Point","coordinates":[-0.007255556,43.180605]}},{"type":"Feature","id":"LFBT-text-lfbb-21838","properties":{"name":"M","layer":"Labels","category":"Labels","object_type":"Label","style_id":"label.text.label.labels","airport":"LFBT","geometry_role":"text_label","text-field":"M","vsmr_group_ids":[[]]},"geometry":{"type":"Point","coordinates":[-0.005409167,43.176574167]}},{"type":"Feature","id":"LFBT-text-lfbb-21839","properties":{"name":"C1","layer":"Labels","category":"Labels","object_type":"Label","style_id":"label.text.label.labels","airport":"LFBT","geometry_role":"text_label","text-field":"C1","vsmr_group_ids":[[]]},"geometry":{"type":"Point","coordinates":[-0.008345833,43.171031389]}},{"type":"Feature","id":"LFBT-text-lfbb-21840","properties":{"name":"C","layer":"Labels","category":"Labels","object_type":"Label","style_id":"label.text.label.labels","airport":"LFBT","geometry_role":"text_label","text-field":"C","vsmr_group_ids":[[]]},"geometry":{"type":"Point","coordinates":[-0.009083889,43.171066944]}},{"type":"Feature","id":"LFBT-text-lfbb-21841","properties":{"name":"D","layer":"Labels","category":"Labels","object_type":"Label","style_id":"label.text.label.labels","airport":"LFBT","geometry_role":"text_label","text-field":"D","vsmr_group_ids":[[]]},"geometry":{"type":"Point","coordinates":[-0.011554167,43.166174167]}}]}
