{"type":"FeatureCollection","name":"LFBX AVISO","bbox":[0.808305556,45.193055556,0.8255,45.200944444],"metadata":{"schema":"vSMR AVISO","schema_version":2,"geometry_mode":"shared","airport":"LFBX","coordinate_reference_system":"WGS84","coordinate_order":"longitude, latitude","default_color_palette":"dark","color_palettes":["dark","light"],"background_colors":{"dark":"#434A4F","light":"#434A4F"},"feature_count":4,"style_count":3,"layer_counts":{"Guidance lines":2,"Runways":2},"category_counts":{"Grass runways":1,"Runway centerlines":2,"Runways":1},"runways":[{"ends":["11L","29R"],"headings":[113,293],"thresholds":[[0.812646944,45.198824722],[0.817135833,45.197432778]]},{"ends":["11","29"],"headings":[113,293],"thresholds":[[0.809257778,45.199332778],[0.824652778,45.194568889]]}],"saved_active_runways":[],"saved_active_airport_modes":[],"geometry_source":"EuroScope sector pack","source_files":{"LFBB.sct":"fc92f16bc65e3a10b9aeb0cf4d1cae1add9856a4f4f2f653af5abaa0d98c77ed","LFBB.ese":"c7c252d4a274f6fd98bcefd2364b7bb9799385a6e602b62ccbe85cc32042ef62","LFBB.rwy":"d9387919da6406482f154f391ab2d20783610a60930f986e160686134ea8a7df","LFEE.sct":"10fcc997213ee24336ef8bd37f3a9423cb07bbdfb57b1494c61b8310b9641d8a","LFEE.ese":"3391dc3a47130a4a8c12ab895a6743c77668044183634bd45d425513ef5baa2f","LFFF.sct":"cb6698888ce3e8e8be34ea45922976a5fb3ebe1baef7814f040c91785f8641f2","LFFF.ese":"0c1e64c4a0524a6cdc30766699492d362f78011da36daeacfde4597a1761b64c","LFFF.rwy":"a12900bf1f18188caf2e598c44e55b2c0c6fb2c66cee43ff843cbe216617ae96","LFMM.sct":"fc0d266315a59cb027803be613657d9e9875a2a4b912535d08d1c7892a53b194","LFMM.ese":"6a319d7f7c1c2f7e457ae789f4aae2feafec03b24f5d3d95752e96922a971c9e","LFMM.rwy":"236563995d9b5be668ee3fc8d653cf8f33f20a511137652b197e5877b85d5693","LFRR.sct":"c5a55173543154d388eb65309d606b41ac5da09af59142e69878a4cde03add83","LFRR.ese":"e4542200e8322297f954327131cfe6e73da3ac264cf5610ff6871309cd6eeb40"},"airport_reference":[0.815277778,45.197499722]},"styles":{"line.runwayconcrete.555555":{"name":"Runways","layer":"Guidance lines","object_type":"Line","paint":{"stroke":"#111318","stroke-opacity":1,"stroke-width":1,"palette-overrides":{"light":{"stroke":"#555555"}}},"feature_count":1},"line.runwaygrass.008000":{"name":"Grass runways","layer":"Guidance lines","object_type":"Line","paint":{"stroke":"#859A77","stroke-opacity":1,"stroke-width":1,"palette-overrides":{"light":{"stroke":"#008000"}}},"feature_count":1},"runway.reference":{"name":"Runway centerlines","layer":"Runways","object_type":"Line","paint":{"stroke":"#CCCCCC","stroke-width":2,"stroke-opacity":1},"feature_count":2}},"vsmr_groups":[],"features":[{"type":"Feature","id":"LFBX-4d0e5860a3cfefe71d1f","properties":{"airport":"LFBX","name":"LFBX Groundlayout Perigueux","layer":"Guidance lines","category":"Runways","object_type":"Line","style_id":"line.runwayconcrete.555555","source_group":"LFBX Groundlayout Perigueux","vsmr_group_ids":[],"geometry_role":"linework"},"geometry":{"type":"MultiLineString","coordinates":[[[0.813583333,45.200527778],[0.818083333,45.199138889]],[[0.811805556,45.197472222],[0.816305556,45.196055556]],[[0.813583333,45.200527778],[0.811805556,45.197472222]],[[0.818083333,45.199138889],[0.816305556,45.196055556]]]}},{"type":"Feature","id":"LFBX-8f8de1373bb64452f30d","properties":{"airport":"LFBX","name":"LFBX Groundlayout Perigueux","layer":"Guidance lines","category":"Grass runways","object_type":"Line","style_id":"line.runwaygrass.008000","source_group":"LFBX Groundlayout Perigueux","vsmr_group_ids":[],"geometry_role":"linework"},"geometry":{"type":"MultiLineString","coordinates":[[[0.810083333,45.200944444],[0.8255,45.196138889]],[[0.808305556,45.197861111],[0.823722222,45.193055556]],[[0.810083333,45.200944444],[0.808305556,45.197861111]],[[0.8255,45.196138889],[0.823722222,45.193055556]]]}},{"type":"Feature","id":"LFBX-5a699d6afce6ef43a9a2","properties":{"airport":"LFBX","name":"11L/29R","layer":"Runways","category":"Runway centerlines","object_type":"Line","style_id":"runway.reference","source_group":"LFBX Runways","vsmr_group_ids":[],"geometry_role":"runway_centerline"},"geometry":{"type":"LineString","coordinates":[[0.812646944,45.198824722],[0.817135833,45.197432778]]}},{"type":"Feature","id":"LFBX-01f844ac60d8d83ef58b","properties":{"airport":"LFBX","name":"11/29","layer":"Runways","category":"Runway centerlines","object_type":"Line","style_id":"runway.reference","source_group":"LFBX Runways","vsmr_group_ids":[],"geometry_role":"runway_centerline"},"geometry":{"type":"LineString","coordinates":[[0.809257778,45.199332778],[0.824652778,45.194568889]]}}]}
