{"type":"FeatureCollection","name":"LFBY AVISO","bbox":[-1.396111111,43.49,-0.785555556,43.853888889],"metadata":{"schema":"vSMR AVISO","schema_version":2,"airport":"LFBY","coordinate_reference_system":"WGS84","coordinate_order":"longitude, latitude","default_color_palette":"night","color_palettes":["night","day"],"background_colors":{"night":"#434A4F","day":"#434A4F"},"feature_count":14,"style_count":4,"layer_counts":{"Ground linework":1,"Labels":11,"Reference points":1,"Runways":1},"category_counts":{"Labels":12,"Runway Concrete":1,"Runway Markings":1}},"styles":{"label.text.label.labels":{"name":"Labels","layer":"Labels","object_type":"Label","paint":{"text-anchor":"center","text-color":"#CCCCCC","text-halo-color":"#000000","text-halo-width":1,"text-size":12,"zoomLevel":0},"feature_count":11},"line.linework.runway.concrete":{"name":"Runway Concrete","layer":"Ground linework","object_type":"Line","paint":{"stroke":"#111318","stroke-opacity":1.0,"stroke-width":1.5},"feature_count":1},"line.runway.centerline.runway.markings":{"name":"Runway Markings","layer":"Runways","object_type":"Line","paint":{"stroke":"#FEFEFE","stroke-opacity":1.0,"stroke-width":1.5},"feature_count":1},"point.airport.reference.point.labels":{"name":"Labels","layer":"Reference points","object_type":"Point","paint":{"marker-color":"#808080","marker-size":"small"},"feature_count":1}},"features":[{"type":"Feature","id":"LFBY-runway-07-25-4941","properties":{"name":"LFBY RWY 07/25","layer":"Runways","category":"Runway Markings","object_type":"Line","style_id":"line.runway.centerline.runway.markings","airport":"LFBY","geometry_role":"runway_centerline","vsmr_group_ids":[]},"geometry":{"type":"LineString","coordinates":[[-1.071525,43.688591944],[-1.066668889,43.689577778]]}},{"type":"Feature","id":"lfby.line.linework.runway.concrete.44438","properties":{"name":"LFBY Groundlayout Dax","layer":"Ground linework","category":"Runway Concrete","object_type":"Line","style_id":"line.linework.runway.concrete","airport":"LFBY","geometry_role":"linework","vsmr_group_ids":[]},"geometry":{"type":"MultiLineString","coordinates":[[[-1.072083333,43.690222222],[-1.066,43.691416667]],[[-1.070916667,43.687],[-1.064805556,43.688194444]],[[-1.072083333,43.690222222],[-1.070916667,43.687]],[[-1.066,43.691416667],[-1.064805556,43.688194444]]]}},{"type":"Feature","id":"LFBY-airport-reference","properties":{"name":"LFBY","layer":"Reference points","category":"Labels","object_type":"Point","style_id":"point.airport.reference.point.labels","airport":"LFBY","geometry_role":"airport_reference_point","text-field":"LFBY","vsmr_group_ids":[]},"geometry":{"type":"Point","coordinates":[-1.068888889,43.689166944]}},{"type":"Feature","id":"LFBY-text-lfbb-21875","properties":{"name":"NE","layer":"Labels","category":"Labels","object_type":"Label","style_id":"label.text.label.labels","airport":"LFBY","geometry_role":"text_label","text-field":"NE","vsmr_group_ids":[]},"geometry":{"type":"Point","coordinates":[-0.918888889,43.853888889]}},{"type":"Feature","id":"LFBY-text-lfbb-21876","properties":{"name":"NG","layer":"Labels","category":"Labels","object_type":"Label","style_id":"label.text.label.labels","airport":"LFBY","geometry_role":"text_label","text-field":"NG","vsmr_group_ids":[]},"geometry":{"type":"Point","coordinates":[-0.966666667,43.823611111]}},{"type":"Feature","id":"LFBY-text-lfbb-21877","properties":{"name":"NEA","layer":"Labels","category":"Labels","object_type":"Label","style_id":"label.text.label.labels","airport":"LFBY","geometry_role":"text_label","text-field":"NEA","vsmr_group_ids":[]},"geometry":{"type":"Point","coordinates":[-1.009444444,43.757222222]}},{"type":"Feature","id":"LFBY-text-lfbb-21878","properties":{"name":"N","layer":"Labels","category":"Labels","object_type":"Label","style_id":"label.text.label.labels","airport":"LFBY","geometry_role":"text_label","text-field":"N","vsmr_group_ids":[]},"geometry":{"type":"Point","coordinates":[-1.106666667,43.733888889]}},{"type":"Feature","id":"LFBY-text-lfbb-21879","properties":{"name":"N2","layer":"Labels","category":"Labels","object_type":"Label","style_id":"label.text.label.labels","airport":"LFBY","geometry_role":"text_label","text-field":"N2","vsmr_group_ids":[]},"geometry":{"type":"Point","coordinates":[-1.073055556,43.698055556]}},{"type":"Feature","id":"LFBY-text-lfbb-21880","properties":{"name":"W","layer":"Labels","category":"Labels","object_type":"Label","style_id":"label.text.label.labels","airport":"LFBY","geometry_role":"text_label","text-field":"W","vsmr_group_ids":[]},"geometry":{"type":"Point","coordinates":[-1.396111111,43.629722222]}},{"type":"Feature","id":"LFBY-text-lfbb-21881","properties":{"name":"S","layer":"Labels","category":"Labels","object_type":"Label","style_id":"label.text.label.labels","airport":"LFBY","geometry_role":"text_label","text-field":"S","vsmr_group_ids":[]},"geometry":{"type":"Point","coordinates":[-1.103611111,43.634166667]}},{"type":"Feature","id":"LFBY-text-lfbb-21882","properties":{"name":"E","layer":"Labels","category":"Labels","object_type":"Label","style_id":"label.text.label.labels","airport":"LFBY","geometry_role":"text_label","text-field":"E","vsmr_group_ids":[]},"geometry":{"type":"Point","coordinates":[-1.013888889,43.645277778]}},{"type":"Feature","id":"LFBY-text-lfbb-21883","properties":{"name":"SEA","layer":"Labels","category":"Labels","object_type":"Label","style_id":"label.text.label.labels","airport":"LFBY","geometry_role":"text_label","text-field":"SEA","vsmr_group_ids":[]},"geometry":{"type":"Point","coordinates":[-0.909722222,43.524166667]}},{"type":"Feature","id":"LFBY-text-lfbb-21884","properties":{"name":"SE","layer":"Labels","category":"Labels","object_type":"Label","style_id":"label.text.label.labels","airport":"LFBY","geometry_role":"text_label","text-field":"SE","vsmr_group_ids":[]},"geometry":{"type":"Point","coordinates":[-0.785555556,43.49]}},{"type":"Feature","id":"LFBY-text-lfbb-21885","properties":{"name":"BG","layer":"Labels","category":"Labels","object_type":"Label","style_id":"label.text.label.labels","airport":"LFBY","geometry_role":"text_label","text-field":"BG","vsmr_group_ids":[]},"geometry":{"type":"Point","coordinates":[-1.195,43.546666667]}}]}
