{"type":"FeatureCollection","name":"LFCB AVISO","bbox":[0.600641944,42.798485833,0.601585833,42.803735833],"metadata":{"schema":"vSMR AVISO","schema_version":2,"airport":"LFCB","coordinate_reference_system":"WGS84","coordinate_order":"longitude, latitude","feature_count":2,"style_count":2,"layer_counts":{"Reference points":1,"Runways":1},"category_counts":{"Labels":1,"Runway Markings":1}},"styles":{"line.runway.centerline.runway.markings":{"name":"Runway Markings","layer":"Runways","object_type":"Line","paint":{"stroke":"#FEFEFE","stroke-opacity":1.0,"stroke-width":1.5},"feature_count":1},"point.airport.reference.point.labels":{"name":"Labels","layer":"Reference points","object_type":"Point","paint":{"marker-color":"#808080","marker-size":"small"},"feature_count":1}},"features":[{"type":"Feature","id":"LFCB-runway-01-19-4835","properties":{"name":"LFCB RWY 01/19","layer":"Runways","category":"Runway Markings","object_type":"Line","style_id":"line.runway.centerline.runway.markings","airport":"LFCB","geometry_role":"runway_centerline","vsmr_group_ids":[[]]},"geometry":{"type":"LineString","coordinates":[[0.600641944,42.798485833],[0.601585833,42.803735833]]}},{"type":"Feature","id":"LFCB-airport-reference","properties":{"name":"LFCB","layer":"Reference points","category":"Labels","object_type":"Point","style_id":"point.airport.reference.point.labels","airport":"LFCB","geometry_role":"airport_reference_point","text-field":"LFCB","vsmr_group_ids":[[]]},"geometry":{"type":"Point","coordinates":[0.601110833,42.800555833]}}]}
