{"type":"FeatureCollection","name":"LFCD AVISO","bbox":[-1.066602778,44.752571944,-1.060377778,44.756071944],"metadata":{"schema":"vSMR AVISO","schema_version":2,"airport":"LFCD","coordinate_reference_system":"WGS84","coordinate_order":"longitude, latitude","feature_count":2,"style_count":2,"layer_counts":{"Reference points":1,"Runways":1},"category_counts":{"Labels":1,"Runway Markings":1}},"styles":{"line.runway.centerline.runway.markings":{"name":"Runway Markings","layer":"Runways","object_type":"Line","paint":{"stroke":"#FEFEFE","stroke-opacity":1.0,"stroke-width":1.5},"feature_count":1},"point.airport.reference.point.labels":{"name":"Labels","layer":"Reference points","object_type":"Point","paint":{"marker-color":"#808080","marker-size":"small"},"feature_count":1}},"features":[{"type":"Feature","id":"LFCD-runway-13-31-4836","properties":{"name":"LFCD RWY 13/31","layer":"Runways","category":"Runway Markings","object_type":"Line","style_id":"line.runway.centerline.runway.markings","airport":"LFCD","geometry_role":"runway_centerline","vsmr_group_ids":[[]]},"geometry":{"type":"LineString","coordinates":[[-1.066602778,44.756071944],[-1.060377778,44.752571944]]}},{"type":"Feature","id":"LFCD-airport-reference","properties":{"name":"LFCD","layer":"Reference points","category":"Labels","object_type":"Point","style_id":"point.airport.reference.point.labels","airport":"LFCD","geometry_role":"airport_reference_point","text-field":"LFCD","vsmr_group_ids":[[]]},"geometry":{"type":"Point","coordinates":[-1.064999722,44.755]}}]}
