{"type":"FeatureCollection","name":"LFCF AVISO","bbox":[1.782607778,44.671527778,1.791405833,44.673768889],"metadata":{"schema":"vSMR AVISO","schema_version":2,"airport":"LFCF","coordinate_reference_system":"WGS84","coordinate_order":"longitude, latitude","feature_count":2,"style_count":2,"layer_counts":{"Reference points":1,"Runways":1},"category_counts":{"Labels":1,"Runway Markings":1}},"styles":{"line.runway.centerline.runway.markings":{"name":"Runway Markings","layer":"Runways","object_type":"Line","paint":{"stroke":"#FEFEFE","stroke-opacity":1.0,"stroke-width":1.5},"feature_count":1},"point.airport.reference.point.labels":{"name":"Labels","layer":"Reference points","object_type":"Point","paint":{"marker-color":"#808080","marker-size":"small"},"feature_count":1}},"features":[{"type":"Feature","id":"LFCF-runway-11-29-4838","properties":{"name":"LFCF RWY 11/29","layer":"Runways","category":"Runway Markings","object_type":"Line","style_id":"line.runway.centerline.runway.markings","airport":"LFCF","geometry_role":"runway_centerline","vsmr_group_ids":[[]]},"geometry":{"type":"LineString","coordinates":[[1.782607778,44.673768889],[1.791405833,44.671527778]]}},{"type":"Feature","id":"LFCF-airport-reference","properties":{"name":"LFCF","layer":"Reference points","category":"Labels","object_type":"Point","style_id":"point.airport.reference.point.labels","airport":"LFCF","geometry_role":"airport_reference_point","text-field":"LFCF","vsmr_group_ids":[[]]},"geometry":{"type":"Point","coordinates":[1.788055833,44.672499722]}}]}
