{"type":"FeatureCollection","name":"LFCG AVISO","bbox":[1.100121944,43.004916944,1.105146944,43.012182778],"metadata":{"schema":"vSMR AVISO","schema_version":2,"airport":"LFCG","coordinate_reference_system":"WGS84","coordinate_order":"longitude, latitude","feature_count":2,"style_count":2,"layer_counts":{"Reference points":1,"Runways":1},"category_counts":{"Labels":1,"Runway Markings":1}},"styles":{"line.runway.centerline.runway.markings":{"name":"Runway Markings","layer":"Runways","object_type":"Line","paint":{"stroke":"#FEFEFE","stroke-opacity":1.0,"stroke-width":1.5},"feature_count":1},"point.airport.reference.point.labels":{"name":"Labels","layer":"Reference points","object_type":"Point","paint":{"marker-color":"#808080","marker-size":"small"},"feature_count":1}},"features":[{"type":"Feature","id":"LFCG-runway-15-33-4839","properties":{"name":"LFCG RWY 15/33","layer":"Runways","category":"Runway Markings","object_type":"Line","style_id":"line.runway.centerline.runway.markings","airport":"LFCG","geometry_role":"runway_centerline","vsmr_group_ids":[[]]},"geometry":{"type":"LineString","coordinates":[[1.100121944,43.012182778],[1.105146944,43.004916944]]}},{"type":"Feature","id":"LFCG-airport-reference","properties":{"name":"LFCG","layer":"Reference points","category":"Labels","object_type":"Point","style_id":"point.airport.reference.point.labels","airport":"LFCG","geometry_role":"airport_reference_point","text-field":"LFCG","vsmr_group_ids":[[]]},"geometry":{"type":"Point","coordinates":[1.103055833,43.007777778]}}]}
