{"type":"FeatureCollection","name":"LFCH AVISO","bbox":[-1.211111111,44.593888889,-1.005555556,44.643611111],"metadata":{"schema":"vSMR AVISO","schema_version":2,"airport":"LFCH","coordinate_reference_system":"WGS84","coordinate_order":"longitude, latitude","feature_count":9,"style_count":5,"layer_counts":{"Ground linework":2,"Labels":4,"Reference points":1,"Runways":2},"category_counts":{"Labels":5,"Runway Concrete":1,"Runway Grass":1,"Runway Markings":2}},"styles":{"label.text.label.labels":{"name":"Labels","layer":"Labels","object_type":"Label","paint":{"text-anchor":"center","text-color":"#CCCCCC","text-halo-color":"#000000","text-halo-width":1,"text-size":12},"feature_count":4},"line.linework.runway.concrete":{"name":"Runway Concrete","layer":"Ground linework","object_type":"Line","paint":{"stroke":"#111318","stroke-opacity":1.0,"stroke-width":1.5},"feature_count":1},"line.linework.runway.grass":{"name":"Runway Grass","layer":"Ground linework","object_type":"Line","paint":{"stroke":"#008000","stroke-opacity":1.0,"stroke-width":1.5},"feature_count":1},"line.runway.centerline.runway.markings":{"name":"Runway Markings","layer":"Runways","object_type":"Line","paint":{"stroke":"#FEFEFE","stroke-opacity":1.0,"stroke-width":1.5},"feature_count":2},"point.airport.reference.point.labels":{"name":"Labels","layer":"Reference points","object_type":"Point","paint":{"marker-color":"#808080","marker-size":"small"},"feature_count":1}},"features":[{"type":"Feature","id":"LFCH-runway-07R-25L-4945","properties":{"name":"LFCH RWY 07R/25L","layer":"Runways","category":"Runway Markings","object_type":"Line","style_id":"line.runway.centerline.runway.markings","airport":"LFCH","geometry_role":"runway_centerline","vsmr_group_ids":[[]]},"geometry":{"type":"LineString","coordinates":[[-1.119955833,44.594099722],[-1.109093889,44.596546944]]}},{"type":"Feature","id":"LFCH-runway-07-25-4946","properties":{"name":"LFCH RWY 07/25","layer":"Runways","category":"Runway Markings","object_type":"Line","style_id":"line.runway.centerline.runway.markings","airport":"LFCH","geometry_role":"runway_centerline","vsmr_group_ids":[[]]},"geometry":{"type":"LineString","coordinates":[[-1.119202778,44.594707778],[-1.108427778,44.597135833]]}},{"type":"Feature","id":"lfch.line.linework.runway.concrete.44609","properties":{"name":"LFCH Groundlayout Arcachon","layer":"Ground linework","category":"Runway Concrete","object_type":"Line","style_id":"line.linework.runway.concrete","airport":"LFCH","geometry_role":"linework","vsmr_group_ids":[[]]},"geometry":{"type":"MultiLineString","coordinates":[[[-1.117638889,44.597111111],[-1.107916667,44.598833333]],[[-1.116583333,44.593888889],[-1.106861111,44.595583333]],[[-1.117638889,44.597111111],[-1.116583333,44.593888889]],[[-1.107916667,44.598833333],[-1.106861111,44.595583333]]]}},{"type":"Feature","id":"lfch.line.linework.runway.grass.44613","properties":{"name":"LFCH Groundlayout Arcachon","layer":"Ground linework","category":"Runway Grass","object_type":"Line","style_id":"line.linework.runway.grass","airport":"LFCH","geometry_role":"linework","vsmr_group_ids":[[]]},"geometry":{"type":"MultiLineString","coordinates":[[[-1.11825,44.597611111],[-1.106138889,44.599805556]],[[-1.117166667,44.594388889],[-1.105055556,44.596583333]],[[-1.11825,44.597611111],[-1.117166667,44.594388889]],[[-1.106138889,44.599805556],[-1.105055556,44.596583333]]]}},{"type":"Feature","id":"LFCH-airport-reference","properties":{"name":"LFCH","layer":"Reference points","category":"Labels","object_type":"Point","style_id":"point.airport.reference.point.labels","airport":"LFCH","geometry_role":"airport_reference_point","text-field":"LFCH","vsmr_group_ids":[[]]},"geometry":{"type":"Point","coordinates":[-1.113888889,44.596943889]}},{"type":"Feature","id":"LFCH-text-lfbb-21967","properties":{"name":"W","layer":"Labels","category":"Labels","object_type":"Label","style_id":"label.text.label.labels","airport":"LFCH","geometry_role":"text_label","text-field":"W","vsmr_group_ids":[[]]},"geometry":{"type":"Point","coordinates":[-1.211111111,44.598611111]}},{"type":"Feature","id":"LFCH-text-lfbb-21968","properties":{"name":"NE","layer":"Labels","category":"Labels","object_type":"Label","style_id":"label.text.label.labels","airport":"LFCH","geometry_role":"text_label","text-field":"NE","vsmr_group_ids":[[]]},"geometry":{"type":"Point","coordinates":[-1.048333333,44.643611111]}},{"type":"Feature","id":"LFCH-text-lfbb-21969","properties":{"name":"E","layer":"Labels","category":"Labels","object_type":"Label","style_id":"label.text.label.labels","airport":"LFCH","geometry_role":"text_label","text-field":"E","vsmr_group_ids":[[]]},"geometry":{"type":"Point","coordinates":[-1.005555556,44.633333333]}},{"type":"Feature","id":"LFCH-text-lfbb-21970","properties":{"name":"N","layer":"Labels","category":"Labels","object_type":"Label","style_id":"label.text.label.labels","airport":"LFCH","geometry_role":"text_label","text-field":"N","vsmr_group_ids":[[]]},"geometry":{"type":"Point","coordinates":[-1.126944444,44.603333333]}}]}
