{"type":"FeatureCollection","name":"LFCK AVISO","bbox":[2.281871667,43.549718611,2.296405278,43.562720556],"metadata":{"schema":"vSMR AVISO","schema_version":2,"geometry_mode":"shared","airport":"LFCK","coordinate_reference_system":"WGS84","coordinate_order":"longitude, latitude","default_color_palette":"dark","color_palettes":["dark","light"],"background_colors":{"dark":"#434A4F","light":"#434A4F"},"feature_count":25,"style_count":9,"layer_counts":{"Guidance lines":7,"Labels":17,"Runways":1},"category_counts":{"Apron Surface":1,"Centerlines":1,"Gates":17,"Labels":1,"Runway centerlines":1,"Runways":1,"Stopbars":1,"TWR-CTR":1,"Taxiways":1},"runways":[{"ends":["14","32"],"headings":[140,320],"thresholds":[[2.283282778,43.561566944],[2.296260833,43.549838889]]}],"saved_active_runways":[],"saved_active_airport_modes":[],"geometry_source":"EuroScope sector pack","source_files":{"LFBB.sct":"fc92f16bc65e3a10b9aeb0cf4d1cae1add9856a4f4f2f653af5abaa0d98c77ed","LFBB.ese":"c7c252d4a274f6fd98bcefd2364b7bb9799385a6e602b62ccbe85cc32042ef62","LFBB.rwy":"d9387919da6406482f154f391ab2d20783610a60930f986e160686134ea8a7df","LFEE.sct":"10fcc997213ee24336ef8bd37f3a9423cb07bbdfb57b1494c61b8310b9641d8a","LFEE.ese":"3391dc3a47130a4a8c12ab895a6743c77668044183634bd45d425513ef5baa2f","LFFF.sct":"cb6698888ce3e8e8be34ea45922976a5fb3ebe1baef7814f040c91785f8641f2","LFFF.ese":"0c1e64c4a0524a6cdc30766699492d362f78011da36daeacfde4597a1761b64c","LFFF.rwy":"a12900bf1f18188caf2e598c44e55b2c0c6fb2c66cee43ff843cbe216617ae96","LFMM.sct":"fc0d266315a59cb027803be613657d9e9875a2a4b912535d08d1c7892a53b194","LFMM.ese":"6a319d7f7c1c2f7e457ae789f4aae2feafec03b24f5d3d95752e96922a971c9e","LFMM.rwy":"236563995d9b5be668ee3fc8d653cf8f33f20a511137652b197e5877b85d5693","LFRR.sct":"c5a55173543154d388eb65309d606b41ac5da09af59142e69878a4cde03add83","LFRR.ese":"e4542200e8322297f954327131cfe6e73da3ac264cf5610ff6871309cd6eeb40"},"airport_reference":[2.290555833,43.554999722]},"styles":{"line.runwayconcrete.555555":{"name":"Runways","layer":"Guidance lines","object_type":"Line","paint":{"stroke":"#111318","stroke-opacity":1,"stroke-width":1,"palette-overrides":{"light":{"stroke":"#555555"}}},"feature_count":1},"line.taxiway.c0b631":{"name":"Taxiways","layer":"Guidance lines","object_type":"Line","paint":{"stroke":"#4E5A69","stroke-opacity":1,"stroke-width":1,"palette-overrides":{"light":{"stroke":"#C0B631"}}},"feature_count":1},"line.apronsurface.808080":{"name":"Apron Surface","layer":"Guidance lines","object_type":"Line","paint":{"stroke":"#808080","stroke-opacity":1,"stroke-width":1,"palette-overrides":{"light":{"stroke":"#808080"}}},"feature_count":1},"line.stopbar.7e0000":{"name":"Stopbars","layer":"Guidance lines","object_type":"Line","paint":{"stroke":"#7E0000","stroke-opacity":1,"stroke-width":1,"palette-overrides":{"light":{"stroke":"#7E0000"}}},"feature_count":1},"line.centerlines.ffff00":{"name":"Centerlines","layer":"Guidance lines","object_type":"Line","paint":{"stroke":"#FFFF00","stroke-opacity":1,"stroke-width":1,"palette-overrides":{"light":{"stroke":"#FFFF00"}}},"feature_count":1},"line.twr-ctr.000000":{"name":"TWR-CTR","layer":"Guidance lines","object_type":"Line","paint":{"stroke":"#000000","stroke-opacity":1,"stroke-width":1,"palette-overrides":{"light":{"stroke":"#000000"}}},"feature_count":1},"line.labels.808080":{"name":"Labels","layer":"Guidance lines","object_type":"Line","paint":{"stroke":"#808080","stroke-opacity":1,"stroke-width":1,"palette-overrides":{"light":{"stroke":"#808080"}}},"feature_count":1},"label.gates":{"name":"Gates","layer":"Labels","object_type":"Label","paint":{"text-color":"#CCCCCC","text-font":"Arial","text-size":12,"text-halo-color":"#000000","text-halo-width":1,"text-anchor":"center","zoomLevel":9},"feature_count":17},"runway.reference":{"name":"Runway centerlines","layer":"Runways","object_type":"Line","paint":{"stroke":"#CCCCCC","stroke-width":2,"stroke-opacity":1},"feature_count":1}},"vsmr_groups":[{"id":"stands-and-gates","name":"Stands & gates","visible":true,"accent":"#d4bd39"}],"features":[{"type":"Feature","id":"LFCK-1e12def91db849512a44","properties":{"airport":"LFCK","name":"LFCK Groundlayout Castres","layer":"Guidance lines","category":"Runways","object_type":"Line","style_id":"line.runwayconcrete.555555","source_group":"LFCK Groundlayout Castres","vsmr_group_ids":[],"geometry_role":"linework"},"geometry":{"type":"MultiLineString","coordinates":[[[2.288425278,43.557138056],[2.282257778,43.562720556],[2.281961667,43.562550556],[2.281921111,43.562519444],[2.281894722,43.562493333],[2.281878333,43.56246],[2.281871667,43.5624225],[2.281875,43.562391667],[2.281886944,43.562366944],[2.281906944,43.562339167],[2.281928889,43.562316111],[2.281948611,43.562300278],[2.281978056,43.562284167],[2.282033333,43.562263333],[2.282100833,43.562244167],[2.282184722,43.562222222],[2.282251944,43.5622025],[2.282303611,43.562184722],[2.282348611,43.562166389],[2.2823975,43.562143889],[2.282441389,43.562118333],[2.282476389,43.562089444],[2.290169167,43.555143611]],[[2.290743611,43.554623889],[2.295626111,43.550206389],[2.295633056,43.550189444],[2.295644444,43.550174444],[2.295663056,43.550146944],[2.295676944,43.550125],[2.295689444,43.550095833],[2.295698889,43.550057222],[2.295709167,43.550019444],[2.295721944,43.549972778],[2.295738056,43.549896389],[2.295748333,43.549860556],[2.295762778,43.549834167],[2.295777778,43.549809444],[2.295801389,43.549783611],[2.295826944,43.549759444],[2.295865556,43.549741667],[2.295907222,43.549728611],[2.295947778,43.549719722],[2.295989167,43.549718611],[2.296024167,43.549720556],[2.296059167,43.549728056],[2.296086389,43.549739722],[2.296124167,43.549760278],[2.296405278,43.549924444],[2.296218333,43.550088889],[2.288985,43.556632222]]]}},{"type":"Feature","id":"LFCK-e53584511f977ac6db7b","properties":{"airport":"LFCK","name":"LFCK Groundlayout Castres","layer":"Guidance lines","category":"Taxiways","object_type":"Line","style_id":"line.taxiway.c0b631","source_group":"LFCK Groundlayout Castres","vsmr_group_ids":[],"geometry_role":"linework"},"geometry":{"type":"MultiLineString","coordinates":[[[2.288986111,43.556632778],[2.288962222,43.556670556],[2.288943333,43.556705556],[2.288927778,43.556750278],[2.288924444,43.55679],[2.288926111,43.556821667],[2.288933056,43.556856667],[2.288944167,43.556885833],[2.288973056,43.556923056],[2.289009167,43.556961667],[2.289058056,43.556991667],[2.289406111,43.557201389],[2.290052222,43.557581389]],[[2.290169722,43.555143889],[2.290191111,43.555112222],[2.290205278,43.5550925],[2.290219444,43.555071111],[2.290231111,43.555049722],[2.290236944,43.5550275],[2.290241667,43.555002778],[2.290245278,43.554975556],[2.290241667,43.554947222],[2.290236944,43.5549225],[2.29023,43.554903611],[2.290220556,43.554881389],[2.290208611,43.554861667],[2.290196944,43.554843056],[2.290179167,43.554824167],[2.290156944,43.554801944],[2.290130833,43.554782222],[2.290099167,43.554763611],[2.289943333,43.554671111],[2.289820833,43.554600556],[2.289785,43.554588611],[2.289751667,43.554576667],[2.289714722,43.554570833],[2.289672222,43.554566389],[2.289633889,43.554564444],[2.289595556,43.554566389],[2.289562222,43.554568056],[2.289530278,43.554573611]],[[2.290745556,43.554620833],[2.290709444,43.554644444],[2.290675,43.554663056],[2.290643333,43.554679167],[2.2906125,43.554691944],[2.29058,43.554702778],[2.290553333,43.554706389],[2.290519167,43.554711667],[2.290488056,43.554716667],[2.290451111,43.5547175],[2.290418611,43.5547175],[2.290383333,43.554713611],[2.290355833,43.554709722],[2.290327778,43.554703333],[2.290298611,43.554694444],[2.290268611,43.554682778],[2.290245833,43.554670833],[2.289935278,43.5544875],[2.289913611,43.554470556],[2.289897222,43.554451389],[2.289880556,43.554433056],[2.289868889,43.5544125],[2.289858056,43.554388333],[2.289848333,43.554365],[2.289844444,43.554345278],[2.2898425,43.554321944],[2.289841389,43.554302222],[2.2898425,43.554282222],[2.289845278,43.5542625]],[[2.288425278,43.557138889],[2.288481944,43.5571025],[2.288516111,43.5570875],[2.288565278,43.557068611],[2.288611944,43.557056111],[2.288655556,43.557048889],[2.288693889,43.557045833],[2.288742778,43.557045],[2.288781944,43.557049722],[2.2888225,43.557056111],[2.288862778,43.557065556],[2.288896389,43.557078056],[2.288960833,43.557112778],[2.2891625,43.557229722],[2.289777778,43.557594444],[2.289800556,43.557621667],[2.289824444,43.557650833],[2.289834444,43.557681667],[2.289840556,43.557717222],[2.289841944,43.557751667],[2.289825833,43.557782778]]]}},{"type":"Feature","id":"LFCK-da98d3c17288b8d2e2da","properties":{"airport":"LFCK","name":"LFCK Groundlayout Castres","layer":"Guidance lines","category":"Apron Surface","object_type":"Line","style_id":"line.apronsurface.808080","source_group":"LFCK Groundlayout Castres","vsmr_group_ids":[],"geometry_role":"linework"},"geometry":{"type":"MultiLineString","coordinates":[[[2.289531389,43.554574167],[2.289485,43.554586389],[2.289440833,43.554604167],[2.289401389,43.554623056],[2.289361111,43.5546525],[2.289328611,43.554676111],[2.288841111,43.555115556],[2.288562778,43.554950556],[2.288263611,43.554774722],[2.288435,43.554615278],[2.289816389,43.553377222],[2.290389444,43.553712778],[2.290098611,43.553978889],[2.289895833,43.554167222],[2.289878056,43.554187778],[2.289863611,43.554212778],[2.28985,43.554239444],[2.289844722,43.554264444]],[[2.289826667,43.557782222],[2.289814167,43.557807778],[2.289801111,43.557828889],[2.289783333,43.557846944],[2.289573333,43.5580375],[2.289834167,43.558188611],[2.291116389,43.558938333],[2.291611111,43.558491111],[2.290051389,43.557579722]]]}},{"type":"Feature","id":"LFCK-8fcf2ed64b0edf0034a5","properties":{"airport":"LFCK","name":"LFCK Groundlayout Castres","layer":"Guidance lines","category":"Stopbars","object_type":"Line","style_id":"line.stopbar.7e0000","source_group":"LFCK Groundlayout Castres","vsmr_group_ids":[],"geometry_role":"linework"},"geometry":{"type":"MultiLineString","coordinates":[[[2.289240556,43.557275278],[2.289356111,43.557171667]],[[2.289829444,43.554605],[2.289947222,43.554495]]]}},{"type":"Feature","id":"LFCK-442f51edbdcd24cd2dee","properties":{"airport":"LFCK","name":"LFCK Groundlayout Castres","layer":"Guidance lines","category":"Centerlines","object_type":"Line","style_id":"line.centerlines.ffff00","source_group":"LFCK Groundlayout Castres","vsmr_group_ids":[],"geometry_role":"linework"},"geometry":{"type":"MultiLineString","coordinates":[[[2.288651389,43.554928333],[2.288778889,43.554813056]],[[2.289707222,43.553981667],[2.289911389,43.553797778]],[[2.289738611,43.5537025],[2.289535278,43.553882778]],[[2.289214167,43.554269167],[2.289390278,43.554110833]],[[2.288856944,43.55452],[2.289075556,43.554320833]],[[2.288847222,43.555029444],[2.289003889,43.554892778]],[[2.288568889,43.554856944],[2.288583056,43.554855556],[2.288594722,43.554851111],[2.2886025,43.554843889],[2.2886075,43.554834444],[2.288609444,43.554824722],[2.288605,43.554815556],[2.288598611,43.5548075],[2.288586389,43.554801111],[2.288573889,43.554798333],[2.288559722,43.554799722],[2.288546389,43.554803333],[2.288536389,43.554809722],[2.288530556,43.554817778],[2.288527778,43.554825833],[2.288529444,43.554835833],[2.288536389,43.554844722],[2.288543333,43.554850556],[2.288553333,43.554854722],[2.288561111,43.554855833],[2.288568889,43.554856944]],[[2.288567222,43.554826389],[2.288683333,43.554724167]]]}},{"type":"Feature","id":"LFCK-c4fb5c8e43607b18b5e9","properties":{"airport":"LFCK","name":"LFCK Groundlayout Castres","layer":"Guidance lines","category":"TWR-CTR","object_type":"Line","style_id":"line.twr-ctr.000000","source_group":"LFCK Groundlayout Castres","vsmr_group_ids":[],"geometry_role":"linework"},"geometry":{"type":"MultiLineString","coordinates":[[[2.288946944,43.554078611],[2.288974167,43.554095833],[2.289010278,43.554096667],[2.289044167,43.554068889],[2.289044167,43.554041667],[2.289010278,43.554015556],[2.288965556,43.554021944],[2.288938056,43.554043611],[2.288946944,43.554078611]]]}},{"type":"Feature","id":"LFCK-f47d9b34f3bb00da2f9f","properties":{"airport":"LFCK","name":"LFCK Groundlayout Castres","layer":"Guidance lines","category":"Labels","object_type":"Line","style_id":"line.labels.808080","source_group":"LFCK Groundlayout Castres","vsmr_group_ids":[],"geometry_role":"linework"},"geometry":{"type":"MultiLineString","coordinates":[[[2.295831389,43.550351944],[2.2958825,43.550307222],[2.295893889,43.550235],[2.295906111,43.550224167],[2.295948056,43.550247222],[2.295972778,43.550225278],[2.295914444,43.550189722],[2.295873333,43.550227778],[2.295859167,43.550300833],[2.295838611,43.550318056],[2.295815,43.550303611],[2.295824167,43.550293056],[2.29581,43.550283889],[2.295773056,43.5503175],[2.295831389,43.550351944]],[[2.295728889,43.550290556],[2.295771667,43.550254444],[2.295768056,43.550229167],[2.295803056,43.550227222],[2.295870556,43.550163889],[2.295812778,43.550129167],[2.295786667,43.550150833],[2.295827778,43.550176667],[2.295789444,43.550210278],[2.295743056,43.550213333],[2.2957475,43.550250278],[2.295738333,43.5502575],[2.295696389,43.550235556],[2.29567,43.5502575],[2.295728889,43.550290556]],[[2.283724722,43.561247778],[2.283740833,43.561258056],[2.283855,43.561154444],[2.283861667,43.561157778],[2.283876944,43.561143889],[2.283879167,43.561133333],[2.283863056,43.561122778],[2.283724722,43.561247778]],[[2.283623611,43.561189444],[2.283638889,43.561199444],[2.283668889,43.561173611],[2.283715,43.561199444],[2.283794167,43.561082778],[2.283779444,43.561072222],[2.283715,43.561163889],[2.2836925,43.561150833],[2.283737778,43.561111389],[2.283721667,43.561101944],[2.283676944,43.561140278],[2.283663889,43.561132778],[2.283638889,43.561156667],[2.283650556,43.561163611],[2.283623611,43.561189444]]]}},{"type":"Feature","id":"LFCK-911b4249e5e5ba76c8a1","properties":{"airport":"LFCK","name":"P Mil","layer":"Labels","category":"Gates","object_type":"Label","style_id":"label.gates","source_group":"LFCK Gates","vsmr_group_ids":["stands-and-gates"],"geometry_role":"text_label","text-field":"P Mil"},"geometry":{"type":"Point","coordinates":[2.291051389,43.557919444]}},{"type":"Feature","id":"LFCK-af6a90e41f4a24f9641c","properties":{"airport":"LFCK","name":"Parking","layer":"Labels","category":"Gates","object_type":"Label","style_id":"label.gates","source_group":"LFCK Gates","vsmr_group_ids":["stands-and-gates"],"geometry_role":"text_label","text-field":"Parking"},"geometry":{"type":"Point","coordinates":[2.288388056,43.555182222]}},{"type":"Feature","id":"LFCK-2a5e8650a2acf0329d58","properties":{"airport":"LFCK","name":"TWR","layer":"Labels","category":"Gates","object_type":"Label","style_id":"label.gates","source_group":"LFCK Gates","vsmr_group_ids":["stands-and-gates"],"geometry_role":"text_label","text-field":"TWR"},"geometry":{"type":"Point","coordinates":[2.288812778,43.554000556]}},{"type":"Feature","id":"LFCK-63d5c2a4fb8f52eeddac","properties":{"airport":"LFCK","name":"Terminal","layer":"Labels","category":"Gates","object_type":"Label","style_id":"label.gates","source_group":"LFCK Gates","vsmr_group_ids":["stands-and-gates"],"geometry_role":"text_label","text-field":"Terminal"},"geometry":{"type":"Point","coordinates":[2.288603333,43.554173889]}},{"type":"Feature","id":"LFCK-774436d2db6b77c6ade0","properties":{"airport":"LFCK","name":"ATS","layer":"Labels","category":"Gates","object_type":"Label","style_id":"label.gates","source_group":"LFCK Gates","vsmr_group_ids":["stands-and-gates"],"geometry_role":"text_label","text-field":"ATS"},"geometry":{"type":"Point","coordinates":[2.288993611,43.553907778]}},{"type":"Feature","id":"LFCK-be2d6c12b5c5a63f69e1","properties":{"airport":"LFCK","name":"Hangar","layer":"Labels","category":"Gates","object_type":"Label","style_id":"label.gates","source_group":"LFCK Gates","vsmr_group_ids":["stands-and-gates"],"geometry_role":"text_label","text-field":"Hangar"},"geometry":{"type":"Point","coordinates":[2.28946,43.553404167]}},{"type":"Feature","id":"LFCK-9bc729b9f4322dd11cee","properties":{"airport":"LFCK","name":"P6","layer":"Labels","category":"Gates","object_type":"Label","style_id":"label.gates","source_group":"LFCK Gates","vsmr_group_ids":["stands-and-gates"],"geometry_role":"text_label","text-field":"P6"},"geometry":{"type":"Point","coordinates":[2.289838611,43.553916667]}},{"type":"Feature","id":"LFCK-a25fdc17b466a8956fe5","properties":{"airport":"LFCK","name":"P5","layer":"Labels","category":"Gates","object_type":"Label","style_id":"label.gates","source_group":"LFCK Gates","vsmr_group_ids":["stands-and-gates"],"geometry_role":"text_label","text-field":"P5"},"geometry":{"type":"Point","coordinates":[2.289574444,43.553896111]}},{"type":"Feature","id":"LFCK-c20da2e3c88e7af54e91","properties":{"airport":"LFCK","name":"P4","layer":"Labels","category":"Gates","object_type":"Label","style_id":"label.gates","source_group":"LFCK Gates","vsmr_group_ids":["stands-and-gates"],"geometry_role":"text_label","text-field":"P4"},"geometry":{"type":"Point","coordinates":[2.289654167,43.553697778]}},{"type":"Feature","id":"LFCK-3061cd5140da2ca171e6","properties":{"airport":"LFCK","name":"P3","layer":"Labels","category":"Gates","object_type":"Label","style_id":"label.gates","source_group":"LFCK Gates","vsmr_group_ids":["stands-and-gates"],"geometry_role":"text_label","text-field":"P3"},"geometry":{"type":"Point","coordinates":[2.2892675,43.554273333]}},{"type":"Feature","id":"LFCK-c5f5fa8aacc46b407a6f","properties":{"airport":"LFCK","name":"P2","layer":"Labels","category":"Gates","object_type":"Label","style_id":"label.gates","source_group":"LFCK Gates","vsmr_group_ids":["stands-and-gates"],"geometry_role":"text_label","text-field":"P2"},"geometry":{"type":"Point","coordinates":[2.289298611,43.554104167]}},{"type":"Feature","id":"LFCK-e11aa20e96905457f167","properties":{"airport":"LFCK","name":"P1","layer":"Labels","category":"Gates","object_type":"Label","style_id":"label.gates","source_group":"LFCK Gates","vsmr_group_ids":["stands-and-gates"],"geometry_role":"text_label","text-field":"P1"},"geometry":{"type":"Point","coordinates":[2.288985833,43.554323611]}},{"type":"Feature","id":"LFCK-e7a94ce6b1a0f7aad801","properties":{"airport":"LFCK","name":"A1","layer":"Labels","category":"Gates","object_type":"Label","style_id":"label.gates","source_group":"LFCK Gates","vsmr_group_ids":["stands-and-gates"],"geometry_role":"text_label","text-field":"A1"},"geometry":{"type":"Point","coordinates":[2.288793333,43.555042222]}},{"type":"Feature","id":"LFCK-661a9e7cb53e7a0cf837","properties":{"airport":"LFCK","name":"A2","layer":"Labels","category":"Gates","object_type":"Label","style_id":"label.gates","source_group":"LFCK Gates","vsmr_group_ids":["stands-and-gates"],"geometry_role":"text_label","text-field":"A2"},"geometry":{"type":"Point","coordinates":[2.288985278,43.554873611]}},{"type":"Feature","id":"LFCK-8148433aa1f783498ad3","properties":{"airport":"LFCK","name":"A5","layer":"Labels","category":"Gates","object_type":"Label","style_id":"label.gates","source_group":"LFCK Gates","vsmr_group_ids":["stands-and-gates"],"geometry_role":"text_label","text-field":"A5"},"geometry":{"type":"Point","coordinates":[2.288803611,43.554791944]}},{"type":"Feature","id":"LFCK-34927ccc35c5577d7233","properties":{"airport":"LFCK","name":"A4","layer":"Labels","category":"Gates","object_type":"Label","style_id":"label.gates","source_group":"LFCK Gates","vsmr_group_ids":["stands-and-gates"],"geometry_role":"text_label","text-field":"A4"},"geometry":{"type":"Point","coordinates":[2.288504444,43.554866944]}},{"type":"Feature","id":"LFCK-a34c0c0be41f084105c2","properties":{"airport":"LFCK","name":"A3","layer":"Labels","category":"Gates","object_type":"Label","style_id":"label.gates","source_group":"LFCK Gates","vsmr_group_ids":["stands-and-gates"],"geometry_role":"text_label","text-field":"A3"},"geometry":{"type":"Point","coordinates":[2.288692222,43.554706667]}},{"type":"Feature","id":"LFCK-ddb0b519dddb4096a783","properties":{"airport":"LFCK","name":"14/32","layer":"Runways","category":"Runway centerlines","object_type":"Line","style_id":"runway.reference","source_group":"LFCK Runways","vsmr_group_ids":[],"geometry_role":"runway_centerline"},"geometry":{"type":"LineString","coordinates":[[2.283282778,43.561566944],[2.296260833,43.549838889]]}}]}
