{"type":"FeatureCollection","name":"LFCL AVISO","bbox":[1.495138889,43.548055556,1.661388889,43.693888889],"metadata":{"schema":"vSMR AVISO","schema_version":2,"airport":"LFCL","coordinate_reference_system":"WGS84","coordinate_order":"longitude, latitude","default_color_palette":"night","color_palettes":["night","day"],"feature_count":6,"style_count":4,"layer_counts":{"Ground linework":1,"Labels":3,"Reference points":1,"Runways":1},"category_counts":{"Labels":4,"Runway Concrete":1,"Runway Markings":1}},"styles":{"label.text.label.labels":{"name":"Labels","layer":"Labels","object_type":"Label","paint":{"text-anchor":"center","text-color":"#CCCCCC","text-halo-color":"#000000","text-halo-width":1,"text-size":12,"zoomLevel":0},"feature_count":3},"line.linework.runway.concrete":{"name":"Runway Concrete","layer":"Ground linework","object_type":"Line","paint":{"stroke":"#111318","stroke-opacity":1.0,"stroke-width":1.5},"feature_count":1},"line.runway.centerline.runway.markings":{"name":"Runway Markings","layer":"Runways","object_type":"Line","paint":{"stroke":"#FEFEFE","stroke-opacity":1.0,"stroke-width":1.5},"feature_count":1},"point.airport.reference.point.labels":{"name":"Labels","layer":"Reference points","object_type":"Point","paint":{"marker-color":"#808080","marker-size":"small"},"feature_count":1}},"features":[{"type":"Feature","id":"LFCL-runway-15-33-4949","properties":{"name":"LFCL RWY 15/33","layer":"Runways","category":"Runway Markings","object_type":"Line","style_id":"line.runway.centerline.runway.markings","airport":"LFCL","geometry_role":"runway_centerline","vsmr_group_ids":[[]]},"geometry":{"type":"LineString","coordinates":[[1.497174722,43.59],[1.501357778,43.583382778]]}},{"type":"Feature","id":"lfcl.line.linework.runway.concrete.45068","properties":{"name":"LFCL Groundlayout Toulouse Lasborde","layer":"Ground linework","category":"Runway Concrete","object_type":"Line","style_id":"line.linework.runway.concrete","airport":"LFCL","geometry_role":"linework","vsmr_group_ids":[[]]},"geometry":{"type":"MultiLineString","coordinates":[[[1.49925,43.590694444],[1.503472222,43.584111111]],[[1.495138889,43.589305556],[1.499333333,43.582694444]],[[1.49925,43.590694444],[1.495138889,43.589305556]],[[1.503472222,43.584111111],[1.499333333,43.582694444]]]}},{"type":"Feature","id":"LFCL-airport-reference","properties":{"name":"LFCL","layer":"Reference points","category":"Labels","object_type":"Point","style_id":"point.airport.reference.point.labels","airport":"LFCL","geometry_role":"airport_reference_point","text-field":"LFCL","vsmr_group_ids":[[]]},"geometry":{"type":"Point","coordinates":[1.498610833,43.587777778]}},{"type":"Feature","id":"LFCL-text-lfbb-21994","properties":{"name":"AE","layer":"Labels","category":"Labels","object_type":"Label","style_id":"label.text.label.labels","airport":"LFCL","geometry_role":"text_label","text-field":"AE","vsmr_group_ids":[[]]},"geometry":{"type":"Point","coordinates":[1.661388889,43.693888889]}},{"type":"Feature","id":"LFCL-text-lfbb-21995","properties":{"name":"DS","layer":"Labels","category":"Labels","object_type":"Label","style_id":"label.text.label.labels","airport":"LFCL","geometry_role":"text_label","text-field":"DS","vsmr_group_ids":[[]]},"geometry":{"type":"Point","coordinates":[1.608333333,43.548055556]}},{"type":"Feature","id":"LFCL-text-lfbb-21996","properties":{"name":"DN","layer":"Labels","category":"Labels","object_type":"Label","style_id":"label.text.label.labels","airport":"LFCL","geometry_role":"text_label","text-field":"DN","vsmr_group_ids":[[]]},"geometry":{"type":"Point","coordinates":[1.524722222,43.654166667]}}]}
