{"type":"FeatureCollection","name":"LFCN AVISO","bbox":[-0.041827778,43.7683,-0.033852778,43.774118889],"metadata":{"schema":"vSMR AVISO","schema_version":2,"airport":"LFCN","coordinate_reference_system":"WGS84","coordinate_order":"longitude, latitude","default_color_palette":"night","color_palettes":["night","day"],"feature_count":2,"style_count":2,"layer_counts":{"Reference points":1,"Runways":1},"category_counts":{"Labels":1,"Runway Markings":1}},"styles":{"line.runway.centerline.runway.markings":{"name":"Runway Markings","layer":"Runways","object_type":"Line","paint":{"stroke":"#FEFEFE","stroke-opacity":1.0,"stroke-width":1.5},"feature_count":1},"point.airport.reference.point.labels":{"name":"Labels","layer":"Reference points","object_type":"Point","paint":{"marker-color":"#808080","marker-size":"small"},"feature_count":1}},"features":[{"type":"Feature","id":"LFCN-runway-14-32-4842","properties":{"name":"LFCN RWY 14/32","layer":"Runways","category":"Runway Markings","object_type":"Line","style_id":"line.runway.centerline.runway.markings","airport":"LFCN","geometry_role":"runway_centerline","vsmr_group_ids":[[]]},"geometry":{"type":"LineString","coordinates":[[-0.041827778,43.774118889],[-0.033852778,43.7683]]}},{"type":"Feature","id":"LFCN-airport-reference","properties":{"name":"LFCN","layer":"Reference points","category":"Labels","object_type":"Point","style_id":"point.airport.reference.point.labels","airport":"LFCN","geometry_role":"airport_reference_point","text-field":"LFCN","vsmr_group_ids":[[]]},"geometry":{"type":"Point","coordinates":[-0.034721944,43.768888889]}}]}
