{"type":"FeatureCollection","name":"LFCO AVISO","bbox":[-0.567963889,43.162110833,-0.559968889,43.164171944],"metadata":{"schema":"vSMR AVISO","schema_version":2,"airport":"LFCO","coordinate_reference_system":"WGS84","coordinate_order":"longitude, latitude","feature_count":2,"style_count":2,"layer_counts":{"Reference points":1,"Runways":1},"category_counts":{"Labels":1,"Runway Markings":1}},"styles":{"line.runway.centerline.runway.markings":{"name":"Runway Markings","layer":"Runways","object_type":"Line","paint":{"stroke":"#FEFEFE","stroke-opacity":1.0,"stroke-width":1.5},"feature_count":1},"point.airport.reference.point.labels":{"name":"Labels","layer":"Reference points","object_type":"Point","paint":{"marker-color":"#808080","marker-size":"small"},"feature_count":1}},"features":[{"type":"Feature","id":"LFCO-runway-07-25-4843","properties":{"name":"LFCO RWY 07/25","layer":"Runways","category":"Runway Markings","object_type":"Line","style_id":"line.runway.centerline.runway.markings","airport":"LFCO","geometry_role":"runway_centerline","vsmr_group_ids":[[]]},"geometry":{"type":"LineString","coordinates":[[-0.567963889,43.162110833],[-0.559968889,43.164171944]]}},{"type":"Feature","id":"LFCO-airport-reference","properties":{"name":"LFCO","layer":"Reference points","category":"Labels","object_type":"Point","style_id":"point.airport.reference.point.labels","airport":"LFCO","geometry_role":"airport_reference_point","text-field":"LFCO","vsmr_group_ids":[[]]},"geometry":{"type":"Point","coordinates":[-0.561388889,43.163610833]}}]}
