{"type":"FeatureCollection","name":"LFCQ AVISO","bbox":[2.006468889,43.768252778,2.014149722,43.769368889],"metadata":{"schema":"vSMR AVISO","schema_version":2,"airport":"LFCQ","coordinate_reference_system":"WGS84","coordinate_order":"longitude, latitude","feature_count":3,"style_count":2,"layer_counts":{"Reference points":1,"Runways":2},"category_counts":{"Labels":1,"Runway Markings":2}},"styles":{"line.runway.centerline.runway.markings":{"name":"Runway Markings","layer":"Runways","object_type":"Line","paint":{"stroke":"#FEFEFE","stroke-opacity":1.0,"stroke-width":1.5},"feature_count":2},"point.airport.reference.point.labels":{"name":"Labels","layer":"Reference points","object_type":"Point","paint":{"marker-color":"#808080","marker-size":"small"},"feature_count":1}},"features":[{"type":"Feature","id":"LFCQ-runway-09L-27R-4845","properties":{"name":"LFCQ RWY 09L/27R","layer":"Runways","category":"Runway Markings","object_type":"Line","style_id":"line.runway.centerline.runway.markings","airport":"LFCQ","geometry_role":"runway_centerline","vsmr_group_ids":[[]]},"geometry":{"type":"LineString","coordinates":[[2.007168889,43.769368889],[2.013246944,43.768921944]]}},{"type":"Feature","id":"LFCQ-runway-09-27-4846","properties":{"name":"LFCQ RWY 09/27","layer":"Runways","category":"Runway Markings","object_type":"Line","style_id":"line.runway.centerline.runway.markings","airport":"LFCQ","geometry_role":"runway_centerline","vsmr_group_ids":[[]]},"geometry":{"type":"LineString","coordinates":[[2.006468889,43.768827778],[2.014149722,43.768252778]]}},{"type":"Feature","id":"LFCQ-airport-reference","properties":{"name":"LFCQ","layer":"Reference points","category":"Labels","object_type":"Point","style_id":"point.airport.reference.point.labels","airport":"LFCQ","geometry_role":"airport_reference_point","text-field":"LFCQ","vsmr_group_ids":[[]]},"geometry":{"type":"Point","coordinates":[2.007777778,43.768610833]}}]}
