{"type":"FeatureCollection","name":"LFCR AVISO","bbox":[2.236111111,44.277777778,2.741944444,44.471666667],"metadata":{"schema":"vSMR AVISO","schema_version":2,"airport":"LFCR","coordinate_reference_system":"WGS84","coordinate_order":"longitude, latitude","default_color_palette":"night","color_palettes":["night","day"],"background_colors":{"night":"#434A4F","day":"#434A4F"},"feature_count":40,"style_count":10,"layer_counts":{"Airfield surfaces":14,"Ground linework":1,"Labels":23,"Reference points":1,"Runways":1},"category_counts":{"Building":8,"Gras Surface":1,"Hard Surface2":1,"Hard Surface3":1,"Labels":24,"Runway Concrete":2,"Runway Markings":1,"Stopbar":1,"Taxiway":1}},"styles":{"area.filled.region.building":{"name":"Building","layer":"Airfield surfaces","object_type":"Area","paint":{"fill":"#394446","fill-opacity":1.0,"stroke":"#394446","stroke-opacity":1.0,"stroke-width":0.5},"feature_count":8},"area.filled.region.gras.surface":{"name":"Gras Surface","layer":"Airfield surfaces","object_type":"Area","paint":{"fill":"#00512F","fill-opacity":1.0,"stroke":"#00512F","stroke-opacity":1.0,"stroke-width":0.5},"feature_count":1},"area.filled.region.hard.surface2":{"name":"Hard Surface2","layer":"Airfield surfaces","object_type":"Area","paint":{"fill":"#595E5B","fill-opacity":1.0,"stroke":"#595E5B","stroke-opacity":1.0,"stroke-width":0.5},"feature_count":1},"area.filled.region.hard.surface3":{"name":"Hard Surface3","layer":"Airfield surfaces","object_type":"Area","paint":{"fill":"#8A807F","fill-opacity":1.0,"stroke":"#8A807F","stroke-opacity":1.0,"stroke-width":0.5},"feature_count":1},"area.filled.region.runway.concrete":{"name":"Runway Concrete","layer":"Airfield surfaces","object_type":"Area","paint":{"fill":"#111318","fill-opacity":1.0,"stroke":"#111318","stroke-opacity":1.0,"stroke-width":0.5},"feature_count":2},"area.filled.region.stopbar":{"name":"Stopbar","layer":"Airfield surfaces","object_type":"Area","paint":{"fill":"#7E0000","fill-opacity":1.0,"stroke":"#7E0000","stroke-opacity":1.0,"stroke-width":0.5},"feature_count":1},"label.text.label.labels":{"name":"Labels","layer":"Labels","object_type":"Label","paint":{"text-anchor":"center","text-color":"#CCCCCC","text-halo-color":"#000000","text-halo-width":1,"text-size":12,"zoomLevel":11},"feature_count":23},"line.linework.taxiway":{"name":"Taxiway","layer":"Ground linework","object_type":"Line","paint":{"stroke":"#4E5A69","stroke-opacity":1.0,"stroke-width":1.5},"feature_count":1},"line.runway.centerline.runway.markings":{"name":"Runway Markings","layer":"Runways","object_type":"Line","paint":{"stroke":"#FEFEFE","stroke-opacity":1.0,"stroke-width":1.5},"feature_count":1},"point.airport.reference.point.labels":{"name":"Labels","layer":"Reference points","object_type":"Point","paint":{"marker-color":"#808080","marker-size":"small"},"feature_count":1}},"features":[{"type":"Feature","id":"lfcr.area.filled.region.gras.surface.82379","properties":{"name":"LFCR AVISO","layer":"Airfield surfaces","category":"Gras Surface","object_type":"Area","style_id":"area.filled.region.gras.surface","airport":"LFCR","geometry_role":"filled_region","vsmr_group_ids":[]},"geometry":{"type":"Polygon","coordinates":[[[2.491923889,44.400793889],[2.492088056,44.400723333],[2.492870833,44.401468056],[2.493718611,44.400999167],[2.494403889,44.401589167],[2.493616944,44.402034722],[2.494430833,44.402874444],[2.493451389,44.403395278],[2.490676111,44.4048925],[2.4901375,44.405293333],[2.489811389,44.405578333],[2.4893425,44.405805833],[2.486606667,44.407516111],[2.4865825,44.407557222],[2.486569722,44.407610278],[2.486591111,44.407670278],[2.486653889,44.407742778],[2.4867425,44.407831667],[2.486810833,44.407901389],[2.486945278,44.408031389],[2.486995833,44.408124722],[2.487000278,44.408241111],[2.4869675,44.4083425],[2.486920278,44.408421667],[2.486798333,44.408513611],[2.486736389,44.408600833],[2.487241667,44.409071389],[2.486784167,44.409369167],[2.486540278,44.409509444],[2.486386944,44.409661111],[2.485725833,44.410150556],[2.485598889,44.410231389],[2.485389444,44.410312222],[2.485319722,44.410298056],[2.484958056,44.409945556],[2.484646667,44.410114167],[2.483661111,44.410639167],[2.482818333,44.411087778],[2.481620833,44.4118975],[2.481536944,44.411895833],[2.481401389,44.411818611],[2.478452778,44.413521667],[2.477085,44.414010278],[2.475964167,44.41464],[2.475712778,44.4146575],[2.475521667,44.414643889],[2.475366389,44.414625556],[2.475218333,44.414575833],[2.475065556,44.414520833],[2.474821111,44.414451389],[2.474555278,44.414389167],[2.474208611,44.414303056],[2.473931111,44.414244444],[2.473796389,44.414217222],[2.473545556,44.414258056],[2.473209722,44.414309444],[2.472982778,44.414333611],[2.472665833,44.414374444],[2.472335278,44.414443056],[2.472155,44.414517778],[2.47174,44.4147275],[2.471535556,44.414836667],[2.471258333,44.414624444],[2.470958611,44.414378889],[2.470863333,44.414258333],[2.47078,44.414108611],[2.470115833,44.413331667],[2.469893056,44.412513056],[2.482321389,44.405059722],[2.483206111,44.404633056],[2.484674444,44.403915556],[2.485360833,44.403671667],[2.486232222,44.403236667],[2.48696,44.402624444],[2.487533333,44.402178611],[2.48824,44.401698056],[2.4888375,44.401203333],[2.489392222,44.400972222],[2.489983889,44.40072],[2.490585556,44.400556944],[2.491085556,44.400418889],[2.491466944,44.400504167],[2.4916625,44.400551389],[2.491769444,44.400696111],[2.491923889,44.400793889]]]}},{"type":"Feature","id":"lfcr.area.filled.region.hard.surface3.82464","properties":{"name":"LFCR AVISO","layer":"Airfield surfaces","category":"Hard Surface3","object_type":"Area","style_id":"area.filled.region.hard.surface3","airport":"LFCR","geometry_role":"filled_region","vsmr_group_ids":[]},"geometry":{"type":"Polygon","coordinates":[[[2.486385833,44.409009444],[2.486315556,44.409050556],[2.485798056,44.409385556],[2.485661667,44.409255833],[2.485291667,44.409476944],[2.485201667,44.409395833],[2.484803056,44.409631944],[2.484658889,44.409830833],[2.484810556,44.409998056],[2.482836667,44.411082778],[2.482544722,44.410851111],[2.483329722,44.410374167],[2.4831325,44.410203056],[2.483291389,44.409778056],[2.484665833,44.408991389],[2.484921111,44.4087175],[2.485593889,44.408327778],[2.4854225,44.408174167],[2.485709444,44.408005278],[2.48648,44.408686111],[2.486208889,44.408859722],[2.486385833,44.409009444]]]}},{"type":"Feature","id":"lfcr.area.filled.region.hard.surface2.82486","properties":{"name":"LFCR AVISO","layer":"Airfield surfaces","category":"Hard Surface2","object_type":"Area","style_id":"area.filled.region.hard.surface2","airport":"LFCR","geometry_role":"filled_region","vsmr_group_ids":[]},"geometry":{"type":"Polygon","coordinates":[[[2.484428333,44.408312778],[2.484564444,44.408366389],[2.484669722,44.408393056],[2.48479,44.408401111],[2.484884167,44.408400556],[2.484992778,44.408378611],[2.485119722,44.408345],[2.485240833,44.408285833],[2.485422222,44.408173889],[2.485602222,44.408329167],[2.485602222,44.408328056],[2.485600556,44.408325556],[2.4856025,44.408326667],[2.4856025,44.408325556],[2.485605833,44.408326667],[2.485604167,44.408328056],[2.485602222,44.408328056],[2.485604167,44.408325556],[2.485600556,44.408326667],[2.485602222,44.408328056],[2.485602222,44.408330556],[2.485602222,44.408329167],[2.485600556,44.408326667],[2.485600556,44.408325556],[2.4856025,44.408324167],[2.4856025,44.408327222],[2.4856025,44.408327222],[2.484921944,44.408715833],[2.484656111,44.409000833],[2.483909444,44.409428611],[2.483291944,44.409775833],[2.483133611,44.410196944],[2.483032778,44.410102778],[2.482855278,44.410659722],[2.482536111,44.410857222],[2.482565,44.410883611],[2.4824575,44.411030833],[2.48245,44.411089722],[2.482491389,44.4111425],[2.482515556,44.411165556],[2.482395556,44.4112375],[2.482319167,44.411182778],[2.481544444,44.411635556],[2.481343333,44.411771667],[2.481113611,44.411601944],[2.481083611,44.411529444],[2.481035278,44.411446944],[2.482770556,44.410453889],[2.483002222,44.409723056],[2.483042778,44.409608611],[2.483085,44.409545],[2.483175,44.409488611],[2.483254167,44.409442222],[2.484043333,44.408973611],[2.484148333,44.408893889],[2.484196111,44.408829167],[2.484226389,44.408765],[2.484235278,44.408696389],[2.484242222,44.408634167],[2.484239167,44.408584722],[2.484222778,44.408544722],[2.484200833,44.408482222],[2.484167778,44.408438611],[2.484110278,44.408381667],[2.483926944,44.408214722],[2.484151389,44.408085],[2.484428333,44.408312778]]]}},{"type":"Feature","id":"lfcr.area.filled.region.runway.concrete.82553","properties":{"name":"LFCR AVISO","layer":"Airfield surfaces","category":"Runway Concrete","object_type":"Area","style_id":"area.filled.region.runway.concrete","airport":"LFCR","geometry_role":"filled_region","vsmr_group_ids":[]},"geometry":{"type":"Polygon","coordinates":[[[2.472385833,44.413613056],[2.472460556,44.413534722],[2.492489167,44.401957778],[2.4928925,44.402309722],[2.492895,44.402368056],[2.492876667,44.402428056],[2.492847778,44.402488056],[2.492803889,44.402549722],[2.492751111,44.402587778],[2.492698333,44.402596389],[2.492647222,44.402598889],[2.492517222,44.402610278],[2.492413611,44.402615556],[2.492296944,44.402638333],[2.492198333,44.402658056],[2.492116111,44.402690556],[2.484048611,44.407355],[2.4839525,44.407442222],[2.4838925,44.407527778],[2.4838625,44.407611111],[2.483858333,44.407701111],[2.483864444,44.407779167],[2.483901667,44.407840556],[2.483945833,44.407904167],[2.483986944,44.407948889],[2.484043611,44.407998889],[2.484145278,44.408079722],[2.483915,44.408206389],[2.483830833,44.408130833],[2.483776667,44.408081389],[2.483704444,44.408031944],[2.483631111,44.407999444],[2.483550278,44.407970278],[2.483423611,44.407935278],[2.483264167,44.407923333],[2.483118611,44.407931667],[2.483011389,44.407966667],[2.482939167,44.4079875],[2.472732778,44.413899167],[2.472385833,44.413613056]]]}},{"type":"Feature","id":"lfcr.area.filled.region.runway.concrete.82593","properties":{"name":"LFCR AVISO","layer":"Airfield surfaces","category":"Runway Concrete","object_type":"Area","style_id":"area.filled.region.runway.concrete","airport":"LFCR","geometry_role":"filled_region","vsmr_group_ids":[]},"geometry":{"type":"Polygon","coordinates":[[[2.473332778,44.413795],[2.473255556,44.413839722],[2.473174722,44.413859167],[2.473109444,44.413862778],[2.472995278,44.413854444],[2.472939167,44.413845],[2.472824722,44.413846111],[2.473544167,44.413430278],[2.473332778,44.413795]]]}},{"type":"Feature","id":"lfcr.area.filled.region.building.82602","properties":{"name":"LFCR AVISO","layer":"Airfield surfaces","category":"Building","object_type":"Area","style_id":"area.filled.region.building","airport":"LFCR","geometry_role":"filled_region","vsmr_group_ids":[]},"geometry":{"type":"Polygon","coordinates":[[[2.486876944,44.409035278],[2.486734722,44.409123333],[2.486576389,44.4089775],[2.4867275,44.4088875],[2.486876944,44.409035278]]]}},{"type":"Feature","id":"lfcr.area.filled.region.building.82607","properties":{"name":"LFCR AVISO","layer":"Airfield surfaces","category":"Building","object_type":"Area","style_id":"area.filled.region.building","airport":"LFCR","geometry_role":"filled_region","vsmr_group_ids":[]},"geometry":{"type":"Polygon","coordinates":[[[2.486225278,44.409103611],[2.485961667,44.409269444],[2.485924722,44.409229167],[2.485883056,44.409259167],[2.485787222,44.409170278],[2.485861111,44.409115833],[2.485782222,44.409040833],[2.4858475,44.409002222],[2.485911111,44.409056389],[2.486074722,44.408965833],[2.486225278,44.409103611]]]}},{"type":"Feature","id":"lfcr.area.filled.region.building.82618","properties":{"name":"LFCR AVISO","layer":"Airfield surfaces","category":"Building","object_type":"Area","style_id":"area.filled.region.building","airport":"LFCR","geometry_role":"filled_region","vsmr_group_ids":[]},"geometry":{"type":"Polygon","coordinates":[[[2.4859,44.409463056],[2.485853611,44.409493056],[2.485891944,44.409536111],[2.485631667,44.409696111],[2.485702778,44.409766667],[2.485259167,44.410034444],[2.485203056,44.409979167],[2.485187222,44.409994167],[2.484793333,44.409632778],[2.485202222,44.409392778],[2.485219167,44.409408333],[2.485293056,44.409473056],[2.485659722,44.4092575],[2.4859,44.409463056]]]}},{"type":"Feature","id":"lfcr.area.filled.region.building.82632","properties":{"name":"LFCR AVISO","layer":"Airfield surfaces","category":"Building","object_type":"Area","style_id":"area.filled.region.building","airport":"LFCR","geometry_role":"filled_region","vsmr_group_ids":[]},"geometry":{"type":"Polygon","coordinates":[[[2.484553056,44.409966111],[2.484374722,44.410086667],[2.484366944,44.410061667],[2.484346111,44.410058611],[2.484344444,44.410044722],[2.484311111,44.410043056],[2.484294444,44.410081944],[2.484330833,44.410132222],[2.484303333,44.410155833],[2.484286111,44.410153056],[2.484292222,44.410125833],[2.484199167,44.410116667],[2.484197222,44.410094722],[2.484143611,44.410044167],[2.484445556,44.409865556],[2.484553056,44.409966111]]]}},{"type":"Feature","id":"lfcr.area.filled.region.building.82648","properties":{"name":"LFCR AVISO","layer":"Airfield surfaces","category":"Building","object_type":"Area","style_id":"area.filled.region.building","airport":"LFCR","geometry_role":"filled_region","vsmr_group_ids":[]},"geometry":{"type":"Polygon","coordinates":[[[2.484158611,44.410098889],[2.484156667,44.410127778],[2.484190278,44.410126944],[2.484236944,44.410163056],[2.48425,44.410170556],[2.484245,44.410203611],[2.484083889,44.4101975],[2.484077778,44.410167778],[2.484077222,44.410158611],[2.484063889,44.410165556],[2.484053333,44.410156389],[2.484024167,44.410171944],[2.483955278,44.410113056],[2.484026944,44.410066111],[2.484058611,44.410092778],[2.484111944,44.410062778],[2.484158611,44.410098889]]]}},{"type":"Feature","id":"lfcr.area.filled.region.building.82665","properties":{"name":"LFCR AVISO","layer":"Airfield surfaces","category":"Building","object_type":"Area","style_id":"area.filled.region.building","airport":"LFCR","geometry_role":"filled_region","vsmr_group_ids":[]},"geometry":{"type":"Polygon","coordinates":[[[2.484075,44.410230833],[2.483886111,44.410342778],[2.483870278,44.410341944],[2.483841389,44.410538333],[2.483725833,44.410531389],[2.483720556,44.41055],[2.4836025,44.410540833],[2.483606111,44.410518889],[2.483548333,44.410516111],[2.483585556,44.410309167],[2.483823889,44.410317222],[2.4837925,44.410282778],[2.484004444,44.410156944],[2.484025,44.4101725],[2.484075,44.410230833]]]}},{"type":"Feature","id":"lfcr.area.filled.region.building.82680","properties":{"name":"LFCR AVISO","layer":"Airfield surfaces","category":"Building","object_type":"Area","style_id":"area.filled.region.building","airport":"LFCR","geometry_role":"filled_region","vsmr_group_ids":[]},"geometry":{"type":"Polygon","coordinates":[[[2.483628056,44.41064],[2.483657778,44.410670556],[2.483622222,44.410706389],[2.483577222,44.410748611],[2.483530556,44.410784167],[2.483481111,44.410820556],[2.483414444,44.410862778],[2.483359167,44.410888611],[2.483310278,44.4109125],[2.483239722,44.410941944],[2.48318,44.410964444],[2.483096667,44.4109525],[2.483085556,44.410949722],[2.483073333,44.410951944],[2.482850556,44.411082222],[2.482623889,44.410879167],[2.482737778,44.410815],[2.482722222,44.410798611],[2.482885556,44.410709167],[2.482873333,44.410696111],[2.482898333,44.410681389],[2.482911389,44.410694167],[2.4830775,44.410599444],[2.483060278,44.410585833],[2.483083056,44.410573611],[2.483098611,44.410585],[2.483319167,44.410456389],[2.483407778,44.410535278],[2.483458333,44.410521111],[2.483496944,44.410513056],[2.483631111,44.410626667],[2.483628056,44.41064]]]}},{"type":"Feature","id":"lfcr.area.filled.region.building.82712","properties":{"name":"LFCR AVISO","layer":"Airfield surfaces","category":"Building","object_type":"Area","style_id":"area.filled.region.building","airport":"LFCR","geometry_role":"filled_region","vsmr_group_ids":[]},"geometry":{"type":"Polygon","coordinates":[[[2.482481944,44.411341667],[2.482471111,44.411348333],[2.482527222,44.411394722],[2.482055833,44.411665556],[2.482006111,44.411618889],[2.481696111,44.411795278],[2.481524722,44.411642778],[2.482318611,44.411187222],[2.482481944,44.411341667]]]}},{"type":"Feature","id":"lfcr.area.filled.region.stopbar.82721","properties":{"name":"LFCR AVISO","layer":"Airfield surfaces","category":"Stopbar","object_type":"Area","style_id":"area.filled.region.stopbar","airport":"LFCR","geometry_role":"filled_region","vsmr_group_ids":[]},"geometry":{"type":"Polygon","coordinates":[[[2.484151667,44.408085],[2.483926667,44.408215833],[2.483904167,44.408198333],[2.48413,44.408066111],[2.484151667,44.408085]]]}},{"type":"Feature","id":"LFCR-runway-13-31-4950","properties":{"name":"LFCR RWY 13/31","layer":"Runways","category":"Runway Markings","object_type":"Line","style_id":"line.runway.centerline.runway.markings","airport":"LFCR","geometry_role":"runway_centerline","vsmr_group_ids":[]},"geometry":{"type":"LineString","coordinates":[[2.472660833,44.413657778],[2.492127778,44.402388889]]}},{"type":"Feature","id":"lfcr.line.linework.taxiway.61082","properties":{"name":"LFCR Groundlayout AVISO","layer":"Ground linework","category":"Taxiway","object_type":"Line","style_id":"line.linework.taxiway","airport":"LFCR","geometry_role":"linework","vsmr_group_ids":[]},"geometry":{"type":"MultiLineString","coordinates":[[[2.484515278,44.406834167],[2.483955,44.407156389]],[[2.483955,44.407156389],[2.483848056,44.407223333]],[[2.483848056,44.407223333],[2.483784722,44.407276667]],[[2.483784722,44.407276667],[2.483741389,44.407327778]],[[2.483741389,44.407327778],[2.483698889,44.407388889]],[[2.483698889,44.407388889],[2.483670278,44.407442222]],[[2.483670278,44.407442222],[2.483646944,44.407510278]],[[2.483646944,44.407510278],[2.483639167,44.407558611]],[[2.483639167,44.407558611],[2.483635278,44.407614722]],[[2.483635278,44.407614722],[2.483643611,44.407674167]],[[2.483643611,44.407674167],[2.483661944,44.407738889]],[[2.483661944,44.407738889],[2.483688889,44.407799722]],[[2.483688889,44.407799722],[2.483714722,44.407841389]],[[2.483714722,44.407841389],[2.483744722,44.407883056]],[[2.483744722,44.407883056],[2.483782778,44.407922778]],[[2.483782778,44.407922778],[2.483826944,44.407965556]],[[2.483826944,44.407965556],[2.484013889,44.408131389]],[[2.484013889,44.408131389],[2.484258889,44.408344722]],[[2.484258889,44.408344722],[2.484384444,44.408423056]],[[2.484384444,44.408423056],[2.484440556,44.40845]],[[2.484440556,44.40845],[2.484509722,44.40847]],[[2.484509722,44.40847],[2.484568333,44.408483333]],[[2.484568333,44.408483333],[2.484614444,44.408492222]],[[2.484614444,44.408492222],[2.484659167,44.408497778]],[[2.484659167,44.408497778],[2.484698889,44.408499722]],[[2.484698889,44.408499722],[2.484753333,44.408499444]],[[2.484753333,44.408499444],[2.484809444,44.408496667]],[[2.484809444,44.408496667],[2.484852222,44.408490556]],[[2.484852222,44.408490556],[2.484896944,44.408483611]],[[2.484896944,44.408483611],[2.484935,44.408475278]],[[2.484935,44.408475278],[2.484965,44.408466111]],[[2.482146389,44.408206667],[2.482766389,44.407848333]],[[2.482766389,44.407848333],[2.482855833,44.407806389]],[[2.482855833,44.407806389],[2.482928889,44.407784722]],[[2.482928889,44.407784722],[2.482990833,44.407769722]],[[2.482990833,44.407769722],[2.483039722,44.407759722]],[[2.483039722,44.407759722],[2.483101667,44.407751667]],[[2.483101667,44.407751667],[2.483156111,44.407746944]],[[2.483156111,44.407746944],[2.483215556,44.407744444]],[[2.483215556,44.407744444],[2.483279444,44.407746667]],[[2.483279444,44.407746667],[2.483349444,44.407753056]],[[2.483349444,44.407753056],[2.483434167,44.4077675]],[[2.483434167,44.4077675],[2.483504167,44.407785278]],[[2.483504167,44.407785278],[2.483551667,44.407798611]],[[2.483551667,44.407798611],[2.483606667,44.4078225]],[[2.483606667,44.4078225],[2.483672222,44.407853611]],[[2.483672222,44.407853611],[2.483721944,44.407880833]],[[2.483721944,44.407880833],[2.483791111,44.407930556]],[[2.484229167,44.4083175],[2.4844675,44.408534167]],[[2.4844675,44.408534167],[2.484484722,44.408560833]],[[2.484484722,44.408560833],[2.484495278,44.408579722]],[[2.484495278,44.408579722],[2.484505278,44.408603889]],[[2.484505278,44.408603889],[2.484511389,44.408626944]],[[2.484511389,44.408626944],[2.484514722,44.408645833]],[[2.484514722,44.408645833],[2.484515,44.408685556]],[[2.484515,44.408685556],[2.484510278,44.408719444]],[[2.484510278,44.408719444],[2.484497222,44.408754167]],[[2.484497222,44.408754167],[2.484479722,44.408785833]],[[2.484479722,44.408785833],[2.484463889,44.408807222]],[[2.484463889,44.408807222],[2.484440833,44.408831389]],[[2.484440833,44.408831389],[2.484421111,44.408848889]],[[2.484421111,44.408848889],[2.484388056,44.408871667]],[[2.484388056,44.408871667],[2.484038889,44.409071667]],[[2.484038889,44.409071667],[2.483299167,44.409496111]],[[2.483299167,44.409496111],[2.483242222,44.409535]],[[2.483242222,44.409535],[2.483196667,44.409580278]],[[2.483196667,44.409580278],[2.483161389,44.409619722]],[[2.483161389,44.409619722],[2.483137778,44.409653611]],[[2.483137778,44.409653611],[2.48312,44.409691389]],[[2.48312,44.409691389],[2.483086944,44.409753056]],[[2.483086944,44.409753056],[2.482859167,44.410395278]],[[2.482859167,44.410395278],[2.482841667,44.410431111]],[[2.482841667,44.410431111],[2.482822222,44.410460556]],[[2.482822222,44.410460556],[2.482802778,44.410481944]],[[2.482802778,44.410481944],[2.4827675,44.410511111]],[[2.4827675,44.410511111],[2.482737222,44.410530278]],[[2.482737222,44.410530278],[2.481298056,44.411359167]],[[2.484513611,44.408638056],[2.484529444,44.40866]],[[2.484529444,44.40866],[2.484534167,44.408667222]],[[2.484534167,44.408667222],[2.484548889,44.408683333]],[[2.484548889,44.408683333],[2.484568056,44.408700278]],[[2.484568056,44.408700278],[2.484601667,44.408730556]],[[2.484601667,44.408730556],[2.484678056,44.408799444]],[[2.484678056,44.408799444],[2.485214167,44.409278333]],[[2.4851225,44.409191944],[2.485819444,44.408791667]],[[2.485076111,44.409152778],[2.485772222,44.408753056]],[[2.484955833,44.409046667],[2.485648333,44.408645]],[[2.485526111,44.408529444],[2.484828889,44.408933889]],[[2.484966111,44.408464722],[2.485013333,44.408450833]],[[2.485013333,44.408450833],[2.485046111,44.408438333]],[[2.485046111,44.408438333],[2.485083056,44.4084225]],[[2.485083056,44.4084225],[2.485192222,44.408365556]],[[2.485192222,44.408365556],[2.485229444,44.408359722]],[[2.485229444,44.408359722],[2.485256389,44.408358611]],[[2.485256389,44.408358611],[2.485283611,44.408359722]],[[2.485283611,44.408359722],[2.485315556,44.408366944]],[[2.485315556,44.408366944],[2.485349167,44.408382222]],[[2.485349167,44.408382222],[2.485385,44.408407778]],[[2.485385,44.408407778],[2.4857725,44.408754722]],[[2.4857725,44.408754722],[2.485848889,44.408814167]],[[2.484382222,44.409570556],[2.48456,44.409130556]],[[2.48456,44.409130556],[2.484569444,44.409105278]],[[2.484569444,44.409105278],[2.484572778,44.409076667]],[[2.484572778,44.409076667],[2.484569722,44.409046111]],[[2.484569722,44.409046111],[2.484566111,44.409005556]],[[2.484566111,44.409005556],[2.484553333,44.408919722]],[[2.483598056,44.410028333],[2.483726389,44.409562778]],[[2.483726389,44.409562778],[2.483736667,44.409511111]],[[2.483736667,44.409511111],[2.483736944,44.409481944]],[[2.483736944,44.409481944],[2.483735,44.40946]],[[2.483735,44.40946],[2.483731111,44.409441667]],[[2.483731111,44.409441667],[2.483731111,44.409440556]],[[2.483128889,44.409671111],[2.483682778,44.410159722]],[[2.4838725,44.409180833],[2.484439722,44.409684167]],[[2.482844444,44.410225556],[2.482987222,44.410247778]],[[2.483976944,44.409024444],[2.484087222,44.409121111]],[[2.485010833,44.408521389],[2.484936667,44.408398611]]]}},{"type":"Feature","id":"LFCR-airport-reference","properties":{"name":"LFCR","layer":"Reference points","category":"Labels","object_type":"Point","style_id":"point.airport.reference.point.labels","airport":"LFCR","geometry_role":"airport_reference_point","text-field":"LFCR","vsmr_group_ids":[]},"geometry":{"type":"Point","coordinates":[2.483332778,44.407499722]}},{"type":"Feature","id":"LFCR-text-lfmm-19928","properties":{"name":"1","layer":"Labels","category":"Labels","object_type":"Label","style_id":"label.text.label.labels","airport":"LFCR","geometry_role":"text_label","text-field":"1","vsmr_group_ids":[]},"geometry":{"type":"Point","coordinates":[2.483795833,44.409643056]}},{"type":"Feature","id":"LFCR-text-lfmm-19929","properties":{"name":"2","layer":"Labels","category":"Labels","object_type":"Label","style_id":"label.text.label.labels","airport":"LFCR","geometry_role":"text_label","text-field":"2","vsmr_group_ids":[]},"geometry":{"type":"Point","coordinates":[2.484556944,44.409359722]}},{"type":"Feature","id":"LFCR-text-lfmm-19930","properties":{"name":"3","layer":"Labels","category":"Labels","object_type":"Label","style_id":"label.text.label.labels","airport":"LFCR","geometry_role":"text_label","text-field":"3","vsmr_group_ids":[]},"geometry":{"type":"Point","coordinates":[2.484972222,44.408856944]}},{"type":"Feature","id":"LFCR-text-lfmm-19931","properties":{"name":"4","layer":"Labels","category":"Labels","object_type":"Label","style_id":"label.text.label.labels","airport":"LFCR","geometry_role":"text_label","text-field":"4","vsmr_group_ids":[]},"geometry":{"type":"Point","coordinates":[2.4849875,44.408970833]}},{"type":"Feature","id":"LFCR-text-lfmm-19932","properties":{"name":"5","layer":"Labels","category":"Labels","object_type":"Label","style_id":"label.text.label.labels","airport":"LFCR","geometry_role":"text_label","text-field":"5","vsmr_group_ids":[]},"geometry":{"type":"Point","coordinates":[2.485166667,44.409131944]}},{"type":"Feature","id":"LFCR-text-lfmm-19933","properties":{"name":"7","layer":"Labels","category":"Labels","object_type":"Label","style_id":"label.text.label.labels","airport":"LFCR","geometry_role":"text_label","text-field":"7","vsmr_group_ids":[]},"geometry":{"type":"Point","coordinates":[2.485459722,44.4085125]}},{"type":"Feature","id":"LFCR-text-lfmm-19934","properties":{"name":"8","layer":"Labels","category":"Labels","object_type":"Label","style_id":"label.text.label.labels","airport":"LFCR","geometry_role":"text_label","text-field":"8","vsmr_group_ids":[]},"geometry":{"type":"Point","coordinates":[2.485779167,44.408651389]}},{"type":"Feature","id":"LFCR-text-lfmm-19935","properties":{"name":"9","layer":"Labels","category":"Labels","object_type":"Label","style_id":"label.text.label.labels","airport":"LFCR","geometry_role":"text_label","text-field":"9","vsmr_group_ids":[]},"geometry":{"type":"Point","coordinates":[2.485768056,44.408787222]}},{"type":"Feature","id":"LFCR-text-lfmm-19936","properties":{"name":"Hangar","layer":"Labels","category":"Labels","object_type":"Label","style_id":"label.text.label.labels","airport":"LFCR","geometry_role":"text_label","text-field":"Hangar","vsmr_group_ids":[]},"geometry":{"type":"Point","coordinates":[2.482013889,44.411461111]}},{"type":"Feature","id":"LFCR-text-lfmm-19937","properties":{"name":"Hangar","layer":"Labels","category":"Labels","object_type":"Label","style_id":"label.text.label.labels","airport":"LFCR","geometry_role":"text_label","text-field":"Hangar","vsmr_group_ids":[]},"geometry":{"type":"Point","coordinates":[2.485244444,44.409636111]}},{"type":"Feature","id":"LFCR-text-lfmm-19938","properties":{"name":"AVT","layer":"Labels","category":"Labels","object_type":"Label","style_id":"label.text.label.labels","airport":"LFCR","geometry_role":"text_label","text-field":"AVT","vsmr_group_ids":[]},"geometry":{"type":"Point","coordinates":[2.481415278,44.411645833]}},{"type":"Feature","id":"LFCR-text-lfmm-19939","properties":{"name":"TWR","layer":"Labels","category":"Labels","object_type":"Label","style_id":"label.text.label.labels","airport":"LFCR","geometry_role":"text_label","text-field":"TWR","vsmr_group_ids":[]},"geometry":{"type":"Point","coordinates":[2.483726389,44.410418056]}},{"type":"Feature","id":"LFCR-text-lfmm-19940","properties":{"name":"Terminal","layer":"Labels","category":"Labels","object_type":"Label","style_id":"label.text.label.labels","airport":"LFCR","geometry_role":"text_label","text-field":"Terminal","vsmr_group_ids":[]},"geometry":{"type":"Point","coordinates":[2.483259722,44.4107125]}},{"type":"Feature","id":"LFCR-text-lfmm-19942","properties":{"name":"S","layer":"Labels","category":"Labels","object_type":"Label","style_id":"label.text.label.labels","airport":"LFCR","geometry_role":"text_label","text-field":"S","vsmr_group_ids":[]},"geometry":{"type":"Point","coordinates":[2.427777778,44.277777778]}},{"type":"Feature","id":"LFCR-text-lfmm-19943","properties":{"name":"N","layer":"Labels","category":"Labels","object_type":"Label","style_id":"label.text.label.labels","airport":"LFCR","geometry_role":"text_label","text-field":"N","vsmr_group_ids":[]},"geometry":{"type":"Point","coordinates":[2.722777778,44.471666667]}},{"type":"Feature","id":"LFCR-text-lfmm-19944","properties":{"name":"W","layer":"Labels","category":"Labels","object_type":"Label","style_id":"label.text.label.labels","airport":"LFCR","geometry_role":"text_label","text-field":"W","vsmr_group_ids":[]},"geometry":{"type":"Point","coordinates":[2.236111111,44.376111111]}},{"type":"Feature","id":"LFCR-text-lfmm-19945","properties":{"name":"E","layer":"Labels","category":"Labels","object_type":"Label","style_id":"label.text.label.labels","airport":"LFCR","geometry_role":"text_label","text-field":"E","vsmr_group_ids":[]},"geometry":{"type":"Point","coordinates":[2.741944444,44.4075]}},{"type":"Feature","id":"LFCR-text-lfmm-19946","properties":{"name":"SA","layer":"Labels","category":"Labels","object_type":"Label","style_id":"label.text.label.labels","airport":"LFCR","geometry_role":"text_label","text-field":"SA","vsmr_group_ids":[]},"geometry":{"type":"Point","coordinates":[2.441111111,44.344444444]}},{"type":"Feature","id":"LFCR-text-lfmm-19947","properties":{"name":"EA","layer":"Labels","category":"Labels","object_type":"Label","style_id":"label.text.label.labels","airport":"LFCR","geometry_role":"text_label","text-field":"EA","vsmr_group_ids":[]},"geometry":{"type":"Point","coordinates":[2.604166667,44.408055556]}},{"type":"Feature","id":"LFCR-text-lfmm-19949","properties":{"name":"C","layer":"Labels","category":"Labels","object_type":"Label","style_id":"label.text.label.labels","airport":"LFCR","geometry_role":"text_label","text-field":"C","vsmr_group_ids":[]},"geometry":{"type":"Point","coordinates":[2.483801389,44.408270833]}},{"type":"Feature","id":"LFCR-text-lfmm-19950","properties":{"name":"A1","layer":"Labels","category":"Labels","object_type":"Label","style_id":"label.text.label.labels","airport":"LFCR","geometry_role":"text_label","text-field":"A1","vsmr_group_ids":[]},"geometry":{"type":"Point","coordinates":[2.484023611,44.409106944]}},{"type":"Feature","id":"LFCR-text-lfmm-19951","properties":{"name":"A2","layer":"Labels","category":"Labels","object_type":"Label","style_id":"label.text.label.labels","airport":"LFCR","geometry_role":"text_label","text-field":"A2","vsmr_group_ids":[]},"geometry":{"type":"Point","coordinates":[2.485029167,44.408470833]}},{"type":"Feature","id":"LFCR-text-lfmm-19952","properties":{"name":"A3","layer":"Labels","category":"Labels","object_type":"Label","style_id":"label.text.label.labels","airport":"LFCR","geometry_role":"text_label","text-field":"A3","vsmr_group_ids":[]},"geometry":{"type":"Point","coordinates":[2.482945833,44.410268056]}}]}
