{"type":"FeatureCollection","name":"LFCS AVISO","bbox":[-0.599843889,44.694141944,-0.594166944,44.701796944],"metadata":{"schema":"vSMR AVISO","schema_version":2,"airport":"LFCS","coordinate_reference_system":"WGS84","coordinate_order":"longitude, latitude","feature_count":3,"style_count":2,"layer_counts":{"Reference points":1,"Runways":2},"category_counts":{"Labels":1,"Runway Markings":2}},"styles":{"line.runway.centerline.runway.markings":{"name":"Runway Markings","layer":"Runways","object_type":"Line","paint":{"stroke":"#FEFEFE","stroke-opacity":1.0,"stroke-width":1.5},"feature_count":2},"point.airport.reference.point.labels":{"name":"Labels","layer":"Reference points","object_type":"Point","paint":{"marker-color":"#808080","marker-size":"small"},"feature_count":1}},"features":[{"type":"Feature","id":"LFCS-runway-03R-21L-4847","properties":{"name":"LFCS RWY 03R/21L","layer":"Runways","category":"Runway Markings","object_type":"Line","style_id":"line.runway.centerline.runway.markings","airport":"LFCS","geometry_role":"runway_centerline","vsmr_group_ids":[[]]},"geometry":{"type":"LineString","coordinates":[[-0.599385833,44.694141944],[-0.594166944,44.700027778]]}},{"type":"Feature","id":"LFCS-runway-03-21-4848","properties":{"name":"LFCS RWY 03/21","layer":"Runways","category":"Runway Markings","object_type":"Line","style_id":"line.runway.centerline.runway.markings","airport":"LFCS","geometry_role":"runway_centerline","vsmr_group_ids":[[]]},"geometry":{"type":"LineString","coordinates":[[-0.599843889,44.69615],[-0.594843889,44.701796944]]}},{"type":"Feature","id":"LFCS-airport-reference","properties":{"name":"LFCS","layer":"Reference points","category":"Labels","object_type":"Point","style_id":"point.airport.reference.point.labels","airport":"LFCS","geometry_role":"airport_reference_point","text-field":"LFCS","vsmr_group_ids":[[]]},"geometry":{"type":"Point","coordinates":[-0.597221944,44.699166944]}}]}
