{"type":"FeatureCollection","name":"LFCT AVISO","bbox":[-0.159349722,46.959085833,-0.149049722,46.962943889],"metadata":{"schema":"vSMR AVISO","schema_version":2,"airport":"LFCT","coordinate_reference_system":"WGS84","coordinate_order":"longitude, latitude","feature_count":2,"style_count":2,"layer_counts":{"Reference points":1,"Runways":1},"category_counts":{"Labels":1,"Runway Markings":1}},"styles":{"line.runway.centerline.runway.markings":{"name":"Runway Markings","layer":"Runways","object_type":"Line","paint":{"stroke":"#FEFEFE","stroke-opacity":1.0,"stroke-width":1.5},"feature_count":1},"point.airport.reference.point.labels":{"name":"Labels","layer":"Reference points","object_type":"Point","paint":{"marker-color":"#808080","marker-size":"small"},"feature_count":1}},"features":[{"type":"Feature","id":"LFCT-runway-12-30-4849","properties":{"name":"LFCT RWY 12/30","layer":"Runways","category":"Runway Markings","object_type":"Line","style_id":"line.runway.centerline.runway.markings","airport":"LFCT","geometry_role":"runway_centerline","vsmr_group_ids":[[]]},"geometry":{"type":"LineString","coordinates":[[-0.159349722,46.962943889],[-0.149049722,46.959085833]]}},{"type":"Feature","id":"LFCT-airport-reference","properties":{"name":"LFCT","layer":"Reference points","category":"Labels","object_type":"Point","style_id":"point.airport.reference.point.labels","airport":"LFCT","geometry_role":"airport_reference_point","text-field":"LFCT","vsmr_group_ids":[[]]},"geometry":{"type":"Point","coordinates":[-0.152777778,46.961943889]}}]}
