{"type":"FeatureCollection","name":"LFCU AVISO","bbox":[2.416277778,45.534927778,2.433252778,45.536885833],"metadata":{"schema":"vSMR AVISO","schema_version":2,"airport":"LFCU","coordinate_reference_system":"WGS84","coordinate_order":"longitude, latitude","default_color_palette":"night","color_palettes":["night","day"],"background_colors":{"night":"#434A4F","day":"#434A4F"},"feature_count":3,"style_count":2,"layer_counts":{"Reference points":1,"Runways":2},"category_counts":{"Labels":1,"Runway Markings":2}},"styles":{"line.runway.centerline.runway.markings":{"name":"Runway Markings","layer":"Runways","object_type":"Line","paint":{"stroke":"#FEFEFE","stroke-opacity":1.0,"stroke-width":1.5},"feature_count":2},"point.airport.reference.point.labels":{"name":"Labels","layer":"Reference points","object_type":"Point","paint":{"marker-color":"#808080","marker-size":"small"},"feature_count":1}},"features":[{"type":"Feature","id":"LFCU-runway-10R-28L-4850","properties":{"name":"LFCU RWY 10R/28L","layer":"Runways","category":"Runway Markings","object_type":"Line","style_id":"line.runway.centerline.runway.markings","airport":"LFCU","geometry_role":"runway_centerline","vsmr_group_ids":[]},"geometry":{"type":"LineString","coordinates":[[2.418682778,45.536238889],[2.430046944,45.534930833]]}},{"type":"Feature","id":"LFCU-runway-10-28-4851","properties":{"name":"LFCU RWY 10/28","layer":"Runways","category":"Runway Markings","object_type":"Line","style_id":"line.runway.centerline.runway.markings","airport":"LFCU","geometry_role":"runway_centerline","vsmr_group_ids":[]},"geometry":{"type":"LineString","coordinates":[[2.416277778,45.536885833],[2.433252778,45.534927778]]}},{"type":"Feature","id":"LFCU-airport-reference","properties":{"name":"LFCU","layer":"Reference points","category":"Labels","object_type":"Point","style_id":"point.airport.reference.point.labels","airport":"LFCU","geometry_role":"airport_reference_point","text-field":"LFCU","vsmr_group_ids":[]},"geometry":{"type":"Point","coordinates":[2.424721944,45.535832778]}}]}
