{"type":"FeatureCollection","name":"LFCV AVISO","bbox":[2.021825,44.366385833,2.031168889,44.371816944],"metadata":{"schema":"vSMR AVISO","schema_version":2,"airport":"LFCV","coordinate_reference_system":"WGS84","coordinate_order":"longitude, latitude","feature_count":2,"style_count":2,"layer_counts":{"Reference points":1,"Runways":1},"category_counts":{"Labels":1,"Runway Markings":1}},"styles":{"line.runway.centerline.runway.markings":{"name":"Runway Markings","layer":"Runways","object_type":"Line","paint":{"stroke":"#FEFEFE","stroke-opacity":1.0,"stroke-width":1.5},"feature_count":1},"point.airport.reference.point.labels":{"name":"Labels","layer":"Reference points","object_type":"Point","paint":{"marker-color":"#808080","marker-size":"small"},"feature_count":1}},"features":[{"type":"Feature","id":"LFCV-runway-13-31-4852","properties":{"name":"LFCV RWY 13/31","layer":"Runways","category":"Runway Markings","object_type":"Line","style_id":"line.runway.centerline.runway.markings","airport":"LFCV","geometry_role":"runway_centerline","vsmr_group_ids":[[]]},"geometry":{"type":"LineString","coordinates":[[2.021825,44.371816944],[2.031168889,44.366385833]]}},{"type":"Feature","id":"LFCV-airport-reference","properties":{"name":"LFCV","layer":"Reference points","category":"Labels","object_type":"Point","style_id":"point.airport.reference.point.labels","airport":"LFCV","geometry_role":"airport_reference_point","text-field":"LFCV","vsmr_group_ids":[[]]},"geometry":{"type":"Point","coordinates":[2.026943889,44.368888889]}}]}
