{"type":"FeatureCollection","name":"LFCX AVISO","bbox":[1.122382778,44.084946944,1.133396944,44.087096944],"metadata":{"schema":"vSMR AVISO","schema_version":2,"airport":"LFCX","coordinate_reference_system":"WGS84","coordinate_order":"longitude, latitude","default_color_palette":"night","color_palettes":["night","day"],"feature_count":3,"style_count":2,"layer_counts":{"Reference points":1,"Runways":2},"category_counts":{"Labels":1,"Runway Markings":2}},"styles":{"line.runway.centerline.runway.markings":{"name":"Runway Markings","layer":"Runways","object_type":"Line","paint":{"stroke":"#FEFEFE","stroke-opacity":1.0,"stroke-width":1.5},"feature_count":2},"point.airport.reference.point.labels":{"name":"Labels","layer":"Reference points","object_type":"Point","paint":{"marker-color":"#808080","marker-size":"small"},"feature_count":1}},"features":[{"type":"Feature","id":"LFCX-runway-10L-28R-4854","properties":{"name":"LFCX RWY 10L/28R","layer":"Runways","category":"Runway Markings","object_type":"Line","style_id":"line.runway.centerline.runway.markings","airport":"LFCX","geometry_role":"runway_centerline","vsmr_group_ids":[[]]},"geometry":{"type":"LineString","coordinates":[[1.122777778,44.087096944],[1.133385833,44.085480833]]}},{"type":"Feature","id":"LFCX-runway-10-28-4855","properties":{"name":"LFCX RWY 10/28","layer":"Runways","category":"Runway Markings","object_type":"Line","style_id":"line.runway.centerline.runway.markings","airport":"LFCX","geometry_role":"runway_centerline","vsmr_group_ids":[[]]},"geometry":{"type":"LineString","coordinates":[[1.122382778,44.086630833],[1.133396944,44.084946944]]}},{"type":"Feature","id":"LFCX-airport-reference","properties":{"name":"LFCX","layer":"Reference points","category":"Labels","object_type":"Point","style_id":"point.airport.reference.point.labels","airport":"LFCX","geometry_role":"airport_reference_point","text-field":"LFCX","vsmr_group_ids":[[]]},"geometry":{"type":"Point","coordinates":[1.126943889,44.085832778]}}]}
