{"type":"FeatureCollection","name":"LFDA AVISO","bbox":[-0.251518889,43.707413889,-0.2457,43.709413889],"metadata":{"schema":"vSMR AVISO","schema_version":2,"airport":"LFDA","coordinate_reference_system":"WGS84","coordinate_order":"longitude, latitude","feature_count":2,"style_count":2,"layer_counts":{"Reference points":1,"Runways":1},"category_counts":{"Labels":1,"Runway Markings":1}},"styles":{"line.runway.centerline.runway.markings":{"name":"Runway Markings","layer":"Runways","object_type":"Line","paint":{"stroke":"#FEFEFE","stroke-opacity":1.0,"stroke-width":1.5},"feature_count":1},"point.airport.reference.point.labels":{"name":"Labels","layer":"Reference points","object_type":"Point","paint":{"marker-color":"#808080","marker-size":"small"},"feature_count":1}},"features":[{"type":"Feature","id":"LFDA-runway-12-30-4857","properties":{"name":"LFDA RWY 12/30","layer":"Runways","category":"Runway Markings","object_type":"Line","style_id":"line.runway.centerline.runway.markings","airport":"LFDA","geometry_role":"runway_centerline","vsmr_group_ids":[[]]},"geometry":{"type":"LineString","coordinates":[[-0.251518889,43.709413889],[-0.2457,43.707413889]]}},{"type":"Feature","id":"LFDA-airport-reference","properties":{"name":"LFDA","layer":"Reference points","category":"Labels","object_type":"Point","style_id":"point.airport.reference.point.labels","airport":"LFDA","geometry_role":"airport_reference_point","text-field":"LFDA","vsmr_group_ids":[[]]},"geometry":{"type":"Point","coordinates":[-0.247221944,43.708610833]}}]}
