{"type":"FeatureCollection","name":"LFDC AVISO","bbox":[-0.455585833,45.270332778,-0.451043889,45.276688889],"metadata":{"schema":"vSMR AVISO","schema_version":2,"airport":"LFDC","coordinate_reference_system":"WGS84","coordinate_order":"longitude, latitude","default_color_palette":"night","color_palettes":["night","day"],"background_colors":{"night":"#434A4F","day":"#434A4F"},"feature_count":2,"style_count":2,"layer_counts":{"Reference points":1,"Runways":1},"category_counts":{"Labels":1,"Runway Markings":1}},"styles":{"line.runway.centerline.runway.markings":{"name":"Runway Markings","layer":"Runways","object_type":"Line","paint":{"stroke":"#FEFEFE","stroke-opacity":1.0,"stroke-width":1.5},"feature_count":1},"point.airport.reference.point.labels":{"name":"Labels","layer":"Reference points","object_type":"Point","paint":{"marker-color":"#808080","marker-size":"small"},"feature_count":1}},"features":[{"type":"Feature","id":"LFDC-runway-15-33-4859","properties":{"name":"LFDC RWY 15/33","layer":"Runways","category":"Runway Markings","object_type":"Line","style_id":"line.runway.centerline.runway.markings","airport":"LFDC","geometry_role":"runway_centerline","vsmr_group_ids":[]},"geometry":{"type":"LineString","coordinates":[[-0.455585833,45.276688889],[-0.451043889,45.270332778]]}},{"type":"Feature","id":"LFDC-airport-reference","properties":{"name":"LFDC","layer":"Reference points","category":"Labels","object_type":"Point","style_id":"point.airport.reference.point.labels","airport":"LFDC","geometry_role":"airport_reference_point","text-field":"LFDC","vsmr_group_ids":[]},"geometry":{"type":"Point","coordinates":[-0.453332778,45.273610833]}}]}
