{"type":"FeatureCollection","name":"LFDG AVISO","bbox":[1.868838889,43.881666944,1.879625,43.884232778],"metadata":{"schema":"vSMR AVISO","schema_version":2,"airport":"LFDG","coordinate_reference_system":"WGS84","coordinate_order":"longitude, latitude","default_color_palette":"night","color_palettes":["night","day"],"feature_count":2,"style_count":2,"layer_counts":{"Reference points":1,"Runways":1},"category_counts":{"Labels":1,"Runway Markings":1}},"styles":{"line.runway.centerline.runway.markings":{"name":"Runway Markings","layer":"Runways","object_type":"Line","paint":{"stroke":"#FEFEFE","stroke-opacity":1.0,"stroke-width":1.5},"feature_count":1},"point.airport.reference.point.labels":{"name":"Labels","layer":"Reference points","object_type":"Point","paint":{"marker-color":"#808080","marker-size":"small"},"feature_count":1}},"features":[{"type":"Feature","id":"LFDG-runway-07-25-4862","properties":{"name":"LFDG RWY 07/25","layer":"Runways","category":"Runway Markings","object_type":"Line","style_id":"line.runway.centerline.runway.markings","airport":"LFDG","geometry_role":"runway_centerline","vsmr_group_ids":[[]]},"geometry":{"type":"LineString","coordinates":[[1.868838889,43.881666944],[1.879625,43.884232778]]}},{"type":"Feature","id":"LFDG-airport-reference","properties":{"name":"LFDG","layer":"Reference points","category":"Labels","object_type":"Point","style_id":"point.airport.reference.point.labels","airport":"LFDG","geometry_role":"airport_reference_point","text-field":"LFDG","vsmr_group_ids":[[]]},"geometry":{"type":"Point","coordinates":[1.874166944,43.883055833]}}]}
