{"type":"FeatureCollection","name":"LFDI AVISO","bbox":[-0.140096944,44.981288889,-0.134952778,44.986435833],"metadata":{"schema":"vSMR AVISO","schema_version":2,"airport":"LFDI","coordinate_reference_system":"WGS84","coordinate_order":"longitude, latitude","feature_count":2,"style_count":2,"layer_counts":{"Reference points":1,"Runways":1},"category_counts":{"Labels":1,"Runway Markings":1}},"styles":{"line.runway.centerline.runway.markings":{"name":"Runway Markings","layer":"Runways","object_type":"Line","paint":{"stroke":"#FEFEFE","stroke-opacity":1.0,"stroke-width":1.5},"feature_count":1},"point.airport.reference.point.labels":{"name":"Labels","layer":"Reference points","object_type":"Point","paint":{"marker-color":"#808080","marker-size":"small"},"feature_count":1}},"features":[{"type":"Feature","id":"LFDI-runway-04-22-4863","properties":{"name":"LFDI RWY 04/22","layer":"Runways","category":"Runway Markings","object_type":"Line","style_id":"line.runway.centerline.runway.markings","airport":"LFDI","geometry_role":"runway_centerline","vsmr_group_ids":[[]]},"geometry":{"type":"LineString","coordinates":[[-0.140096944,44.981288889],[-0.134952778,44.986435833]]}},{"type":"Feature","id":"LFDI-airport-reference","properties":{"name":"LFDI","layer":"Reference points","category":"Labels","object_type":"Point","style_id":"point.airport.reference.point.labels","airport":"LFDI","geometry_role":"airport_reference_point","text-field":"LFDI","vsmr_group_ids":[[]]},"geometry":{"type":"Point","coordinates":[-0.137221944,44.984166944]}}]}
