{"type":"FeatureCollection","name":"LFDJ AVISO","bbox":[1.689966944,43.090277778,1.705944444,43.092805556],"metadata":{"schema":"vSMR AVISO","schema_version":2,"geometry_mode":"shared","airport":"LFDJ","coordinate_reference_system":"WGS84","coordinate_order":"longitude, latitude","default_color_palette":"dark","color_palettes":["dark","light"],"background_colors":{"dark":"#434A4F","light":"#434A4F"},"feature_count":8,"style_count":5,"layer_counts":{"Guidance lines":3,"Labels":4,"Runways":1},"category_counts":{"Apron Surface":1,"Gates":4,"Runway centerlines":1,"Runways":1,"Taxiways":1},"runways":[{"ends":["09","27"],"headings":[91,271],"thresholds":[[1.689966944,43.090843889],[1.705918889,43.090405833]]}],"saved_active_runways":[],"saved_active_airport_modes":[],"geometry_source":"EuroScope sector pack","source_files":{"LFBB.sct":"fc92f16bc65e3a10b9aeb0cf4d1cae1add9856a4f4f2f653af5abaa0d98c77ed","LFBB.ese":"c7c252d4a274f6fd98bcefd2364b7bb9799385a6e602b62ccbe85cc32042ef62","LFBB.rwy":"d9387919da6406482f154f391ab2d20783610a60930f986e160686134ea8a7df","LFEE.sct":"10fcc997213ee24336ef8bd37f3a9423cb07bbdfb57b1494c61b8310b9641d8a","LFEE.ese":"3391dc3a47130a4a8c12ab895a6743c77668044183634bd45d425513ef5baa2f","LFFF.sct":"cb6698888ce3e8e8be34ea45922976a5fb3ebe1baef7814f040c91785f8641f2","LFFF.ese":"0c1e64c4a0524a6cdc30766699492d362f78011da36daeacfde4597a1761b64c","LFFF.rwy":"a12900bf1f18188caf2e598c44e55b2c0c6fb2c66cee43ff843cbe216617ae96","LFMM.sct":"fc0d266315a59cb027803be613657d9e9875a2a4b912535d08d1c7892a53b194","LFMM.ese":"6a319d7f7c1c2f7e457ae789f4aae2feafec03b24f5d3d95752e96922a971c9e","LFMM.rwy":"236563995d9b5be668ee3fc8d653cf8f33f20a511137652b197e5877b85d5693","LFRR.sct":"c5a55173543154d388eb65309d606b41ac5da09af59142e69878a4cde03add83","LFRR.ese":"e4542200e8322297f954327131cfe6e73da3ac264cf5610ff6871309cd6eeb40"},"airport_reference":[1.695832778,43.090555833]},"styles":{"line.taxiway.c0b631":{"name":"Taxiways","layer":"Guidance lines","object_type":"Line","paint":{"stroke":"#4E5A69","stroke-opacity":1,"stroke-width":1,"palette-overrides":{"light":{"stroke":"#C0B631"}}},"feature_count":1},"line.runwayconcrete.555555":{"name":"Runways","layer":"Guidance lines","object_type":"Line","paint":{"stroke":"#111318","stroke-opacity":1,"stroke-width":1,"palette-overrides":{"light":{"stroke":"#555555"}}},"feature_count":1},"line.apronsurface.808080":{"name":"Apron Surface","layer":"Guidance lines","object_type":"Line","paint":{"stroke":"#808080","stroke-opacity":1,"stroke-width":1,"palette-overrides":{"light":{"stroke":"#808080"}}},"feature_count":1},"label.gates":{"name":"Gates","layer":"Labels","object_type":"Label","paint":{"text-color":"#CCCCCC","text-font":"Arial","text-size":12,"text-halo-color":"#000000","text-halo-width":1,"text-anchor":"center","zoomLevel":9},"feature_count":4},"runway.reference":{"name":"Runway centerlines","layer":"Runways","object_type":"Line","paint":{"stroke":"#CCCCCC","stroke-width":2,"stroke-opacity":1},"feature_count":1}},"vsmr_groups":[{"id":"stands-and-gates","name":"Stands & gates","visible":true,"accent":"#d4bd39"}],"features":[{"type":"Feature","id":"LFDJ-333884c24ee2b93e1cbc","properties":{"airport":"LFDJ","name":"LFDJ Groundlayout Pamiers","layer":"Guidance lines","category":"Taxiways","object_type":"Line","style_id":"line.taxiway.c0b631","source_group":"LFDJ Groundlayout Pamiers","vsmr_group_ids":[],"geometry_role":"linework"},"geometry":{"type":"MultiLineString","coordinates":[[[1.690083333,43.090972222],[1.690083333,43.091166667]],[[1.690333333,43.090972222],[1.690333333,43.091166667]],[[1.690083333,43.091166667],[1.690111111,43.092555556]],[[1.690333333,43.091166667],[1.690388889,43.092333333]],[[1.690111111,43.092555556],[1.695333333,43.092416667]],[[1.690388889,43.092333333],[1.695333333,43.092222222]],[[1.695333333,43.092416667],[1.696027778,43.092388889]],[[1.695333333,43.092222222],[1.69575,43.092194444]],[[1.696027778,43.092388889],[1.696027778,43.092138889]],[[1.69575,43.092194444],[1.69575,43.092027778]],[[1.696,43.091944444],[1.695972222,43.091]],[[1.69575,43.092027778],[1.695722222,43.091]],[[1.695972222,43.091],[1.695972222,43.090805556]],[[1.695722222,43.091],[1.695722222,43.090833333]],[[1.697111111,43.091916667],[1.696611111,43.091916667]],[[1.697111111,43.092083333],[1.696611111,43.092111111]],[[1.697111111,43.091916667],[1.697111111,43.092083333]],[[1.696611111,43.091916667],[1.696,43.091944444]],[[1.696611111,43.092111111],[1.696027778,43.092138889]]]}},{"type":"Feature","id":"LFDJ-5f56e89c0395bed7a826","properties":{"airport":"LFDJ","name":"LFDJ Groundlayout Pamiers","layer":"Guidance lines","category":"Runways","object_type":"Line","style_id":"line.runwayconcrete.555555","source_group":"LFDJ Groundlayout Pamiers","vsmr_group_ids":[],"geometry_role":"linework"},"geometry":{"type":"MultiLineString","coordinates":[[[1.705916667,43.090277778],[1.695833333,43.090555556]],[[1.705916667,43.090527778],[1.695972222,43.090805556]],[[1.705916667,43.090277778],[1.705916667,43.090527778]],[[1.695833333,43.090555556],[1.690194444,43.090694444]],[[1.695722222,43.090833333],[1.690333333,43.090972222]],[[1.690194444,43.090694444],[1.689972222,43.090722222]],[[1.690083333,43.090972222],[1.689972222,43.090972222]],[[1.689972222,43.090722222],[1.689972222,43.090972222]]]}},{"type":"Feature","id":"LFDJ-63fd197553b01eeeacc2","properties":{"airport":"LFDJ","name":"LFDJ Groundlayout Pamiers","layer":"Guidance lines","category":"Apron Surface","object_type":"Line","style_id":"line.apronsurface.808080","source_group":"LFDJ Groundlayout Pamiers","vsmr_group_ids":[],"geometry_role":"linework"},"geometry":{"type":"MultiLineString","coordinates":[[[1.693972222,43.092388889],[1.694361111,43.092555556],[1.694388889,43.092805556],[1.697583333,43.092722222],[1.697583333,43.0925],[1.696916667,43.092527778],[1.696916667,43.092361111],[1.698555556,43.092333333],[1.698555556,43.091888889],[1.695833333,43.091972222],[1.695861111,43.09225]],[[1.693972222,43.092388889],[1.695861111,43.09225]],[[1.695333333,43.09075],[1.695805556,43.091222222],[1.696305556,43.090722222]],[[1.695333333,43.09075],[1.696305556,43.090722222]],[[1.705944444,43.090472222],[1.705944444,43.090666667],[1.705916667,43.090777778],[1.705805556,43.090861111],[1.705666667,43.090861111],[1.705527778,43.090861111],[1.705388889,43.090777778],[1.705361111,43.090666667],[1.705333333,43.0905]],[[1.705944444,43.090472222],[1.705333333,43.0905]]]}},{"type":"Feature","id":"LFDJ-becd5da814b3b69ca269","properties":{"airport":"LFDJ","name":"1","layer":"Labels","category":"Gates","object_type":"Label","style_id":"label.gates","source_group":"LFDJ Gates","vsmr_group_ids":["stands-and-gates"],"geometry_role":"text_label","text-field":"1"},"geometry":{"type":"Point","coordinates":[1.695361111,43.092666667]}},{"type":"Feature","id":"LFDJ-206c1817b33336455638","properties":{"airport":"LFDJ","name":"2","layer":"Labels","category":"Gates","object_type":"Label","style_id":"label.gates","source_group":"LFDJ Gates","vsmr_group_ids":["stands-and-gates"],"geometry_role":"text_label","text-field":"2"},"geometry":{"type":"Point","coordinates":[1.695916667,43.092666667]}},{"type":"Feature","id":"LFDJ-7fd8a50aab161e9c6dd1","properties":{"airport":"LFDJ","name":"3","layer":"Labels","category":"Gates","object_type":"Label","style_id":"label.gates","source_group":"LFDJ Gates","vsmr_group_ids":["stands-and-gates"],"geometry_role":"text_label","text-field":"3"},"geometry":{"type":"Point","coordinates":[1.697138889,43.09225]}},{"type":"Feature","id":"LFDJ-f898a95eceb2b7de88ef","properties":{"airport":"LFDJ","name":"4","layer":"Labels","category":"Gates","object_type":"Label","style_id":"label.gates","source_group":"LFDJ Gates","vsmr_group_ids":["stands-and-gates"],"geometry_role":"text_label","text-field":"4"},"geometry":{"type":"Point","coordinates":[1.696611111,43.092277778]}},{"type":"Feature","id":"LFDJ-2d1a605bee46d07bad72","properties":{"airport":"LFDJ","name":"09/27","layer":"Runways","category":"Runway centerlines","object_type":"Line","style_id":"runway.reference","source_group":"LFDJ Runways","vsmr_group_ids":[],"geometry_role":"runway_centerline"},"geometry":{"type":"LineString","coordinates":[[1.689966944,43.090843889],[1.705918889,43.090405833]]}}]}
