{"type":"FeatureCollection","name":"LFDK AVISO","bbox":[-1.086610833,45.491202778,-1.080152778,45.495735833],"metadata":{"schema":"vSMR AVISO","schema_version":2,"airport":"LFDK","coordinate_reference_system":"WGS84","coordinate_order":"longitude, latitude","default_color_palette":"night","color_palettes":["night","day"],"feature_count":2,"style_count":2,"layer_counts":{"Reference points":1,"Runways":1},"category_counts":{"Labels":1,"Runway Markings":1}},"styles":{"line.runway.centerline.runway.markings":{"name":"Runway Markings","layer":"Runways","object_type":"Line","paint":{"stroke":"#FEFEFE","stroke-opacity":1.0,"stroke-width":1.5},"feature_count":1},"point.airport.reference.point.labels":{"name":"Labels","layer":"Reference points","object_type":"Point","paint":{"marker-color":"#808080","marker-size":"small"},"feature_count":1}},"features":[{"type":"Feature","id":"LFDK-runway-14-32-4864","properties":{"name":"LFDK RWY 14/32","layer":"Runways","category":"Runway Markings","object_type":"Line","style_id":"line.runway.centerline.runway.markings","airport":"LFDK","geometry_role":"runway_centerline","vsmr_group_ids":[[]]},"geometry":{"type":"LineString","coordinates":[[-1.086610833,45.495735833],[-1.080152778,45.491202778]]}},{"type":"Feature","id":"LFDK-airport-reference","properties":{"name":"LFDK","layer":"Reference points","category":"Labels","object_type":"Point","style_id":"point.airport.reference.point.labels","airport":"LFDK","geometry_role":"airport_reference_point","text-field":"LFDK","vsmr_group_ids":[[]]},"geometry":{"type":"Point","coordinates":[-1.083888889,45.493888889]}}]}
