{"type":"FeatureCollection","name":"LFDL AVISO","bbox":[0.0978,47.035718889,0.106021944,47.036425],"metadata":{"schema":"vSMR AVISO","schema_version":2,"airport":"LFDL","coordinate_reference_system":"WGS84","coordinate_order":"longitude, latitude","default_color_palette":"night","color_palettes":["night","day"],"feature_count":2,"style_count":2,"layer_counts":{"Reference points":1,"Runways":1},"category_counts":{"Labels":1,"Runway Markings":1}},"styles":{"line.runway.centerline.runway.markings":{"name":"Runway Markings","layer":"Runways","object_type":"Line","paint":{"stroke":"#FEFEFE","stroke-opacity":1.0,"stroke-width":1.5},"feature_count":1},"point.airport.reference.point.labels":{"name":"Labels","layer":"Reference points","object_type":"Point","paint":{"marker-color":"#808080","marker-size":"small"},"feature_count":1}},"features":[{"type":"Feature","id":"LFDL-runway-08-26-4865","properties":{"name":"LFDL RWY 08/26","layer":"Runways","category":"Runway Markings","object_type":"Line","style_id":"line.runway.centerline.runway.markings","airport":"LFDL","geometry_role":"runway_centerline","vsmr_group_ids":[]},"geometry":{"type":"LineString","coordinates":[[0.0978,47.035718889],[0.106021944,47.036425]]}},{"type":"Feature","id":"LFDL-airport-reference","properties":{"name":"LFDL","layer":"Reference points","category":"Labels","object_type":"Point","style_id":"point.airport.reference.point.labels","airport":"LFDL","geometry_role":"airport_reference_point","text-field":"LFDL","vsmr_group_ids":[]},"geometry":{"type":"Point","coordinates":[0.100832778,47.036110833]}}]}
