{"type":"FeatureCollection","name":"LFDM AVISO","bbox":[0.195541944,44.498027778,0.205152778,44.500735833],"metadata":{"schema":"vSMR AVISO","schema_version":2,"airport":"LFDM","coordinate_reference_system":"WGS84","coordinate_order":"longitude, latitude","feature_count":3,"style_count":2,"layer_counts":{"Reference points":1,"Runways":2},"category_counts":{"Labels":1,"Runway Markings":2}},"styles":{"line.runway.centerline.runway.markings":{"name":"Runway Markings","layer":"Runways","object_type":"Line","paint":{"stroke":"#FEFEFE","stroke-opacity":1.0,"stroke-width":1.5},"feature_count":2},"point.airport.reference.point.labels":{"name":"Labels","layer":"Reference points","object_type":"Point","paint":{"marker-color":"#808080","marker-size":"small"},"feature_count":1}},"features":[{"type":"Feature","id":"LFDM-runway-11L-29R-4866","properties":{"name":"LFDM RWY 11L/29R","layer":"Runways","category":"Runway Markings","object_type":"Line","style_id":"line.runway.centerline.runway.markings","airport":"LFDM","geometry_role":"runway_centerline","vsmr_group_ids":[[]]},"geometry":{"type":"LineString","coordinates":[[0.195557778,44.500735833],[0.204216944,44.498777778]]}},{"type":"Feature","id":"LFDM-runway-11-29-4867","properties":{"name":"LFDM RWY 11/29","layer":"Runways","category":"Runway Markings","object_type":"Line","style_id":"line.runway.centerline.runway.markings","airport":"LFDM","geometry_role":"runway_centerline","vsmr_group_ids":[[]]},"geometry":{"type":"LineString","coordinates":[[0.195541944,44.500202778],[0.205152778,44.498027778]]}},{"type":"Feature","id":"LFDM-airport-reference","properties":{"name":"LFDM","layer":"Reference points","category":"Labels","object_type":"Point","style_id":"point.airport.reference.point.labels","airport":"LFDM","geometry_role":"airport_reference_point","text-field":"LFDM","vsmr_group_ids":[[]]},"geometry":{"type":"Point","coordinates":[0.200277778,44.499166944]}}]}
