{"type":"FeatureCollection","name":"LFDN AVISO","bbox":[-0.997260833,45.883916667,-0.972416667,45.896171944],"metadata":{"schema":"vSMR AVISO","schema_version":2,"geometry_mode":"shared","airport":"LFDN","coordinate_reference_system":"WGS84","coordinate_order":"longitude, latitude","default_color_palette":"dark","color_palettes":["dark","light"],"background_colors":{"dark":"#434A4F","light":"#434A4F"},"feature_count":8,"style_count":5,"layer_counts":{"Guidance lines":3,"Labels":4,"Runways":1},"category_counts":{"Apron Surface":1,"Gates":4,"Runway centerlines":1,"Runways":1,"Taxiways":1},"runways":[{"ends":["12","30"],"headings":[122,302],"thresholds":[[-0.997260833,45.896171944],[-0.972518889,45.885113889]]}],"saved_active_runways":[],"saved_active_airport_modes":[],"geometry_source":"EuroScope sector pack","source_files":{"LFBB.sct":"fc92f16bc65e3a10b9aeb0cf4d1cae1add9856a4f4f2f653af5abaa0d98c77ed","LFBB.ese":"c7c252d4a274f6fd98bcefd2364b7bb9799385a6e602b62ccbe85cc32042ef62","LFBB.rwy":"d9387919da6406482f154f391ab2d20783610a60930f986e160686134ea8a7df","LFEE.sct":"10fcc997213ee24336ef8bd37f3a9423cb07bbdfb57b1494c61b8310b9641d8a","LFEE.ese":"3391dc3a47130a4a8c12ab895a6743c77668044183634bd45d425513ef5baa2f","LFFF.sct":"cb6698888ce3e8e8be34ea45922976a5fb3ebe1baef7814f040c91785f8641f2","LFFF.ese":"0c1e64c4a0524a6cdc30766699492d362f78011da36daeacfde4597a1761b64c","LFFF.rwy":"a12900bf1f18188caf2e598c44e55b2c0c6fb2c66cee43ff843cbe216617ae96","LFMM.sct":"fc0d266315a59cb027803be613657d9e9875a2a4b912535d08d1c7892a53b194","LFMM.ese":"6a319d7f7c1c2f7e457ae789f4aae2feafec03b24f5d3d95752e96922a971c9e","LFMM.rwy":"236563995d9b5be668ee3fc8d653cf8f33f20a511137652b197e5877b85d5693","LFRR.sct":"c5a55173543154d388eb65309d606b41ac5da09af59142e69878a4cde03add83","LFRR.ese":"e4542200e8322297f954327131cfe6e73da3ac264cf5610ff6871309cd6eeb40"},"airport_reference":[-0.982221944,45.889443889]},"styles":{"line.taxiway.c0b631":{"name":"Taxiways","layer":"Guidance lines","object_type":"Line","paint":{"stroke":"#4E5A69","stroke-opacity":1,"stroke-width":1,"palette-overrides":{"light":{"stroke":"#C0B631"}}},"feature_count":1},"line.runwayconcrete.555555":{"name":"Runways","layer":"Guidance lines","object_type":"Line","paint":{"stroke":"#111318","stroke-opacity":1,"stroke-width":1,"palette-overrides":{"light":{"stroke":"#555555"}}},"feature_count":1},"line.apronsurface.808080":{"name":"Apron Surface","layer":"Guidance lines","object_type":"Line","paint":{"stroke":"#808080","stroke-opacity":1,"stroke-width":1,"palette-overrides":{"light":{"stroke":"#808080"}}},"feature_count":1},"label.gates":{"name":"Gates","layer":"Labels","object_type":"Label","paint":{"text-color":"#CCCCCC","text-font":"Arial","text-size":12,"text-halo-color":"#000000","text-halo-width":1,"text-anchor":"center","zoomLevel":9},"feature_count":4},"runway.reference":{"name":"Runway centerlines","layer":"Runways","object_type":"Line","paint":{"stroke":"#CCCCCC","stroke-width":2,"stroke-opacity":1},"feature_count":1}},"vsmr_groups":[{"id":"stands-and-gates","name":"Stands & gates","visible":true,"accent":"#d4bd39"}],"features":[{"type":"Feature","id":"LFDN-1cc416da04c429cef3bf","properties":{"airport":"LFDN","name":"LFDN Groundlayout Rochefort Saint Agnant","layer":"Guidance lines","category":"Taxiways","object_type":"Line","style_id":"line.taxiway.c0b631","source_group":"LFDN Groundlayout Rochefort Saint Agnant","vsmr_group_ids":[],"geometry_role":"linework"},"geometry":{"type":"MultiLineString","coordinates":[[[-0.984972222,45.889166667],[-0.985111111,45.889]],[[-0.985194444,45.88925],[-0.985333333,45.889083333]],[[-0.985111111,45.889],[-0.985138889,45.888972222]],[[-0.985333333,45.889083333],[-0.9855,45.888916667]],[[-0.985138889,45.888972222],[-0.982583333,45.88775]],[[-0.9855,45.888916667],[-0.982722222,45.887583333]],[[-0.981527778,45.888972222],[-0.981666667,45.888833333]],[[-0.98175,45.889083333],[-0.981888889,45.888916667]],[[-0.981666667,45.888833333],[-0.982305556,45.888027778]],[[-0.981888889,45.888916667],[-0.982666667,45.887972222]],[[-0.982305556,45.888027778],[-0.981972222,45.887861111]],[[-0.982666667,45.887972222],[-0.982222222,45.88775]],[[-0.981972222,45.887861111],[-0.981666667,45.887722222]],[[-0.982,45.887666667],[-0.981916667,45.887611111]],[[-0.981666667,45.887722222],[-0.978055556,45.886138889]],[[-0.981694444,45.887527778],[-0.978083333,45.885916667]],[[-0.977833333,45.886027778],[-0.973666667,45.884194444]],[[-0.978083333,45.885916667],[-0.973583333,45.883916667]],[[-0.973666667,45.884194444],[-0.973027778,45.884972222]],[[-0.973583333,45.883916667],[-0.972805556,45.884861111]],[[-0.973027778,45.884972222],[-0.972888889,45.885138889]],[[-0.972805556,45.884861111],[-0.972666667,45.885027778]],[[-0.978055556,45.886138889],[-0.977416667,45.886916667]],[[-0.977833333,45.886027778],[-0.977166667,45.886805556]],[[-0.977416667,45.886916667],[-0.977277778,45.887083333]],[[-0.977166667,45.886805556],[-0.977027778,45.886972222]],[[-0.977083333,45.887305556],[-0.976944444,45.887472222]],[[-0.976833333,45.887194444],[-0.976694444,45.887388889]],[[-0.976944444,45.887472222],[-0.976444444,45.888055556]],[[-0.976694444,45.887388889],[-0.976222222,45.887944444]],[[-0.976444444,45.888055556],[-0.976222222,45.887944444]],[[-0.982111111,45.88675],[-0.982416667,45.886888889]],[[-0.981972222,45.886916667],[-0.982138889,45.887]],[[-0.982111111,45.88675],[-0.981972222,45.886916667]],[[-0.982416667,45.886888889],[-0.982694444,45.887]],[[-0.982388889,45.887111111],[-0.982444444,45.887111111]],[[-0.982694444,45.887],[-0.983055556,45.887166667]],[[-0.982666667,45.887222222],[-0.982888889,45.887333333]],[[-0.983055556,45.887166667],[-0.982888889,45.887333333]],[[-0.982666667,45.887222222],[-0.982472222,45.887472222]],[[-0.982444444,45.887111111],[-0.98225,45.887361111]],[[-0.982333333,45.887638889],[-0.982222222,45.88775]],[[-0.982111111,45.887527778],[-0.982,45.887666667]],[[-0.982388889,45.887111111],[-0.982194444,45.887333333]],[[-0.982138889,45.887],[-0.981888889,45.887305556]],[[-0.982055556,45.887472222],[-0.981916667,45.887611111]],[[-0.981888889,45.887305556],[-0.981694444,45.887527778]],[[-0.982194444,45.887333333],[-0.98225,45.887361111]],[[-0.982055556,45.887472222],[-0.982111111,45.887527778]],[[-0.982472222,45.887472222],[-0.982722222,45.887583333]],[[-0.982333333,45.887638889],[-0.982583333,45.88775]]]}},{"type":"Feature","id":"LFDN-633daf78a1fcebc5bc03","properties":{"airport":"LFDN","name":"LFDN Groundlayout Rochefort Saint Agnant","layer":"Guidance lines","category":"Runways","object_type":"Line","style_id":"line.runwayconcrete.555555","source_group":"LFDN Groundlayout Rochefort Saint Agnant","vsmr_group_ids":[],"geometry_role":"linework"},"geometry":{"type":"MultiLineString","coordinates":[[[-0.972611111,45.885],[-0.972666667,45.885027778]],[[-0.972416667,45.885222222],[-0.972583333,45.885305556]],[[-0.972611111,45.885],[-0.972416667,45.885222222]],[[-0.972888889,45.885138889],[-0.977027778,45.886972222]],[[-0.972583333,45.885305556],[-0.976833333,45.887194444]],[[-0.977277778,45.887083333],[-0.981527778,45.888972222]],[[-0.977083333,45.887305556],[-0.981444444,45.88925]],[[-0.98175,45.889083333],[-0.993222222,45.894194444]],[[-0.981444444,45.88925],[-0.993027778,45.894416667]],[[-0.993222222,45.894194444],[-0.993027778,45.894416667]],[[-0.984277778,45.889916667],[-0.984388889,45.889944444]],[[-0.984972222,45.889166667],[-0.984277778,45.889916667]],[[-0.985194444,45.88925],[-0.995805556,45.894055556]],[[-0.984388889,45.889944444],[-0.995111111,45.894805556]],[[-0.995805556,45.894055556],[-0.995111111,45.894805556]]]}},{"type":"Feature","id":"LFDN-395363a3c2b8ebdd538c","properties":{"airport":"LFDN","name":"LFDN Groundlayout Rochefort Saint Agnant","layer":"Guidance lines","category":"Apron Surface","object_type":"Line","style_id":"line.apronsurface.808080","source_group":"LFDN Groundlayout Rochefort Saint Agnant","vsmr_group_ids":[],"geometry_role":"linework"},"geometry":{"type":"MultiLineString","coordinates":[[[-0.982361111,45.888333333],[-0.982027778,45.887805556],[-0.981222222,45.887416667],[-0.982166667,45.886305556],[-0.983583333,45.886944444]],[[-0.982361111,45.888333333],[-0.983583333,45.886944444]],[[-0.978305556,45.886166667],[-0.977777778,45.886333333],[-0.977611111,45.885861111]],[[-0.978305556,45.886166667],[-0.977611111,45.885861111]],[[-0.976833333,45.887944444],[-0.976583333,45.887694444],[-0.976194444,45.887638889],[-0.975972222,45.887805556],[-0.975888889,45.888055556],[-0.976111111,45.888277778],[-0.9765,45.888333333],[-0.97675,45.888194444]],[[-0.976833333,45.887944444],[-0.97675,45.888194444]],[[-0.973111111,45.88525],[-0.973222222,45.885166667],[-0.97325,45.885055556],[-0.973194444,45.884944444],[-0.973083333,45.884888889],[-0.972944444,45.884805556],[-0.972694444,45.885083333]],[[-0.973111111,45.88525],[-0.972694444,45.885083333]],[[-0.993055556,45.894416667],[-0.992944444,45.894555556],[-0.992805556,45.894583333],[-0.992638889,45.894555556],[-0.9925,45.894444444],[-0.9925,45.894305556],[-0.992583333,45.894194444]],[[-0.993055556,45.894416667],[-0.992583333,45.894194444]]]}},{"type":"Feature","id":"LFDN-dcb23b6f8703823e9f64","properties":{"airport":"LFDN","name":"1","layer":"Labels","category":"Gates","object_type":"Label","style_id":"label.gates","source_group":"LFDN Gates","vsmr_group_ids":["stands-and-gates"],"geometry_role":"text_label","text-field":"1"},"geometry":{"type":"Point","coordinates":[-0.982333333,45.886527778]}},{"type":"Feature","id":"LFDN-4e8ce10d5f9c94dc134b","properties":{"airport":"LFDN","name":"2","layer":"Labels","category":"Gates","object_type":"Label","style_id":"label.gates","source_group":"LFDN Gates","vsmr_group_ids":["stands-and-gates"],"geometry_role":"text_label","text-field":"2"},"geometry":{"type":"Point","coordinates":[-0.983222222,45.886916667]}},{"type":"Feature","id":"LFDN-da8339b3f8dbf7165f16","properties":{"airport":"LFDN","name":"3","layer":"Labels","category":"Gates","object_type":"Label","style_id":"label.gates","source_group":"LFDN Gates","vsmr_group_ids":["stands-and-gates"],"geometry_role":"text_label","text-field":"3"},"geometry":{"type":"Point","coordinates":[-0.982888889,45.886777778]}},{"type":"Feature","id":"LFDN-f3b2989c2f4529187e52","properties":{"airport":"LFDN","name":"4","layer":"Labels","category":"Gates","object_type":"Label","style_id":"label.gates","source_group":"LFDN Gates","vsmr_group_ids":["stands-and-gates"],"geometry_role":"text_label","text-field":"4"},"geometry":{"type":"Point","coordinates":[-0.982611111,45.886638889]}},{"type":"Feature","id":"LFDN-7e75bfa2de2154537b0d","properties":{"airport":"LFDN","name":"12/30","layer":"Runways","category":"Runway centerlines","object_type":"Line","style_id":"runway.reference","source_group":"LFDN Runways","vsmr_group_ids":[],"geometry_role":"runway_centerline"},"geometry":{"type":"LineString","coordinates":[[-0.997260833,45.896171944],[-0.972518889,45.885113889]]}}]}
