{"type":"FeatureCollection","name":"LFDQ AVISO","bbox":[0.516627778,43.274730833,0.521805833,43.279638889],"metadata":{"schema":"vSMR AVISO","schema_version":2,"airport":"LFDQ","coordinate_reference_system":"WGS84","coordinate_order":"longitude, latitude","default_color_palette":"night","color_palettes":["night","day"],"feature_count":2,"style_count":2,"layer_counts":{"Reference points":1,"Runways":1},"category_counts":{"Labels":1,"Runway Markings":1}},"styles":{"line.runway.centerline.runway.markings":{"name":"Runway Markings","layer":"Runways","object_type":"Line","paint":{"stroke":"#FEFEFE","stroke-opacity":1.0,"stroke-width":1.5},"feature_count":1},"point.airport.reference.point.labels":{"name":"Labels","layer":"Reference points","object_type":"Point","paint":{"marker-color":"#808080","marker-size":"small"},"feature_count":1}},"features":[{"type":"Feature","id":"LFDQ-runway-04-22-4869","properties":{"name":"LFDQ RWY 04/22","layer":"Runways","category":"Runway Markings","object_type":"Line","style_id":"line.runway.centerline.runway.markings","airport":"LFDQ","geometry_role":"runway_centerline","vsmr_group_ids":[]},"geometry":{"type":"LineString","coordinates":[[0.516627778,43.274730833],[0.521805833,43.279638889]]}},{"type":"Feature","id":"LFDQ-airport-reference","properties":{"name":"LFDQ","layer":"Reference points","category":"Labels","object_type":"Point","style_id":"point.airport.reference.point.labels","airport":"LFDQ","geometry_role":"airport_reference_point","text-field":"LFDQ","vsmr_group_ids":[]},"geometry":{"type":"Point","coordinates":[0.519443889,43.2775]}}]}
