{"type":"FeatureCollection","name":"LFDS AVISO","bbox":[1.241796944,44.791016944,1.250910833,44.792685833],"metadata":{"schema":"vSMR AVISO","schema_version":2,"airport":"LFDS","coordinate_reference_system":"WGS84","coordinate_order":"longitude, latitude","default_color_palette":"night","color_palettes":["night","day"],"feature_count":2,"style_count":2,"layer_counts":{"Reference points":1,"Runways":1},"category_counts":{"Labels":1,"Runway Markings":1}},"styles":{"line.runway.centerline.runway.markings":{"name":"Runway Markings","layer":"Runways","object_type":"Line","paint":{"stroke":"#FEFEFE","stroke-opacity":1.0,"stroke-width":1.5},"feature_count":1},"point.airport.reference.point.labels":{"name":"Labels","layer":"Reference points","object_type":"Point","paint":{"marker-color":"#808080","marker-size":"small"},"feature_count":1}},"features":[{"type":"Feature","id":"LFDS-runway-10-28-4871","properties":{"name":"LFDS RWY 10/28","layer":"Runways","category":"Runway Markings","object_type":"Line","style_id":"line.runway.centerline.runway.markings","airport":"LFDS","geometry_role":"runway_centerline","vsmr_group_ids":[[]]},"geometry":{"type":"LineString","coordinates":[[1.241796944,44.792685833],[1.250910833,44.791016944]]}},{"type":"Feature","id":"LFDS-airport-reference","properties":{"name":"LFDS","layer":"Reference points","category":"Labels","object_type":"Point","style_id":"point.airport.reference.point.labels","airport":"LFDS","geometry_role":"airport_reference_point","text-field":"LFDS","vsmr_group_ids":[[]]},"geometry":{"type":"Point","coordinates":[1.243610833,44.792221944]}}]}
