{"type":"FeatureCollection","name":"LFDT AVISO","bbox":[0.074066944,43.214325,0.080846944,43.215796944],"metadata":{"schema":"vSMR AVISO","schema_version":2,"airport":"LFDT","coordinate_reference_system":"WGS84","coordinate_order":"longitude, latitude","feature_count":3,"style_count":2,"layer_counts":{"Reference points":1,"Runways":2},"category_counts":{"Labels":1,"Runway Markings":2}},"styles":{"line.runway.centerline.runway.markings":{"name":"Runway Markings","layer":"Runways","object_type":"Line","paint":{"stroke":"#FEFEFE","stroke-opacity":1.0,"stroke-width":1.5},"feature_count":2},"point.airport.reference.point.labels":{"name":"Labels","layer":"Reference points","object_type":"Point","paint":{"marker-color":"#808080","marker-size":"small"},"feature_count":1}},"features":[{"type":"Feature","id":"LFDT-runway-08R-26L-4872","properties":{"name":"LFDT RWY 08R/26L","layer":"Runways","category":"Runway Markings","object_type":"Line","style_id":"line.runway.centerline.runway.markings","airport":"LFDT","geometry_role":"runway_centerline","vsmr_group_ids":[[]]},"geometry":{"type":"LineString","coordinates":[[0.074210833,43.214325],[0.080846944,43.215157778]]}},{"type":"Feature","id":"LFDT-runway-08L-26R-4873","properties":{"name":"LFDT RWY 08L/26R","layer":"Runways","category":"Runway Markings","object_type":"Line","style_id":"line.runway.centerline.runway.markings","airport":"LFDT","geometry_role":"runway_centerline","vsmr_group_ids":[[]]},"geometry":{"type":"LineString","coordinates":[[0.074066944,43.214946944],[0.080816944,43.215796944]]}},{"type":"Feature","id":"LFDT-airport-reference","properties":{"name":"LFDT","layer":"Reference points","category":"Labels","object_type":"Point","style_id":"point.airport.reference.point.labels","airport":"LFDT","geometry_role":"airport_reference_point","text-field":"LFDT","vsmr_group_ids":[[]]},"geometry":{"type":"Point","coordinates":[0.0775,43.215]}}]}
