{"type":"FeatureCollection","name":"LFDV AVISO","bbox":[0.186968889,46.267757778,0.190266944,46.274068889],"metadata":{"schema":"vSMR AVISO","schema_version":2,"airport":"LFDV","coordinate_reference_system":"WGS84","coordinate_order":"longitude, latitude","feature_count":2,"style_count":2,"layer_counts":{"Reference points":1,"Runways":1},"category_counts":{"Labels":1,"Runway Markings":1}},"styles":{"line.runway.centerline.runway.markings":{"name":"Runway Markings","layer":"Runways","object_type":"Line","paint":{"stroke":"#FEFEFE","stroke-opacity":1.0,"stroke-width":1.5},"feature_count":1},"point.airport.reference.point.labels":{"name":"Labels","layer":"Reference points","object_type":"Point","paint":{"marker-color":"#808080","marker-size":"small"},"feature_count":1}},"features":[{"type":"Feature","id":"LFDV-runway-02-20-4875","properties":{"name":"LFDV RWY 02/20","layer":"Runways","category":"Runway Markings","object_type":"Line","style_id":"line.runway.centerline.runway.markings","airport":"LFDV","geometry_role":"runway_centerline","vsmr_group_ids":[[]]},"geometry":{"type":"LineString","coordinates":[[0.186968889,46.267757778],[0.190266944,46.274068889]]}},{"type":"Feature","id":"LFDV-airport-reference","properties":{"name":"LFDV","layer":"Reference points","category":"Labels","object_type":"Point","style_id":"point.airport.reference.point.labels","airport":"LFDV","geometry_role":"airport_reference_point","text-field":"LFDV","vsmr_group_ids":[[]]},"geometry":{"type":"Point","coordinates":[0.188332778,46.270555833]}}]}
