{"type":"FeatureCollection","name":"LFDW AVISO","bbox":[0.639480833,46.581582778,0.645560833,46.585305833],"metadata":{"schema":"vSMR AVISO","schema_version":2,"airport":"LFDW","coordinate_reference_system":"WGS84","coordinate_order":"longitude, latitude","default_color_palette":"night","color_palettes":["night","day"],"background_colors":{"night":"#434A4F","day":"#434A4F"},"feature_count":2,"style_count":2,"layer_counts":{"Reference points":1,"Runways":1},"category_counts":{"Labels":1,"Runway Markings":1}},"styles":{"line.runway.centerline.runway.markings":{"name":"Runway Markings","layer":"Runways","object_type":"Line","paint":{"stroke":"#FEFEFE","stroke-opacity":1.0,"stroke-width":1.5},"feature_count":1},"point.airport.reference.point.labels":{"name":"Labels","layer":"Reference points","object_type":"Point","paint":{"marker-color":"#808080","marker-size":"small"},"feature_count":1}},"features":[{"type":"Feature","id":"LFDW-runway-05-23-4876","properties":{"name":"LFDW RWY 05/23","layer":"Runways","category":"Runway Markings","object_type":"Line","style_id":"line.runway.centerline.runway.markings","airport":"LFDW","geometry_role":"runway_centerline","vsmr_group_ids":[]},"geometry":{"type":"LineString","coordinates":[[0.639480833,46.581582778],[0.645560833,46.585305833]]}},{"type":"Feature","id":"LFDW-airport-reference","properties":{"name":"LFDW","layer":"Reference points","category":"Labels","object_type":"Point","style_id":"point.airport.reference.point.labels","airport":"LFDW","geometry_role":"airport_reference_point","text-field":"LFDW","vsmr_group_ids":[]},"geometry":{"type":"Point","coordinates":[0.642221944,46.583332778]}}]}
