{"type":"FeatureCollection","name":"LFDX AVISO","bbox":[1.006446944,44.456085833,1.007905833,44.4624],"metadata":{"schema":"vSMR AVISO","schema_version":2,"airport":"LFDX","coordinate_reference_system":"WGS84","coordinate_order":"longitude, latitude","feature_count":2,"style_count":2,"layer_counts":{"Reference points":1,"Runways":1},"category_counts":{"Labels":1,"Runway Markings":1}},"styles":{"line.runway.centerline.runway.markings":{"name":"Runway Markings","layer":"Runways","object_type":"Line","paint":{"stroke":"#FEFEFE","stroke-opacity":1.0,"stroke-width":1.5},"feature_count":1},"point.airport.reference.point.labels":{"name":"Labels","layer":"Reference points","object_type":"Point","paint":{"marker-color":"#808080","marker-size":"small"},"feature_count":1}},"features":[{"type":"Feature","id":"LFDX-runway-17-35-4877","properties":{"name":"LFDX RWY 17/35","layer":"Runways","category":"Runway Markings","object_type":"Line","style_id":"line.runway.centerline.runway.markings","airport":"LFDX","geometry_role":"runway_centerline","vsmr_group_ids":[[]]},"geometry":{"type":"LineString","coordinates":[[1.006446944,44.4624],[1.007905833,44.456085833]]}},{"type":"Feature","id":"LFDX-airport-reference","properties":{"name":"LFDX","layer":"Reference points","category":"Labels","object_type":"Point","style_id":"point.airport.reference.point.labels","airport":"LFDX","geometry_role":"airport_reference_point","text-field":"LFDX","vsmr_group_ids":[[]]},"geometry":{"type":"Point","coordinates":[1.007221944,44.459166944]}}]}
