{"type":"FeatureCollection","name":"LFEA AVISO","bbox":[-3.205018889,47.323055556,-3.194694444,47.329166667],"metadata":{"schema":"vSMR AVISO","schema_version":2,"airport":"LFEA","coordinate_reference_system":"WGS84","coordinate_order":"longitude, latitude","default_color_palette":"night","color_palettes":["night","day"],"feature_count":3,"style_count":3,"layer_counts":{"Ground linework":1,"Reference points":1,"Runways":1},"category_counts":{"Labels":1,"Runway Concrete":1,"Runway Markings":1}},"styles":{"line.linework.runway.concrete":{"name":"Runway Concrete","layer":"Ground linework","object_type":"Line","paint":{"stroke":"#111318","stroke-opacity":1.0,"stroke-width":1.5},"feature_count":1},"line.runway.centerline.runway.markings":{"name":"Runway Markings","layer":"Runways","object_type":"Line","paint":{"stroke":"#FEFEFE","stroke-opacity":1.0,"stroke-width":1.5},"feature_count":1},"point.airport.reference.point.labels":{"name":"Labels","layer":"Reference points","object_type":"Point","paint":{"marker-color":"#808080","marker-size":"small"},"feature_count":1}},"features":[{"type":"Feature","id":"LFEA-runway-06-24-5203","properties":{"name":"LFEA RWY 06/24","layer":"Runways","category":"Runway Markings","object_type":"Line","style_id":"line.runway.centerline.runway.markings","airport":"LFEA","geometry_role":"runway_centerline","vsmr_group_ids":[]},"geometry":{"type":"LineString","coordinates":[[-3.205018889,47.323830833],[-3.197413889,47.326768889]]}},{"type":"Feature","id":"lfea.line.linework.runway.concrete.25503","properties":{"name":"LFEA Groundlayout Belle-ile","layer":"Ground linework","category":"Runway Concrete","object_type":"Line","style_id":"line.linework.runway.concrete","airport":"LFEA","geometry_role":"linework","vsmr_group_ids":[]},"geometry":{"type":"MultiLineString","coordinates":[[[-3.204722222,47.325944444],[-3.196916667,47.329166667]],[[-3.2025,47.323055556],[-3.194694444,47.32625]],[[-3.204722222,47.325944444],[-3.2025,47.323055556]],[[-3.196916667,47.329166667],[-3.194694444,47.32625]]]}},{"type":"Feature","id":"LFEA-airport-reference","properties":{"name":"LFEA","layer":"Reference points","category":"Labels","object_type":"Point","style_id":"point.airport.reference.point.labels","airport":"LFEA","geometry_role":"airport_reference_point","text-field":"LFEA","vsmr_group_ids":[]},"geometry":{"type":"Point","coordinates":[-3.198888889,47.326110833]}}]}
