{"type":"FeatureCollection","name":"LFEB AVISO","bbox":[-2.108230833,48.442118889,-2.097675,48.444621944],"metadata":{"schema":"vSMR AVISO","schema_version":2,"airport":"LFEB","coordinate_reference_system":"WGS84","coordinate_order":"longitude, latitude","feature_count":2,"style_count":2,"layer_counts":{"Reference points":1,"Runways":1},"category_counts":{"Labels":1,"Runway Markings":1}},"styles":{"line.runway.centerline.runway.markings":{"name":"Runway Markings","layer":"Runways","object_type":"Line","paint":{"stroke":"#FEFEFE","stroke-opacity":1.0,"stroke-width":1.5},"feature_count":1},"point.airport.reference.point.labels":{"name":"Labels","layer":"Reference points","object_type":"Point","paint":{"marker-color":"#808080","marker-size":"small"},"feature_count":1}},"features":[{"type":"Feature","id":"LFEB-runway-07-25-5256","properties":{"name":"LFEB RWY 07/25","layer":"Runways","category":"Runway Markings","object_type":"Line","style_id":"line.runway.centerline.runway.markings","airport":"LFEB","geometry_role":"runway_centerline","vsmr_group_ids":[[]]},"geometry":{"type":"LineString","coordinates":[[-2.108230833,48.442118889],[-2.097675,48.444621944]]}},{"type":"Feature","id":"LFEB-airport-reference","properties":{"name":"LFEB","layer":"Reference points","category":"Labels","object_type":"Point","style_id":"point.airport.reference.point.labels","airport":"LFEB","geometry_role":"airport_reference_point","text-field":"LFEB","vsmr_group_ids":[[]]},"geometry":{"type":"Point","coordinates":[-2.103332778,48.443332778]}}]}
