{"type":"FeatureCollection","name":"LFEC AVISO","bbox":[-5.068906111,48.460353889,-5.0589925,48.465719444],"metadata":{"schema":"vSMR AVISO","schema_version":2,"airport":"LFEC","coordinate_reference_system":"WGS84","coordinate_order":"longitude, latitude","feature_count":9,"style_count":8,"layer_counts":{"Ground linework":5,"Labels":2,"Reference points":1,"Runways":1},"category_counts":{"Apron Surface":1,"Labels":4,"Runway Concrete":1,"Runway Markings":1,"Stopbar":1,"Taxiway":1}},"styles":{"label.text.label.labels":{"name":"Labels","layer":"Labels","object_type":"Label","paint":{"text-anchor":"center","text-color":"#808080","text-halo-color":"#000000","text-halo-width":1,"text-size":12},"feature_count":2},"line.linework.apron.surface":{"name":"Apron Surface","layer":"Ground linework","object_type":"Line","paint":{"stroke":"#808080","stroke-opacity":1.0,"stroke-width":1.5},"feature_count":1},"line.linework.labels":{"name":"Labels","layer":"Ground linework","object_type":"Line","paint":{"stroke":"#808080","stroke-opacity":1.0,"stroke-width":1.5},"feature_count":1},"line.linework.runway.concrete":{"name":"Runway Concrete","layer":"Ground linework","object_type":"Line","paint":{"stroke":"#111318","stroke-opacity":1.0,"stroke-width":1.5},"feature_count":1},"line.linework.stopbar":{"name":"Stopbar","layer":"Ground linework","object_type":"Line","paint":{"stroke":"#7E0000","stroke-opacity":1.0,"stroke-width":1.5},"feature_count":1},"line.linework.taxiway":{"name":"Taxiway","layer":"Ground linework","object_type":"Line","paint":{"stroke":"#4E5A69","stroke-opacity":1.0,"stroke-width":1.5},"feature_count":1},"line.runway.centerline.runway.markings":{"name":"Runway Markings","layer":"Runways","object_type":"Line","paint":{"stroke":"#FEFEFE","stroke-opacity":1.0,"stroke-width":1.5},"feature_count":1},"point.airport.reference.point.labels":{"name":"Labels","layer":"Reference points","object_type":"Point","paint":{"marker-color":"#808080","marker-size":"small"},"feature_count":1}},"features":[{"type":"Feature","id":"LFEC-runway-05-23-5204","properties":{"name":"LFEC RWY 05/23","layer":"Runways","category":"Runway Markings","object_type":"Line","style_id":"line.runway.centerline.runway.markings","airport":"LFEC","geometry_role":"runway_centerline","vsmr_group_ids":[[]]},"geometry":{"type":"LineString","coordinates":[[-5.067638889,48.461046944],[-5.060830833,48.464685833]]}},{"type":"Feature","id":"lfec.line.linework.runway.concrete.25508","properties":{"name":"LFEC Groundlayout Ouessant","layer":"Ground linework","category":"Runway Concrete","object_type":"Line","style_id":"line.linework.runway.concrete","airport":"LFEC","geometry_role":"linework","vsmr_group_ids":[[]]},"geometry":{"type":"MultiLineString","coordinates":[[[-5.063333333,48.463226389],[-5.0589925,48.465545278]],[[-5.0589925,48.465545278],[-5.059174167,48.465719444]],[[-5.059174167,48.465719444],[-5.068906111,48.460522222]],[[-5.068906111,48.460522222],[-5.068711667,48.460353889]],[[-5.068711667,48.460353889],[-5.063714722,48.463022778]]]}},{"type":"Feature","id":"lfec.line.linework.taxiway.25513","properties":{"name":"LFEC Groundlayout Ouessant","layer":"Ground linework","category":"Taxiway","object_type":"Line","style_id":"line.linework.taxiway","airport":"LFEC","geometry_role":"linework","vsmr_group_ids":[[]]},"geometry":{"type":"MultiLineString","coordinates":[[[-5.063333889,48.463225556],[-5.063362778,48.463182222]],[[-5.063362778,48.463182222],[-5.063380833,48.463155]],[[-5.063380833,48.463155],[-5.063380833,48.463129167]],[[-5.063380833,48.463129167],[-5.063375833,48.463105278]],[[-5.063375833,48.463105278],[-5.063361389,48.463075]],[[-5.063361389,48.463075],[-5.063333611,48.463045556]],[[-5.063333611,48.463045556],[-5.062912222,48.462687222]],[[-5.062912222,48.462687222],[-5.062798056,48.462600833]],[[-5.063711389,48.463023889],[-5.0636825,48.46303]],[[-5.0636825,48.46303],[-5.06365,48.463033333]],[[-5.06365,48.463033333],[-5.063614167,48.463036944]],[[-5.063614167,48.463036944],[-5.063580278,48.463037778]],[[-5.063580278,48.463037778],[-5.06355,48.463034167]],[[-5.06355,48.463034167],[-5.063525278,48.463029722]],[[-5.063525278,48.463029722],[-5.063495833,48.463023611]],[[-5.063495833,48.463023611],[-5.063471944,48.463016389]],[[-5.063471944,48.463016389],[-5.06345,48.462998056]],[[-5.06345,48.462998056],[-5.062981111,48.462616667]],[[-5.062981111,48.462616667],[-5.062966667,48.4625925]],[[-5.062966667,48.4625925],[-5.062953611,48.462569167]],[[-5.062953611,48.462569167],[-5.062935556,48.462528889]]]}},{"type":"Feature","id":"lfec.line.linework.apron.surface.25534","properties":{"name":"LFEC Groundlayout Ouessant","layer":"Ground linework","category":"Apron Surface","object_type":"Line","style_id":"line.linework.apron.surface","airport":"LFEC","geometry_role":"linework","vsmr_group_ids":[[]]},"geometry":{"type":"MultiLineString","coordinates":[[[-5.062934722,48.462530556],[-5.062924444,48.462487778]],[[-5.062924444,48.462487778],[-5.062919722,48.462460556]],[[-5.062919722,48.462460556],[-5.062919167,48.462439444]],[[-5.062919167,48.462439444],[-5.062918333,48.462410278]],[[-5.062918333,48.462410278],[-5.062921944,48.462388333]],[[-5.062921944,48.462388333],[-5.062924444,48.462367222]],[[-5.062924444,48.462367222],[-5.062924444,48.46236]],[[-5.062924444,48.46236],[-5.062933333,48.462351389]],[[-5.062933333,48.462351389],[-5.062964444,48.462332222]],[[-5.062964444,48.462332222],[-5.062988889,48.462319444]],[[-5.062988889,48.462319444],[-5.063075833,48.462272222]],[[-5.063075833,48.462272222],[-5.062917778,48.46212]],[[-5.062917778,48.46212],[-5.062576667,48.462159722]],[[-5.062576667,48.462159722],[-5.062386389,48.462265833]],[[-5.062386389,48.462265833],[-5.062358889,48.462243056]],[[-5.062358889,48.462243056],[-5.062301389,48.462275556]],[[-5.062301389,48.462275556],[-5.062241389,48.462222778]],[[-5.062241389,48.462222778],[-5.061984444,48.462361389]],[[-5.061984444,48.462361389],[-5.062084722,48.462453611]],[[-5.062084722,48.462453611],[-5.062174167,48.462520556]],[[-5.062174167,48.462520556],[-5.062190833,48.462528889]],[[-5.062190833,48.462528889],[-5.062213889,48.462536667]],[[-5.062213889,48.462536667],[-5.062248333,48.462545]],[[-5.062248333,48.462545],[-5.062321389,48.462557778]],[[-5.062321389,48.462557778],[-5.062400833,48.462574722]],[[-5.062400833,48.462574722],[-5.062435278,48.462577222]],[[-5.062435278,48.462577222],[-5.062468611,48.462583333]],[[-5.062468611,48.462583333],[-5.062500556,48.4625825]],[[-5.062500556,48.4625825],[-5.0625325,48.462581667]],[[-5.0625325,48.462581667],[-5.062558333,48.462575556]],[[-5.062558333,48.462575556],[-5.062601667,48.462572222]],[[-5.062601667,48.462572222],[-5.06263,48.462569722]],[[-5.06263,48.462569722],[-5.062663333,48.462569722]],[[-5.062663333,48.462569722],[-5.062695278,48.462570556]],[[-5.062695278,48.462570556],[-5.062729722,48.462576389]],[[-5.062729722,48.462576389],[-5.062764444,48.4625875]],[[-5.062764444,48.4625875],[-5.062796667,48.462600278]]]}},{"type":"Feature","id":"lfec.line.linework.stopbar.25571","properties":{"name":"LFEC Groundlayout Ouessant","layer":"Ground linework","category":"Stopbar","object_type":"Line","style_id":"line.linework.stopbar","airport":"LFEC","geometry_role":"linework","vsmr_group_ids":[[]]},"geometry":{"type":"MultiLineString","coordinates":[[[-5.063017778,48.462647222],[-5.062924444,48.462698333]]]}},{"type":"Feature","id":"lfec.line.linework.labels.25572","properties":{"name":"LFEC Groundlayout Ouessant","layer":"Ground linework","category":"Labels","object_type":"Line","style_id":"line.linework.labels","airport":"LFEC","geometry_role":"linework","vsmr_group_ids":[[]]},"geometry":{"type":"MultiLineString","coordinates":[[[-5.066955556,48.461398611],[-5.0669,48.461355278]],[[-5.0669,48.461355278],[-5.066933333,48.461337778]],[[-5.066933333,48.461337778],[-5.066970833,48.461365278]],[[-5.066970833,48.461365278],[-5.066991667,48.461354444]],[[-5.066991667,48.461354444],[-5.066959167,48.461325833]],[[-5.066959167,48.461325833],[-5.067092222,48.461252778]],[[-5.067092222,48.461252778],[-5.067147778,48.461295]],[[-5.067147778,48.461295],[-5.067112778,48.461313333]],[[-5.067112778,48.461313333],[-5.067075,48.461286111]],[[-5.067075,48.461286111],[-5.067009444,48.461319444]],[[-5.067009444,48.461319444],[-5.067045556,48.461349167]],[[-5.067045556,48.461349167],[-5.066955556,48.461398611]],[[-5.061471944,48.464331111],[-5.061361944,48.464338611]],[[-5.061361944,48.464338611],[-5.061344444,48.464349167]],[[-5.061344444,48.464349167],[-5.061380278,48.464378611]],[[-5.061380278,48.464378611],[-5.061344444,48.464397222]],[[-5.061344444,48.464397222],[-5.061293056,48.464353056]],[[-5.061293056,48.464353056],[-5.061350556,48.464321944]],[[-5.061350556,48.464321944],[-5.061457778,48.464313889]],[[-5.061457778,48.464313889],[-5.061486667,48.464300556]],[[-5.061486667,48.464300556],[-5.0614675,48.464286111]],[[-5.0614675,48.464286111],[-5.06145,48.4642925]],[[-5.06145,48.4642925],[-5.061433333,48.464280833]],[[-5.061433333,48.464280833],[-5.061485,48.464253056]],[[-5.061485,48.464253056],[-5.061535556,48.464295278]],[[-5.061535556,48.464295278],[-5.061471944,48.464331111]],[[-5.061563333,48.464393889],[-5.061528056,48.464393889]],[[-5.061528056,48.464393889],[-5.061519167,48.464416944]],[[-5.061519167,48.464416944],[-5.061425278,48.464464167]],[[-5.061425278,48.464464167],[-5.061372778,48.464421944]],[[-5.061372778,48.464421944],[-5.061406389,48.464402778]],[[-5.061406389,48.464402778],[-5.061444444,48.464433333]],[[-5.061444444,48.464433333],[-5.061485,48.464411944]],[[-5.061485,48.464411944],[-5.061500833,48.4643725]],[[-5.061500833,48.4643725],[-5.061564722,48.464367778]],[[-5.061564722,48.464367778],[-5.06153,48.464335278]],[[-5.06153,48.464335278],[-5.061563056,48.464318056]],[[-5.061563056,48.464318056],[-5.061616111,48.464362222]],[[-5.061616111,48.464362222],[-5.061563333,48.464393889]],[[-5.067041944,48.461473611],[-5.066988889,48.461429444]],[[-5.066988889,48.461429444],[-5.067181111,48.461327222]],[[-5.067181111,48.461327222],[-5.0672375,48.46137]],[[-5.0672375,48.46137],[-5.067041944,48.461473611]],[[-5.067064444,48.461439167],[-5.067041944,48.461423056]],[[-5.067041944,48.461423056],[-5.067165,48.461358611]],[[-5.067165,48.461358611],[-5.067184722,48.461376111]],[[-5.067184722,48.461376111],[-5.067064444,48.461439167]]]}},{"type":"Feature","id":"LFEC-airport-reference","properties":{"name":"LFEC","layer":"Reference points","category":"Labels","object_type":"Point","style_id":"point.airport.reference.point.labels","airport":"LFEC","geometry_role":"airport_reference_point","text-field":"LFEC","vsmr_group_ids":[[]]},"geometry":{"type":"Point","coordinates":[-5.063610833,48.463332778]}},{"type":"Feature","id":"LFEC-text-lfrr-15807","properties":{"name":"Terminal","layer":"Labels","category":"Labels","object_type":"Label","style_id":"label.text.label.labels","airport":"LFEC","geometry_role":"text_label","text-field":"Terminal","vsmr_group_ids":[[]]},"geometry":{"type":"Point","coordinates":[-5.062529167,48.462116667]}},{"type":"Feature","id":"LFEC-text-lfrr-15808","properties":{"name":"Parking","layer":"Labels","category":"Labels","object_type":"Label","style_id":"label.text.label.labels","airport":"LFEC","geometry_role":"text_label","text-field":"Parking","vsmr_group_ids":[[]]},"geometry":{"type":"Point","coordinates":[-5.062646667,48.462378611]}}]}
