{"type":"FeatureCollection","name":"LFED AVISO","bbox":[-2.928338889,48.056468889,-2.914149722,48.057102778],"metadata":{"schema":"vSMR AVISO","schema_version":2,"airport":"LFED","coordinate_reference_system":"WGS84","coordinate_order":"longitude, latitude","feature_count":2,"style_count":2,"layer_counts":{"Reference points":1,"Runways":1},"category_counts":{"Labels":1,"Runway Markings":1}},"styles":{"line.runway.centerline.runway.markings":{"name":"Runway Markings","layer":"Runways","object_type":"Line","paint":{"stroke":"#FEFEFE","stroke-opacity":1.0,"stroke-width":1.5},"feature_count":1},"point.airport.reference.point.labels":{"name":"Labels","layer":"Reference points","object_type":"Point","paint":{"marker-color":"#808080","marker-size":"small"},"feature_count":1}},"features":[{"type":"Feature","id":"LFED-runway-09-27-5135","properties":{"name":"LFED RWY 09/27","layer":"Runways","category":"Runway Markings","object_type":"Line","style_id":"line.runway.centerline.runway.markings","airport":"LFED","geometry_role":"runway_centerline","vsmr_group_ids":[[]]},"geometry":{"type":"LineString","coordinates":[[-2.928338889,48.057102778],[-2.914149722,48.056468889]]}},{"type":"Feature","id":"LFED-airport-reference","properties":{"name":"LFED","layer":"Reference points","category":"Labels","object_type":"Point","style_id":"point.airport.reference.point.labels","airport":"LFED","geometry_role":"airport_reference_point","text-field":"LFED","vsmr_group_ids":[[]]},"geometry":{"type":"Point","coordinates":[-2.923332778,48.056943889]}}]}
