{"type":"FeatureCollection","name":"LFEE AVISO","bbox":[4.018611111,46.676111111,7.740555556,49.225833333],"metadata":{"schema":"vSMR AVISO","schema_version":2,"airport":"LFEE","coordinate_reference_system":"WGS84","coordinate_order":"longitude, latitude","feature_count":18,"style_count":1,"layer_counts":{"Labels":18},"category_counts":{"Labels":18}},"styles":{"label.text.label.labels":{"name":"Labels","layer":"Labels","object_type":"Label","paint":{"text-anchor":"center","text-color":"#CCCCCC","text-halo-color":"#000000","text-halo-width":1,"text-size":12},"feature_count":18}},"features":[{"type":"Feature","id":"LFEE-text-lfee-19376","properties":{"name":"HOP_HBES","layer":"Labels","category":"Labels","object_type":"Label","style_id":"label.text.label.labels","airport":"LFEE","geometry_role":"text_label","text-field":"HOP_HBES","vsmr_group_ids":[[]]},"geometry":{"type":"Point","coordinates":[5.964444444,47.225555556]}},{"type":"Feature","id":"LFEE-text-lfee-19377","properties":{"name":"HOP_HCSS","layer":"Labels","category":"Labels","object_type":"Label","style_id":"label.text.label.labels","airport":"LFEE","geometry_role":"text_label","text-field":"HOP_HCSS","vsmr_group_ids":[[]]},"geometry":{"type":"Point","coordinates":[4.841944444,46.7775]}},{"type":"Feature","id":"LFEE-text-lfee-19378","properties":{"name":"HOP_HCOL","layer":"Labels","category":"Labels","object_type":"Label","style_id":"label.text.label.labels","airport":"LFEE","geometry_role":"text_label","text-field":"HOP_HCOL","vsmr_group_ids":[[]]},"geometry":{"type":"Point","coordinates":[7.338055556,48.073888889]}},{"type":"Feature","id":"LFEE-text-lfee-19379","properties":{"name":"HOP_HDBO","layer":"Labels","category":"Labels","object_type":"Label","style_id":"label.text.label.labels","airport":"LFEE","geometry_role":"text_label","text-field":"HOP_HDBO","vsmr_group_ids":[[]]},"geometry":{"type":"Point","coordinates":[5.069166667,47.321388889]}},{"type":"Feature","id":"LFEE-text-lfee-19380","properties":{"name":"HOP_HDOL","layer":"Labels","category":"Labels","object_type":"Label","style_id":"label.text.label.labels","airport":"LFEE","geometry_role":"text_label","text-field":"HOP_HDOL","vsmr_group_ids":[[]]},"geometry":{"type":"Point","coordinates":[5.472777778,47.083333333]}},{"type":"Feature","id":"LFEE-text-lfee-19381","properties":{"name":"HOP_HEPI","layer":"Labels","category":"Labels","object_type":"Label","style_id":"label.text.label.labels","airport":"LFEE","geometry_role":"text_label","text-field":"HOP_HEPI","vsmr_group_ids":[[]]},"geometry":{"type":"Point","coordinates":[6.454444444,48.181111111]}},{"type":"Feature","id":"LFEE-text-lfee-19382","properties":{"name":"HOP_HLLS","layer":"Labels","category":"Labels","object_type":"Label","style_id":"label.text.label.labels","airport":"LFEE","geometry_role":"text_label","text-field":"HOP_HLLS","vsmr_group_ids":[[]]},"geometry":{"type":"Point","coordinates":[5.55,46.676111111]}},{"type":"Feature","id":"LFEE-text-lfee-19383","properties":{"name":"HOP_HMER","layer":"Labels","category":"Labels","object_type":"Label","style_id":"label.text.label.labels","airport":"LFEE","geometry_role":"text_label","text-field":"HOP_HMER","vsmr_group_ids":[[]]},"geometry":{"type":"Point","coordinates":[6.242222222,49.084166667]}},{"type":"Feature","id":"LFEE-text-lfee-19384","properties":{"name":"HOP_HMUL","layer":"Labels","category":"Labels","object_type":"Label","style_id":"label.text.label.labels","airport":"LFEE","geometry_role":"text_label","text-field":"HOP_HMUL","vsmr_group_ids":[[]]},"geometry":{"type":"Point","coordinates":[7.345,47.725277778]}},{"type":"Feature","id":"LFEE-text-lfee-19385","properties":{"name":"HOP_HNAB","layer":"Labels","category":"Labels","object_type":"Label","style_id":"label.text.label.labels","airport":"LFEE","geometry_role":"text_label","text-field":"HOP_HNAB","vsmr_group_ids":[[]]},"geometry":{"type":"Point","coordinates":[6.151388889,48.644722222]}},{"type":"Feature","id":"LFEE-text-lfee-19386","properties":{"name":"HOP_HNAN","layer":"Labels","category":"Labels","object_type":"Label","style_id":"label.text.label.labels","airport":"LFEE","geometry_role":"text_label","text-field":"HOP_HNAN","vsmr_group_ids":[[]]},"geometry":{"type":"Point","coordinates":[6.1925,48.685277778]}},{"type":"Feature","id":"LFEE-text-lfee-19387","properties":{"name":"HOP_HPON","layer":"Labels","category":"Labels","object_type":"Label","style_id":"label.text.label.labels","airport":"LFEE","geometry_role":"text_label","text-field":"HOP_HPON","vsmr_group_ids":[[]]},"geometry":{"type":"Point","coordinates":[6.359722222,46.900555556]}},{"type":"Feature","id":"LFEE-text-lfee-19388","properties":{"name":"HOP_HREM","layer":"Labels","category":"Labels","object_type":"Label","style_id":"label.text.label.labels","airport":"LFEE","geometry_role":"text_label","text-field":"HOP_HREM","vsmr_group_ids":[[]]},"geometry":{"type":"Point","coordinates":[4.018611111,49.225833333]}},{"type":"Feature","id":"LFEE-text-lfee-19389","properties":{"name":"HOP_HAVO","layer":"Labels","category":"Labels","object_type":"Label","style_id":"label.text.label.labels","airport":"LFEE","geometry_role":"text_label","text-field":"HOP_HAVO","vsmr_group_ids":[[]]},"geometry":{"type":"Point","coordinates":[6.721666667,49.112222222]}},{"type":"Feature","id":"LFEE-text-lfee-19390","properties":{"name":"HOP_HSEL","layer":"Labels","category":"Labels","object_type":"Label","style_id":"label.text.label.labels","airport":"LFEE","geometry_role":"text_label","text-field":"HOP_HSEL","vsmr_group_ids":[[]]},"geometry":{"type":"Point","coordinates":[7.432222222,48.261666667]}},{"type":"Feature","id":"LFEE-text-lfee-19391","properties":{"name":"HOP_HAUT","layer":"Labels","category":"Labels","object_type":"Label","style_id":"label.text.label.labels","airport":"LFEE","geometry_role":"text_label","text-field":"HOP_HAUT","vsmr_group_ids":[[]]},"geometry":{"type":"Point","coordinates":[7.705,48.593333333]}},{"type":"Feature","id":"LFEE-text-lfee-19392","properties":{"name":"HOP_HSTR","layer":"Labels","category":"Labels","object_type":"Label","style_id":"label.text.label.labels","airport":"LFEE","geometry_role":"text_label","text-field":"HOP_HSTR","vsmr_group_ids":[[]]},"geometry":{"type":"Point","coordinates":[7.740555556,48.575833333]}},{"type":"Feature","id":"LFEE-text-lfee-19393","properties":{"name":"HOP_HVES","layer":"Labels","category":"Labels","object_type":"Label","style_id":"label.text.label.labels","airport":"LFEE","geometry_role":"text_label","text-field":"HOP_HVES","vsmr_group_ids":[[]]},"geometry":{"type":"Point","coordinates":[6.137222222,47.636944444]}}]}
