{"type":"FeatureCollection","name":"LFEF AVISO","bbox":[0.941110833,47.339068889,0.948888889,47.340555833],"metadata":{"schema":"vSMR AVISO","schema_version":2,"airport":"LFEF","coordinate_reference_system":"WGS84","coordinate_order":"longitude, latitude","default_color_palette":"night","color_palettes":["night","day"],"feature_count":2,"style_count":2,"layer_counts":{"Reference points":1,"Runways":1},"category_counts":{"Labels":1,"Runway Markings":1}},"styles":{"line.runway.centerline.runway.markings":{"name":"Runway Markings","layer":"Runways","object_type":"Line","paint":{"stroke":"#FEFEFE","stroke-opacity":1.0,"stroke-width":1.5},"feature_count":1},"point.airport.reference.point.labels":{"name":"Labels","layer":"Reference points","object_type":"Point","paint":{"marker-color":"#808080","marker-size":"small"},"feature_count":1}},"features":[{"type":"Feature","id":"LFEF-runway-10-28-5136","properties":{"name":"LFEF RWY 10/28","layer":"Runways","category":"Runway Markings","object_type":"Line","style_id":"line.runway.centerline.runway.markings","airport":"LFEF","geometry_role":"runway_centerline","vsmr_group_ids":[]},"geometry":{"type":"LineString","coordinates":[[0.942560833,47.340216944],[0.948888889,47.339068889]]}},{"type":"Feature","id":"LFEF-airport-reference","properties":{"name":"LFEF","layer":"Reference points","category":"Labels","object_type":"Point","style_id":"point.airport.reference.point.labels","airport":"LFEF","geometry_role":"airport_reference_point","text-field":"LFEF","vsmr_group_ids":[]},"geometry":{"type":"Point","coordinates":[0.941110833,47.340555833]}}]}
