{"type":"FeatureCollection","name":"LFEG AVISO","bbox":[1.599096944,46.593160833,1.604271944,46.598393889],"metadata":{"schema":"vSMR AVISO","schema_version":2,"airport":"LFEG","coordinate_reference_system":"WGS84","coordinate_order":"longitude, latitude","feature_count":3,"style_count":2,"layer_counts":{"Reference points":1,"Runways":2},"category_counts":{"Labels":1,"Runway Markings":2}},"styles":{"line.runway.centerline.runway.markings":{"name":"Runway Markings","layer":"Runways","object_type":"Line","paint":{"stroke":"#FEFEFE","stroke-opacity":1.0,"stroke-width":1.5},"feature_count":2},"point.airport.reference.point.labels":{"name":"Labels","layer":"Reference points","object_type":"Point","paint":{"marker-color":"#808080","marker-size":"small"},"feature_count":1}},"features":[{"type":"Feature","id":"LFEG-runway-03R-21L-5137","properties":{"name":"LFEG RWY 03R/21L","layer":"Runways","category":"Runway Markings","object_type":"Line","style_id":"line.runway.centerline.runway.markings","airport":"LFEG","geometry_role":"runway_centerline","vsmr_group_ids":[[]]},"geometry":{"type":"LineString","coordinates":[[1.599096944,46.593160833],[1.604271944,46.598393889]]}},{"type":"Feature","id":"LFEG-runway-03-21-5138","properties":{"name":"LFEG RWY 03/21","layer":"Runways","category":"Runway Markings","object_type":"Line","style_id":"line.runway.centerline.runway.markings","airport":"LFEG","geometry_role":"runway_centerline","vsmr_group_ids":[[]]},"geometry":{"type":"LineString","coordinates":[[1.599460833,46.594068889],[1.603725,46.598380833]]}},{"type":"Feature","id":"LFEG-airport-reference","properties":{"name":"LFEG","layer":"Reference points","category":"Labels","object_type":"Point","style_id":"point.airport.reference.point.labels","airport":"LFEG","geometry_role":"airport_reference_point","text-field":"LFEG","vsmr_group_ids":[[]]},"geometry":{"type":"Point","coordinates":[1.601110833,46.595832778]}}]}
