{"type":"FeatureCollection","name":"LFEH AVISO","bbox":[2.388585833,47.478025,2.398143889,47.481930833],"metadata":{"schema":"vSMR AVISO","schema_version":2,"airport":"LFEH","coordinate_reference_system":"WGS84","coordinate_order":"longitude, latitude","default_color_palette":"night","color_palettes":["night","day"],"feature_count":2,"style_count":2,"layer_counts":{"Reference points":1,"Runways":1},"category_counts":{"Labels":1,"Runway Markings":1}},"styles":{"line.runway.centerline.runway.markings":{"name":"Runway Markings","layer":"Runways","object_type":"Line","paint":{"stroke":"#FEFEFE","stroke-opacity":1.0,"stroke-width":1.5},"feature_count":1},"point.airport.reference.point.labels":{"name":"Labels","layer":"Reference points","object_type":"Point","paint":{"marker-color":"#808080","marker-size":"small"},"feature_count":1}},"features":[{"type":"Feature","id":"LFEH-runway-06-24-5139","properties":{"name":"LFEH RWY 06/24","layer":"Runways","category":"Runway Markings","object_type":"Line","style_id":"line.runway.centerline.runway.markings","airport":"LFEH","geometry_role":"runway_centerline","vsmr_group_ids":[]},"geometry":{"type":"LineString","coordinates":[[2.388585833,47.478025],[2.398143889,47.481930833]]}},{"type":"Feature","id":"LFEH-airport-reference","properties":{"name":"LFEH","layer":"Reference points","category":"Labels","object_type":"Point","style_id":"point.airport.reference.point.labels","airport":"LFEH","geometry_role":"airport_reference_point","text-field":"LFEH","vsmr_group_ids":[]},"geometry":{"type":"Point","coordinates":[2.392777778,47.479721944]}}]}
