{"type":"FeatureCollection","name":"LFEK AVISO","bbox":[2.035568889,46.886210833,2.043738889,46.892710833],"metadata":{"schema":"vSMR AVISO","schema_version":2,"airport":"LFEK","coordinate_reference_system":"WGS84","coordinate_order":"longitude, latitude","default_color_palette":"night","color_palettes":["night","day"],"feature_count":4,"style_count":2,"layer_counts":{"Reference points":1,"Runways":3},"category_counts":{"Labels":1,"Runway Markings":3}},"styles":{"line.runway.centerline.runway.markings":{"name":"Runway Markings","layer":"Runways","object_type":"Line","paint":{"stroke":"#FEFEFE","stroke-opacity":1.0,"stroke-width":1.5},"feature_count":3},"point.airport.reference.point.labels":{"name":"Labels","layer":"Reference points","object_type":"Point","paint":{"marker-color":"#808080","marker-size":"small"},"feature_count":1}},"features":[{"type":"Feature","id":"LFEK-runway-17-35-5142","properties":{"name":"LFEK RWY 17/35","layer":"Runways","category":"Runway Markings","object_type":"Line","style_id":"line.runway.centerline.runway.markings","airport":"LFEK","geometry_role":"runway_centerline","vsmr_group_ids":[]},"geometry":{"type":"LineString","coordinates":[[2.038468889,46.892710833],[2.039018889,46.888138889]]}},{"type":"Feature","id":"LFEK-runway-11-29-5143","properties":{"name":"LFEK RWY 11/29","layer":"Runways","category":"Runway Markings","object_type":"Line","style_id":"line.runway.centerline.runway.markings","airport":"LFEK","geometry_role":"runway_centerline","vsmr_group_ids":[]},"geometry":{"type":"LineString","coordinates":[[2.035568889,46.88985],[2.043738889,46.887568889]]}},{"type":"Feature","id":"LFEK-runway-06-24-5144","properties":{"name":"LFEK RWY 06/24","layer":"Runways","category":"Runway Markings","object_type":"Line","style_id":"line.runway.centerline.runway.markings","airport":"LFEK","geometry_role":"runway_centerline","vsmr_group_ids":[]},"geometry":{"type":"LineString","coordinates":[[2.037518889,46.886210833],[2.043038889,46.888560833]]}},{"type":"Feature","id":"LFEK-airport-reference","properties":{"name":"LFEK","layer":"Reference points","category":"Labels","object_type":"Point","style_id":"point.airport.reference.point.labels","airport":"LFEK","geometry_role":"airport_reference_point","text-field":"LFEK","vsmr_group_ids":[]},"geometry":{"type":"Point","coordinates":[2.040277778,46.887777778]}}]}
