{"type":"FeatureCollection","name":"LFEL AVISO","bbox":[1.082402778,46.617435833,1.089388889,46.622791944],"metadata":{"schema":"vSMR AVISO","schema_version":2,"airport":"LFEL","coordinate_reference_system":"WGS84","coordinate_order":"longitude, latitude","default_color_palette":"night","color_palettes":["night","day"],"feature_count":2,"style_count":2,"layer_counts":{"Reference points":1,"Runways":1},"category_counts":{"Labels":1,"Runway Markings":1}},"styles":{"line.runway.centerline.runway.markings":{"name":"Runway Markings","layer":"Runways","object_type":"Line","paint":{"stroke":"#FEFEFE","stroke-opacity":1.0,"stroke-width":1.5},"feature_count":1},"point.airport.reference.point.labels":{"name":"Labels","layer":"Reference points","object_type":"Point","paint":{"marker-color":"#808080","marker-size":"small"},"feature_count":1}},"features":[{"type":"Feature","id":"LFEL-runway-04-22-5145","properties":{"name":"LFEL RWY 04/22","layer":"Runways","category":"Runway Markings","object_type":"Line","style_id":"line.runway.centerline.runway.markings","airport":"LFEL","geometry_role":"runway_centerline","vsmr_group_ids":[[]]},"geometry":{"type":"LineString","coordinates":[[1.082402778,46.617435833],[1.089388889,46.622791944]]}},{"type":"Feature","id":"LFEL-airport-reference","properties":{"name":"LFEL","layer":"Reference points","category":"Labels","object_type":"Point","style_id":"point.airport.reference.point.labels","airport":"LFEL","geometry_role":"airport_reference_point","text-field":"LFEL","vsmr_group_ids":[[]]},"geometry":{"type":"Point","coordinates":[1.085832778,46.619999722]}}]}
