{"type":"FeatureCollection","name":"LFEM AVISO","bbox":[2.679443889,47.957410833,2.691577778,47.964838889],"metadata":{"schema":"vSMR AVISO","schema_version":2,"airport":"LFEM","coordinate_reference_system":"WGS84","coordinate_order":"longitude, latitude","default_color_palette":"night","color_palettes":["night","day"],"feature_count":3,"style_count":2,"layer_counts":{"Reference points":1,"Runways":2},"category_counts":{"Labels":1,"Runway Markings":2}},"styles":{"line.runway.centerline.runway.markings":{"name":"Runway Markings","layer":"Runways","object_type":"Line","paint":{"stroke":"#FEFEFE","stroke-opacity":1.0,"stroke-width":1.5},"feature_count":2},"point.airport.reference.point.labels":{"name":"Labels","layer":"Reference points","object_type":"Point","paint":{"marker-color":"#808080","marker-size":"small"},"feature_count":1}},"features":[{"type":"Feature","id":"LFEM-runway-04R-22L-5146","properties":{"name":"LFEM RWY 04R/22L","layer":"Runways","category":"Runway Markings","object_type":"Line","style_id":"line.runway.centerline.runway.markings","airport":"LFEM","geometry_role":"runway_centerline","vsmr_group_ids":[[]]},"geometry":{"type":"LineString","coordinates":[[2.681385833,47.957410833],[2.691577778,47.963902778]]}},{"type":"Feature","id":"LFEM-runway-04L-22R-5147","properties":{"name":"LFEM RWY 04L/22R","layer":"Runways","category":"Runway Markings","object_type":"Line","style_id":"line.runway.centerline.runway.markings","airport":"LFEM","geometry_role":"runway_centerline","vsmr_group_ids":[[]]},"geometry":{"type":"LineString","coordinates":[[2.679443889,47.959280833],[2.688216944,47.964838889]]}},{"type":"Feature","id":"LFEM-airport-reference","properties":{"name":"LFEM","layer":"Reference points","category":"Labels","object_type":"Point","style_id":"point.airport.reference.point.labels","airport":"LFEM","geometry_role":"airport_reference_point","text-field":"LFEM","vsmr_group_ids":[[]]},"geometry":{"type":"Point","coordinates":[2.684443889,47.959721944]}}]}
