{"type":"FeatureCollection","name":"LFEN AVISO","bbox":[0.696307778,47.263857778,0.701271944,47.268510833],"metadata":{"schema":"vSMR AVISO","schema_version":2,"airport":"LFEN","coordinate_reference_system":"WGS84","coordinate_order":"longitude, latitude","default_color_palette":"night","color_palettes":["night","day"],"feature_count":2,"style_count":2,"layer_counts":{"Reference points":1,"Runways":1},"category_counts":{"Labels":1,"Runway Markings":1}},"styles":{"line.runway.centerline.runway.markings":{"name":"Runway Markings","layer":"Runways","object_type":"Line","paint":{"stroke":"#FEFEFE","stroke-opacity":1.0,"stroke-width":1.5},"feature_count":1},"point.airport.reference.point.labels":{"name":"Labels","layer":"Reference points","object_type":"Point","paint":{"marker-color":"#808080","marker-size":"small"},"feature_count":1}},"features":[{"type":"Feature","id":"LFEN-runway-04-22-5148","properties":{"name":"LFEN RWY 04/22","layer":"Runways","category":"Runway Markings","object_type":"Line","style_id":"line.runway.centerline.runway.markings","airport":"LFEN","geometry_role":"runway_centerline","vsmr_group_ids":[]},"geometry":{"type":"LineString","coordinates":[[0.696307778,47.263857778],[0.701271944,47.268510833]]}},{"type":"Feature","id":"LFEN-airport-reference","properties":{"name":"LFEN","layer":"Reference points","category":"Labels","object_type":"Point","style_id":"point.airport.reference.point.labels","airport":"LFEN","geometry_role":"airport_reference_point","text-field":"LFEN","vsmr_group_ids":[]},"geometry":{"type":"Point","coordinates":[0.699166944,47.266388889]}}]}
