{"type":"FeatureCollection","name":"LFEP AVISO","bbox":[4.557843889,47.217132778,4.562971944,47.223930833],"metadata":{"schema":"vSMR AVISO","schema_version":2,"airport":"LFEP","coordinate_reference_system":"WGS84","coordinate_order":"longitude, latitude","feature_count":2,"style_count":2,"layer_counts":{"Reference points":1,"Runways":1},"category_counts":{"Labels":1,"Runway Markings":1}},"styles":{"line.runway.centerline.runway.markings":{"name":"Runway Markings","layer":"Runways","object_type":"Line","paint":{"stroke":"#FEFEFE","stroke-opacity":1.0,"stroke-width":1.5},"feature_count":1},"point.airport.reference.point.labels":{"name":"Labels","layer":"Reference points","object_type":"Point","paint":{"marker-color":"#808080","marker-size":"small"},"feature_count":1}},"features":[{"type":"Feature","id":"LFEP-runway-03-21-5149","properties":{"name":"LFEP RWY 03/21","layer":"Runways","category":"Runway Markings","object_type":"Line","style_id":"line.runway.centerline.runway.markings","airport":"LFEP","geometry_role":"runway_centerline","vsmr_group_ids":[[]]},"geometry":{"type":"LineString","coordinates":[[4.557843889,47.217132778],[4.562971944,47.223930833]]}},{"type":"Feature","id":"LFEP-airport-reference","properties":{"name":"LFEP","layer":"Reference points","category":"Labels","object_type":"Point","style_id":"point.airport.reference.point.labels","airport":"LFEP","geometry_role":"airport_reference_point","text-field":"LFEP","vsmr_group_ids":[[]]},"geometry":{"type":"Point","coordinates":[4.560277778,47.220555833]}}]}
