{"type":"FeatureCollection","name":"LFES AVISO","bbox":[-3.668649722,48.0463,-3.660913889,48.058766944],"metadata":{"schema":"vSMR AVISO","schema_version":2,"airport":"LFES","coordinate_reference_system":"WGS84","coordinate_order":"longitude, latitude","default_color_palette":"night","color_palettes":["night","day"],"feature_count":3,"style_count":2,"layer_counts":{"Reference points":1,"Runways":2},"category_counts":{"Labels":1,"Runway Markings":2}},"styles":{"line.runway.centerline.runway.markings":{"name":"Runway Markings","layer":"Runways","object_type":"Line","paint":{"stroke":"#FEFEFE","stroke-opacity":1.0,"stroke-width":1.5},"feature_count":2},"point.airport.reference.point.labels":{"name":"Labels","layer":"Reference points","object_type":"Point","paint":{"marker-color":"#808080","marker-size":"small"},"feature_count":1}},"features":[{"type":"Feature","id":"LFES-runway-02R-20L-5253","properties":{"name":"LFES RWY 02R/20L","layer":"Runways","category":"Runway Markings","object_type":"Line","style_id":"line.runway.centerline.runway.markings","airport":"LFES","geometry_role":"runway_centerline","vsmr_group_ids":[[]]},"geometry":{"type":"LineString","coordinates":[[-3.666732778,48.048513889],[-3.664816944,48.051563889]]}},{"type":"Feature","id":"LFES-runway-02-20-5254","properties":{"name":"LFES RWY 02/20","layer":"Runways","category":"Runway Markings","object_type":"Line","style_id":"line.runway.centerline.runway.markings","airport":"LFES","geometry_role":"runway_centerline","vsmr_group_ids":[[]]},"geometry":{"type":"LineString","coordinates":[[-3.668649722,48.0463],[-3.660913889,48.058766944]]}},{"type":"Feature","id":"LFES-airport-reference","properties":{"name":"LFES","layer":"Reference points","category":"Labels","object_type":"Point","style_id":"point.airport.reference.point.labels","airport":"LFES","geometry_role":"airport_reference_point","text-field":"LFES","vsmr_group_ids":[[]]},"geometry":{"type":"Point","coordinates":[-3.664166944,48.053610833]}}]}
