{"type":"FeatureCollection","name":"LFET AVISO","bbox":[5.206785833,47.542071944,5.217975,47.551188889],"metadata":{"schema":"vSMR AVISO","schema_version":2,"airport":"LFET","coordinate_reference_system":"WGS84","coordinate_order":"longitude, latitude","feature_count":3,"style_count":2,"layer_counts":{"Reference points":1,"Runways":2},"category_counts":{"Labels":1,"Runway Markings":2}},"styles":{"line.runway.centerline.runway.markings":{"name":"Runway Markings","layer":"Runways","object_type":"Line","paint":{"stroke":"#FEFEFE","stroke-opacity":1.0,"stroke-width":1.5},"feature_count":2},"point.airport.reference.point.labels":{"name":"Labels","layer":"Reference points","object_type":"Point","paint":{"marker-color":"#808080","marker-size":"small"},"feature_count":1}},"features":[{"type":"Feature","id":"LFET-runway-11-29-5150","properties":{"name":"LFET RWY 11/29","layer":"Runways","category":"Runway Markings","object_type":"Line","style_id":"line.runway.centerline.runway.markings","airport":"LFET","geometry_role":"runway_centerline","vsmr_group_ids":[[]]},"geometry":{"type":"LineString","coordinates":[[5.206785833,47.547316944],[5.217975,47.544746944]]}},{"type":"Feature","id":"LFET-runway-01-19-5151","properties":{"name":"LFET RWY 01/19","layer":"Runways","category":"Runway Markings","object_type":"Line","style_id":"line.runway.centerline.runway.markings","airport":"LFET","geometry_role":"runway_centerline","vsmr_group_ids":[[]]},"geometry":{"type":"LineString","coordinates":[[5.209007778,47.542071944],[5.212627778,47.551188889]]}},{"type":"Feature","id":"LFET-airport-reference","properties":{"name":"LFET","layer":"Reference points","category":"Labels","object_type":"Point","style_id":"point.airport.reference.point.labels","airport":"LFET","geometry_role":"airport_reference_point","text-field":"LFET","vsmr_group_ids":[[]]},"geometry":{"type":"Point","coordinates":[5.210832778,47.546388889]}}]}
