{"type":"FeatureCollection","name":"LFEV AVISO","bbox":[5.610738889,47.430391944,5.625149722,47.432991944],"metadata":{"schema":"vSMR AVISO","schema_version":2,"airport":"LFEV","coordinate_reference_system":"WGS84","coordinate_order":"longitude, latitude","feature_count":4,"style_count":2,"layer_counts":{"Reference points":1,"Runways":3},"category_counts":{"Labels":1,"Runway Markings":3}},"styles":{"line.runway.centerline.runway.markings":{"name":"Runway Markings","layer":"Runways","object_type":"Line","paint":{"stroke":"#FEFEFE","stroke-opacity":1.0,"stroke-width":1.5},"feature_count":3},"point.airport.reference.point.labels":{"name":"Labels","layer":"Reference points","object_type":"Point","paint":{"marker-color":"#808080","marker-size":"small"},"feature_count":1}},"features":[{"type":"Feature","id":"LFEV-runway-07R-25L-6770","properties":{"name":"LFEV RWY 07R/25L","layer":"Runways","category":"Runway Markings","object_type":"Line","style_id":"line.runway.centerline.runway.markings","airport":"LFEV","geometry_role":"runway_centerline","vsmr_group_ids":[[]]},"geometry":{"type":"LineString","coordinates":[[5.616043889,47.431068889],[5.620530833,47.431877778]]}},{"type":"Feature","id":"LFEV-runway-07L-25R-6771","properties":{"name":"LFEV RWY 07L/25R","layer":"Runways","category":"Runway Markings","object_type":"Line","style_id":"line.runway.centerline.runway.markings","airport":"LFEV","geometry_role":"runway_centerline","vsmr_group_ids":[[]]},"geometry":{"type":"LineString","coordinates":[[5.610935833,47.430935833],[5.621952778,47.432924722]]}},{"type":"Feature","id":"LFEV-runway-07-25-6772","properties":{"name":"LFEV RWY 07/25","layer":"Runways","category":"Runway Markings","object_type":"Line","style_id":"line.runway.centerline.runway.markings","airport":"LFEV","geometry_role":"runway_centerline","vsmr_group_ids":[[]]},"geometry":{"type":"LineString","coordinates":[[5.610738889,47.430391944],[5.625149722,47.432991944]]}},{"type":"Feature","id":"LFEV-airport-reference","properties":{"name":"LFEV","layer":"Reference points","category":"Labels","object_type":"Point","style_id":"point.airport.reference.point.labels","airport":"LFEV","geometry_role":"airport_reference_point","text-field":"LFEV","vsmr_group_ids":[[]]},"geometry":{"type":"Point","coordinates":[5.621388889,47.432221944]}}]}
