{"type":"FeatureCollection","name":"LFEW AVISO","bbox":[4.261652778,47.237207778,4.269480833,47.241027778],"metadata":{"schema":"vSMR AVISO","schema_version":2,"airport":"LFEW","coordinate_reference_system":"WGS84","coordinate_order":"longitude, latitude","feature_count":2,"style_count":2,"layer_counts":{"Reference points":1,"Runways":1},"category_counts":{"Labels":1,"Runway Markings":1}},"styles":{"line.runway.centerline.runway.markings":{"name":"Runway Markings","layer":"Runways","object_type":"Line","paint":{"stroke":"#FEFEFE","stroke-opacity":1.0,"stroke-width":1.5},"feature_count":1},"point.airport.reference.point.labels":{"name":"Labels","layer":"Reference points","object_type":"Point","paint":{"marker-color":"#808080","marker-size":"small"},"feature_count":1}},"features":[{"type":"Feature","id":"LFEW-runway-05-23-5156","properties":{"name":"LFEW RWY 05/23","layer":"Runways","category":"Runway Markings","object_type":"Line","style_id":"line.runway.centerline.runway.markings","airport":"LFEW","geometry_role":"runway_centerline","vsmr_group_ids":[[]]},"geometry":{"type":"LineString","coordinates":[[4.261652778,47.237207778],[4.269480833,47.241027778]]}},{"type":"Feature","id":"LFEW-airport-reference","properties":{"name":"LFEW","layer":"Reference points","category":"Labels","object_type":"Point","style_id":"point.airport.reference.point.labels","airport":"LFEW","geometry_role":"airport_reference_point","text-field":"LFEW","vsmr_group_ids":[[]]},"geometry":{"type":"Point","coordinates":[4.264443889,47.238610833]}}]}
