{"type":"FeatureCollection","name":"LFEX AVISO","bbox":[6.238166944,48.591166944,6.245407778,48.59875],"metadata":{"schema":"vSMR AVISO","schema_version":2,"airport":"LFEX","coordinate_reference_system":"WGS84","coordinate_order":"longitude, latitude","default_color_palette":"night","color_palettes":["night","day"],"feature_count":3,"style_count":2,"layer_counts":{"Reference points":1,"Runways":2},"category_counts":{"Labels":1,"Runway Markings":2}},"styles":{"line.runway.centerline.runway.markings":{"name":"Runway Markings","layer":"Runways","object_type":"Line","paint":{"stroke":"#FEFEFE","stroke-opacity":1.0,"stroke-width":1.5},"feature_count":2},"point.airport.reference.point.labels":{"name":"Labels","layer":"Reference points","object_type":"Point","paint":{"marker-color":"#808080","marker-size":"small"},"feature_count":1}},"features":[{"type":"Feature","id":"LFEX-runway-18-36-5157","properties":{"name":"LFEX RWY 18/36","layer":"Runways","category":"Runway Markings","object_type":"Line","style_id":"line.runway.centerline.runway.markings","airport":"LFEX","geometry_role":"runway_centerline","vsmr_group_ids":[[]]},"geometry":{"type":"LineString","coordinates":[[6.239760833,48.59875],[6.239741944,48.593024722]]}},{"type":"Feature","id":"LFEX-runway-06-24-5158","properties":{"name":"LFEX RWY 06/24","layer":"Runways","category":"Runway Markings","object_type":"Line","style_id":"line.runway.centerline.runway.markings","airport":"LFEX","geometry_role":"runway_centerline","vsmr_group_ids":[[]]},"geometry":{"type":"LineString","coordinates":[[6.238166944,48.591166944],[6.245407778,48.594146944]]}},{"type":"Feature","id":"LFEX-airport-reference","properties":{"name":"LFEX","layer":"Reference points","category":"Labels","object_type":"Point","style_id":"point.airport.reference.point.labels","airport":"LFEX","geometry_role":"airport_reference_point","text-field":"LFEX","vsmr_group_ids":[[]]},"geometry":{"type":"Point","coordinates":[6.239721944,48.591943889]}}]}
