{"type":"FeatureCollection","name":"LFEZ AVISO","bbox":[6.201182778,48.720477778,6.212555833,48.726246944],"metadata":{"schema":"vSMR AVISO","schema_version":2,"airport":"LFEZ","coordinate_reference_system":"WGS84","coordinate_order":"longitude, latitude","default_color_palette":"night","color_palettes":["night","day"],"feature_count":4,"style_count":2,"layer_counts":{"Reference points":1,"Runways":3},"category_counts":{"Labels":1,"Runway Markings":3}},"styles":{"line.runway.centerline.runway.markings":{"name":"Runway Markings","layer":"Runways","object_type":"Line","paint":{"stroke":"#FEFEFE","stroke-opacity":1.0,"stroke-width":1.5},"feature_count":3},"point.airport.reference.point.labels":{"name":"Labels","layer":"Reference points","object_type":"Point","paint":{"marker-color":"#808080","marker-size":"small"},"feature_count":1}},"features":[{"type":"Feature","id":"LFEZ-runway-14-32-5159","properties":{"name":"LFEZ RWY 14/32","layer":"Runways","category":"Runway Markings","object_type":"Line","style_id":"line.runway.centerline.runway.markings","airport":"LFEZ","geometry_role":"runway_centerline","vsmr_group_ids":[[]]},"geometry":{"type":"LineString","coordinates":[[6.205660833,48.725935833],[6.212555833,48.720477778]]}},{"type":"Feature","id":"LFEZ-runway-08-26-5160","properties":{"name":"LFEZ RWY 08/26","layer":"Runways","category":"Runway Markings","object_type":"Line","style_id":"line.runway.centerline.runway.markings","airport":"LFEZ","geometry_role":"runway_centerline","vsmr_group_ids":[[]]},"geometry":{"type":"LineString","coordinates":[[6.201182778,48.721985833],[6.211782778,48.722716944]]}},{"type":"Feature","id":"LFEZ-runway-04-22-5161","properties":{"name":"LFEZ RWY 04/22","layer":"Runways","category":"Runway Markings","object_type":"Line","style_id":"line.runway.centerline.runway.markings","airport":"LFEZ","geometry_role":"runway_centerline","vsmr_group_ids":[[]]},"geometry":{"type":"LineString","coordinates":[[6.201227778,48.720718889],[6.207824722,48.726246944]]}},{"type":"Feature","id":"LFEZ-airport-reference","properties":{"name":"LFEZ","layer":"Reference points","category":"Labels","object_type":"Point","style_id":"point.airport.reference.point.labels","airport":"LFEZ","geometry_role":"airport_reference_point","text-field":"LFEZ","vsmr_group_ids":[[]]},"geometry":{"type":"Point","coordinates":[6.206388889,48.723610833]}}]}
