{"type":"FeatureCollection","name":"LFFB AVISO","bbox":[2.418746944,48.346810833,2.427982778,48.352266944],"metadata":{"schema":"vSMR AVISO","schema_version":2,"airport":"LFFB","coordinate_reference_system":"WGS84","coordinate_order":"longitude, latitude","feature_count":3,"style_count":2,"layer_counts":{"Reference points":1,"Runways":2},"category_counts":{"Labels":1,"Runway Markings":2}},"styles":{"line.runway.centerline.runway.markings":{"name":"Runway Markings","layer":"Runways","object_type":"Line","paint":{"stroke":"#FEFEFE","stroke-opacity":1.0,"stroke-width":1.5},"feature_count":2},"point.airport.reference.point.labels":{"name":"Labels","layer":"Reference points","object_type":"Point","paint":{"marker-color":"#808080","marker-size":"small"},"feature_count":1}},"features":[{"type":"Feature","id":"LFFB-runway-10-28-5162","properties":{"name":"LFFB RWY 10/28","layer":"Runways","category":"Runway Markings","object_type":"Line","style_id":"line.runway.centerline.runway.markings","airport":"LFFB","geometry_role":"runway_centerline","vsmr_group_ids":[[]]},"geometry":{"type":"LineString","coordinates":[[2.418746944,48.350932778],[2.427982778,48.350052778]]}},{"type":"Feature","id":"LFFB-runway-01-19-5163","properties":{"name":"LFFB RWY 01/19","layer":"Runways","category":"Runway Markings","object_type":"Line","style_id":"line.runway.centerline.runway.markings","airport":"LFFB","geometry_role":"runway_centerline","vsmr_group_ids":[[]]},"geometry":{"type":"LineString","coordinates":[[2.4232,48.346810833],[2.424974722,48.352266944]]}},{"type":"Feature","id":"LFFB-airport-reference","properties":{"name":"LFFB","layer":"Reference points","category":"Labels","object_type":"Point","style_id":"point.airport.reference.point.labels","airport":"LFFB","geometry_role":"airport_reference_point","text-field":"LFFB","vsmr_group_ids":[[]]},"geometry":{"type":"Point","coordinates":[2.424443889,48.350277778]}}]}
