{"type":"FeatureCollection","name":"LFFC AVISO","bbox":[1.679999722,49.077221944,1.692221944,49.081388889],"metadata":{"schema":"vSMR AVISO","schema_version":2,"airport":"LFFC","coordinate_reference_system":"WGS84","coordinate_order":"longitude, latitude","default_color_palette":"night","color_palettes":["night","day"],"feature_count":3,"style_count":2,"layer_counts":{"Reference points":1,"Runways":2},"category_counts":{"Labels":1,"Runway Markings":2}},"styles":{"line.runway.centerline.runway.markings":{"name":"Runway Markings","layer":"Runways","object_type":"Line","paint":{"stroke":"#FEFEFE","stroke-opacity":1.0,"stroke-width":1.5},"feature_count":2},"point.airport.reference.point.labels":{"name":"Labels","layer":"Reference points","object_type":"Point","paint":{"marker-color":"#808080","marker-size":"small"},"feature_count":1}},"features":[{"type":"Feature","id":"LFFC-runway-12-30-5164","properties":{"name":"LFFC RWY 12/30","layer":"Runways","category":"Runway Markings","object_type":"Line","style_id":"line.runway.centerline.runway.markings","airport":"LFFC","geometry_role":"runway_centerline","vsmr_group_ids":[]},"geometry":{"type":"LineString","coordinates":[[1.679999722,49.081388889],[1.690555833,49.077221944]]}},{"type":"Feature","id":"LFFC-runway-04-22-5165","properties":{"name":"LFFC RWY 04/22","layer":"Runways","category":"Runway Markings","object_type":"Line","style_id":"line.runway.centerline.runway.markings","airport":"LFFC","geometry_role":"runway_centerline","vsmr_group_ids":[]},"geometry":{"type":"LineString","coordinates":[[1.688888889,49.078610833],[1.692221944,49.081388889]]}},{"type":"Feature","id":"LFFC-airport-reference","properties":{"name":"LFFC","layer":"Reference points","category":"Labels","object_type":"Point","style_id":"point.airport.reference.point.labels","airport":"LFFC","geometry_role":"airport_reference_point","text-field":"LFFC","vsmr_group_ids":[]},"geometry":{"type":"Point","coordinates":[1.688332778,49.078055833]}}]}
