{"type":"FeatureCollection","name":"LFFD AVISO","bbox":[1.244827778,48.894575,1.256727778,48.900660833],"metadata":{"schema":"vSMR AVISO","schema_version":2,"airport":"LFFD","coordinate_reference_system":"WGS84","coordinate_order":"longitude, latitude","default_color_palette":"night","color_palettes":["night","day"],"feature_count":3,"style_count":2,"layer_counts":{"Reference points":1,"Runways":2},"category_counts":{"Labels":1,"Runway Markings":2}},"styles":{"line.runway.centerline.runway.markings":{"name":"Runway Markings","layer":"Runways","object_type":"Line","paint":{"stroke":"#FEFEFE","stroke-opacity":1.0,"stroke-width":1.5},"feature_count":2},"point.airport.reference.point.labels":{"name":"Labels","layer":"Reference points","object_type":"Point","paint":{"marker-color":"#808080","marker-size":"small"},"feature_count":1}},"features":[{"type":"Feature","id":"LFFD-runway-05R-23L-5166","properties":{"name":"LFFD RWY 05R/23L","layer":"Runways","category":"Runway Markings","object_type":"Line","style_id":"line.runway.centerline.runway.markings","airport":"LFFD","geometry_role":"runway_centerline","vsmr_group_ids":[[]]},"geometry":{"type":"LineString","coordinates":[[1.252346944,48.894575],[1.256682778,48.896785833]]}},{"type":"Feature","id":"LFFD-runway-05L-23R-5167","properties":{"name":"LFFD RWY 05L/23R","layer":"Runways","category":"Runway Markings","object_type":"Line","style_id":"line.runway.centerline.runway.markings","airport":"LFFD","geometry_role":"runway_centerline","vsmr_group_ids":[[]]},"geometry":{"type":"LineString","coordinates":[[1.244827778,48.894638889],[1.256727778,48.900660833]]}},{"type":"Feature","id":"LFFD-airport-reference","properties":{"name":"LFFD","layer":"Reference points","category":"Labels","object_type":"Point","style_id":"point.airport.reference.point.labels","airport":"LFFD","geometry_role":"airport_reference_point","text-field":"LFFD","vsmr_group_ids":[[]]},"geometry":{"type":"Point","coordinates":[1.250832778,48.8975]}}]}
