{"type":"FeatureCollection","name":"LFFE AVISO","bbox":[2.349763889,49.0448,2.358905833,49.047418889],"metadata":{"schema":"vSMR AVISO","schema_version":2,"airport":"LFFE","coordinate_reference_system":"WGS84","coordinate_order":"longitude, latitude","default_color_palette":"night","color_palettes":["night","day"],"feature_count":2,"style_count":2,"layer_counts":{"Reference points":1,"Runways":1},"category_counts":{"Labels":1,"Runway Markings":1}},"styles":{"line.runway.centerline.runway.markings":{"name":"Runway Markings","layer":"Runways","object_type":"Line","paint":{"stroke":"#FEFEFE","stroke-opacity":1.0,"stroke-width":1.5},"feature_count":1},"point.airport.reference.point.labels":{"name":"Labels","layer":"Reference points","object_type":"Point","paint":{"marker-color":"#808080","marker-size":"small"},"feature_count":1}},"features":[{"type":"Feature","id":"LFFE-runway-07-25-5168","properties":{"name":"LFFE RWY 07/25","layer":"Runways","category":"Runway Markings","object_type":"Line","style_id":"line.runway.centerline.runway.markings","airport":"LFFE","geometry_role":"runway_centerline","vsmr_group_ids":[[]]},"geometry":{"type":"LineString","coordinates":[[2.349763889,49.0448],[2.358905833,49.047418889]]}},{"type":"Feature","id":"LFFE-airport-reference","properties":{"name":"LFFE","layer":"Reference points","category":"Labels","object_type":"Point","style_id":"point.airport.reference.point.labels","airport":"LFFE","geometry_role":"airport_reference_point","text-field":"LFFE","vsmr_group_ids":[[]]},"geometry":{"type":"Point","coordinates":[2.351943889,49.045555833]}}]}
