{"type":"FeatureCollection","name":"LFFF AVISO","bbox":[-0.3575,46.805,4.965,51.0375],"metadata":{"schema":"vSMR AVISO","schema_version":2,"airport":"LFFF","coordinate_reference_system":"WGS84","coordinate_order":"longitude, latitude","default_color_palette":"night","color_palettes":["night","day"],"background_colors":{"night":"#434A4F","day":"#434A4F"},"feature_count":49,"style_count":1,"layer_counts":{"Labels":49},"category_counts":{"Labels":49}},"styles":{"label.text.label.labels":{"name":"Labels","layer":"Labels","object_type":"Label","paint":{"text-anchor":"center","text-color":"#CCCCCC","text-halo-color":"#000000","text-halo-width":1,"text-size":12,"zoomLevel":0},"feature_count":49}},"features":[{"type":"Feature","id":"LFFF-text-lfff-27587","properties":{"name":"HOP_HABB","layer":"Labels","category":"Labels","object_type":"Label","style_id":"label.text.label.labels","airport":"LFFF","geometry_role":"text_label","text-field":"HOP_HABB","vsmr_group_ids":[]},"geometry":{"type":"Point","coordinates":[1.831388889,50.101666667]}},{"type":"Feature","id":"LFFF-text-lfff-27588","properties":{"name":"HOP_HAMI","layer":"Labels","category":"Labels","object_type":"Label","style_id":"label.text.label.labels","airport":"LFFF","geometry_role":"text_label","text-field":"HOP_HAMI","vsmr_group_ids":[]},"geometry":{"type":"Point","coordinates":[2.2575,49.876111111]}},{"type":"Feature","id":"LFFF-text-lfff-27589","properties":{"name":"HOP_HAMY","layer":"Labels","category":"Labels","object_type":"Label","style_id":"label.text.label.labels","airport":"LFFF","geometry_role":"text_label","text-field":"HOP_HAMY","vsmr_group_ids":[]},"geometry":{"type":"Point","coordinates":[2.774444444,47.996666667]}},{"type":"Feature","id":"LFFF-text-lfff-27590","properties":{"name":"HOP_HARS","layer":"Labels","category":"Labels","object_type":"Label","style_id":"label.text.label.labels","airport":"LFFF","geometry_role":"text_label","text-field":"HOP_HARS","vsmr_group_ids":[]},"geometry":{"type":"Point","coordinates":[2.759166667,50.296111111]}},{"type":"Feature","id":"LFFF-text-lfff-27591","properties":{"name":"HOP_HAUL","layer":"Labels","category":"Labels","object_type":"Label","style_id":"label.text.label.labels","airport":"LFFF","geometry_role":"text_label","text-field":"HOP_HAUL","vsmr_group_ids":[]},"geometry":{"type":"Point","coordinates":[2.521111111,48.954444444]}},{"type":"Feature","id":"LFFF-text-lfff-27592","properties":{"name":"HOP_HAUX","layer":"Labels","category":"Labels","object_type":"Label","style_id":"label.text.label.labels","airport":"LFFF","geometry_role":"text_label","text-field":"HOP_HAUX","vsmr_group_ids":[]},"geometry":{"type":"Point","coordinates":[3.557777778,47.804444444]}},{"type":"Feature","id":"LFFF-text-lfff-27593","properties":{"name":"HOP_HBEA","layer":"Labels","category":"Labels","object_type":"Label","style_id":"label.text.label.labels","airport":"LFFF","geometry_role":"text_label","text-field":"HOP_HBEA","vsmr_group_ids":[]},"geometry":{"type":"Point","coordinates":[2.068333333,49.449166667]}},{"type":"Feature","id":"LFFF-text-lfff-27594","properties":{"name":"HOP_HBER","layer":"Labels","category":"Labels","object_type":"Label","style_id":"label.text.label.labels","airport":"LFFF","geometry_role":"text_label","text-field":"HOP_HBER","vsmr_group_ids":[]},"geometry":{"type":"Point","coordinates":[1.564166667,50.418333333]}},{"type":"Feature","id":"LFFF-text-lfff-27595","properties":{"name":"HOP_HBLO","layer":"Labels","category":"Labels","object_type":"Label","style_id":"label.text.label.labels","airport":"LFFF","geometry_role":"text_label","text-field":"HOP_HBLO","vsmr_group_ids":[]},"geometry":{"type":"Point","coordinates":[1.3425,47.604722222]}},{"type":"Feature","id":"LFFF-text-lfff-27596","properties":{"name":"HOP_HBGS","layer":"Labels","category":"Labels","object_type":"Label","style_id":"label.text.label.labels","airport":"LFFF","geometry_role":"text_label","text-field":"HOP_HBGS","vsmr_group_ids":[]},"geometry":{"type":"Point","coordinates":[2.435277778,47.084166667]}},{"type":"Feature","id":"LFFF-text-lfff-27597","properties":{"name":"HOP_HCAE","layer":"Labels","category":"Labels","object_type":"Label","style_id":"label.text.label.labels","airport":"LFFF","geometry_role":"text_label","text-field":"HOP_HCAE","vsmr_group_ids":[]},"geometry":{"type":"Point","coordinates":[-0.3575,49.203611111]}},{"type":"Feature","id":"LFFF-text-lfff-27598","properties":{"name":"HOP_HMEZ","layer":"Labels","category":"Labels","object_type":"Label","style_id":"label.text.label.labels","airport":"LFFF","geometry_role":"text_label","text-field":"HOP_HMEZ","vsmr_group_ids":[]},"geometry":{"type":"Point","coordinates":[4.6975,49.7625]}},{"type":"Feature","id":"LFFF-text-lfff-27599","properties":{"name":"HOP_LFWB","layer":"Labels","category":"Labels","object_type":"Label","style_id":"label.text.label.labels","airport":"LFFF","geometry_role":"text_label","text-field":"HOP_LFWB","vsmr_group_ids":[]},"geometry":{"type":"Point","coordinates":[1.504722222,48.42]}},{"type":"Feature","id":"LFFF-text-lfff-27600","properties":{"name":"HOP_HCHS","layer":"Labels","category":"Labels","object_type":"Label","style_id":"label.text.label.labels","airport":"LFFF","geometry_role":"text_label","text-field":"HOP_HCHS","vsmr_group_ids":[]},"geometry":{"type":"Point","coordinates":[4.558055556,47.862222222]}},{"type":"Feature","id":"LFFF-text-lfff-27601","properties":{"name":"HOP_HCHA","layer":"Labels","category":"Labels","object_type":"Label","style_id":"label.text.label.labels","airport":"LFFF","geometry_role":"text_label","text-field":"HOP_HCHA","vsmr_group_ids":[]},"geometry":{"type":"Point","coordinates":[3.2375,49.626111111]}},{"type":"Feature","id":"LFFF-text-lfff-27602","properties":{"name":"HOP_HCOM","layer":"Labels","category":"Labels","object_type":"Label","style_id":"label.text.label.labels","airport":"LFFF","geometry_role":"text_label","text-field":"HOP_HCOM","vsmr_group_ids":[]},"geometry":{"type":"Point","coordinates":[2.795555556,49.389722222]}},{"type":"Feature","id":"LFFF-text-lfff-27603","properties":{"name":"HOP_HCOQ","layer":"Labels","category":"Labels","object_type":"Label","style_id":"label.text.label.labels","airport":"LFFF","geometry_role":"text_label","text-field":"HOP_HCOQ","vsmr_group_ids":[]},"geometry":{"type":"Point","coordinates":[1.795,50.918055556]}},{"type":"Feature","id":"LFFF-text-lfff-27604","properties":{"name":"HOP_HCOR","layer":"Labels","category":"Labels","object_type":"Label","style_id":"label.text.label.labels","airport":"LFFF","geometry_role":"text_label","text-field":"HOP_HCOR","vsmr_group_ids":[]},"geometry":{"type":"Point","coordinates":[2.457222222,48.620277778]}},{"type":"Feature","id":"LFFF-text-lfff-27605","properties":{"name":"HOP_HDPE","layer":"Labels","category":"Labels","object_type":"Label","style_id":"label.text.label.labels","airport":"LFFF","geometry_role":"text_label","text-field":"HOP_HDPE","vsmr_group_ids":[]},"geometry":{"type":"Point","coordinates":[1.080555556,49.917777778]}},{"type":"Feature","id":"LFFF-text-lfff-27606","properties":{"name":"HOP_HDOI","layer":"Labels","category":"Labels","object_type":"Label","style_id":"label.text.label.labels","airport":"LFFF","geometry_role":"text_label","text-field":"HOP_HDOI","vsmr_group_ids":[]},"geometry":{"type":"Point","coordinates":[3.101388889,50.337222222]}},{"type":"Feature","id":"LFFF-text-lfff-27607","properties":{"name":"HOP_LFWD","layer":"Labels","category":"Labels","object_type":"Label","style_id":"label.text.label.labels","airport":"LFFF","geometry_role":"text_label","text-field":"HOP_LFWD","vsmr_group_ids":[]},"geometry":{"type":"Point","coordinates":[1.384722222,48.7275]}},{"type":"Feature","id":"LFFF-text-lfff-27608","properties":{"name":"HOP_HDUN","layer":"Labels","category":"Labels","object_type":"Label","style_id":"label.text.label.labels","airport":"LFFF","geometry_role":"text_label","text-field":"HOP_HDUN","vsmr_group_ids":[]},"geometry":{"type":"Point","coordinates":[2.396666667,51.0375]}},{"type":"Feature","id":"LFFF-text-lfff-27609","properties":{"name":"HOP_HEVR","layer":"Labels","category":"Labels","object_type":"Label","style_id":"label.text.label.labels","airport":"LFFF","geometry_role":"text_label","text-field":"HOP_HEVR","vsmr_group_ids":[]},"geometry":{"type":"Point","coordinates":[1.114166667,49.031111111]}},{"type":"Feature","id":"LFFF-text-lfff-27610","properties":{"name":"HOP_HFEC","layer":"Labels","category":"Labels","object_type":"Label","style_id":"label.text.label.labels","airport":"LFFF","geometry_role":"text_label","text-field":"HOP_HFEC","vsmr_group_ids":[]},"geometry":{"type":"Point","coordinates":[0.385555556,49.743055556]}},{"type":"Feature","id":"LFFF-text-lfff-27611","properties":{"name":"HOP_HGIE","layer":"Labels","category":"Labels","object_type":"Label","style_id":"label.text.label.labels","airport":"LFFF","geometry_role":"text_label","text-field":"HOP_HGIE","vsmr_group_ids":[]},"geometry":{"type":"Point","coordinates":[2.634722222,47.690277778]}},{"type":"Feature","id":"LFFF-text-lfff-27612","properties":{"name":"HOP_HLAI","layer":"Labels","category":"Labels","object_type":"Label","style_id":"label.text.label.labels","airport":"LFFF","geometry_role":"text_label","text-field":"HOP_HLAI","vsmr_group_ids":[]},"geometry":{"type":"Point","coordinates":[0.611666667,48.768055556]}},{"type":"Feature","id":"LFFF-text-lfff-27613","properties":{"name":"HOP_HLAO","layer":"Labels","category":"Labels","object_type":"Label","style_id":"label.text.label.labels","airport":"LFFF","geometry_role":"text_label","text-field":"HOP_HLAO","vsmr_group_ids":[]},"geometry":{"type":"Point","coordinates":[3.597222222,49.55]}},{"type":"Feature","id":"LFFF-text-lfff-27614","properties":{"name":"HOP_HCRE","layer":"Labels","category":"Labels","object_type":"Label","style_id":"label.text.label.labels","airport":"LFFF","geometry_role":"text_label","text-field":"HOP_HCRE","vsmr_group_ids":[]},"geometry":{"type":"Point","coordinates":[4.446111111,46.805]}},{"type":"Feature","id":"LFFF-text-lfff-27615","properties":{"name":"HOP_HHAV","layer":"Labels","category":"Labels","object_type":"Label","style_id":"label.text.label.labels","airport":"LFFF","geometry_role":"text_label","text-field":"HOP_HHAV","vsmr_group_ids":[]},"geometry":{"type":"Point","coordinates":[0.184722222,49.524722222]}},{"type":"Feature","id":"LFFF-text-lfff-27616","properties":{"name":"HOP_HLEP","layer":"Labels","category":"Labels","object_type":"Label","style_id":"label.text.label.labels","airport":"LFFF","geometry_role":"text_label","text-field":"HOP_HLEP","vsmr_group_ids":[]},"geometry":{"type":"Point","coordinates":[2.274166667,48.784722222]}},{"type":"Feature","id":"LFFF-text-lfff-27617","properties":{"name":"HOP_HLIL","layer":"Labels","category":"Labels","object_type":"Label","style_id":"label.text.label.labels","airport":"LFFF","geometry_role":"text_label","text-field":"HOP_HLIL","vsmr_group_ids":[]},"geometry":{"type":"Point","coordinates":[3.035,50.604166667]}},{"type":"Feature","id":"LFFF-text-lfff-27618","properties":{"name":"HOP_HNEV","layer":"Labels","category":"Labels","object_type":"Label","style_id":"label.text.label.labels","airport":"LFFF","geometry_role":"text_label","text-field":"HOP_HNEV","vsmr_group_ids":[]},"geometry":{"type":"Point","coordinates":[3.122222222,46.981388889]}},{"type":"Feature","id":"LFFF-text-lfff-27619","properties":{"name":"HOP_HORL","layer":"Labels","category":"Labels","object_type":"Label","style_id":"label.text.label.labels","airport":"LFFF","geometry_role":"text_label","text-field":"HOP_HORL","vsmr_group_ids":[]},"geometry":{"type":"Point","coordinates":[1.919444444,47.835277778]}},{"type":"Feature","id":"LFFF-text-lfff-27620","properties":{"name":"HOP_HPLR","layer":"Labels","category":"Labels","object_type":"Label","style_id":"label.text.label.labels","airport":"LFFF","geometry_role":"text_label","text-field":"HOP_HPLR","vsmr_group_ids":[]},"geometry":{"type":"Point","coordinates":[2.354444444,48.882777778]}},{"type":"Feature","id":"LFFF-text-lfff-27621","properties":{"name":"HOP_IRAN","layer":"Labels","category":"Labels","object_type":"Label","style_id":"label.text.label.labels","airport":"LFFF","geometry_role":"text_label","text-field":"HOP_IRAN","vsmr_group_ids":[]},"geometry":{"type":"Point","coordinates":[1.663055556,50.414444444]}},{"type":"Feature","id":"LFFF-text-lfff-27622","properties":{"name":"HOP_HROM","layer":"Labels","category":"Labels","object_type":"Label","style_id":"label.text.label.labels","airport":"LFFF","geometry_role":"text_label","text-field":"HOP_HROM","vsmr_group_ids":[]},"geometry":{"type":"Point","coordinates":[1.731944444,47.360555556]}},{"type":"Feature","id":"LFFF-text-lfff-27623","properties":{"name":"HOP_HROU","layer":"Labels","category":"Labels","object_type":"Label","style_id":"label.text.label.labels","airport":"LFFF","geometry_role":"text_label","text-field":"HOP_HROU","vsmr_group_ids":[]},"geometry":{"type":"Point","coordinates":[1.111111111,49.440555556]}},{"type":"Feature","id":"LFFF-text-lfff-27624","properties":{"name":"HOP_HSDI","layer":"Labels","category":"Labels","object_type":"Label","style_id":"label.text.label.labels","airport":"LFFF","geometry_role":"text_label","text-field":"HOP_HSDI","vsmr_group_ids":[]},"geometry":{"type":"Point","coordinates":[4.965,48.655]}},{"type":"Feature","id":"LFFF-text-lfff-27625","properties":{"name":"HOP_HOME","layer":"Labels","category":"Labels","object_type":"Label","style_id":"label.text.label.labels","airport":"LFFF","geometry_role":"text_label","text-field":"HOP_HOME","vsmr_group_ids":[]},"geometry":{"type":"Point","coordinates":[2.254722222,50.703611111]}},{"type":"Feature","id":"LFFF-text-lfff-27626","properties":{"name":"HOP_HSTP","layer":"Labels","category":"Labels","object_type":"Label","style_id":"label.text.label.labels","airport":"LFFF","geometry_role":"text_label","text-field":"HOP_HSTP","vsmr_group_ids":[]},"geometry":{"type":"Point","coordinates":[2.335555556,50.387777778]}},{"type":"Feature","id":"LFFF-text-lfff-27627","properties":{"name":"HOP_HSTQ","layer":"Labels","category":"Labels","object_type":"Label","style_id":"label.text.label.labels","airport":"LFFF","geometry_role":"text_label","text-field":"HOP_HSTQ","vsmr_group_ids":[]},"geometry":{"type":"Point","coordinates":[3.271666667,49.860555556]}},{"type":"Feature","id":"LFFF-text-lfff-27628","properties":{"name":"HOP_HSPS","layer":"Labels","category":"Labels","object_type":"Label","style_id":"label.text.label.labels","airport":"LFFF","geometry_role":"text_label","text-field":"HOP_HSPS","vsmr_group_ids":[]},"geometry":{"type":"Point","coordinates":[1.878611111,47.938333333]}},{"type":"Feature","id":"LFFF-text-lfff-27629","properties":{"name":"HOP_HSAU","layer":"Labels","category":"Labels","object_type":"Label","style_id":"label.text.label.labels","airport":"LFFF","geometry_role":"text_label","text-field":"HOP_HSAU","vsmr_group_ids":[]},"geometry":{"type":"Point","coordinates":[-0.059444444,47.245555556]}},{"type":"Feature","id":"LFFF-text-lfff-27630","properties":{"name":"HOP_HSEM","layer":"Labels","category":"Labels","object_type":"Label","style_id":"label.text.label.labels","airport":"LFFF","geometry_role":"text_label","text-field":"HOP_HSEM","vsmr_group_ids":[]},"geometry":{"type":"Point","coordinates":[4.344444444,47.495555556]}},{"type":"Feature","id":"LFFF-text-lfff-27631","properties":{"name":"HOP_HSES","layer":"Labels","category":"Labels","object_type":"Label","style_id":"label.text.label.labels","airport":"LFFF","geometry_role":"text_label","text-field":"HOP_HSES","vsmr_group_ids":[]},"geometry":{"type":"Point","coordinates":[3.306388889,48.191944444]}},{"type":"Feature","id":"LFFF-text-lfff-27632","properties":{"name":"HOP_HTOU","layer":"Labels","category":"Labels","object_type":"Label","style_id":"label.text.label.labels","airport":"LFFF","geometry_role":"text_label","text-field":"HOP_HTOU","vsmr_group_ids":[]},"geometry":{"type":"Point","coordinates":[0.709166667,47.348888889]}},{"type":"Feature","id":"LFFF-text-lfff-27633","properties":{"name":"HOP_HVAC","layer":"Labels","category":"Labels","object_type":"Label","style_id":"label.text.label.labels","airport":"LFFF","geometry_role":"text_label","text-field":"HOP_HVAC","vsmr_group_ids":[]},"geometry":{"type":"Point","coordinates":[3.499166667,50.360833333]}},{"type":"Feature","id":"LFFF-text-lfff-27634","properties":{"name":"HOP_HVEN","layer":"Labels","category":"Labels","object_type":"Label","style_id":"label.text.label.labels","airport":"LFFF","geometry_role":"text_label","text-field":"HOP_HVEN","vsmr_group_ids":[]},"geometry":{"type":"Point","coordinates":[1.062777778,47.794166667]}},{"type":"Feature","id":"LFFF-text-lfff-27635","properties":{"name":"HOP_HVER","layer":"Labels","category":"Labels","object_type":"Label","style_id":"label.text.label.labels","airport":"LFFF","geometry_role":"text_label","text-field":"HOP_HVER","vsmr_group_ids":[]},"geometry":{"type":"Point","coordinates":[0.891666667,48.744444444]}}]}
