{"type":"FeatureCollection","name":"LFFH AVISO","bbox":[3.353171944,49.064507778,3.358060833,49.069107778],"metadata":{"schema":"vSMR AVISO","schema_version":2,"airport":"LFFH","coordinate_reference_system":"WGS84","coordinate_order":"longitude, latitude","default_color_palette":"night","color_palettes":["night","day"],"feature_count":2,"style_count":2,"layer_counts":{"Reference points":1,"Runways":1},"category_counts":{"Labels":1,"Runway Markings":1}},"styles":{"line.runway.centerline.runway.markings":{"name":"Runway Markings","layer":"Runways","object_type":"Line","paint":{"stroke":"#FEFEFE","stroke-opacity":1.0,"stroke-width":1.5},"feature_count":1},"point.airport.reference.point.labels":{"name":"Labels","layer":"Reference points","object_type":"Point","paint":{"marker-color":"#808080","marker-size":"small"},"feature_count":1}},"features":[{"type":"Feature","id":"LFFH-runway-03-21-5170","properties":{"name":"LFFH RWY 03/21","layer":"Runways","category":"Runway Markings","object_type":"Line","style_id":"line.runway.centerline.runway.markings","airport":"LFFH","geometry_role":"runway_centerline","vsmr_group_ids":[]},"geometry":{"type":"LineString","coordinates":[[3.353171944,49.064507778],[3.358060833,49.069107778]]}},{"type":"Feature","id":"LFFH-airport-reference","properties":{"name":"LFFH","layer":"Reference points","category":"Labels","object_type":"Point","style_id":"point.airport.reference.point.labels","airport":"LFFH","geometry_role":"airport_reference_point","text-field":"LFFH","vsmr_group_ids":[]},"geometry":{"type":"Point","coordinates":[3.355555833,49.066666944]}}]}
