{"type":"FeatureCollection","name":"LFFI AVISO","bbox":[-1.186332778,47.405466944,-1.171185833,47.408746944],"metadata":{"schema":"vSMR AVISO","schema_version":2,"airport":"LFFI","coordinate_reference_system":"WGS84","coordinate_order":"longitude, latitude","feature_count":2,"style_count":2,"layer_counts":{"Reference points":1,"Runways":1},"category_counts":{"Labels":1,"Runway Markings":1}},"styles":{"line.runway.centerline.runway.markings":{"name":"Runway Markings","layer":"Runways","object_type":"Line","paint":{"stroke":"#FEFEFE","stroke-opacity":1.0,"stroke-width":1.5},"feature_count":1},"point.airport.reference.point.labels":{"name":"Labels","layer":"Reference points","object_type":"Point","paint":{"marker-color":"#808080","marker-size":"small"},"feature_count":1}},"features":[{"type":"Feature","id":"LFFI-runway-07-25-5264","properties":{"name":"LFFI RWY 07/25","layer":"Runways","category":"Runway Markings","object_type":"Line","style_id":"line.runway.centerline.runway.markings","airport":"LFFI","geometry_role":"runway_centerline","vsmr_group_ids":[[]]},"geometry":{"type":"LineString","coordinates":[[-1.186332778,47.405466944],[-1.171185833,47.408746944]]}},{"type":"Feature","id":"LFFI-airport-reference","properties":{"name":"LFFI","layer":"Reference points","category":"Labels","object_type":"Point","style_id":"point.airport.reference.point.labels","airport":"LFFI","geometry_role":"airport_reference_point","text-field":"LFFI","vsmr_group_ids":[[]]},"geometry":{"type":"Point","coordinates":[-1.178888889,47.407221944]}}]}
