{"type":"FeatureCollection","name":"LFFJ AVISO","bbox":[5.140227778,48.384941944,5.147130833,48.385310833],"metadata":{"schema":"vSMR AVISO","schema_version":2,"airport":"LFFJ","coordinate_reference_system":"WGS84","coordinate_order":"longitude, latitude","default_color_palette":"night","color_palettes":["night","day"],"background_colors":{"night":"#434A4F","day":"#434A4F"},"feature_count":2,"style_count":2,"layer_counts":{"Reference points":1,"Runways":1},"category_counts":{"Labels":1,"Runway Markings":1}},"styles":{"line.runway.centerline.runway.markings":{"name":"Runway Markings","layer":"Runways","object_type":"Line","paint":{"stroke":"#FEFEFE","stroke-opacity":1.0,"stroke-width":1.5},"feature_count":1},"point.airport.reference.point.labels":{"name":"Labels","layer":"Reference points","object_type":"Point","paint":{"marker-color":"#808080","marker-size":"small"},"feature_count":1}},"features":[{"type":"Feature","id":"LFFJ-runway-09-27-5171","properties":{"name":"LFFJ RWY 09/27","layer":"Runways","category":"Runway Markings","object_type":"Line","style_id":"line.runway.centerline.runway.markings","airport":"LFFJ","geometry_role":"runway_centerline","vsmr_group_ids":[]},"geometry":{"type":"LineString","coordinates":[[5.140227778,48.385310833],[5.147130833,48.384941944]]}},{"type":"Feature","id":"LFFJ-airport-reference","properties":{"name":"LFFJ","layer":"Reference points","category":"Labels","object_type":"Point","style_id":"point.airport.reference.point.labels","airport":"LFFJ","geometry_role":"airport_reference_point","text-field":"LFFJ","vsmr_group_ids":[]},"geometry":{"type":"Point","coordinates":[5.143332778,48.385277778]}}]}
