{"type":"FeatureCollection","name":"LFFK AVISO","bbox":[-0.800118889,46.440060833,-0.787555833,46.441366944],"metadata":{"schema":"vSMR AVISO","schema_version":2,"airport":"LFFK","coordinate_reference_system":"WGS84","coordinate_order":"longitude, latitude","default_color_palette":"night","color_palettes":["night","day"],"feature_count":3,"style_count":2,"layer_counts":{"Reference points":1,"Runways":2},"category_counts":{"Labels":1,"Runway Markings":2}},"styles":{"line.runway.centerline.runway.markings":{"name":"Runway Markings","layer":"Runways","object_type":"Line","paint":{"stroke":"#FEFEFE","stroke-opacity":1.0,"stroke-width":1.5},"feature_count":2},"point.airport.reference.point.labels":{"name":"Labels","layer":"Reference points","object_type":"Point","paint":{"marker-color":"#808080","marker-size":"small"},"feature_count":1}},"features":[{"type":"Feature","id":"LFFK-runway-08R-26L-4880","properties":{"name":"LFFK RWY 08R/26L","layer":"Runways","category":"Runway Markings","object_type":"Line","style_id":"line.runway.centerline.runway.markings","airport":"LFFK","geometry_role":"runway_centerline","vsmr_group_ids":[[]]},"geometry":{"type":"LineString","coordinates":[[-0.800071944,46.440060833],[-0.787655833,46.440882778]]}},{"type":"Feature","id":"LFFK-runway-08-26-4881","properties":{"name":"LFFK RWY 08/26","layer":"Runways","category":"Runway Markings","object_type":"Line","style_id":"line.runway.centerline.runway.markings","airport":"LFFK","geometry_role":"runway_centerline","vsmr_group_ids":[[]]},"geometry":{"type":"LineString","coordinates":[[-0.800118889,46.440527778],[-0.787555833,46.441366944]]}},{"type":"Feature","id":"LFFK-airport-reference","properties":{"name":"LFFK","layer":"Reference points","category":"Labels","object_type":"Point","style_id":"point.airport.reference.point.labels","airport":"LFFK","geometry_role":"airport_reference_point","text-field":"LFFK","vsmr_group_ids":[[]]},"geometry":{"type":"Point","coordinates":[-0.793888889,46.440832778]}}]}
