{"type":"FeatureCollection","name":"LFFL AVISO","bbox":[1.630135833,48.513152778,1.640310833,48.521124722],"metadata":{"schema":"vSMR AVISO","schema_version":2,"airport":"LFFL","coordinate_reference_system":"WGS84","coordinate_order":"longitude, latitude","default_color_palette":"night","color_palettes":["night","day"],"background_colors":{"night":"#434A4F","day":"#434A4F"},"feature_count":3,"style_count":2,"layer_counts":{"Reference points":1,"Runways":2},"category_counts":{"Labels":1,"Runway Markings":2}},"styles":{"line.runway.centerline.runway.markings":{"name":"Runway Markings","layer":"Runways","object_type":"Line","paint":{"stroke":"#FEFEFE","stroke-opacity":1.0,"stroke-width":1.5},"feature_count":2},"point.airport.reference.point.labels":{"name":"Labels","layer":"Reference points","object_type":"Point","paint":{"marker-color":"#808080","marker-size":"small"},"feature_count":1}},"features":[{"type":"Feature","id":"LFFL-runway-18-36-5172","properties":{"name":"LFFL RWY 18/36","layer":"Runways","category":"Runway Markings","object_type":"Line","style_id":"line.runway.centerline.runway.markings","airport":"LFFL","geometry_role":"runway_centerline","vsmr_group_ids":[]},"geometry":{"type":"LineString","coordinates":[[1.638916944,48.521124722],[1.638627778,48.514099722]]}},{"type":"Feature","id":"LFFL-runway-07-25-5173","properties":{"name":"LFFL RWY 07/25","layer":"Runways","category":"Runway Markings","object_type":"Line","style_id":"line.runway.centerline.runway.markings","airport":"LFFL","geometry_role":"runway_centerline","vsmr_group_ids":[]},"geometry":{"type":"LineString","coordinates":[[1.630135833,48.513152778],[1.640310833,48.515052778]]}},{"type":"Feature","id":"LFFL-airport-reference","properties":{"name":"LFFL","layer":"Reference points","category":"Labels","object_type":"Point","style_id":"point.airport.reference.point.labels","airport":"LFFL","geometry_role":"airport_reference_point","text-field":"LFFL","vsmr_group_ids":[]},"geometry":{"type":"Point","coordinates":[1.638610833,48.514721944]}}]}
