{"type":"FeatureCollection","name":"LFFN AVISO","bbox":[4.465385833,48.429630833,4.482793889,48.431466944],"metadata":{"schema":"vSMR AVISO","schema_version":2,"airport":"LFFN","coordinate_reference_system":"WGS84","coordinate_order":"longitude, latitude","feature_count":3,"style_count":2,"layer_counts":{"Reference points":1,"Runways":2},"category_counts":{"Labels":1,"Runway Markings":2}},"styles":{"line.runway.centerline.runway.markings":{"name":"Runway Markings","layer":"Runways","object_type":"Line","paint":{"stroke":"#FEFEFE","stroke-opacity":1.0,"stroke-width":1.5},"feature_count":2},"point.airport.reference.point.labels":{"name":"Labels","layer":"Reference points","object_type":"Point","paint":{"marker-color":"#808080","marker-size":"small"},"feature_count":1}},"features":[{"type":"Feature","id":"LFFN-runway-10R-28L-5174","properties":{"name":"LFFN RWY 10R/28L","layer":"Runways","category":"Runway Markings","object_type":"Line","style_id":"line.runway.centerline.runway.markings","airport":"LFFN","geometry_role":"runway_centerline","vsmr_group_ids":[[]]},"geometry":{"type":"LineString","coordinates":[[4.465732778,48.430957778],[4.475624722,48.429913889]]}},{"type":"Feature","id":"LFFN-runway-10-28-5175","properties":{"name":"LFFN RWY 10/28","layer":"Runways","category":"Runway Markings","object_type":"Line","style_id":"line.runway.centerline.runway.markings","airport":"LFFN","geometry_role":"runway_centerline","vsmr_group_ids":[[]]},"geometry":{"type":"LineString","coordinates":[[4.465385833,48.431466944],[4.482793889,48.429630833]]}},{"type":"Feature","id":"LFFN-airport-reference","properties":{"name":"LFFN","layer":"Reference points","category":"Labels","object_type":"Point","style_id":"point.airport.reference.point.labels","airport":"LFFN","geometry_role":"airport_reference_point","text-field":"LFFN","vsmr_group_ids":[[]]},"geometry":{"type":"Point","coordinates":[4.482221944,48.429721944]}}]}
