{"type":"FeatureCollection","name":"LFFP AVISO","bbox":[2.183216944,48.154152778,2.193382778,48.156780833],"metadata":{"schema":"vSMR AVISO","schema_version":2,"airport":"LFFP","coordinate_reference_system":"WGS84","coordinate_order":"longitude, latitude","feature_count":2,"style_count":2,"layer_counts":{"Reference points":1,"Runways":1},"category_counts":{"Labels":1,"Runway Markings":1}},"styles":{"line.runway.centerline.runway.markings":{"name":"Runway Markings","layer":"Runways","object_type":"Line","paint":{"stroke":"#FEFEFE","stroke-opacity":1.0,"stroke-width":1.5},"feature_count":1},"point.airport.reference.point.labels":{"name":"Labels","layer":"Reference points","object_type":"Point","paint":{"marker-color":"#808080","marker-size":"small"},"feature_count":1}},"features":[{"type":"Feature","id":"LFFP-runway-07-25-5176","properties":{"name":"LFFP RWY 07/25","layer":"Runways","category":"Runway Markings","object_type":"Line","style_id":"line.runway.centerline.runway.markings","airport":"LFFP","geometry_role":"runway_centerline","vsmr_group_ids":[[]]},"geometry":{"type":"LineString","coordinates":[[2.183216944,48.154152778],[2.193382778,48.156780833]]}},{"type":"Feature","id":"LFFP-airport-reference","properties":{"name":"LFFP","layer":"Reference points","category":"Labels","object_type":"Point","style_id":"point.airport.reference.point.labels","airport":"LFFP","geometry_role":"airport_reference_point","text-field":"LFFP","vsmr_group_ids":[[]]},"geometry":{"type":"Point","coordinates":[2.191110833,48.156388889]}}]}
