{"type":"FeatureCollection","name":"LFFR AVISO","bbox":[4.407524722,48.064513889,4.417321944,48.067491944],"metadata":{"schema":"vSMR AVISO","schema_version":2,"airport":"LFFR","coordinate_reference_system":"WGS84","coordinate_order":"longitude, latitude","feature_count":2,"style_count":2,"layer_counts":{"Reference points":1,"Runways":1},"category_counts":{"Labels":1,"Runway Markings":1}},"styles":{"line.runway.centerline.runway.markings":{"name":"Runway Markings","layer":"Runways","object_type":"Line","paint":{"stroke":"#FEFEFE","stroke-opacity":1.0,"stroke-width":1.5},"feature_count":1},"point.airport.reference.point.labels":{"name":"Labels","layer":"Reference points","object_type":"Point","paint":{"marker-color":"#808080","marker-size":"small"},"feature_count":1}},"features":[{"type":"Feature","id":"LFFR-runway-11-29-5178","properties":{"name":"LFFR RWY 11/29","layer":"Runways","category":"Runway Markings","object_type":"Line","style_id":"line.runway.centerline.runway.markings","airport":"LFFR","geometry_role":"runway_centerline","vsmr_group_ids":[[]]},"geometry":{"type":"LineString","coordinates":[[4.407524722,48.067491944],[4.417321944,48.064513889]]}},{"type":"Feature","id":"LFFR-airport-reference","properties":{"name":"LFFR","layer":"Reference points","category":"Labels","object_type":"Point","style_id":"point.airport.reference.point.labels","airport":"LFFR","geometry_role":"airport_reference_point","text-field":"LFFR","vsmr_group_ids":[[]]},"geometry":{"type":"Point","coordinates":[4.412499722,48.066110833]}}]}
