{"type":"FeatureCollection","name":"LFFU AVISO","bbox":[2.370955833,46.869982778,2.380535833,46.870496944],"metadata":{"schema":"vSMR AVISO","schema_version":2,"airport":"LFFU","coordinate_reference_system":"WGS84","coordinate_order":"longitude, latitude","default_color_palette":"night","color_palettes":["night","day"],"background_colors":{"night":"#434A4F","day":"#434A4F"},"feature_count":2,"style_count":2,"layer_counts":{"Reference points":1,"Runways":1},"category_counts":{"Labels":1,"Runway Markings":1}},"styles":{"line.runway.centerline.runway.markings":{"name":"Runway Markings","layer":"Runways","object_type":"Line","paint":{"stroke":"#FEFEFE","stroke-opacity":1.0,"stroke-width":1.5},"feature_count":1},"point.airport.reference.point.labels":{"name":"Labels","layer":"Reference points","object_type":"Point","paint":{"marker-color":"#808080","marker-size":"small"},"feature_count":1}},"features":[{"type":"Feature","id":"LFFU-runway-08-26-5180","properties":{"name":"LFFU RWY 08/26","layer":"Runways","category":"Runway Markings","object_type":"Line","style_id":"line.runway.centerline.runway.markings","airport":"LFFU","geometry_role":"runway_centerline","vsmr_group_ids":[]},"geometry":{"type":"LineString","coordinates":[[2.370955833,46.869982778],[2.380535833,46.870496944]]}},{"type":"Feature","id":"LFFU-airport-reference","properties":{"name":"LFFU","layer":"Reference points","category":"Labels","object_type":"Point","style_id":"point.airport.reference.point.labels","airport":"LFFU","geometry_role":"airport_reference_point","text-field":"LFFU","vsmr_group_ids":[]},"geometry":{"type":"Point","coordinates":[2.375707778,46.870143889]}}]}
