{"type":"FeatureCollection","name":"LFFW AVISO","bbox":[-1.332149722,46.930455833,-1.323110833,46.933152778],"metadata":{"schema":"vSMR AVISO","schema_version":2,"airport":"LFFW","coordinate_reference_system":"WGS84","coordinate_order":"longitude, latitude","feature_count":2,"style_count":2,"layer_counts":{"Reference points":1,"Runways":1},"category_counts":{"Labels":1,"Runway Markings":1}},"styles":{"line.runway.centerline.runway.markings":{"name":"Runway Markings","layer":"Runways","object_type":"Line","paint":{"stroke":"#FEFEFE","stroke-opacity":1.0,"stroke-width":1.5},"feature_count":1},"point.airport.reference.point.labels":{"name":"Labels","layer":"Reference points","object_type":"Point","paint":{"marker-color":"#808080","marker-size":"small"},"feature_count":1}},"features":[{"type":"Feature","id":"LFFW-runway-07-25-5265","properties":{"name":"LFFW RWY 07/25","layer":"Runways","category":"Runway Markings","object_type":"Line","style_id":"line.runway.centerline.runway.markings","airport":"LFFW","geometry_role":"runway_centerline","vsmr_group_ids":[[]]},"geometry":{"type":"LineString","coordinates":[[-1.332149722,46.930455833],[-1.323110833,46.933152778]]}},{"type":"Feature","id":"LFFW-airport-reference","properties":{"name":"LFFW","layer":"Reference points","category":"Labels","object_type":"Point","style_id":"point.airport.reference.point.labels","airport":"LFFW","geometry_role":"airport_reference_point","text-field":"LFFW","vsmr_group_ids":[[]]},"geometry":{"type":"Point","coordinates":[-1.327221944,46.932221944]}}]}
