{"type":"FeatureCollection","name":"LFFZ AVISO","bbox":[3.759391944,48.707746944,3.767730833,48.711343889],"metadata":{"schema":"vSMR AVISO","schema_version":2,"airport":"LFFZ","coordinate_reference_system":"WGS84","coordinate_order":"longitude, latitude","default_color_palette":"night","color_palettes":["night","day"],"feature_count":3,"style_count":2,"layer_counts":{"Reference points":1,"Runways":2},"category_counts":{"Labels":1,"Runway Markings":2}},"styles":{"line.runway.centerline.runway.markings":{"name":"Runway Markings","layer":"Runways","object_type":"Line","paint":{"stroke":"#FEFEFE","stroke-opacity":1.0,"stroke-width":1.5},"feature_count":2},"point.airport.reference.point.labels":{"name":"Labels","layer":"Reference points","object_type":"Point","paint":{"marker-color":"#808080","marker-size":"small"},"feature_count":1}},"features":[{"type":"Feature","id":"LFFZ-runway-06R-24L-5184","properties":{"name":"LFFZ RWY 06R/24L","layer":"Runways","category":"Runway Markings","object_type":"Line","style_id":"line.runway.centerline.runway.markings","airport":"LFFZ","geometry_role":"runway_centerline","vsmr_group_ids":[]},"geometry":{"type":"LineString","coordinates":[[3.759857778,48.707746944],[3.767730833,48.710991944]]}},{"type":"Feature","id":"LFFZ-runway-06L-24R-5185","properties":{"name":"LFFZ RWY 06L/24R","layer":"Runways","category":"Runway Markings","object_type":"Line","style_id":"line.runway.centerline.runway.markings","airport":"LFFZ","geometry_role":"runway_centerline","vsmr_group_ids":[]},"geometry":{"type":"LineString","coordinates":[[3.759391944,48.708241944],[3.766916944,48.711343889]]}},{"type":"Feature","id":"LFFZ-airport-reference","properties":{"name":"LFFZ","layer":"Reference points","category":"Labels","object_type":"Point","style_id":"point.airport.reference.point.labels","airport":"LFFZ","geometry_role":"airport_reference_point","text-field":"LFFZ","vsmr_group_ids":[]},"geometry":{"type":"Point","coordinates":[3.762777778,48.709443889]}}]}
