{"type":"FeatureCollection","name":"LFGB AVISO","bbox":[7.348055556,47.688888889,7.493055556,47.781388889],"metadata":{"schema":"vSMR AVISO","schema_version":2,"airport":"LFGB","coordinate_reference_system":"WGS84","coordinate_order":"longitude, latitude","feature_count":8,"style_count":3,"layer_counts":{"Labels":4,"Reference points":1,"Runways":3},"category_counts":{"Labels":5,"Runway Markings":3}},"styles":{"label.text.label.labels":{"name":"Labels","layer":"Labels","object_type":"Label","paint":{"text-anchor":"center","text-color":"#CCCCCC","text-halo-color":"#000000","text-halo-width":1,"text-size":12},"feature_count":4},"line.runway.centerline.runway.markings":{"name":"Runway Markings","layer":"Runways","object_type":"Line","paint":{"stroke":"#FEFEFE","stroke-opacity":1.0,"stroke-width":1.5},"feature_count":3},"point.airport.reference.point.labels":{"name":"Labels","layer":"Reference points","object_type":"Point","paint":{"marker-color":"#808080","marker-size":"small"},"feature_count":1}},"features":[{"type":"Feature","id":"LFGB-runway-16-34-6749","properties":{"name":"LFGB RWY 16/34","layer":"Runways","category":"Runway Markings","object_type":"Line","style_id":"line.runway.centerline.runway.markings","airport":"LFGB","geometry_role":"runway_centerline","vsmr_group_ids":[[]]},"geometry":{"type":"LineString","coordinates":[[7.427613889,47.743921944],[7.429674722,47.739646944]]}},{"type":"Feature","id":"LFGB-runway-02R-20L-6750","properties":{"name":"LFGB RWY 02R/20L","layer":"Runways","category":"Runway Markings","object_type":"Line","style_id":"line.runway.centerline.runway.markings","airport":"LFGB","geometry_role":"runway_centerline","vsmr_group_ids":[[]]},"geometry":{"type":"LineString","coordinates":[[7.430630833,47.736810833],[7.435502778,47.744871944]]}},{"type":"Feature","id":"LFGB-runway-02-20-6751","properties":{"name":"LFGB RWY 02/20","layer":"Runways","category":"Runway Markings","object_type":"Line","style_id":"line.runway.centerline.runway.markings","airport":"LFGB","geometry_role":"runway_centerline","vsmr_group_ids":[[]]},"geometry":{"type":"LineString","coordinates":[[7.429693889,47.737175],[7.434355833,47.744882778]]}},{"type":"Feature","id":"LFGB-airport-reference","properties":{"name":"LFGB","layer":"Reference points","category":"Labels","object_type":"Point","style_id":"point.airport.reference.point.labels","airport":"LFGB","geometry_role":"airport_reference_point","text-field":"LFGB","vsmr_group_ids":[[]]},"geometry":{"type":"Point","coordinates":[7.429721944,47.737221944]}},{"type":"Feature","id":"LFGB-text-lfee-19421","properties":{"name":"NH","layer":"Labels","category":"Labels","object_type":"Label","style_id":"label.text.label.labels","airport":"LFGB","geometry_role":"text_label","text-field":"NH","vsmr_group_ids":[[]]},"geometry":{"type":"Point","coordinates":[7.405,47.781388889]}},{"type":"Feature","id":"LFGB-text-lfee-19422","properties":{"name":"WH","layer":"Labels","category":"Labels","object_type":"Label","style_id":"label.text.label.labels","airport":"LFGB","geometry_role":"text_label","text-field":"WH","vsmr_group_ids":[[]]},"geometry":{"type":"Point","coordinates":[7.348055556,47.727777778]}},{"type":"Feature","id":"LFGB-text-lfee-19423","properties":{"name":"EH","layer":"Labels","category":"Labels","object_type":"Label","style_id":"label.text.label.labels","airport":"LFGB","geometry_role":"text_label","text-field":"EH","vsmr_group_ids":[[]]},"geometry":{"type":"Point","coordinates":[7.493055556,47.780833333]}},{"type":"Feature","id":"LFGB-text-lfee-19424","properties":{"name":"SH","layer":"Labels","category":"Labels","object_type":"Label","style_id":"label.text.label.labels","airport":"LFGB","geometry_role":"text_label","text-field":"SH","vsmr_group_ids":[[]]},"geometry":{"type":"Point","coordinates":[7.361944444,47.688888889]}}]}
