{"type":"FeatureCollection","name":"LFGS AVISO","bbox":[5.567805556,49.482444444,5.578194444,49.486361111],"metadata":{"schema":"vSMR AVISO","schema_version":2,"airport":"LFGS","coordinate_reference_system":"WGS84","coordinate_order":"longitude, latitude","default_color_palette":"night","color_palettes":["night","day"],"background_colors":{"night":"#434A4F","day":"#434A4F"},"feature_count":1,"style_count":1,"layer_counts":{"Ground linework":1},"category_counts":{"Runway Grass":1}},"styles":{"line.linework.runway.grass":{"name":"Runway Grass","layer":"Ground linework","object_type":"Line","paint":{"stroke":"#008000","stroke-opacity":1.0,"stroke-width":1.5},"feature_count":1}},"features":[{"type":"Feature","id":"lfgs.line.linework.runway.grass.40704","properties":{"name":"LFGS Groundlayout Longuyon Villette","layer":"Ground linework","category":"Runway Grass","object_type":"Line","style_id":"line.linework.runway.grass","airport":"LFGS","geometry_role":"linework","vsmr_group_ids":[]},"geometry":{"type":"MultiLineString","coordinates":[[[5.568194444,49.486361111],[5.578194444,49.48575]],[[5.567805556,49.483027778],[5.577805556,49.482444444]],[[5.568194444,49.486361111],[5.567805556,49.483027778]],[[5.578194444,49.48575],[5.577805556,49.482444444]]]}}]}
