{"type":"FeatureCollection","name":"LFHA AVISO","bbox":[3.266110833,45.510780833,3.266907778,45.517196944],"metadata":{"schema":"vSMR AVISO","schema_version":2,"airport":"LFHA","coordinate_reference_system":"WGS84","coordinate_order":"longitude, latitude","default_color_palette":"night","color_palettes":["night","day"],"feature_count":2,"style_count":2,"layer_counts":{"Reference points":1,"Runways":1},"category_counts":{"Labels":1,"Runway Markings":1}},"styles":{"line.runway.centerline.runway.markings":{"name":"Runway Markings","layer":"Runways","object_type":"Line","paint":{"stroke":"#FEFEFE","stroke-opacity":1.0,"stroke-width":1.5},"feature_count":1},"point.airport.reference.point.labels":{"name":"Labels","layer":"Reference points","object_type":"Point","paint":{"marker-color":"#808080","marker-size":"small"},"feature_count":1}},"features":[{"type":"Feature","id":"LFHA-runway-18-36-5265","properties":{"name":"LFHA RWY 18/36","layer":"Runways","category":"Runway Markings","object_type":"Line","style_id":"line.runway.centerline.runway.markings","airport":"LFHA","geometry_role":"runway_centerline","vsmr_group_ids":[]},"geometry":{"type":"LineString","coordinates":[[3.266316944,45.517196944],[3.266907778,45.510780833]]}},{"type":"Feature","id":"LFHA-airport-reference","properties":{"name":"LFHA","layer":"Reference points","category":"Labels","object_type":"Point","style_id":"point.airport.reference.point.labels","airport":"LFHA","geometry_role":"airport_reference_point","text-field":"LFHA","vsmr_group_ids":[]},"geometry":{"type":"Point","coordinates":[3.266110833,45.513888889]}}]}
