{"type":"FeatureCollection","name":"LFHD AVISO","bbox":[4.716493889,44.393225,4.719196944,44.403305833],"metadata":{"schema":"vSMR AVISO","schema_version":2,"airport":"LFHD","coordinate_reference_system":"WGS84","coordinate_order":"longitude, latitude","feature_count":3,"style_count":2,"layer_counts":{"Reference points":1,"Runways":2},"category_counts":{"Labels":1,"Runway Markings":2}},"styles":{"line.runway.centerline.runway.markings":{"name":"Runway Markings","layer":"Runways","object_type":"Line","paint":{"stroke":"#FEFEFE","stroke-opacity":1.0,"stroke-width":1.5},"feature_count":2},"point.airport.reference.point.labels":{"name":"Labels","layer":"Reference points","object_type":"Point","paint":{"marker-color":"#808080","marker-size":"small"},"feature_count":1}},"features":[{"type":"Feature","id":"LFHD-runway-18R-36L-5262","properties":{"name":"LFHD RWY 18R/36L","layer":"Runways","category":"Runway Markings","object_type":"Line","style_id":"line.runway.centerline.runway.markings","airport":"LFHD","geometry_role":"runway_centerline","vsmr_group_ids":[[]]},"geometry":{"type":"LineString","coordinates":[[4.717318889,44.403305833],[4.716493889,44.393225]]}},{"type":"Feature","id":"LFHD-runway-18L-36R-5263","properties":{"name":"LFHD RWY 18L/36R","layer":"Runways","category":"Runway Markings","object_type":"Line","style_id":"line.runway.centerline.runway.markings","airport":"LFHD","geometry_role":"runway_centerline","vsmr_group_ids":[[]]},"geometry":{"type":"LineString","coordinates":[[4.719196944,44.403216944],[4.718527778,44.395127778]]}},{"type":"Feature","id":"LFHD-airport-reference","properties":{"name":"LFHD","layer":"Reference points","category":"Labels","object_type":"Point","style_id":"point.airport.reference.point.labels","airport":"LFHD","geometry_role":"airport_reference_point","text-field":"LFHD","vsmr_group_ids":[[]]},"geometry":{"type":"Point","coordinates":[4.716943889,44.397777778]}}]}
