{"type":"FeatureCollection","name":"LFHF AVISO","bbox":[4.332585833,44.442027778,4.333057778,44.446380833],"metadata":{"schema":"vSMR AVISO","schema_version":2,"airport":"LFHF","coordinate_reference_system":"WGS84","coordinate_order":"longitude, latitude","feature_count":2,"style_count":2,"layer_counts":{"Reference points":1,"Runways":1},"category_counts":{"Labels":1,"Runway Markings":1}},"styles":{"line.runway.centerline.runway.markings":{"name":"Runway Markings","layer":"Runways","object_type":"Line","paint":{"stroke":"#FEFEFE","stroke-opacity":1.0,"stroke-width":1.5},"feature_count":1},"point.airport.reference.point.labels":{"name":"Labels","layer":"Reference points","object_type":"Point","paint":{"marker-color":"#808080","marker-size":"small"},"feature_count":1}},"features":[{"type":"Feature","id":"LFHF-runway-18-36-5259","properties":{"name":"LFHF RWY 18/36","layer":"Runways","category":"Runway Markings","object_type":"Line","style_id":"line.runway.centerline.runway.markings","airport":"LFHF","geometry_role":"runway_centerline","vsmr_group_ids":[[]]},"geometry":{"type":"LineString","coordinates":[[4.333057778,44.446380833],[4.332585833,44.442027778]]}},{"type":"Feature","id":"LFHF-airport-reference","properties":{"name":"LFHF","layer":"Reference points","category":"Labels","object_type":"Point","style_id":"point.airport.reference.point.labels","airport":"LFHF","geometry_role":"airport_reference_point","text-field":"LFHF","vsmr_group_ids":[[]]},"geometry":{"type":"Point","coordinates":[4.332777778,44.444721944]}}]}
