{"type":"FeatureCollection","name":"LFHH AVISO","bbox":[4.827282778,45.460971944,4.828610833,45.46555],"metadata":{"schema":"vSMR AVISO","schema_version":2,"airport":"LFHH","coordinate_reference_system":"WGS84","coordinate_order":"longitude, latitude","feature_count":2,"style_count":2,"layer_counts":{"Reference points":1,"Runways":1},"category_counts":{"Labels":1,"Runway Markings":1}},"styles":{"line.runway.centerline.runway.markings":{"name":"Runway Markings","layer":"Runways","object_type":"Line","paint":{"stroke":"#FEFEFE","stroke-opacity":1.0,"stroke-width":1.5},"feature_count":1},"point.airport.reference.point.labels":{"name":"Labels","layer":"Reference points","object_type":"Point","paint":{"marker-color":"#808080","marker-size":"small"},"feature_count":1}},"features":[{"type":"Feature","id":"LFHH-runway-01-19-5257","properties":{"name":"LFHH RWY 01/19","layer":"Runways","category":"Runway Markings","object_type":"Line","style_id":"line.runway.centerline.runway.markings","airport":"LFHH","geometry_role":"runway_centerline","vsmr_group_ids":[[]]},"geometry":{"type":"LineString","coordinates":[[4.827282778,45.460971944],[4.828610833,45.46555]]}},{"type":"Feature","id":"LFHH-airport-reference","properties":{"name":"LFHH","layer":"Reference points","category":"Labels","object_type":"Point","style_id":"point.airport.reference.point.labels","airport":"LFHH","geometry_role":"airport_reference_point","text-field":"LFHH","vsmr_group_ids":[[]]},"geometry":{"type":"Point","coordinates":[4.827777778,45.462777778]}}]}
