{"type":"FeatureCollection","name":"LFHI AVISO","bbox":[5.450099722,45.684955833,5.455541944,45.688338889],"metadata":{"schema":"vSMR AVISO","schema_version":2,"airport":"LFHI","coordinate_reference_system":"WGS84","coordinate_order":"longitude, latitude","default_color_palette":"night","color_palettes":["night","day"],"feature_count":2,"style_count":2,"layer_counts":{"Reference points":1,"Runways":1},"category_counts":{"Labels":1,"Runway Markings":1}},"styles":{"line.runway.centerline.runway.markings":{"name":"Runway Markings","layer":"Runways","object_type":"Line","paint":{"stroke":"#FEFEFE","stroke-opacity":1.0,"stroke-width":1.5},"feature_count":1},"point.airport.reference.point.labels":{"name":"Labels","layer":"Reference points","object_type":"Point","paint":{"marker-color":"#808080","marker-size":"small"},"feature_count":1}},"features":[{"type":"Feature","id":"LFHI-runway-13-31-5256","properties":{"name":"LFHI RWY 13/31","layer":"Runways","category":"Runway Markings","object_type":"Line","style_id":"line.runway.centerline.runway.markings","airport":"LFHI","geometry_role":"runway_centerline","vsmr_group_ids":[]},"geometry":{"type":"LineString","coordinates":[[5.450099722,45.688338889],[5.455541944,45.684955833]]}},{"type":"Feature","id":"LFHI-airport-reference","properties":{"name":"LFHI","layer":"Reference points","category":"Labels","object_type":"Point","style_id":"point.airport.reference.point.labels","airport":"LFHI","geometry_role":"airport_reference_point","text-field":"LFHI","vsmr_group_ids":[]},"geometry":{"type":"Point","coordinates":[5.452499722,45.686943889]}}]}
