{"type":"FeatureCollection","name":"LFHJ AVISO","bbox":[4.912221944,45.649110833,4.912868889,45.655427778],"metadata":{"schema":"vSMR AVISO","schema_version":2,"airport":"LFHJ","coordinate_reference_system":"WGS84","coordinate_order":"longitude, latitude","default_color_palette":"night","color_palettes":["night","day"],"feature_count":2,"style_count":2,"layer_counts":{"Reference points":1,"Runways":1},"category_counts":{"Labels":1,"Runway Markings":1}},"styles":{"line.runway.centerline.runway.markings":{"name":"Runway Markings","layer":"Runways","object_type":"Line","paint":{"stroke":"#FEFEFE","stroke-opacity":1.0,"stroke-width":1.5},"feature_count":1},"point.airport.reference.point.labels":{"name":"Labels","layer":"Reference points","object_type":"Point","paint":{"marker-color":"#808080","marker-size":"small"},"feature_count":1}},"features":[{"type":"Feature","id":"LFHJ-runway-18L-36R-5255","properties":{"name":"LFHJ RWY 18L/36R","layer":"Runways","category":"Runway Markings","object_type":"Line","style_id":"line.runway.centerline.runway.markings","airport":"LFHJ","geometry_role":"runway_centerline","vsmr_group_ids":[]},"geometry":{"type":"LineString","coordinates":[[4.912868889,45.655427778],[4.912835833,45.649110833]]}},{"type":"Feature","id":"LFHJ-airport-reference","properties":{"name":"LFHJ","layer":"Reference points","category":"Labels","object_type":"Point","style_id":"point.airport.reference.point.labels","airport":"LFHJ","geometry_role":"airport_reference_point","text-field":"LFHJ","vsmr_group_ids":[]},"geometry":{"type":"Point","coordinates":[4.912221944,45.652777778]}}]}
