{"type":"FeatureCollection","name":"LFHL AVISO","bbox":[3.881502778,44.700563889,3.887221944,44.705555833],"metadata":{"schema":"vSMR AVISO","schema_version":2,"airport":"LFHL","coordinate_reference_system":"WGS84","coordinate_order":"longitude, latitude","default_color_palette":"night","color_palettes":["night","day"],"background_colors":{"night":"#434A4F","day":"#434A4F"},"feature_count":2,"style_count":2,"layer_counts":{"Reference points":1,"Runways":1},"category_counts":{"Labels":1,"Runway Markings":1}},"styles":{"line.runway.centerline.runway.markings":{"name":"Runway Markings","layer":"Runways","object_type":"Line","paint":{"stroke":"#FEFEFE","stroke-opacity":1.0,"stroke-width":1.5},"feature_count":1},"point.airport.reference.point.labels":{"name":"Labels","layer":"Reference points","object_type":"Point","paint":{"marker-color":"#808080","marker-size":"small"},"feature_count":1}},"features":[{"type":"Feature","id":"LFHL-runway-04-22-5254","properties":{"name":"LFHL RWY 04/22","layer":"Runways","category":"Runway Markings","object_type":"Line","style_id":"line.runway.centerline.runway.markings","airport":"LFHL","geometry_role":"runway_centerline","vsmr_group_ids":[]},"geometry":{"type":"LineString","coordinates":[[3.881502778,44.700563889],[3.885757778,44.704538889]]}},{"type":"Feature","id":"LFHL-airport-reference","properties":{"name":"LFHL","layer":"Reference points","category":"Labels","object_type":"Point","style_id":"point.airport.reference.point.labels","airport":"LFHL","geometry_role":"airport_reference_point","text-field":"LFHL","vsmr_group_ids":[]},"geometry":{"type":"Point","coordinates":[3.887221944,44.705555833]}}]}
