{"type":"FeatureCollection","name":"LFHM AVISO","bbox":[6.615833333,45.795833333,6.681111111,45.845],"metadata":{"schema":"vSMR AVISO","schema_version":2,"airport":"LFHM","coordinate_reference_system":"WGS84","coordinate_order":"longitude, latitude","feature_count":5,"style_count":3,"layer_counts":{"Labels":3,"Reference points":1,"Runways":1},"category_counts":{"Labels":4,"Runway Markings":1}},"styles":{"label.text.label.labels":{"name":"Labels","layer":"Labels","object_type":"Label","paint":{"text-anchor":"center","text-color":"#808080","text-halo-color":"#000000","text-halo-width":1,"text-size":12},"feature_count":3},"line.runway.centerline.runway.markings":{"name":"Runway Markings","layer":"Runways","object_type":"Line","paint":{"stroke":"#FEFEFE","stroke-opacity":1.0,"stroke-width":1.5},"feature_count":1},"point.airport.reference.point.labels":{"name":"Labels","layer":"Reference points","object_type":"Point","paint":{"marker-color":"#808080","marker-size":"small"},"feature_count":1}},"features":[{"type":"Feature","id":"LFHM-runway-15-33-5327","properties":{"name":"LFHM RWY 15/33","layer":"Runways","category":"Runway Markings","object_type":"Line","style_id":"line.runway.centerline.runway.markings","airport":"LFHM","geometry_role":"runway_centerline","vsmr_group_ids":[[]]},"geometry":{"type":"LineString","coordinates":[[6.648421944,45.824471944],[6.651413889,45.820016944]]}},{"type":"Feature","id":"LFHM-airport-reference","properties":{"name":"LFHM","layer":"Reference points","category":"Labels","object_type":"Point","style_id":"point.airport.reference.point.labels","airport":"LFHM","geometry_role":"airport_reference_point","text-field":"LFHM","vsmr_group_ids":[[]]},"geometry":{"type":"Point","coordinates":[6.648332778,45.824443889]}},{"type":"Feature","id":"LFHM-text-lfmm-19954","properties":{"name":"N","layer":"Labels","category":"Labels","object_type":"Label","style_id":"label.text.label.labels","airport":"LFHM","geometry_role":"text_label","text-field":"N","vsmr_group_ids":[[]]},"geometry":{"type":"Point","coordinates":[6.625555556,45.845]}},{"type":"Feature","id":"LFHM-text-lfmm-19955","properties":{"name":"WH","layer":"Labels","category":"Labels","object_type":"Label","style_id":"label.text.label.labels","airport":"LFHM","geometry_role":"text_label","text-field":"WH","vsmr_group_ids":[[]]},"geometry":{"type":"Point","coordinates":[6.615833333,45.795833333]}},{"type":"Feature","id":"LFHM-text-lfmm-19956","properties":{"name":"EH","layer":"Labels","category":"Labels","object_type":"Label","style_id":"label.text.label.labels","airport":"LFHM","geometry_role":"text_label","text-field":"EH","vsmr_group_ids":[[]]},"geometry":{"type":"Point","coordinates":[6.681111111,45.844444444]}}]}
