{"type":"FeatureCollection","name":"LFHN AVISO","bbox":[5.804468889,46.120513889,5.805160833,46.125466944],"metadata":{"schema":"vSMR AVISO","schema_version":2,"airport":"LFHN","coordinate_reference_system":"WGS84","coordinate_order":"longitude, latitude","feature_count":2,"style_count":2,"layer_counts":{"Reference points":1,"Runways":1},"category_counts":{"Labels":1,"Runway Markings":1}},"styles":{"line.runway.centerline.runway.markings":{"name":"Runway Markings","layer":"Runways","object_type":"Line","paint":{"stroke":"#FEFEFE","stroke-opacity":1.0,"stroke-width":1.5},"feature_count":1},"point.airport.reference.point.labels":{"name":"Labels","layer":"Reference points","object_type":"Point","paint":{"marker-color":"#808080","marker-size":"small"},"feature_count":1}},"features":[{"type":"Feature","id":"LFHN-runway-18-36-5253","properties":{"name":"LFHN RWY 18/36","layer":"Runways","category":"Runway Markings","object_type":"Line","style_id":"line.runway.centerline.runway.markings","airport":"LFHN","geometry_role":"runway_centerline","vsmr_group_ids":[[]]},"geometry":{"type":"LineString","coordinates":[[5.805160833,46.125466944],[5.804468889,46.120513889]]}},{"type":"Feature","id":"LFHN-airport-reference","properties":{"name":"LFHN","layer":"Reference points","category":"Labels","object_type":"Point","style_id":"point.airport.reference.point.labels","airport":"LFHN","geometry_role":"airport_reference_point","text-field":"LFHN","vsmr_group_ids":[[]]},"geometry":{"type":"Point","coordinates":[5.804721944,46.123332778]}}]}
