{"type":"FeatureCollection","name":"LFHO AVISO","bbox":[4.371582778,44.537843889,4.372799722,44.550624722],"metadata":{"schema":"vSMR AVISO","schema_version":2,"airport":"LFHO","coordinate_reference_system":"WGS84","coordinate_order":"longitude, latitude","default_color_palette":"night","color_palettes":["night","day"],"feature_count":2,"style_count":2,"layer_counts":{"Reference points":1,"Runways":1},"category_counts":{"Labels":1,"Runway Markings":1}},"styles":{"line.runway.centerline.runway.markings":{"name":"Runway Markings","layer":"Runways","object_type":"Line","paint":{"stroke":"#FEFEFE","stroke-opacity":1.0,"stroke-width":1.5},"feature_count":1},"point.airport.reference.point.labels":{"name":"Labels","layer":"Reference points","object_type":"Point","paint":{"marker-color":"#808080","marker-size":"small"},"feature_count":1}},"features":[{"type":"Feature","id":"LFHO-runway-18-36-5252","properties":{"name":"LFHO RWY 18/36","layer":"Runways","category":"Runway Markings","object_type":"Line","style_id":"line.runway.centerline.runway.markings","airport":"LFHO","geometry_role":"runway_centerline","vsmr_group_ids":[]},"geometry":{"type":"LineString","coordinates":[[4.372799722,44.550624722],[4.371582778,44.537843889]]}},{"type":"Feature","id":"LFHO-airport-reference","properties":{"name":"LFHO","layer":"Reference points","category":"Labels","object_type":"Point","style_id":"point.airport.reference.point.labels","airport":"LFHO","geometry_role":"airport_reference_point","text-field":"LFHO","vsmr_group_ids":[]},"geometry":{"type":"Point","coordinates":[4.371666944,44.539443889]}}]}
