{"type":"FeatureCollection","name":"LFHR AVISO","bbox":[3.358196944,45.317666944,3.363291944,45.323966944],"metadata":{"schema":"vSMR AVISO","schema_version":2,"airport":"LFHR","coordinate_reference_system":"WGS84","coordinate_order":"longitude, latitude","default_color_palette":"night","color_palettes":["night","day"],"feature_count":3,"style_count":2,"layer_counts":{"Reference points":1,"Runways":2},"category_counts":{"Labels":1,"Runway Markings":2}},"styles":{"line.runway.centerline.runway.markings":{"name":"Runway Markings","layer":"Runways","object_type":"Line","paint":{"stroke":"#FEFEFE","stroke-opacity":1.0,"stroke-width":1.5},"feature_count":2},"point.airport.reference.point.labels":{"name":"Labels","layer":"Reference points","object_type":"Point","paint":{"marker-color":"#808080","marker-size":"small"},"feature_count":1}},"features":[{"type":"Feature","id":"LFHR-runway-15R-33L-5249","properties":{"name":"LFHR RWY 15R/33L","layer":"Runways","category":"Runway Markings","object_type":"Line","style_id":"line.runway.centerline.runway.markings","airport":"LFHR","geometry_role":"runway_centerline","vsmr_group_ids":[[]]},"geometry":{"type":"LineString","coordinates":[[3.358196944,45.323966944],[3.362760833,45.317666944]]}},{"type":"Feature","id":"LFHR-runway-15L-33R-5250","properties":{"name":"LFHR RWY 15L/33R","layer":"Runways","category":"Runway Markings","object_type":"Line","style_id":"line.runway.centerline.runway.markings","airport":"LFHR","geometry_role":"runway_centerline","vsmr_group_ids":[[]]},"geometry":{"type":"LineString","coordinates":[[3.359321944,45.323685833],[3.363291944,45.318205833]]}},{"type":"Feature","id":"LFHR-airport-reference","properties":{"name":"LFHR","layer":"Reference points","category":"Labels","object_type":"Point","style_id":"point.airport.reference.point.labels","airport":"LFHR","geometry_role":"airport_reference_point","text-field":"LFHR","vsmr_group_ids":[[]]},"geometry":{"type":"Point","coordinates":[3.358332778,45.323888889]}}]}
