{"type":"FeatureCollection","name":"LFHU AVISO","bbox":[6.02222,45.0439,6.14167,45.088393889],"metadata":{"schema":"vSMR AVISO","schema_version":2,"airport":"LFHU","coordinate_reference_system":"WGS84","coordinate_order":"longitude, latitude","feature_count":6,"style_count":3,"layer_counts":{"Labels":4,"Reference points":1,"Runways":1},"category_counts":{"Labels":5,"Runway Markings":1}},"styles":{"label.text.label.labels":{"name":"Labels","layer":"Labels","object_type":"Label","paint":{"text-anchor":"center","text-color":"#808080","text-halo-color":"#000000","text-halo-width":1,"text-size":12},"feature_count":4},"line.runway.centerline.runway.markings":{"name":"Runway Markings","layer":"Runways","object_type":"Line","paint":{"stroke":"#FEFEFE","stroke-opacity":1.0,"stroke-width":1.5},"feature_count":1},"point.airport.reference.point.labels":{"name":"Labels","layer":"Reference points","object_type":"Point","paint":{"marker-color":"#808080","marker-size":"small"},"feature_count":1}},"features":[{"type":"Feature","id":"LFHU-runway-06-24-5330","properties":{"name":"LFHU RWY 06/24","layer":"Runways","category":"Runway Markings","object_type":"Line","style_id":"line.runway.centerline.runway.markings","airport":"LFHU","geometry_role":"runway_centerline","vsmr_group_ids":[[]]},"geometry":{"type":"LineString","coordinates":[[6.081155833,45.086388889],[6.086032778,45.088393889]]}},{"type":"Feature","id":"LFHU-airport-reference","properties":{"name":"LFHU","layer":"Reference points","category":"Labels","object_type":"Point","style_id":"point.airport.reference.point.labels","airport":"LFHU","geometry_role":"airport_reference_point","text-field":"LFHU","vsmr_group_ids":[[]]},"geometry":{"type":"Point","coordinates":[6.083610833,45.087499722]}},{"type":"Feature","id":"LFHU-text-lfmm-19958","properties":{"name":"S","layer":"Labels","category":"Labels","object_type":"Label","style_id":"label.text.label.labels","airport":"LFHU","geometry_role":"text_label","text-field":"S","vsmr_group_ids":[[]]},"geometry":{"type":"Point","coordinates":[6.105,45.0717]}},{"type":"Feature","id":"LFHU-text-lfmm-19959","properties":{"name":"E","layer":"Labels","category":"Labels","object_type":"Label","style_id":"label.text.label.labels","airport":"LFHU","geometry_role":"text_label","text-field":"E","vsmr_group_ids":[[]]},"geometry":{"type":"Point","coordinates":[6.125,45.0792]}},{"type":"Feature","id":"LFHU-text-lfmm-19960","properties":{"name":"W","layer":"Labels","category":"Labels","object_type":"Label","style_id":"label.text.label.labels","airport":"LFHU","geometry_role":"text_label","text-field":"W","vsmr_group_ids":[[]]},"geometry":{"type":"Point","coordinates":[6.02222,45.075]}},{"type":"Feature","id":"LFHU-text-lfmm-19961","properties":{"name":"SE","layer":"Labels","category":"Labels","object_type":"Label","style_id":"label.text.label.labels","airport":"LFHU","geometry_role":"text_label","text-field":"SE","vsmr_group_ids":[[]]},"geometry":{"type":"Point","coordinates":[6.14167,45.0439]}}]}
