{"type":"FeatureCollection","name":"LFHV AVISO","bbox":[4.634818889,45.914307778,4.635796944,45.922377778],"metadata":{"schema":"vSMR AVISO","schema_version":2,"airport":"LFHV","coordinate_reference_system":"WGS84","coordinate_order":"longitude, latitude","default_color_palette":"night","color_palettes":["night","day"],"background_colors":{"night":"#434A4F","day":"#434A4F"},"feature_count":3,"style_count":2,"layer_counts":{"Reference points":1,"Runways":2},"category_counts":{"Labels":1,"Runway Markings":2}},"styles":{"line.runway.centerline.runway.markings":{"name":"Runway Markings","layer":"Runways","object_type":"Line","paint":{"stroke":"#FEFEFE","stroke-opacity":1.0,"stroke-width":1.5},"feature_count":2},"point.airport.reference.point.labels":{"name":"Labels","layer":"Reference points","object_type":"Point","paint":{"marker-color":"#808080","marker-size":"small"},"feature_count":1}},"features":[{"type":"Feature","id":"LFHV-runway-18L-36R-5245","properties":{"name":"LFHV RWY 18L/36R","layer":"Runways","category":"Runway Markings","object_type":"Line","style_id":"line.runway.centerline.runway.markings","airport":"LFHV","geometry_role":"runway_centerline","vsmr_group_ids":[]},"geometry":{"type":"LineString","coordinates":[[4.635796944,45.922360833],[4.635643889,45.914441944]]}},{"type":"Feature","id":"LFHV-runway-18-36-5246","properties":{"name":"LFHV RWY 18/36","layer":"Runways","category":"Runway Markings","object_type":"Line","style_id":"line.runway.centerline.runway.markings","airport":"LFHV","geometry_role":"runway_centerline","vsmr_group_ids":[]},"geometry":{"type":"LineString","coordinates":[[4.634980833,45.922377778],[4.634818889,45.914307778]]}},{"type":"Feature","id":"LFHV-airport-reference","properties":{"name":"LFHV","layer":"Reference points","category":"Labels","object_type":"Point","style_id":"point.airport.reference.point.labels","airport":"LFHV","geometry_role":"airport_reference_point","text-field":"LFHV","vsmr_group_ids":[]},"geometry":{"type":"Point","coordinates":[4.634999722,45.92]}}]}
