{"type":"FeatureCollection","name":"LFIB AVISO","bbox":[0.950116944,44.781388889,0.957607778,44.783055833],"metadata":{"schema":"vSMR AVISO","schema_version":2,"airport":"LFIB","coordinate_reference_system":"WGS84","coordinate_order":"longitude, latitude","default_color_palette":"night","color_palettes":["night","day"],"feature_count":2,"style_count":2,"layer_counts":{"Reference points":1,"Runways":1},"category_counts":{"Labels":1,"Runway Markings":1}},"styles":{"line.runway.centerline.runway.markings":{"name":"Runway Markings","layer":"Runways","object_type":"Line","paint":{"stroke":"#FEFEFE","stroke-opacity":1.0,"stroke-width":1.5},"feature_count":1},"point.airport.reference.point.labels":{"name":"Labels","layer":"Reference points","object_type":"Point","paint":{"marker-color":"#808080","marker-size":"small"},"feature_count":1}},"features":[{"type":"Feature","id":"LFIB-runway-11-29-4892","properties":{"name":"LFIB RWY 11/29","layer":"Runways","category":"Runway Markings","object_type":"Line","style_id":"line.runway.centerline.runway.markings","airport":"LFIB","geometry_role":"runway_centerline","vsmr_group_ids":[]},"geometry":{"type":"LineString","coordinates":[[0.950116944,44.783055833],[0.957607778,44.781421944]]}},{"type":"Feature","id":"LFIB-airport-reference","properties":{"name":"LFIB","layer":"Reference points","category":"Labels","object_type":"Point","style_id":"point.airport.reference.point.labels","airport":"LFIB","geometry_role":"airport_reference_point","text-field":"LFIB","vsmr_group_ids":[]},"geometry":{"type":"Point","coordinates":[0.9575,44.781388889]}}]}
