{"type":"FeatureCollection","name":"LFIF AVISO","bbox":[2.738043889,43.822035833,2.749485833,43.826968889],"metadata":{"schema":"vSMR AVISO","schema_version":2,"airport":"LFIF","coordinate_reference_system":"WGS84","coordinate_order":"longitude, latitude","default_color_palette":"night","color_palettes":["night","day"],"feature_count":3,"style_count":2,"layer_counts":{"Reference points":1,"Runways":2},"category_counts":{"Labels":1,"Runway Markings":2}},"styles":{"line.runway.centerline.runway.markings":{"name":"Runway Markings","layer":"Runways","object_type":"Line","paint":{"stroke":"#FEFEFE","stroke-opacity":1.0,"stroke-width":1.5},"feature_count":2},"point.airport.reference.point.labels":{"name":"Labels","layer":"Reference points","object_type":"Point","paint":{"marker-color":"#808080","marker-size":"small"},"feature_count":1}},"features":[{"type":"Feature","id":"LFIF-runway-12R-30L-4894","properties":{"name":"LFIF RWY 12R/30L","layer":"Runways","category":"Runway Markings","object_type":"Line","style_id":"line.runway.centerline.runway.markings","airport":"LFIF","geometry_role":"runway_centerline","vsmr_group_ids":[[]]},"geometry":{"type":"LineString","coordinates":[[2.741007778,43.825280833],[2.749185833,43.822035833]]}},{"type":"Feature","id":"LFIF-runway-12-30-4895","properties":{"name":"LFIF RWY 12/30","layer":"Runways","category":"Runway Markings","object_type":"Line","style_id":"line.runway.centerline.runway.markings","airport":"LFIF","geometry_role":"runway_centerline","vsmr_group_ids":[[]]},"geometry":{"type":"LineString","coordinates":[[2.738043889,43.826968889],[2.749485833,43.822427778]]}},{"type":"Feature","id":"LFIF-airport-reference","properties":{"name":"LFIF","layer":"Reference points","category":"Labels","object_type":"Point","style_id":"point.airport.reference.point.labels","airport":"LFIF","geometry_role":"airport_reference_point","text-field":"LFIF","vsmr_group_ids":[[]]},"geometry":{"type":"Point","coordinates":[2.747221944,43.822777778]}}]}
