{"type":"FeatureCollection","name":"LFIP AVISO","bbox":[0.359444444,42.745277778,0.463055556,42.904722222],"metadata":{"schema":"vSMR AVISO","schema_version":2,"airport":"LFIP","coordinate_reference_system":"WGS84","coordinate_order":"longitude, latitude","feature_count":6,"style_count":3,"layer_counts":{"Labels":4,"Reference points":1,"Runways":1},"category_counts":{"Labels":5,"Runway Markings":1}},"styles":{"label.text.label.labels":{"name":"Labels","layer":"Labels","object_type":"Label","paint":{"text-anchor":"center","text-color":"#808080","text-halo-color":"#000000","text-halo-width":1,"text-size":12},"feature_count":4},"line.runway.centerline.runway.markings":{"name":"Runway Markings","layer":"Runways","object_type":"Line","paint":{"stroke":"#FEFEFE","stroke-opacity":1.0,"stroke-width":1.5},"feature_count":1},"point.airport.reference.point.labels":{"name":"Labels","layer":"Reference points","object_type":"Point","paint":{"marker-color":"#808080","marker-size":"small"},"feature_count":1}},"features":[{"type":"Feature","id":"LFIP-runway-09-27-4957","properties":{"name":"LFIP RWY 09/27","layer":"Runways","category":"Runway Markings","object_type":"Line","style_id":"line.runway.centerline.runway.markings","airport":"LFIP","geometry_role":"runway_centerline","vsmr_group_ids":[[]]},"geometry":{"type":"LineString","coordinates":[[0.433918889,42.796885833],[0.439493889,42.796593889]]}},{"type":"Feature","id":"LFIP-airport-reference","properties":{"name":"LFIP","layer":"Reference points","category":"Labels","object_type":"Point","style_id":"point.airport.reference.point.labels","airport":"LFIP","geometry_role":"airport_reference_point","text-field":"LFIP","vsmr_group_ids":[[]]},"geometry":{"type":"Point","coordinates":[0.433888889,42.796943889]}},{"type":"Feature","id":"LFIP-text-lfbb-22016","properties":{"name":"E","layer":"Labels","category":"Labels","object_type":"Label","style_id":"label.text.label.labels","airport":"LFIP","geometry_role":"text_label","text-field":"E","vsmr_group_ids":[[]]},"geometry":{"type":"Point","coordinates":[0.463055556,42.802222222]}},{"type":"Feature","id":"LFIP-text-lfbb-22017","properties":{"name":"N1","layer":"Labels","category":"Labels","object_type":"Label","style_id":"label.text.label.labels","airport":"LFIP","geometry_role":"text_label","text-field":"N1","vsmr_group_ids":[[]]},"geometry":{"type":"Point","coordinates":[0.359444444,42.904722222]}},{"type":"Feature","id":"LFIP-text-lfbb-22018","properties":{"name":"S","layer":"Labels","category":"Labels","object_type":"Label","style_id":"label.text.label.labels","airport":"LFIP","geometry_role":"text_label","text-field":"S","vsmr_group_ids":[[]]},"geometry":{"type":"Point","coordinates":[0.409166667,42.745277778]}},{"type":"Feature","id":"LFIP-text-lfbb-22019","properties":{"name":"N","layer":"Labels","category":"Labels","object_type":"Label","style_id":"label.text.label.labels","airport":"LFIP","geometry_role":"text_label","text-field":"N","vsmr_group_ids":[[]]},"geometry":{"type":"Point","coordinates":[0.408611111,42.809444444]}}]}
