{"type":"FeatureCollection","name":"LFIV AVISO","bbox":[-1.121080833,45.379513889,-1.112021944,45.379877778],"metadata":{"schema":"vSMR AVISO","schema_version":2,"airport":"LFIV","coordinate_reference_system":"WGS84","coordinate_order":"longitude, latitude","default_color_palette":"night","color_palettes":["night","day"],"feature_count":2,"style_count":2,"layer_counts":{"Reference points":1,"Runways":1},"category_counts":{"Labels":1,"Runway Markings":1}},"styles":{"line.runway.centerline.runway.markings":{"name":"Runway Markings","layer":"Runways","object_type":"Line","paint":{"stroke":"#FEFEFE","stroke-opacity":1.0,"stroke-width":1.5},"feature_count":1},"point.airport.reference.point.labels":{"name":"Labels","layer":"Reference points","object_type":"Point","paint":{"marker-color":"#808080","marker-size":"small"},"feature_count":1}},"features":[{"type":"Feature","id":"LFIV-runway-09-27-4905","properties":{"name":"LFIV RWY 09/27","layer":"Runways","category":"Runway Markings","object_type":"Line","style_id":"line.runway.centerline.runway.markings","airport":"LFIV","geometry_role":"runway_centerline","vsmr_group_ids":[[]]},"geometry":{"type":"LineString","coordinates":[[-1.121080833,45.379877778],[-1.112021944,45.379580833]]}},{"type":"Feature","id":"LFIV-airport-reference","properties":{"name":"LFIV","layer":"Reference points","category":"Labels","object_type":"Point","style_id":"point.airport.reference.point.labels","airport":"LFIV","geometry_role":"airport_reference_point","text-field":"LFIV","vsmr_group_ids":[[]]},"geometry":{"type":"Point","coordinates":[-1.117105833,45.379513889]}}]}
