{"type":"FeatureCollection","name":"LFIY AVISO","bbox":[-0.529077778,45.964725,-0.519688889,45.965682778],"metadata":{"schema":"vSMR AVISO","schema_version":2,"airport":"LFIY","coordinate_reference_system":"WGS84","coordinate_order":"longitude, latitude","default_color_palette":"night","color_palettes":["night","day"],"feature_count":2,"style_count":2,"layer_counts":{"Reference points":1,"Runways":1},"category_counts":{"Labels":1,"Runway Markings":1}},"styles":{"line.runway.centerline.runway.markings":{"name":"Runway Markings","layer":"Runways","object_type":"Line","paint":{"stroke":"#FEFEFE","stroke-opacity":1.0,"stroke-width":1.5},"feature_count":1},"point.airport.reference.point.labels":{"name":"Labels","layer":"Reference points","object_type":"Point","paint":{"marker-color":"#808080","marker-size":"small"},"feature_count":1}},"features":[{"type":"Feature","id":"LFIY-runway-10-28-4907","properties":{"name":"LFIY RWY 10/28","layer":"Runways","category":"Runway Markings","object_type":"Line","style_id":"line.runway.centerline.runway.markings","airport":"LFIY","geometry_role":"runway_centerline","vsmr_group_ids":[]},"geometry":{"type":"LineString","coordinates":[[-0.529077778,45.965682778],[-0.519688889,45.964725]]}},{"type":"Feature","id":"LFIY-airport-reference","properties":{"name":"LFIY","layer":"Reference points","category":"Labels","object_type":"Point","style_id":"point.airport.reference.point.labels","airport":"LFIY","geometry_role":"airport_reference_point","text-field":"LFIY","vsmr_group_ids":[]},"geometry":{"type":"Point","coordinates":[-0.524443889,45.965277778]}}]}
