{"type":"FeatureCollection","name":"LFJD AVISO","bbox":[5.455555556,46.044722222,5.455555556,46.044722222],"metadata":{"schema":"vSMR AVISO","schema_version":2,"airport":"LFJD","coordinate_reference_system":"WGS84","coordinate_order":"longitude, latitude","feature_count":1,"style_count":1,"layer_counts":{"Labels":1},"category_counts":{"Labels":1}},"styles":{"label.text.label.labels":{"name":"Labels","layer":"Labels","object_type":"Label","paint":{"text-anchor":"center","text-color":"#CCCCCC","text-halo-color":"#000000","text-halo-width":1,"text-size":12},"feature_count":1}},"features":[{"type":"Feature","id":"LFJD-text-lfmm-19963","properties":{"name":"W","layer":"Labels","category":"Labels","object_type":"Label","style_id":"label.text.label.labels","airport":"LFJD","geometry_role":"text_label","text-field":"W","vsmr_group_ids":[[]]},"geometry":{"type":"Point","coordinates":[5.455555556,46.044722222]}}]}
