{"type":"FeatureCollection","name":"LFJE AVISO","bbox":[5.355277778,44.4625,5.365833333,44.513055556],"metadata":{"schema":"vSMR AVISO","schema_version":2,"airport":"LFJE","coordinate_reference_system":"WGS84","coordinate_order":"longitude, latitude","feature_count":2,"style_count":1,"layer_counts":{"Labels":2},"category_counts":{"Labels":2}},"styles":{"label.text.label.labels":{"name":"Labels","layer":"Labels","object_type":"Label","paint":{"text-anchor":"center","text-color":"#808080","text-halo-color":"#000000","text-halo-width":1,"text-size":12},"feature_count":2}},"features":[{"type":"Feature","id":"LFJE-text-lfmm-19965","properties":{"name":"S","layer":"Labels","category":"Labels","object_type":"Label","style_id":"label.text.label.labels","airport":"LFJE","geometry_role":"text_label","text-field":"S","vsmr_group_ids":[[]]},"geometry":{"type":"Point","coordinates":[5.365833333,44.4625]}},{"type":"Feature","id":"LFJE-text-lfmm-19966","properties":{"name":"NW","layer":"Labels","category":"Labels","object_type":"Label","style_id":"label.text.label.labels","airport":"LFJE","geometry_role":"text_label","text-field":"NW","vsmr_group_ids":[[]]},"geometry":{"type":"Point","coordinates":[5.355277778,44.513055556]}}]}
