{"type":"FeatureCollection","name":"LFJY AVISO","bbox":[5.861113889,49.019452778,5.887110833,49.031463889],"metadata":{"schema":"vSMR AVISO","schema_version":2,"airport":"LFJY","coordinate_reference_system":"WGS84","coordinate_order":"longitude, latitude","default_color_palette":"night","color_palettes":["night","day"],"feature_count":4,"style_count":2,"layer_counts":{"Reference points":1,"Runways":3},"category_counts":{"Labels":1,"Runway Markings":3}},"styles":{"line.runway.centerline.runway.markings":{"name":"Runway Markings","layer":"Runways","object_type":"Line","paint":{"stroke":"#FEFEFE","stroke-opacity":1.0,"stroke-width":1.5},"feature_count":3},"point.airport.reference.point.labels":{"name":"Labels","layer":"Reference points","object_type":"Point","paint":{"marker-color":"#808080","marker-size":"small"},"feature_count":1}},"features":[{"type":"Feature","id":"LFJY-runway-05R-23L-6763","properties":{"name":"LFJY RWY 05R/23L","layer":"Runways","category":"Runway Markings","object_type":"Line","style_id":"line.runway.centerline.runway.markings","airport":"LFJY","geometry_role":"runway_centerline","vsmr_group_ids":[]},"geometry":{"type":"LineString","coordinates":[[5.865027778,49.019452778],[5.887110833,49.031463889]]}},{"type":"Feature","id":"LFJY-runway-05L-23R-6764","properties":{"name":"LFJY RWY 05L/23R","layer":"Runways","category":"Runway Markings","object_type":"Line","style_id":"line.runway.centerline.runway.markings","airport":"LFJY","geometry_role":"runway_centerline","vsmr_group_ids":[]},"geometry":{"type":"LineString","coordinates":[[5.861113889,49.021202778],[5.868055833,49.024974722]]}},{"type":"Feature","id":"LFJY-runway-05C-23C-6765","properties":{"name":"LFJY RWY 05C/23C","layer":"Runways","category":"Runway Markings","object_type":"Line","style_id":"line.runway.centerline.runway.markings","airport":"LFJY","geometry_role":"runway_centerline","vsmr_group_ids":[]},"geometry":{"type":"LineString","coordinates":[[5.861755833,49.02015],[5.869752778,49.024496944]]}},{"type":"Feature","id":"LFJY-airport-reference","properties":{"name":"LFJY","layer":"Reference points","category":"Labels","object_type":"Point","style_id":"point.airport.reference.point.labels","airport":"LFJY","geometry_role":"airport_reference_point","text-field":"LFJY","vsmr_group_ids":[]},"geometry":{"type":"Point","coordinates":[5.876110833,49.025555833]}}]}
