{"type":"FeatureCollection","name":"LFKA AVISO","bbox":[6.324641944,45.624160833,6.331546944,45.627982778],"metadata":{"schema":"vSMR AVISO","schema_version":2,"airport":"LFKA","coordinate_reference_system":"WGS84","coordinate_order":"longitude, latitude","feature_count":2,"style_count":2,"layer_counts":{"Reference points":1,"Runways":1},"category_counts":{"Labels":1,"Runway Markings":1}},"styles":{"line.runway.centerline.runway.markings":{"name":"Runway Markings","layer":"Runways","object_type":"Line","paint":{"stroke":"#FEFEFE","stroke-opacity":1.0,"stroke-width":1.5},"feature_count":1},"point.airport.reference.point.labels":{"name":"Labels","layer":"Reference points","object_type":"Point","paint":{"marker-color":"#808080","marker-size":"small"},"feature_count":1}},"features":[{"type":"Feature","id":"LFKA-runway-05-23-5235","properties":{"name":"LFKA RWY 05/23","layer":"Runways","category":"Runway Markings","object_type":"Line","style_id":"line.runway.centerline.runway.markings","airport":"LFKA","geometry_role":"runway_centerline","vsmr_group_ids":[[]]},"geometry":{"type":"LineString","coordinates":[[6.324641944,45.624160833],[6.331546944,45.627982778]]}},{"type":"Feature","id":"LFKA-airport-reference","properties":{"name":"LFKA","layer":"Reference points","category":"Labels","object_type":"Point","style_id":"point.airport.reference.point.labels","airport":"LFKA","geometry_role":"airport_reference_point","text-field":"LFKA","vsmr_group_ids":[[]]},"geometry":{"type":"Point","coordinates":[6.328888889,45.626388889]}}]}
