{"type":"FeatureCollection","name":"LFKC AVISO","bbox":[8.613611111,42.5125,8.931666667,42.644444444],"metadata":{"schema":"vSMR AVISO","schema_version":2,"airport":"LFKC","coordinate_reference_system":"WGS84","coordinate_order":"longitude, latitude","feature_count":68,"style_count":11,"layer_counts":{"Airfield surfaces":24,"Ground linework":1,"Labels":41,"Reference points":1,"Runways":1},"category_counts":{"Building":8,"Gras Surface":1,"Hard Surface2":4,"Hard Surface3":2,"Hard Surface4":3,"Labels":42,"Runway Concrete":1,"Runway Markings":1,"Stopbar":5,"Taxiway":1}},"styles":{"area.filled.region.building":{"name":"Building","layer":"Airfield surfaces","object_type":"Area","paint":{"fill":"#394446","fill-opacity":1.0,"stroke":"#394446","stroke-opacity":1.0,"stroke-width":0.5},"feature_count":8},"area.filled.region.gras.surface":{"name":"Gras Surface","layer":"Airfield surfaces","object_type":"Area","paint":{"fill":"#00512F","fill-opacity":1.0,"stroke":"#00512F","stroke-opacity":1.0,"stroke-width":0.5},"feature_count":1},"area.filled.region.hard.surface2":{"name":"Hard Surface2","layer":"Airfield surfaces","object_type":"Area","paint":{"fill":"#595E5B","fill-opacity":1.0,"stroke":"#595E5B","stroke-opacity":1.0,"stroke-width":0.5},"feature_count":4},"area.filled.region.hard.surface3":{"name":"Hard Surface3","layer":"Airfield surfaces","object_type":"Area","paint":{"fill":"#8A807F","fill-opacity":1.0,"stroke":"#8A807F","stroke-opacity":1.0,"stroke-width":0.5},"feature_count":2},"area.filled.region.hard.surface4":{"name":"Hard Surface4","layer":"Airfield surfaces","object_type":"Area","paint":{"fill":"#969393","fill-opacity":1.0,"stroke":"#969393","stroke-opacity":1.0,"stroke-width":0.5},"feature_count":3},"area.filled.region.runway.concrete":{"name":"Runway Concrete","layer":"Airfield surfaces","object_type":"Area","paint":{"fill":"#111318","fill-opacity":1.0,"stroke":"#111318","stroke-opacity":1.0,"stroke-width":0.5},"feature_count":1},"area.filled.region.stopbar":{"name":"Stopbar","layer":"Airfield surfaces","object_type":"Area","paint":{"fill":"#7E0000","fill-opacity":1.0,"stroke":"#7E0000","stroke-opacity":1.0,"stroke-width":0.5},"feature_count":5},"label.text.label.labels":{"name":"Labels","layer":"Labels","object_type":"Label","paint":{"text-anchor":"center","text-color":"#CCCCCC","text-halo-color":"#000000","text-halo-width":1,"text-size":12},"feature_count":41},"line.linework.taxiway":{"name":"Taxiway","layer":"Ground linework","object_type":"Line","paint":{"stroke":"#4E5A69","stroke-opacity":1.0,"stroke-width":1.5},"feature_count":1},"line.runway.centerline.runway.markings":{"name":"Runway Markings","layer":"Runways","object_type":"Line","paint":{"stroke":"#FEFEFE","stroke-opacity":1.0,"stroke-width":1.5},"feature_count":1},"point.airport.reference.point.labels":{"name":"Labels","layer":"Reference points","object_type":"Point","paint":{"marker-color":"#808080","marker-size":"small"},"feature_count":1}},"features":[{"type":"Feature","id":"lfkc.area.filled.region.gras.surface.84102","properties":{"name":"LFKC AVISO","layer":"Airfield surfaces","category":"Gras Surface","object_type":"Area","style_id":"area.filled.region.gras.surface","airport":"LFKC","geometry_role":"filled_region","vsmr_group_ids":[[]]},"geometry":{"type":"Polygon","coordinates":[[[8.792073056,42.539056944],[8.79206,42.538986944],[8.7920275,42.538838056],[8.792005556,42.538668889],[8.791992778,42.538476389],[8.791990278,42.538443333],[8.791986111,42.538427778],[8.791976944,42.538413889],[8.791958333,42.538390556],[8.791837222,42.538249167],[8.791696944,42.538094444],[8.791641667,42.538059444],[8.791311944,42.537919722],[8.790878056,42.537726389],[8.790913333,42.537576111],[8.790947222,42.537446667],[8.790971667,42.5373125],[8.790986111,42.537120278],[8.791041389,42.535684167],[8.791199444,42.532291111],[8.791238056,42.531375556],[8.791241667,42.531132222],[8.79122,42.530941944],[8.791183611,42.530791389],[8.791113611,42.530616944],[8.791047222,42.530505556],[8.790968333,42.5303925],[8.790876389,42.530278611],[8.790813056,42.530205833],[8.790724722,42.530126944],[8.790592222,42.530020556],[8.790359444,42.529866389],[8.789664722,42.529431944],[8.789463056,42.529235],[8.789380556,42.529131944],[8.789298611,42.529005833],[8.789229722,42.528883611],[8.789166944,42.528726944],[8.789138056,42.528619722],[8.789112222,42.528421667],[8.7891025,42.528225556],[8.78913,42.528036667],[8.789218056,42.527146667],[8.789327222,42.526222778],[8.789408333,42.5255775],[8.789467222,42.525086389],[8.789516944,42.524673611],[8.789578611,42.524175833],[8.789672778,42.523470278],[8.7898125,42.523049722],[8.789898056,42.522768889],[8.789915278,42.522768333],[8.790035278,42.522536389],[8.790314444,42.522],[8.790429444,42.521838056],[8.7905525,42.521685278],[8.790879722,42.521251389],[8.790934722,42.521169722],[8.791091667,42.520952222],[8.791216944,42.520761111],[8.791318056,42.5206175],[8.791416944,42.520450833],[8.791480278,42.520331111],[8.791529444,42.520244722],[8.791558333,42.520196389],[8.791586667,42.520151944],[8.791608056,42.520127222],[8.791626389,42.520106389],[8.791648889,42.520089167],[8.791668889,42.5200725],[8.791691389,42.520056667],[8.791699167,42.520046389],[8.79171,42.520025556],[8.791719444,42.519974722],[8.791754444,42.519633611],[8.791791944,42.519132222],[8.791852222,42.5187675],[8.791899167,42.518533889],[8.792045556,42.518108889],[8.792132222,42.517953333],[8.792625278,42.5179425],[8.793158056,42.517940278],[8.793218056,42.517941667],[8.793255278,42.51795],[8.793291111,42.517961389],[8.793322222,42.517975],[8.793347222,42.517989444],[8.793385,42.518016111],[8.793425556,42.518043889],[8.793488611,42.518094167],[8.793540556,42.518139722],[8.793613333,42.5182075],[8.793693611,42.518294722],[8.793779722,42.518404722],[8.793916111,42.5186],[8.793934444,42.518629444],[8.793943889,42.5186525],[8.793949167,42.518681389],[8.793948333,42.518709722],[8.793942778,42.518745833],[8.793935833,42.518780556],[8.793909722,42.518872778],[8.793841389,42.5190925],[8.793836111,42.51913],[8.793835278,42.519146667],[8.793832778,42.519153333],[8.793821389,42.519160278],[8.793735,42.519221389],[8.793729167,42.519227778],[8.793727222,42.519232222],[8.793728056,42.519239167],[8.793731944,42.519245833],[8.7937425,42.519254722],[8.793763889,42.519268611],[8.794035556,42.519406111],[8.794126389,42.519453333],[8.794189444,42.5194925],[8.794223056,42.519518056],[8.794237222,42.5195325],[8.794247222,42.519544444],[8.794254444,42.519555556],[8.794260278,42.519568056],[8.794263611,42.519580833],[8.794265556,42.519597222],[8.794269444,42.519626111],[8.794294167,42.519934167],[8.794350833,42.520659722],[8.794416389,42.521407222],[8.794654167,42.524251667],[8.794716944,42.525064444],[8.794527778,42.524925],[8.794353889,42.524813333],[8.793954444,42.524604167],[8.793952222,42.526436667],[8.793940278,42.530093611],[8.794130278,42.530124444],[8.794194722,42.530139722],[8.794267778,42.530161667],[8.795349167,42.530478611],[8.795250833,42.531178611],[8.795108889,42.531418056],[8.794996667,42.532166667],[8.795079444,42.532675],[8.794736944,42.533347778],[8.794689167,42.533518056],[8.794682222,42.533545556],[8.7946775,42.533557778],[8.794672222,42.533567778],[8.794665278,42.533579444],[8.794653333,42.533593611],[8.794613889,42.53364],[8.794584167,42.533676389],[8.794538889,42.533728889],[8.794338611,42.533969722],[8.794327778,42.533991389],[8.794323889,42.534001389],[8.794319167,42.534016389],[8.7942375,42.534453611],[8.794228889,42.534498333],[8.794221667,42.534538611],[8.794214722,42.534566667],[8.794204722,42.534593611],[8.794071944,42.534928889],[8.794040556,42.535018333],[8.794035833,42.535029444],[8.794033889,42.535035556],[8.794033889,42.535041111],[8.794035,42.535046944],[8.794038611,42.535050833],[8.794044722,42.535058333],[8.794055833,42.535074722],[8.794061389,42.535083611],[8.794064444,42.535091111],[8.794064722,42.535096667],[8.794064444,42.535105278],[8.794063611,42.535112778],[8.794061667,42.535121944],[8.794054167,42.535154444],[8.793943889,42.535655833],[8.793910833,42.536485833],[8.793885556,42.537246667],[8.793871111,42.539694444],[8.793858056,42.540036944],[8.793853333,42.540283333],[8.793863056,42.540417222],[8.793856667,42.540535278],[8.793848333,42.540635],[8.7938525,42.540817778],[8.793866389,42.540910833],[8.793872778,42.541061944],[8.793867778,42.541200833],[8.793854444,42.541268611],[8.793851389,42.541340833],[8.793837778,42.541474444],[8.793831389,42.541737778],[8.793612222,42.541734722],[8.793436111,42.541741944],[8.792905833,42.541851389],[8.792708889,42.541830833],[8.792654167,42.5418225],[8.792472222,42.541781944],[8.792378889,42.541765833],[8.792246389,42.541765],[8.792055278,42.541742222],[8.792071111,42.539231111],[8.792073056,42.539056944]]]}},{"type":"Feature","id":"lfkc.area.filled.region.hard.surface4.84308","properties":{"name":"LFKC AVISO","layer":"Airfield surfaces","category":"Hard Surface4","object_type":"Area","style_id":"area.filled.region.hard.surface4","airport":"LFKC","geometry_role":"filled_region","vsmr_group_ids":[[]]},"geometry":{"type":"Polygon","coordinates":[[[8.791685278,42.521465556],[8.791654167,42.521806944],[8.791613611,42.521805556],[8.791646944,42.5214075],[8.791685278,42.521465556]]]}},{"type":"Feature","id":"lfkc.area.filled.region.hard.surface4.84313","properties":{"name":"LFKC AVISO","layer":"Airfield surfaces","category":"Hard Surface4","object_type":"Area","style_id":"area.filled.region.hard.surface4","airport":"LFKC","geometry_role":"filled_region","vsmr_group_ids":[[]]},"geometry":{"type":"Polygon","coordinates":[[[8.790133889,42.523769167],[8.790105833,42.524395],[8.790157222,42.524423611],[8.790530278,42.524422778],[8.790542778,42.524504444],[8.790540556,42.526448611],[8.790504444,42.526450833],[8.790436944,42.526451389],[8.790391389,42.52645],[8.790369722,42.526447222],[8.790348056,42.526440278],[8.790321389,42.526427778],[8.790289722,42.526405556],[8.790272778,42.526383889],[8.790264444,42.526362778],[8.790264167,42.526029722],[8.790007222,42.524593889],[8.790022222,42.524049722],[8.790047778,42.523792222],[8.789993056,42.523740556],[8.789993056,42.523725556],[8.79016,42.523728333],[8.790133889,42.523769167]]]}},{"type":"Feature","id":"lfkc.area.filled.region.hard.surface4.84336","properties":{"name":"LFKC AVISO","layer":"Airfield surfaces","category":"Hard Surface4","object_type":"Area","style_id":"area.filled.region.hard.surface4","airport":"LFKC","geometry_role":"filled_region","vsmr_group_ids":[[]]},"geometry":{"type":"Polygon","coordinates":[[[8.7927,42.527801389],[8.791968333,42.527800556],[8.791961944,42.527805278],[8.7919575,42.527810556],[8.791952222,42.527815556],[8.791948611,42.527818611],[8.791940556,42.527819444],[8.791930833,42.52782],[8.791923889,42.527819444],[8.791916667,42.527818056],[8.791913056,42.527815278],[8.791907778,42.527809167],[8.791903889,42.527804167],[8.791898611,42.527801389],[8.791888333,42.527800556],[8.790852222,42.527805],[8.7906225,42.527823333],[8.7903575,42.527818611],[8.790354444,42.527791944],[8.790199444,42.527791389],[8.790198611,42.527780278],[8.790173889,42.527774444],[8.790147778,42.527765],[8.790126111,42.527753889],[8.790103889,42.527738056],[8.790084167,42.527718333],[8.790068056,42.527694722],[8.790053889,42.527667222],[8.790045,42.527646111],[8.790037778,42.527621667],[8.790033889,42.527596389],[8.789934444,42.527593889],[8.789930278,42.5273925],[8.790000278,42.527235],[8.790003611,42.526816111],[8.790401944,42.526817778],[8.790423611,42.526815556],[8.790437778,42.526812778],[8.790443611,42.526808333],[8.790448056,42.526801944],[8.790448889,42.526786944],[8.790435833,42.526637222],[8.79038,42.526446944],[8.790531667,42.526448611],[8.790484167,42.526534167],[8.790504167,42.526638333],[8.790511667,42.526756667],[8.790513611,42.5274225],[8.790520278,42.5274625],[8.790533056,42.527493333],[8.790569444,42.527526111],[8.790626944,42.527568889],[8.790863056,42.527739722],[8.792731111,42.527741944],[8.792730278,42.527800833],[8.7927,42.527801389]]]}},{"type":"Feature","id":"lfkc.area.filled.region.hard.surface2.84392","properties":{"name":"LFKC AVISO","layer":"Airfield surfaces","category":"Hard Surface2","object_type":"Area","style_id":"area.filled.region.hard.surface2","airport":"LFKC","geometry_role":"filled_region","vsmr_group_ids":[[]]},"geometry":{"type":"Polygon","coordinates":[[[8.791753056,42.523984444],[8.791760278,42.524035833],[8.791781389,42.524093889],[8.791806667,42.524129444],[8.791845556,42.524165278],[8.791891111,42.5241875],[8.791946111,42.524209444],[8.791991111,42.524221944],[8.792038611,42.524226944],[8.7920975,42.524226667],[8.792091111,42.524496667],[8.791995278,42.524494722],[8.791967222,42.5244975],[8.791941667,42.524506111],[8.791910556,42.524519167],[8.791890833,42.524528056],[8.791869167,42.524539167],[8.791848056,42.524553889],[8.791831111,42.524568333],[8.79182,42.524581944],[8.791808056,42.524598889],[8.791802222,42.524612222],[8.791807222,42.525475556],[8.791796944,42.526100833],[8.791293889,42.525726944],[8.791309444,42.5242275],[8.791751667,42.523905556],[8.791753056,42.523984444]]]}},{"type":"Feature","id":"lfkc.area.filled.region.hard.surface2.84420","properties":{"name":"LFKC AVISO","layer":"Airfield surfaces","category":"Hard Surface2","object_type":"Area","style_id":"area.filled.region.hard.surface2","airport":"LFKC","geometry_role":"filled_region","vsmr_group_ids":[[]]},"geometry":{"type":"Polygon","coordinates":[[[8.791804444,42.522294722],[8.791808333,42.52181],[8.791893889,42.521820278],[8.7919425,42.521844722],[8.791975,42.521872222],[8.792002222,42.521899444],[8.792026944,42.521929722],[8.792028611,42.522193611],[8.792044167,42.522253889],[8.792066944,42.522297222],[8.792100833,42.5223225],[8.792100833,42.522488611],[8.791804444,42.522294722]]]}},{"type":"Feature","id":"lfkc.area.filled.region.hard.surface2.84433","properties":{"name":"LFKC AVISO","layer":"Airfield surfaces","category":"Hard Surface2","object_type":"Area","style_id":"area.filled.region.hard.surface2","airport":"LFKC","geometry_role":"filled_region","vsmr_group_ids":[[]]},"geometry":{"type":"Polygon","coordinates":[[[8.7921075,42.521607222],[8.791840833,42.521574444],[8.791747778,42.521525556],[8.791685833,42.521466389],[8.791649444,42.521409722],[8.791573333,42.521191389],[8.791538889,42.520978611],[8.791530278,42.520801389],[8.791586111,42.520643333],[8.791706944,42.52052],[8.791833611,42.520439167],[8.791994722,42.520364167],[8.792130278,42.520339722],[8.792158889,42.520553889],[8.792035556,42.520613056],[8.791957778,42.520697778],[8.791909167,42.520814722],[8.791903333,42.520893333],[8.791966667,42.52098],[8.791975,42.521054167],[8.791963611,42.521122222],[8.791923333,42.521170833],[8.791941667,42.521231667],[8.792007222,42.521336111],[8.792080833,42.521388889],[8.792154167,42.521418056],[8.792153889,42.521616389],[8.7921075,42.521607222]]]}},{"type":"Feature","id":"lfkc.area.filled.region.hard.surface2.84461","properties":{"name":"LFKC AVISO","layer":"Airfield surfaces","category":"Hard Surface2","object_type":"Area","style_id":"area.filled.region.hard.surface2","airport":"LFKC","geometry_role":"filled_region","vsmr_group_ids":[[]]},"geometry":{"type":"Polygon","coordinates":[[[8.790937222,42.528894444],[8.792646111,42.528873333],[8.792674444,42.528865],[8.792698333,42.528856389],[8.792733056,42.528844722],[8.792735,42.529056944],[8.792681667,42.52902],[8.792646389,42.528988333],[8.792606389,42.528975556],[8.790945,42.528990278],[8.790937222,42.528894444]]]}},{"type":"Feature","id":"lfkc.area.filled.region.runway.concrete.84472","properties":{"name":"LFKC AVISO","layer":"Airfield surfaces","category":"Runway Concrete","object_type":"Area","style_id":"area.filled.region.runway.concrete","airport":"LFKC","geometry_role":"filled_region","vsmr_group_ids":[[]]},"geometry":{"type":"Polygon","coordinates":[[[8.792627778,42.520372778],[8.792663611,42.520358889],[8.792684444,42.520353889],[8.792706389,42.520349722],[8.792820278,42.520340278],[8.793037778,42.5203325],[8.793299167,42.520338889],[8.793304167,42.520502222],[8.793226944,42.540338889],[8.793228889,42.540395833],[8.7932375,42.54043],[8.793268333,42.540481667],[8.793357778,42.540585278],[8.793446389,42.540661111],[8.793516944,42.540716667],[8.793548889,42.540739167],[8.793568611,42.540760278],[8.793578611,42.540783333],[8.793586389,42.540821389],[8.793590278,42.540893056],[8.793581667,42.540951667],[8.793565556,42.541001944],[8.793536944,42.541043333],[8.793479444,42.541098333],[8.793422222,42.541131944],[8.793321389,42.541163056],[8.793171944,42.541179722],[8.793033611,42.541190833],[8.792903333,42.541200278],[8.79267,42.5412],[8.792742222,42.524739722],[8.792741667,42.524680278],[8.792729722,42.5246325],[8.792701111,42.524584167],[8.792666944,42.524549444],[8.792629444,42.524528333],[8.792535278,42.524496667],[8.792475556,42.524488056],[8.792333889,42.524479167],[8.792196389,42.524478056],[8.792142222,42.524483889],[8.792091389,42.524496667],[8.79209,42.524496667],[8.792096389,42.524226944],[8.792125833,42.524228611],[8.792166667,42.524233056],[8.792206111,42.524236111],[8.792262222,42.524235556],[8.792337778,42.524232778],[8.792450278,42.524226389],[8.792510556,42.52422],[8.792575556,42.524206111],[8.792625,42.524189444],[8.792673889,42.524171389],[8.792695833,42.5241575],[8.792712778,42.524139167],[8.792724167,42.524107222],[8.792746667,42.524029167],[8.792745,42.523936389],[8.792710278,42.522568611],[8.792671944,42.522526667],[8.792638889,42.522505833],[8.792605833,42.522491944],[8.792575556,42.522480556],[8.792255278,42.522461667],[8.792224722,42.522465278],[8.792200278,42.522468611],[8.792130278,42.5224925],[8.792136111,42.522333611],[8.792196944,42.522355556],[8.792231667,42.522361111],[8.792296111,42.522367778],[8.792389167,42.5223725],[8.792490833,42.522375278],[8.792553333,42.522371389],[8.792604444,42.522359167],[8.792641111,42.522344167],[8.792671111,42.522331111],[8.792692778,42.522313333],[8.792712222,42.5222875],[8.7927325,42.522264722],[8.792727778,42.522595278],[8.792751389,42.521660833],[8.792750833,42.521684444],[8.792686389,42.5216675],[8.792559167,42.521648611],[8.792374444,42.521645278],[8.792288889,42.521635],[8.792171111,42.521616389],[8.792173611,42.521425278],[8.792381389,42.52144],[8.792556389,42.521443333],[8.792675833,42.521436667],[8.792744444,42.521416389],[8.792756389,42.521192778],[8.792751667,42.521148333],[8.792739167,42.521096111],[8.792709167,42.521014722],[8.792635278,42.520928889],[8.792557778,42.520850278],[8.792483056,42.520781667],[8.792456389,42.520748056],[8.792440278,42.520718056],[8.792432222,42.520689444],[8.792425556,42.520662778],[8.792420278,42.520590278],[8.792419167,42.5205625],[8.792176944,42.520554167],[8.792153889,42.520339444],[8.792453611,42.520338611],[8.792576944,42.520368611],[8.792627778,42.520372778]]]}},{"type":"Feature","id":"lfkc.area.filled.region.hard.surface3.84584","properties":{"name":"LFKC AVISO","layer":"Airfield surfaces","category":"Hard Surface3","object_type":"Area","style_id":"area.filled.region.hard.surface3","airport":"LFKC","geometry_role":"filled_region","vsmr_group_ids":[[]]},"geometry":{"type":"Polygon","coordinates":[[[8.791311389,42.524228333],[8.791295556,42.525725278],[8.791797222,42.526098333],[8.7917925,42.526445833],[8.790538333,42.526449167],[8.790541111,42.524509167],[8.790540278,42.524494722],[8.790539167,42.524485833],[8.790536667,42.524478333],[8.790533056,42.524469722],[8.790528611,42.524463611],[8.790520833,42.524454722],[8.790514167,42.524448056],[8.790508889,42.524444167],[8.7905025,42.524439722],[8.790493611,42.524435556],[8.790485556,42.524431667],[8.790473056,42.524428333],[8.790456944,42.524425278],[8.790435556,42.524424167],[8.7901675,42.524425278],[8.790149722,42.524424167],[8.790136111,42.524423611],[8.790128056,42.524421944],[8.790122778,42.524420556],[8.790116944,42.524417222],[8.790111389,42.5244125],[8.790108611,42.524408333],[8.790106111,42.524403889],[8.790105,42.524399167],[8.790104722,42.524393333],[8.790105,42.524386667],[8.790125,42.523751111],[8.790132778,42.523713056],[8.7901525,42.523705833],[8.790395278,42.523710278],[8.790395,42.523481944],[8.790440556,42.523441111],[8.790838333,42.523438611],[8.790842222,42.522814167],[8.790284444,42.522801944],[8.790180556,42.522711111],[8.789956389,42.522686944],[8.790306389,42.521995556],[8.791025833,42.521049722],[8.791173889,42.5211075],[8.791316111,42.521335833],[8.791136389,42.521534444],[8.79141,42.521648333],[8.7914025,42.521769167],[8.791446111,42.521805],[8.791809444,42.521809444],[8.791801667,42.522293889],[8.792098333,42.522486667],[8.792069444,42.522528889],[8.792067778,42.522578333],[8.792033056,42.523618889],[8.791959444,42.523628611],[8.791899444,42.523781667],[8.7917425,42.523793333],[8.791751667,42.523905556],[8.791311389,42.524228333]]]}},{"type":"Feature","id":"lfkc.area.filled.region.hard.surface3.84646","properties":{"name":"LFKC AVISO","layer":"Airfield surfaces","category":"Hard Surface3","object_type":"Area","style_id":"area.filled.region.hard.surface3","airport":"LFKC","geometry_role":"filled_region","vsmr_group_ids":[[]]},"geometry":{"type":"Polygon","coordinates":[[[8.790929722,42.529099722],[8.790899722,42.529131111],[8.790852222,42.529169722],[8.790798889,42.529193333],[8.790729167,42.529206389],[8.7906625,42.529214167],[8.790591667,42.529222778],[8.790518056,42.529213889],[8.790396667,42.529179722],[8.790048333,42.529003333],[8.789803611,42.529011667],[8.78976,42.528081944],[8.7906225,42.528059722],[8.790656944,42.528899444],[8.790936667,42.528892778],[8.790946111,42.52899],[8.790943056,42.529053611],[8.790929722,42.529099722]]]}},{"type":"Feature","id":"lfkc.area.filled.region.building.84664","properties":{"name":"LFKC AVISO","layer":"Airfield surfaces","category":"Building","object_type":"Area","style_id":"area.filled.region.building","airport":"LFKC","geometry_role":"filled_region","vsmr_group_ids":[[]]},"geometry":{"type":"Polygon","coordinates":[[[8.79037,42.52757],[8.790332222,42.527570278],[8.790333889,42.527733889],[8.790181667,42.527733889],[8.790180278,42.527520556],[8.790370278,42.527519722],[8.79037,42.52757]]]}},{"type":"Feature","id":"lfkc.area.filled.region.building.84671","properties":{"name":"LFKC AVISO","layer":"Airfield surfaces","category":"Building","object_type":"Area","style_id":"area.filled.region.building","airport":"LFKC","geometry_role":"filled_region","vsmr_group_ids":[[]]},"geometry":{"type":"Polygon","coordinates":[[[8.790367222,42.527095],[8.790361944,42.5273525],[8.790302222,42.527351111],[8.790291111,42.527363056],[8.790280556,42.52737],[8.790267222,42.527374167],[8.790255278,42.527375],[8.7902425,42.527373056],[8.790231111,42.527370556],[8.7902225,42.527366667],[8.790219167,42.527451667],[8.790056111,42.527450833],[8.790056944,42.527403889],[8.790091389,42.527403333],[8.790092222,42.527363611],[8.790065833,42.527363333],[8.790065278,42.527322778],[8.790199167,42.527322222],[8.790205833,42.527310278],[8.790214444,42.527305],[8.790223889,42.527300833],[8.790231389,42.527298056],[8.790236667,42.527295833],[8.79024,42.527094444],[8.790367222,42.527095]]]}},{"type":"Feature","id":"lfkc.area.filled.region.building.84696","properties":{"name":"LFKC AVISO","layer":"Airfield surfaces","category":"Building","object_type":"Area","style_id":"area.filled.region.building","airport":"LFKC","geometry_role":"filled_region","vsmr_group_ids":[[]]},"geometry":{"type":"Polygon","coordinates":[[[8.790371944,42.525779167],[8.790268611,42.525779722],[8.790266944,42.525786111],[8.790265,42.525792222],[8.790263889,42.525800833],[8.790263056,42.525809444],[8.7902625,42.525823333],[8.790262222,42.525833333],[8.790262222,42.525843056],[8.7902625,42.525854722],[8.790263889,42.525868889],[8.790266111,42.525883611],[8.790268889,42.525898056],[8.790272222,42.525909722],[8.790275278,42.525918611],[8.790278333,42.5259275],[8.790280833,42.525936111],[8.7902825,42.525943056],[8.790283056,42.525952778],[8.790284167,42.525966667],[8.790283333,42.525977222],[8.790281667,42.525990833],[8.790306944,42.525991389],[8.790306944,42.526048056],[8.789910833,42.526048333],[8.789910556,42.526041389],[8.789895556,42.526041111],[8.789894444,42.525991944],[8.789881111,42.525991389],[8.789889722,42.524579722],[8.79005,42.524578611],[8.79005,42.524530833],[8.790371111,42.524530556],[8.790371944,42.525779167]]]}},{"type":"Feature","id":"lfkc.area.filled.region.building.84730","properties":{"name":"LFKC AVISO","layer":"Airfield surfaces","category":"Building","object_type":"Area","style_id":"area.filled.region.building","airport":"LFKC","geometry_role":"filled_region","vsmr_group_ids":[[]]},"geometry":{"type":"Polygon","coordinates":[[[8.790450278,42.523450833],[8.79045,42.523385556],[8.790375,42.523385833],[8.790375278,42.523338056],[8.790448333,42.523336944],[8.790448333,42.523300278],[8.790491111,42.5233],[8.790491667,42.523304167],[8.790838611,42.523303056],[8.790837778,42.523446389],[8.790450278,42.523450833]]]}},{"type":"Feature","id":"lfkc.area.filled.region.building.84741","properties":{"name":"LFKC AVISO","layer":"Airfield surfaces","category":"Building","object_type":"Area","style_id":"area.filled.region.building","airport":"LFKC","geometry_role":"filled_region","vsmr_group_ids":[[]]},"geometry":{"type":"Polygon","coordinates":[[[8.7900125,42.523423333],[8.790013056,42.523323889],[8.790252222,42.523326389],[8.790251389,42.523424167],[8.7900125,42.523423333]]]}},{"type":"Feature","id":"lfkc.area.filled.region.building.84746","properties":{"name":"LFKC AVISO","layer":"Airfield surfaces","category":"Building","object_type":"Area","style_id":"area.filled.region.building","airport":"LFKC","geometry_role":"filled_region","vsmr_group_ids":[[]]},"geometry":{"type":"Polygon","coordinates":[[[8.790165556,42.522961944],[8.790018889,42.522960556],[8.790019722,42.5228775],[8.790032778,42.5228775],[8.790033611,42.5228425],[8.790165833,42.522843333],[8.790165556,42.522961944]]]}},{"type":"Feature","id":"lfkc.area.filled.region.building.84753","properties":{"name":"LFKC AVISO","layer":"Airfield surfaces","category":"Building","object_type":"Area","style_id":"area.filled.region.building","airport":"LFKC","geometry_role":"filled_region","vsmr_group_ids":[[]]},"geometry":{"type":"Polygon","coordinates":[[[8.7905825,42.522822778],[8.790582778,42.522945833],[8.790788333,42.522948333],[8.790787222,42.523020278],[8.79045,42.523018611],[8.790450556,42.522996944],[8.790414722,42.522995278],[8.790416944,42.522820556],[8.7905825,42.522822778]]]}},{"type":"Feature","id":"lfkc.area.filled.region.building.84762","properties":{"name":"LFKC AVISO","layer":"Airfield surfaces","category":"Building","object_type":"Area","style_id":"area.filled.region.building","airport":"LFKC","geometry_role":"filled_region","vsmr_group_ids":[[]]},"geometry":{"type":"Polygon","coordinates":[[[8.788782778,42.528994444],[8.788768056,42.529137222],[8.78853,42.529125],[8.788542222,42.528980556],[8.788782778,42.528994444]]]}},{"type":"Feature","id":"lfkc.area.filled.region.stopbar.84767","properties":{"name":"LFKC AVISO","layer":"Airfield surfaces","category":"Stopbar","object_type":"Area","style_id":"area.filled.region.stopbar","airport":"LFKC","geometry_role":"filled_region","vsmr_group_ids":[[]]},"geometry":{"type":"Polygon","coordinates":[[[8.792000556,42.528880833],[8.792015833,42.528880556],[8.792016111,42.528980278],[8.792001667,42.528980556],[8.792000556,42.528880833]]]}},{"type":"Feature","id":"lfkc.area.filled.region.stopbar.84772","properties":{"name":"LFKC AVISO","layer":"Airfield surfaces","category":"Stopbar","object_type":"Area","style_id":"area.filled.region.stopbar","airport":"LFKC","geometry_role":"filled_region","vsmr_group_ids":[[]]},"geometry":{"type":"Polygon","coordinates":[[[8.792176944,42.520554167],[8.792158889,42.520553889],[8.792130278,42.520339722],[8.792153889,42.520339444],[8.792176944,42.520554167]]]}},{"type":"Feature","id":"lfkc.area.filled.region.stopbar.84777","properties":{"name":"LFKC AVISO","layer":"Airfield surfaces","category":"Stopbar","object_type":"Area","style_id":"area.filled.region.stopbar","airport":"LFKC","geometry_role":"filled_region","vsmr_group_ids":[[]]},"geometry":{"type":"Polygon","coordinates":[[[8.792171111,42.521616389],[8.792153889,42.521616389],[8.792154167,42.521418056],[8.792173611,42.521425278],[8.792171111,42.521616389]]]}},{"type":"Feature","id":"lfkc.area.filled.region.stopbar.84783","properties":{"name":"LFKC AVISO","layer":"Airfield surfaces","category":"Stopbar","object_type":"Area","style_id":"area.filled.region.stopbar","airport":"LFKC","geometry_role":"filled_region","vsmr_group_ids":[[]]},"geometry":{"type":"Polygon","coordinates":[[[8.792136111,42.522333611],[8.792130278,42.5224925],[8.792100833,42.522488611],[8.792100833,42.5223225],[8.792136111,42.522333611]]]}},{"type":"Feature","id":"lfkc.area.filled.region.stopbar.84788","properties":{"name":"LFKC AVISO","layer":"Airfield surfaces","category":"Stopbar","object_type":"Area","style_id":"area.filled.region.stopbar","airport":"LFKC","geometry_role":"filled_region","vsmr_group_ids":[[]]},"geometry":{"type":"Polygon","coordinates":[[[8.792118611,42.524228333],[8.792113056,42.524491111],[8.792090556,42.524496944],[8.792083889,42.524496667],[8.792088611,42.524226944],[8.792118611,42.524228333]]]}},{"type":"Feature","id":"LFKC-runway-18-36-5332","properties":{"name":"LFKC RWY 18/36","layer":"Runways","category":"Runway Markings","object_type":"Line","style_id":"line.runway.centerline.runway.markings","airport":"LFKC","geometry_role":"runway_centerline","vsmr_group_ids":[[]]},"geometry":{"type":"LineString","coordinates":[[8.792941944,42.541177778],[8.793018889,42.522166944]]}},{"type":"Feature","id":"lfkc.line.linework.taxiway.61312","properties":{"name":"LFKC Groundlayout AVISO","layer":"Ground linework","category":"Taxiway","object_type":"Line","style_id":"line.linework.taxiway","airport":"LFKC","geometry_role":"linework","vsmr_group_ids":[[]]},"geometry":{"type":"MultiLineString","coordinates":[[[8.791350278,42.526092222],[8.791345556,42.526316111]],[[8.791087778,42.526095],[8.791085833,42.526312778]],[[8.791493889,42.525931111],[8.790559722,42.526330556]],[[8.791295278,42.525474722],[8.7905475,42.525794722]],[[8.791301111,42.524977222],[8.790543056,42.525302222]],[[8.791306667,42.524484722],[8.790545556,42.524810556]],[[8.790205833,42.524079722],[8.791210278,42.524300278]],[[8.790384167,42.523732778],[8.791255556,42.5243025]],[[8.790643333,42.523738611],[8.790757222,42.523705833]],[[8.790757222,42.523705833],[8.790855556,42.523671944]],[[8.790855556,42.523671944],[8.790919722,42.523659444]],[[8.790919722,42.523659444],[8.790997222,42.523645278]],[[8.790997222,42.523645278],[8.791118889,42.523644167]],[[8.791605833,42.523500278],[8.79161,42.523156667]],[[8.791546667,42.523498889],[8.791551667,42.523156944]],[[8.791355556,42.523496389],[8.791356389,42.523158056]],[[8.791137778,42.523498889],[8.791140833,42.523157222]],[[8.791100278,42.523501111],[8.791105278,42.5231575]],[[8.791612222,42.522861944],[8.791611389,42.522580556]],[[8.791555833,42.522862222],[8.7915525,42.522579444]],[[8.791361111,42.522858611],[8.791358611,42.522580278]],[[8.791142222,42.522861667],[8.791142778,42.522578056]],[[8.791106111,42.522859167],[8.791107778,42.522579722]],[[8.791611111,42.522308889],[8.791613889,42.522003333]],[[8.791453611,42.522302222],[8.791456111,42.522005556]],[[8.791361944,42.522306111],[8.791361389,42.522000833]],[[8.791109167,42.522301944],[8.791111667,42.521997778]],[[8.791069444,42.522300278],[8.791070278,42.521998056]],[[8.790855556,42.522299444],[8.79086,42.521996667]]]}},{"type":"Feature","id":"LFKC-airport-reference","properties":{"name":"LFKC","layer":"Reference points","category":"Labels","object_type":"Point","style_id":"point.airport.reference.point.labels","airport":"LFKC","geometry_role":"airport_reference_point","text-field":"LFKC","vsmr_group_ids":[[]]},"geometry":{"type":"Point","coordinates":[8.793055833,42.524443889]}},{"type":"Feature","id":"LFKC-text-lfmm-20046","properties":{"name":"Parking D","layer":"Labels","category":"Labels","object_type":"Label","style_id":"label.text.label.labels","airport":"LFKC","geometry_role":"text_label","text-field":"Parking D","vsmr_group_ids":[[]]},"geometry":{"type":"Point","coordinates":[8.790130556,42.528505556]}},{"type":"Feature","id":"LFKC-text-lfmm-20047","properties":{"name":"RFFS","layer":"Labels","category":"Labels","object_type":"Label","style_id":"label.text.label.labels","airport":"LFKC","geometry_role":"text_label","text-field":"RFFS","vsmr_group_ids":[[]]},"geometry":{"type":"Point","coordinates":[8.790475,42.527721389]}},{"type":"Feature","id":"LFKC-text-lfmm-20048","properties":{"name":"Voie RFFS","layer":"Labels","category":"Labels","object_type":"Label","style_id":"label.text.label.labels","airport":"LFKC","geometry_role":"text_label","text-field":"Voie RFFS","vsmr_group_ids":[[]]},"geometry":{"type":"Point","coordinates":[8.791450833,42.527891389]}},{"type":"Feature","id":"LFKC-text-lfmm-20049","properties":{"name":"TWR","layer":"Labels","category":"Labels","object_type":"Label","style_id":"label.text.label.labels","airport":"LFKC","geometry_role":"text_label","text-field":"TWR","vsmr_group_ids":[[]]},"geometry":{"type":"Point","coordinates":[8.790219722,42.527232222]}},{"type":"Feature","id":"LFKC-text-lfmm-20050","properties":{"name":"Terminal","layer":"Labels","category":"Labels","object_type":"Label","style_id":"label.text.label.labels","airport":"LFKC","geometry_role":"text_label","text-field":"Terminal","vsmr_group_ids":[[]]},"geometry":{"type":"Point","coordinates":[8.790125556,42.525251944]}},{"type":"Feature","id":"LFKC-text-lfmm-20051","properties":{"name":"METEO","layer":"Labels","category":"Labels","object_type":"Label","style_id":"label.text.label.labels","airport":"LFKC","geometry_role":"text_label","text-field":"METEO","vsmr_group_ids":[[]]},"geometry":{"type":"Point","coordinates":[8.790613056,42.523385278]}},{"type":"Feature","id":"LFKC-text-lfmm-20052","properties":{"name":"Pelicandrome","layer":"Labels","category":"Labels","object_type":"Label","style_id":"label.text.label.labels","airport":"LFKC","geometry_role":"text_label","text-field":"Pelicandrome","vsmr_group_ids":[[]]},"geometry":{"type":"Point","coordinates":[8.791513611,42.520928333]}},{"type":"Feature","id":"LFKC-text-lfmm-20053","properties":{"name":"P7","layer":"Labels","category":"Labels","object_type":"Label","style_id":"label.text.label.labels","airport":"LFKC","geometry_role":"text_label","text-field":"P7","vsmr_group_ids":[[]]},"geometry":{"type":"Point","coordinates":[8.791083611,42.526362222]}},{"type":"Feature","id":"LFKC-text-lfmm-20054","properties":{"name":"P8","layer":"Labels","category":"Labels","object_type":"Label","style_id":"label.text.label.labels","airport":"LFKC","geometry_role":"text_label","text-field":"P8","vsmr_group_ids":[[]]},"geometry":{"type":"Point","coordinates":[8.791412222,42.526344444]}},{"type":"Feature","id":"LFKC-text-lfmm-20055","properties":{"name":"P6","layer":"Labels","category":"Labels","object_type":"Label","style_id":"label.text.label.labels","airport":"LFKC","geometry_role":"text_label","text-field":"P6","vsmr_group_ids":[[]]},"geometry":{"type":"Point","coordinates":[8.7905975,42.526217778]}},{"type":"Feature","id":"LFKC-text-lfmm-20056","properties":{"name":"P5","layer":"Labels","category":"Labels","object_type":"Label","style_id":"label.text.label.labels","airport":"LFKC","geometry_role":"text_label","text-field":"P5","vsmr_group_ids":[[]]},"geometry":{"type":"Point","coordinates":[8.790692222,42.525801944]}},{"type":"Feature","id":"LFKC-text-lfmm-20057","properties":{"name":"P4","layer":"Labels","category":"Labels","object_type":"Label","style_id":"label.text.label.labels","airport":"LFKC","geometry_role":"text_label","text-field":"P4","vsmr_group_ids":[[]]},"geometry":{"type":"Point","coordinates":[8.790749167,42.525289167]}},{"type":"Feature","id":"LFKC-text-lfmm-20058","properties":{"name":"P3","layer":"Labels","category":"Labels","object_type":"Label","style_id":"label.text.label.labels","airport":"LFKC","geometry_role":"text_label","text-field":"P3","vsmr_group_ids":[[]]},"geometry":{"type":"Point","coordinates":[8.79073,42.524781944]}},{"type":"Feature","id":"LFKC-text-lfmm-20059","properties":{"name":"P2A","layer":"Labels","category":"Labels","object_type":"Label","style_id":"label.text.label.labels","airport":"LFKC","geometry_role":"text_label","text-field":"P2A","vsmr_group_ids":[[]]},"geometry":{"type":"Point","coordinates":[8.790622778,42.523821389]}},{"type":"Feature","id":"LFKC-text-lfmm-20060","properties":{"name":"P2B","layer":"Labels","category":"Labels","object_type":"Label","style_id":"label.text.label.labels","airport":"LFKC","geometry_role":"text_label","text-field":"P2B","vsmr_group_ids":[[]]},"geometry":{"type":"Point","coordinates":[8.7901675,42.524139444]}},{"type":"Feature","id":"LFKC-text-lfmm-20061","properties":{"name":"P1","layer":"Labels","category":"Labels","object_type":"Label","style_id":"label.text.label.labels","airport":"LFKC","geometry_role":"text_label","text-field":"P1","vsmr_group_ids":[[]]},"geometry":{"type":"Point","coordinates":[8.790977778,42.523683333]}},{"type":"Feature","id":"LFKC-text-lfmm-20062","properties":{"name":"P ACB","layer":"Labels","category":"Labels","object_type":"Label","style_id":"label.text.label.labels","airport":"LFKC","geometry_role":"text_label","text-field":"P ACB","vsmr_group_ids":[[]]},"geometry":{"type":"Point","coordinates":[8.790525,42.522752778]}},{"type":"Feature","id":"LFKC-text-lfmm-20063","properties":{"name":"P G","layer":"Labels","category":"Labels","object_type":"Label","style_id":"label.text.label.labels","airport":"LFKC","geometry_role":"text_label","text-field":"P G","vsmr_group_ids":[[]]},"geometry":{"type":"Point","coordinates":[8.790266667,42.522163889]}},{"type":"Feature","id":"LFKC-text-lfmm-20064","properties":{"name":"A1","layer":"Labels","category":"Labels","object_type":"Label","style_id":"label.text.label.labels","airport":"LFKC","geometry_role":"text_label","text-field":"A1","vsmr_group_ids":[[]]},"geometry":{"type":"Point","coordinates":[8.791705556,42.523438889]}},{"type":"Feature","id":"LFKC-text-lfmm-20065","properties":{"name":"A5","layer":"Labels","category":"Labels","object_type":"Label","style_id":"label.text.label.labels","airport":"LFKC","geometry_role":"text_label","text-field":"A5","vsmr_group_ids":[[]]},"geometry":{"type":"Point","coordinates":[8.790986111,42.523438889]}},{"type":"Feature","id":"LFKC-text-lfmm-20066","properties":{"name":"B1","layer":"Labels","category":"Labels","object_type":"Label","style_id":"label.text.label.labels","airport":"LFKC","geometry_role":"text_label","text-field":"B1","vsmr_group_ids":[[]]},"geometry":{"type":"Point","coordinates":[8.791705556,42.522791667]}},{"type":"Feature","id":"LFKC-text-lfmm-20067","properties":{"name":"B5","layer":"Labels","category":"Labels","object_type":"Label","style_id":"label.text.label.labels","airport":"LFKC","geometry_role":"text_label","text-field":"B5","vsmr_group_ids":[[]]},"geometry":{"type":"Point","coordinates":[8.790986111,42.522791667]}},{"type":"Feature","id":"LFKC-text-lfmm-20068","properties":{"name":"C1","layer":"Labels","category":"Labels","object_type":"Label","style_id":"label.text.label.labels","airport":"LFKC","geometry_role":"text_label","text-field":"C1","vsmr_group_ids":[[]]},"geometry":{"type":"Point","coordinates":[8.791705556,42.522230556]}},{"type":"Feature","id":"LFKC-text-lfmm-20069","properties":{"name":"C6","layer":"Labels","category":"Labels","object_type":"Label","style_id":"label.text.label.labels","airport":"LFKC","geometry_role":"text_label","text-field":"C6","vsmr_group_ids":[[]]},"geometry":{"type":"Point","coordinates":[8.790752778,42.522230556]}},{"type":"Feature","id":"LFKC-text-lfmm-20071","properties":{"name":"E","layer":"Labels","category":"Labels","object_type":"Label","style_id":"label.text.label.labels","airport":"LFKC","geometry_role":"text_label","text-field":"E","vsmr_group_ids":[[]]},"geometry":{"type":"Point","coordinates":[8.852222222,42.612222222]}},{"type":"Feature","id":"LFKC-text-lfmm-20072","properties":{"name":"EA","layer":"Labels","category":"Labels","object_type":"Label","style_id":"label.text.label.labels","airport":"LFKC","geometry_role":"text_label","text-field":"EA","vsmr_group_ids":[[]]},"geometry":{"type":"Point","coordinates":[8.799166667,42.541111111]}},{"type":"Feature","id":"LFKC-text-lfmm-20073","properties":{"name":"IR","layer":"Labels","category":"Labels","object_type":"Label","style_id":"label.text.label.labels","airport":"LFKC","geometry_role":"text_label","text-field":"IR","vsmr_group_ids":[[]]},"geometry":{"type":"Point","coordinates":[8.931666667,42.644444444]}},{"type":"Feature","id":"LFKC-text-lfmm-20074","properties":{"name":"N","layer":"Labels","category":"Labels","object_type":"Label","style_id":"label.text.label.labels","airport":"LFKC","geometry_role":"text_label","text-field":"N","vsmr_group_ids":[[]]},"geometry":{"type":"Point","coordinates":[8.724444444,42.583055556]}},{"type":"Feature","id":"LFKC-text-lfmm-20075","properties":{"name":"NW","layer":"Labels","category":"Labels","object_type":"Label","style_id":"label.text.label.labels","airport":"LFKC","geometry_role":"text_label","text-field":"NW","vsmr_group_ids":[[]]},"geometry":{"type":"Point","coordinates":[8.690833333,42.575277778]}},{"type":"Feature","id":"LFKC-text-lfmm-20076","properties":{"name":"PB","layer":"Labels","category":"Labels","object_type":"Label","style_id":"label.text.label.labels","airport":"LFKC","geometry_role":"text_label","text-field":"PB","vsmr_group_ids":[[]]},"geometry":{"type":"Point","coordinates":[8.665,42.569444444]}},{"type":"Feature","id":"LFKC-text-lfmm-20077","properties":{"name":"S","layer":"Labels","category":"Labels","object_type":"Label","style_id":"label.text.label.labels","airport":"LFKC","geometry_role":"text_label","text-field":"S","vsmr_group_ids":[[]]},"geometry":{"type":"Point","coordinates":[8.665,42.5125]}},{"type":"Feature","id":"LFKC-text-lfmm-20078","properties":{"name":"W","layer":"Labels","category":"Labels","object_type":"Label","style_id":"label.text.label.labels","airport":"LFKC","geometry_role":"text_label","text-field":"W","vsmr_group_ids":[[]]},"geometry":{"type":"Point","coordinates":[8.716666667,42.560555556]}},{"type":"Feature","id":"LFKC-text-lfmm-20079","properties":{"name":"WC","layer":"Labels","category":"Labels","object_type":"Label","style_id":"label.text.label.labels","airport":"LFKC","geometry_role":"text_label","text-field":"WC","vsmr_group_ids":[[]]},"geometry":{"type":"Point","coordinates":[8.613611111,42.619166667]}},{"type":"Feature","id":"LFKC-text-lfmm-20081","properties":{"name":"A","layer":"Labels","category":"Labels","object_type":"Label","style_id":"label.text.label.labels","airport":"LFKC","geometry_role":"text_label","text-field":"A","vsmr_group_ids":[[]]},"geometry":{"type":"Point","coordinates":[8.792305833,42.522430833]}},{"type":"Feature","id":"LFKC-text-lfmm-20082","properties":{"name":"B","layer":"Labels","category":"Labels","object_type":"Label","style_id":"label.text.label.labels","airport":"LFKC","geometry_role":"text_label","text-field":"B","vsmr_group_ids":[[]]},"geometry":{"type":"Point","coordinates":[8.792306389,42.524376667]}},{"type":"Feature","id":"LFKC-text-lfmm-20083","properties":{"name":"C","layer":"Labels","category":"Labels","object_type":"Label","style_id":"label.text.label.labels","airport":"LFKC","geometry_role":"text_label","text-field":"C","vsmr_group_ids":[[]]},"geometry":{"type":"Point","coordinates":[8.791883333,42.528927778]}},{"type":"Feature","id":"LFKC-text-lfmm-20084","properties":{"name":"S1","layer":"Labels","category":"Labels","object_type":"Label","style_id":"label.text.label.labels","airport":"LFKC","geometry_role":"text_label","text-field":"S1","vsmr_group_ids":[[]]},"geometry":{"type":"Point","coordinates":[8.792222222,42.521570833]}},{"type":"Feature","id":"LFKC-text-lfmm-20085","properties":{"name":"S2","layer":"Labels","category":"Labels","object_type":"Label","style_id":"label.text.label.labels","airport":"LFKC","geometry_role":"text_label","text-field":"S2","vsmr_group_ids":[[]]},"geometry":{"type":"Point","coordinates":[8.792222222,42.520446389]}},{"type":"Feature","id":"LFKC-text-lfmm-20086","properties":{"name":"X","layer":"Labels","category":"Labels","object_type":"Label","style_id":"label.text.label.labels","airport":"LFKC","geometry_role":"text_label","text-field":"X","vsmr_group_ids":[[]]},"geometry":{"type":"Point","coordinates":[8.791770833,42.527775278]}},{"type":"Feature","id":"LFKC-text-lfmm-20087","properties":{"name":"X","layer":"Labels","category":"Labels","object_type":"Label","style_id":"label.text.label.labels","airport":"LFKC","geometry_role":"text_label","text-field":"X","vsmr_group_ids":[[]]},"geometry":{"type":"Point","coordinates":[8.792525,42.527773333]}},{"type":"Feature","id":"LFKC-text-lfmm-20088","properties":{"name":"X","layer":"Labels","category":"Labels","object_type":"Label","style_id":"label.text.label.labels","airport":"LFKC","geometry_role":"text_label","text-field":"X","vsmr_group_ids":[[]]},"geometry":{"type":"Point","coordinates":[8.790900556,42.527775278]}}]}
