{"type":"FeatureCollection","name":"LFKD AVISO","bbox":[6.799974722,45.250866944,6.802143889,45.256088889],"metadata":{"schema":"vSMR AVISO","schema_version":2,"airport":"LFKD","coordinate_reference_system":"WGS84","coordinate_order":"longitude, latitude","default_color_palette":"night","color_palettes":["night","day"],"feature_count":2,"style_count":2,"layer_counts":{"Reference points":1,"Runways":1},"category_counts":{"Labels":1,"Runway Markings":1}},"styles":{"line.runway.centerline.runway.markings":{"name":"Runway Markings","layer":"Runways","object_type":"Line","paint":{"stroke":"#FEFEFE","stroke-opacity":1.0,"stroke-width":1.5},"feature_count":1},"point.airport.reference.point.labels":{"name":"Labels","layer":"Reference points","object_type":"Point","paint":{"marker-color":"#808080","marker-size":"small"},"feature_count":1}},"features":[{"type":"Feature","id":"LFKD-runway-01-19-5234","properties":{"name":"LFKD RWY 01/19","layer":"Runways","category":"Runway Markings","object_type":"Line","style_id":"line.runway.centerline.runway.markings","airport":"LFKD","geometry_role":"runway_centerline","vsmr_group_ids":[]},"geometry":{"type":"LineString","coordinates":[[6.799974722,45.250866944],[6.802143889,45.256088889]]}},{"type":"Feature","id":"LFKD-airport-reference","properties":{"name":"LFKD","layer":"Reference points","category":"Labels","object_type":"Point","style_id":"point.airport.reference.point.labels","airport":"LFKD","geometry_role":"airport_reference_point","text-field":"LFKD","vsmr_group_ids":[]},"geometry":{"type":"Point","coordinates":[6.801110833,45.253888889]}}]}
