{"type":"FeatureCollection","name":"LFKG AVISO","bbox":[9.399807778,42.048821944,9.400485833,42.056016944],"metadata":{"schema":"vSMR AVISO","schema_version":2,"airport":"LFKG","coordinate_reference_system":"WGS84","coordinate_order":"longitude, latitude","default_color_palette":"night","color_palettes":["night","day"],"feature_count":2,"style_count":2,"layer_counts":{"Reference points":1,"Runways":1},"category_counts":{"Labels":1,"Runway Markings":1}},"styles":{"line.runway.centerline.runway.markings":{"name":"Runway Markings","layer":"Runways","object_type":"Line","paint":{"stroke":"#FEFEFE","stroke-opacity":1.0,"stroke-width":1.5},"feature_count":1},"point.airport.reference.point.labels":{"name":"Labels","layer":"Reference points","object_type":"Point","paint":{"marker-color":"#808080","marker-size":"small"},"feature_count":1}},"features":[{"type":"Feature","id":"LFKG-runway-18-36-5232","properties":{"name":"LFKG RWY 18/36","layer":"Runways","category":"Runway Markings","object_type":"Line","style_id":"line.runway.centerline.runway.markings","airport":"LFKG","geometry_role":"runway_centerline","vsmr_group_ids":[]},"geometry":{"type":"LineString","coordinates":[[9.400485833,42.056016944],[9.399807778,42.048821944]]}},{"type":"Feature","id":"LFKG-airport-reference","properties":{"name":"LFKG","layer":"Reference points","category":"Labels","object_type":"Point","style_id":"point.airport.reference.point.labels","airport":"LFKG","geometry_role":"airport_reference_point","text-field":"LFKG","vsmr_group_ids":[]},"geometry":{"type":"Point","coordinates":[9.400277778,42.054443889]}}]}
