{"type":"FeatureCollection","name":"LFKH AVISO","bbox":[5.677999722,45.513982778,5.679443889,45.516130833],"metadata":{"schema":"vSMR AVISO","schema_version":2,"airport":"LFKH","coordinate_reference_system":"WGS84","coordinate_order":"longitude, latitude","feature_count":2,"style_count":2,"layer_counts":{"Reference points":1,"Runways":1},"category_counts":{"Labels":1,"Runway Markings":1}},"styles":{"line.runway.centerline.runway.markings":{"name":"Runway Markings","layer":"Runways","object_type":"Line","paint":{"stroke":"#FEFEFE","stroke-opacity":1.0,"stroke-width":1.5},"feature_count":1},"point.airport.reference.point.labels":{"name":"Labels","layer":"Reference points","object_type":"Point","paint":{"marker-color":"#808080","marker-size":"small"},"feature_count":1}},"features":[{"type":"Feature","id":"LFKH-runway-02-20-5231","properties":{"name":"LFKH RWY 02/20","layer":"Runways","category":"Runway Markings","object_type":"Line","style_id":"line.runway.centerline.runway.markings","airport":"LFKH","geometry_role":"runway_centerline","vsmr_group_ids":[[]]},"geometry":{"type":"LineString","coordinates":[[5.677999722,45.513982778],[5.678938889,45.516130833]]}},{"type":"Feature","id":"LFKH-airport-reference","properties":{"name":"LFKH","layer":"Reference points","category":"Labels","object_type":"Point","style_id":"point.airport.reference.point.labels","airport":"LFKH","geometry_role":"airport_reference_point","text-field":"LFKH","vsmr_group_ids":[[]]},"geometry":{"type":"Point","coordinates":[5.679443889,45.515832778]}}]}
