{"type":"FeatureCollection","name":"LFKL AVISO","bbox":[4.696357778,45.709080833,4.696888889,45.71195],"metadata":{"schema":"vSMR AVISO","schema_version":2,"airport":"LFKL","coordinate_reference_system":"WGS84","coordinate_order":"longitude, latitude","default_color_palette":"night","color_palettes":["night","day"],"feature_count":2,"style_count":2,"layer_counts":{"Reference points":1,"Runways":1},"category_counts":{"Labels":1,"Runway Markings":1}},"styles":{"line.runway.centerline.runway.markings":{"name":"Runway Markings","layer":"Runways","object_type":"Line","paint":{"stroke":"#FEFEFE","stroke-opacity":1.0,"stroke-width":1.5},"feature_count":1},"point.airport.reference.point.labels":{"name":"Labels","layer":"Reference points","object_type":"Point","paint":{"marker-color":"#808080","marker-size":"small"},"feature_count":1}},"features":[{"type":"Feature","id":"LFKL-runway-01-19-5230","properties":{"name":"LFKL RWY 01/19","layer":"Runways","category":"Runway Markings","object_type":"Line","style_id":"line.runway.centerline.runway.markings","airport":"LFKL","geometry_role":"runway_centerline","vsmr_group_ids":[[]]},"geometry":{"type":"LineString","coordinates":[[4.696357778,45.709080833],[4.696888889,45.71195]]}},{"type":"Feature","id":"LFKL-airport-reference","properties":{"name":"LFKL","layer":"Reference points","category":"Labels","object_type":"Point","style_id":"point.airport.reference.point.labels","airport":"LFKL","geometry_role":"airport_reference_point","text-field":"LFKL","vsmr_group_ids":[[]]},"geometry":{"type":"Point","coordinates":[4.696666944,45.710555833]}}]}
