{"type":"FeatureCollection","name":"LFKP AVISO","bbox":[5.384116944,45.556857778,5.387530833,45.557985833],"metadata":{"schema":"vSMR AVISO","schema_version":2,"airport":"LFKP","coordinate_reference_system":"WGS84","coordinate_order":"longitude, latitude","default_color_palette":"night","color_palettes":["night","day"],"feature_count":2,"style_count":2,"layer_counts":{"Reference points":1,"Runways":1},"category_counts":{"Labels":1,"Runway Markings":1}},"styles":{"line.runway.centerline.runway.markings":{"name":"Runway Markings","layer":"Runways","object_type":"Line","paint":{"stroke":"#FEFEFE","stroke-opacity":1.0,"stroke-width":1.5},"feature_count":1},"point.airport.reference.point.labels":{"name":"Labels","layer":"Reference points","object_type":"Point","paint":{"marker-color":"#808080","marker-size":"small"},"feature_count":1}},"features":[{"type":"Feature","id":"LFKP-runway-11-29-5228","properties":{"name":"LFKP RWY 11/29","layer":"Runways","category":"Runway Markings","object_type":"Line","style_id":"line.runway.centerline.runway.markings","airport":"LFKP","geometry_role":"runway_centerline","vsmr_group_ids":[]},"geometry":{"type":"LineString","coordinates":[[5.384116944,45.557985833],[5.387530833,45.556857778]]}},{"type":"Feature","id":"LFKP-airport-reference","properties":{"name":"LFKP","layer":"Reference points","category":"Labels","object_type":"Point","style_id":"point.airport.reference.point.labels","airport":"LFKP","geometry_role":"airport_reference_point","text-field":"LFKP","vsmr_group_ids":[]},"geometry":{"type":"Point","coordinates":[5.386110833,45.557499722]}}]}
