{"type":"FeatureCollection","name":"LFKS AVISO","bbox":[9.400972222,41.910027778,9.405972222,41.938555556],"metadata":{"schema":"vSMR AVISO","schema_version":2,"geometry_mode":"shared","airport":"LFKS","coordinate_reference_system":"WGS84","coordinate_order":"longitude, latitude","default_color_palette":"dark","color_palettes":["dark","light"],"background_colors":{"dark":"#434A4F","light":"#434A4F"},"feature_count":17,"style_count":5,"layer_counts":{"Guidance lines":3,"Labels":13,"Runways":1},"category_counts":{"Apron Surface":1,"Gates":13,"Runway centerlines":1,"Runways":1,"Taxiways":1},"runways":[{"ends":["18","36"],"headings":[176,356],"thresholds":[[9.405060833,41.936243889],[9.405641944,41.912596944]]}],"saved_active_runways":[],"saved_active_airport_modes":[],"geometry_source":"EuroScope sector pack","source_files":{"LFBB.sct":"fc92f16bc65e3a10b9aeb0cf4d1cae1add9856a4f4f2f653af5abaa0d98c77ed","LFBB.ese":"c7c252d4a274f6fd98bcefd2364b7bb9799385a6e602b62ccbe85cc32042ef62","LFBB.rwy":"d9387919da6406482f154f391ab2d20783610a60930f986e160686134ea8a7df","LFEE.sct":"10fcc997213ee24336ef8bd37f3a9423cb07bbdfb57b1494c61b8310b9641d8a","LFEE.ese":"3391dc3a47130a4a8c12ab895a6743c77668044183634bd45d425513ef5baa2f","LFFF.sct":"cb6698888ce3e8e8be34ea45922976a5fb3ebe1baef7814f040c91785f8641f2","LFFF.ese":"0c1e64c4a0524a6cdc30766699492d362f78011da36daeacfde4597a1761b64c","LFFF.rwy":"a12900bf1f18188caf2e598c44e55b2c0c6fb2c66cee43ff843cbe216617ae96","LFMM.sct":"fc0d266315a59cb027803be613657d9e9875a2a4b912535d08d1c7892a53b194","LFMM.ese":"6a319d7f7c1c2f7e457ae789f4aae2feafec03b24f5d3d95752e96922a971c9e","LFMM.rwy":"236563995d9b5be668ee3fc8d653cf8f33f20a511137652b197e5877b85d5693","LFRR.sct":"c5a55173543154d388eb65309d606b41ac5da09af59142e69878a4cde03add83","LFRR.ese":"e4542200e8322297f954327131cfe6e73da3ac264cf5610ff6871309cd6eeb40"},"airport_reference":[9.405277778,41.926388889]},"styles":{"line.runwayconcrete.555555":{"name":"Runways","layer":"Guidance lines","object_type":"Line","paint":{"stroke":"#111318","stroke-opacity":1,"stroke-width":1,"palette-overrides":{"light":{"stroke":"#555555"}}},"feature_count":1},"line.taxiway.c0b631":{"name":"Taxiways","layer":"Guidance lines","object_type":"Line","paint":{"stroke":"#4E5A69","stroke-opacity":1,"stroke-width":1,"palette-overrides":{"light":{"stroke":"#C0B631"}}},"feature_count":1},"line.apronsurface.808080":{"name":"Apron Surface","layer":"Guidance lines","object_type":"Line","paint":{"stroke":"#808080","stroke-opacity":1,"stroke-width":1,"palette-overrides":{"light":{"stroke":"#808080"}}},"feature_count":1},"label.gates":{"name":"Gates","layer":"Labels","object_type":"Label","paint":{"text-color":"#CCCCCC","text-font":"Arial","text-size":12,"text-halo-color":"#000000","text-halo-width":1,"text-anchor":"center","zoomLevel":9},"feature_count":13},"runway.reference":{"name":"Runway centerlines","layer":"Runways","object_type":"Line","paint":{"stroke":"#CCCCCC","stroke-width":2,"stroke-opacity":1},"feature_count":1}},"vsmr_groups":[{"id":"stands-and-gates","name":"Stands & gates","visible":true,"accent":"#d4bd39"}],"features":[{"type":"Feature","id":"LFKS-300e20f8584e78c28409","properties":{"airport":"LFKS","name":"LFKS Groundlayout Solenzara","layer":"Guidance lines","category":"Runways","object_type":"Line","style_id":"line.runwayconcrete.555555","source_group":"LFKS Groundlayout Solenzara","vsmr_group_ids":[],"geometry_role":"linework"},"geometry":{"type":"MultiLineString","coordinates":[[[9.405444444,41.910027778],[9.405416667,41.910361111]],[[9.405972222,41.910027778],[9.405972222,41.910527778]],[[9.405444444,41.910027778],[9.405972222,41.910027778]],[[9.405416667,41.910638889],[9.405361111,41.912638889]],[[9.405972222,41.910527778],[9.405916667,41.912777778]],[[9.405361111,41.912916667],[9.405166667,41.920944444]],[[9.405916667,41.912777778],[9.405694444,41.921083333]],[[9.405166667,41.921222222],[9.405,41.927833333]],[[9.405694444,41.921083333],[9.405527778,41.927972222]],[[9.405,41.928111111],[9.404944444,41.929472222]],[[9.405527778,41.927972222],[9.4055,41.929611111]],[[9.404944444,41.929722222],[9.404777778,41.93675]],[[9.4055,41.929611111],[9.405305556,41.936888889]],[[9.404777778,41.937],[9.404722222,41.938555556]],[[9.405305556,41.936888889],[9.405277778,41.938555556]],[[9.404722222,41.938555556],[9.405277778,41.938555556]]]}},{"type":"Feature","id":"LFKS-c0addd197ff723184504","properties":{"airport":"LFKS","name":"LFKS Groundlayout Solenzara","layer":"Guidance lines","category":"Taxiways","object_type":"Line","style_id":"line.taxiway.c0b631","source_group":"LFKS Groundlayout Solenzara","vsmr_group_ids":[],"geometry_role":"linework"},"geometry":{"type":"MultiLineString","coordinates":[[[9.405416667,41.910361111],[9.405055556,41.910361111]],[[9.405416667,41.910638889],[9.405055556,41.910638889]],[[9.405055556,41.910361111],[9.403944444,41.910361111]],[[9.405055556,41.910638889],[9.404305556,41.910638889]],[[9.403944444,41.910361111],[9.403888889,41.912777778]],[[9.404305556,41.910638889],[9.40425,41.912638889]],[[9.403888889,41.912777778],[9.403666667,41.920944444]],[[9.40425,41.912916667],[9.404027778,41.920944444]],[[9.403666667,41.921222222],[9.403472222,41.927861111]],[[9.404027778,41.921222222],[9.403833333,41.927833333]],[[9.403472222,41.928166667],[9.403444444,41.929416667]],[[9.403833333,41.928083333],[9.403805556,41.929444444]],[[9.403416667,41.929694444],[9.403222222,41.937]],[[9.403777778,41.929722222],[9.403583333,41.936722222]],[[9.403222222,41.937],[9.404416667,41.937]],[[9.403583333,41.936722222],[9.404416667,41.936722222]],[[9.404416667,41.937],[9.404777778,41.937]],[[9.404416667,41.936722222],[9.404777778,41.93675]],[[9.40425,41.912916667],[9.405,41.912916667]],[[9.40425,41.912638889],[9.405,41.912638889]],[[9.405,41.912916667],[9.405361111,41.912916667]],[[9.405,41.912638889],[9.405361111,41.912638889]],[[9.403777778,41.929722222],[9.404583333,41.929722222]],[[9.403805556,41.929444444],[9.404583333,41.929472222]],[[9.404583333,41.929722222],[9.404944444,41.929722222]],[[9.404583333,41.929472222],[9.404944444,41.929472222]],[[9.403833333,41.928083333],[9.404611111,41.928111111]],[[9.403833333,41.927833333],[9.404638889,41.927833333]],[[9.404611111,41.928111111],[9.405,41.928111111]],[[9.404638889,41.927833333],[9.405,41.927833333]],[[9.404027778,41.921222222],[9.404805556,41.921222222]],[[9.404027778,41.920944444],[9.404805556,41.920944444]],[[9.404805556,41.921222222],[9.405166667,41.921222222]],[[9.404805556,41.920944444],[9.405166667,41.920944444]],[[9.403444444,41.929416667],[9.40275,41.92925]],[[9.403416667,41.929694444],[9.402388889,41.929444444]],[[9.40275,41.92925],[9.402722222,41.928444444]],[[9.402388889,41.929444444],[9.402361111,41.928388889]],[[9.402722222,41.928444444],[9.403472222,41.928166667]],[[9.402638889,41.928166667],[9.403472222,41.927861111]],[[9.402444444,41.921222222],[9.403666667,41.921222222]],[[9.402083333,41.920944444],[9.403666667,41.920944444]],[[9.402083333,41.920944444],[9.402083333,41.921416667]],[[9.402444444,41.921222222],[9.402444444,41.921416667]],[[9.402083333,41.921416667],[9.402083333,41.921833333]],[[9.402444444,41.921416667],[9.402444444,41.921833333]],[[9.402083333,41.921833333],[9.402083333,41.922277778]],[[9.402444444,41.921833333],[9.402444444,41.922277778]],[[9.402083333,41.922277778],[9.402083333,41.922833333]],[[9.402444444,41.922277778],[9.402444444,41.922833333]],[[9.402083333,41.922833333],[9.402083333,41.923361111]],[[9.402444444,41.922833333],[9.402444444,41.923361111]],[[9.402083333,41.923361111],[9.402083333,41.923944444]],[[9.402444444,41.923361111],[9.402444444,41.923944444]],[[9.402083333,41.923944444],[9.402083333,41.924416667]],[[9.402444444,41.923944444],[9.402444444,41.924416667]],[[9.402083333,41.924416667],[9.402083333,41.924916667]],[[9.402444444,41.924416667],[9.402444444,41.924916667]],[[9.402083333,41.924916667],[9.402083333,41.925416667]],[[9.402444444,41.924916667],[9.402444444,41.925416667]],[[9.402083333,41.925416667],[9.402083333,41.926055556]],[[9.402444444,41.925416667],[9.402444444,41.926055556]],[[9.402083333,41.926055556],[9.402083333,41.926555556]],[[9.402444444,41.926055556],[9.402444444,41.926555556]],[[9.402083333,41.926555556],[9.402083333,41.927083333]],[[9.402444444,41.926555556],[9.402444444,41.927083333]],[[9.402083333,41.927083333],[9.402083333,41.927583333]],[[9.402444444,41.927083333],[9.402444444,41.927583333]],[[9.402083333,41.927583333],[9.402083333,41.927916667]],[[9.402444444,41.927583333],[9.402444444,41.927861111]],[[9.402083333,41.927916667],[9.402361111,41.928388889]],[[9.402444444,41.927861111],[9.402638889,41.928166667]]]}},{"type":"Feature","id":"LFKS-3eea9c444890650b41c1","properties":{"airport":"LFKS","name":"LFKS Groundlayout Solenzara","layer":"Guidance lines","category":"Apron Surface","object_type":"Line","style_id":"line.apronsurface.808080","source_group":"LFKS Groundlayout Solenzara","vsmr_group_ids":[],"geometry_role":"linework"},"geometry":{"type":"MultiLineString","coordinates":[[[9.401,41.930166667],[9.400972222,41.918805556],[9.402472222,41.918805556],[9.4025,41.930166667]],[[9.401,41.930166667],[9.4025,41.930166667]]]}},{"type":"Feature","id":"LFKS-a0edc3f3cdbb4b516646","properties":{"airport":"LFKS","name":"1","layer":"Labels","category":"Gates","object_type":"Label","style_id":"label.gates","source_group":"LFKS Gates","vsmr_group_ids":["stands-and-gates"],"geometry_role":"text_label","text-field":"1"},"geometry":{"type":"Point","coordinates":[9.401194444,41.921416667]}},{"type":"Feature","id":"LFKS-3045d48271237e1d9636","properties":{"airport":"LFKS","name":"2","layer":"Labels","category":"Gates","object_type":"Label","style_id":"label.gates","source_group":"LFKS Gates","vsmr_group_ids":["stands-and-gates"],"geometry_role":"text_label","text-field":"2"},"geometry":{"type":"Point","coordinates":[9.401166667,41.921833333]}},{"type":"Feature","id":"LFKS-0199a6649d78bfa72d91","properties":{"airport":"LFKS","name":"3","layer":"Labels","category":"Gates","object_type":"Label","style_id":"label.gates","source_group":"LFKS Gates","vsmr_group_ids":["stands-and-gates"],"geometry_role":"text_label","text-field":"3"},"geometry":{"type":"Point","coordinates":[9.401166667,41.922277778]}},{"type":"Feature","id":"LFKS-137293f909269dc179e0","properties":{"airport":"LFKS","name":"4","layer":"Labels","category":"Gates","object_type":"Label","style_id":"label.gates","source_group":"LFKS Gates","vsmr_group_ids":["stands-and-gates"],"geometry_role":"text_label","text-field":"4"},"geometry":{"type":"Point","coordinates":[9.401194444,41.922833333]}},{"type":"Feature","id":"LFKS-4e689d1d33d636c825df","properties":{"airport":"LFKS","name":"5","layer":"Labels","category":"Gates","object_type":"Label","style_id":"label.gates","source_group":"LFKS Gates","vsmr_group_ids":["stands-and-gates"],"geometry_role":"text_label","text-field":"5"},"geometry":{"type":"Point","coordinates":[9.401194444,41.923361111]}},{"type":"Feature","id":"LFKS-764078171ca285d0dc5c","properties":{"airport":"LFKS","name":"6","layer":"Labels","category":"Gates","object_type":"Label","style_id":"label.gates","source_group":"LFKS Gates","vsmr_group_ids":["stands-and-gates"],"geometry_role":"text_label","text-field":"6"},"geometry":{"type":"Point","coordinates":[9.401166667,41.923916667]}},{"type":"Feature","id":"LFKS-959db87d2898ff2f9527","properties":{"airport":"LFKS","name":"7","layer":"Labels","category":"Gates","object_type":"Label","style_id":"label.gates","source_group":"LFKS Gates","vsmr_group_ids":["stands-and-gates"],"geometry_role":"text_label","text-field":"7"},"geometry":{"type":"Point","coordinates":[9.401166667,41.924416667]}},{"type":"Feature","id":"LFKS-18b04f1bb06bb1259546","properties":{"airport":"LFKS","name":"8","layer":"Labels","category":"Gates","object_type":"Label","style_id":"label.gates","source_group":"LFKS Gates","vsmr_group_ids":["stands-and-gates"],"geometry_role":"text_label","text-field":"8"},"geometry":{"type":"Point","coordinates":[9.401166667,41.924916667]}},{"type":"Feature","id":"LFKS-8930953affc2e8f75271","properties":{"airport":"LFKS","name":"9","layer":"Labels","category":"Gates","object_type":"Label","style_id":"label.gates","source_group":"LFKS Gates","vsmr_group_ids":["stands-and-gates"],"geometry_role":"text_label","text-field":"9"},"geometry":{"type":"Point","coordinates":[9.401166667,41.925416667]}},{"type":"Feature","id":"LFKS-8a9092af9e3eac6946a2","properties":{"airport":"LFKS","name":"10","layer":"Labels","category":"Gates","object_type":"Label","style_id":"label.gates","source_group":"LFKS Gates","vsmr_group_ids":["stands-and-gates"],"geometry_role":"text_label","text-field":"10"},"geometry":{"type":"Point","coordinates":[9.401194444,41.926055556]}},{"type":"Feature","id":"LFKS-087be85d15f050d215c4","properties":{"airport":"LFKS","name":"11","layer":"Labels","category":"Gates","object_type":"Label","style_id":"label.gates","source_group":"LFKS Gates","vsmr_group_ids":["stands-and-gates"],"geometry_role":"text_label","text-field":"11"},"geometry":{"type":"Point","coordinates":[9.401166667,41.926555556]}},{"type":"Feature","id":"LFKS-eae5269b5afb0bc7d0f5","properties":{"airport":"LFKS","name":"12","layer":"Labels","category":"Gates","object_type":"Label","style_id":"label.gates","source_group":"LFKS Gates","vsmr_group_ids":["stands-and-gates"],"geometry_role":"text_label","text-field":"12"},"geometry":{"type":"Point","coordinates":[9.401166667,41.927083333]}},{"type":"Feature","id":"LFKS-0f678d186fbeedf585dc","properties":{"airport":"LFKS","name":"13","layer":"Labels","category":"Gates","object_type":"Label","style_id":"label.gates","source_group":"LFKS Gates","vsmr_group_ids":["stands-and-gates"],"geometry_role":"text_label","text-field":"13"},"geometry":{"type":"Point","coordinates":[9.401166667,41.927583333]}},{"type":"Feature","id":"LFKS-5a2ffde0d5377ad54184","properties":{"airport":"LFKS","name":"18/36","layer":"Runways","category":"Runway centerlines","object_type":"Line","style_id":"runway.reference","source_group":"LFKS Runways","vsmr_group_ids":[],"geometry_role":"runway_centerline"},"geometry":{"type":"LineString","coordinates":[[9.405060833,41.936243889],[9.405641944,41.912596944]]}}]}
