{"type":"FeatureCollection","name":"LFKT AVISO","bbox":[9.186727778,42.289402778,9.194243889,42.293457778],"metadata":{"schema":"vSMR AVISO","schema_version":2,"airport":"LFKT","coordinate_reference_system":"WGS84","coordinate_order":"longitude, latitude","default_color_palette":"night","color_palettes":["night","day"],"feature_count":2,"style_count":2,"layer_counts":{"Reference points":1,"Runways":1},"category_counts":{"Labels":1,"Runway Markings":1}},"styles":{"line.runway.centerline.runway.markings":{"name":"Runway Markings","layer":"Runways","object_type":"Line","paint":{"stroke":"#FEFEFE","stroke-opacity":1.0,"stroke-width":1.5},"feature_count":1},"point.airport.reference.point.labels":{"name":"Labels","layer":"Reference points","object_type":"Point","paint":{"marker-color":"#808080","marker-size":"small"},"feature_count":1}},"features":[{"type":"Feature","id":"LFKT-runway-12-30-5268","properties":{"name":"LFKT RWY 12/30","layer":"Runways","category":"Runway Markings","object_type":"Line","style_id":"line.runway.centerline.runway.markings","airport":"LFKT","geometry_role":"runway_centerline","vsmr_group_ids":[[]]},"geometry":{"type":"LineString","coordinates":[[9.186727778,42.293457778],[9.194243889,42.289402778]]}},{"type":"Feature","id":"LFKT-airport-reference","properties":{"name":"LFKT","layer":"Reference points","category":"Labels","object_type":"Point","style_id":"point.airport.reference.point.labels","airport":"LFKT","geometry_role":"airport_reference_point","text-field":"LFKT","vsmr_group_ids":[[]]},"geometry":{"type":"Point","coordinates":[9.1925,42.290277778]}}]}
