{"type":"FeatureCollection","name":"LFKX AVISO","bbox":[6.576488889,45.405877778,6.578696944,45.409188889],"metadata":{"schema":"vSMR AVISO","schema_version":2,"airport":"LFKX","coordinate_reference_system":"WGS84","coordinate_order":"longitude, latitude","default_color_palette":"night","color_palettes":["night","day"],"feature_count":2,"style_count":2,"layer_counts":{"Reference points":1,"Runways":1},"category_counts":{"Labels":1,"Runway Markings":1}},"styles":{"line.runway.centerline.runway.markings":{"name":"Runway Markings","layer":"Runways","object_type":"Line","paint":{"stroke":"#FEFEFE","stroke-opacity":1.0,"stroke-width":1.5},"feature_count":1},"point.airport.reference.point.labels":{"name":"Labels","layer":"Reference points","object_type":"Point","paint":{"marker-color":"#808080","marker-size":"small"},"feature_count":1}},"features":[{"type":"Feature","id":"LFKX-runway-15-33-5267","properties":{"name":"LFKX RWY 15/33","layer":"Runways","category":"Runway Markings","object_type":"Line","style_id":"line.runway.centerline.runway.markings","airport":"LFKX","geometry_role":"runway_centerline","vsmr_group_ids":[]},"geometry":{"type":"LineString","coordinates":[[6.576488889,45.409188889],[6.578696944,45.405877778]]}},{"type":"Feature","id":"LFKX-airport-reference","properties":{"name":"LFKX","layer":"Reference points","category":"Labels","object_type":"Point","style_id":"point.airport.reference.point.labels","airport":"LFKX","geometry_role":"airport_reference_point","text-field":"LFKX","vsmr_group_ids":[]},"geometry":{"type":"Point","coordinates":[6.577499722,45.407499722]}}]}
