{"type":"FeatureCollection","name":"LFLA AVISO","bbox":[3.494027778,47.843805556,3.500666667,47.857888889],"metadata":{"schema":"vSMR AVISO","schema_version":2,"airport":"LFLA","coordinate_reference_system":"WGS84","coordinate_order":"longitude, latitude","default_color_palette":"night","color_palettes":["night","day"],"feature_count":3,"style_count":3,"layer_counts":{"Ground linework":1,"Reference points":1,"Runways":1},"category_counts":{"Labels":1,"Runway Concrete":1,"Runway Markings":1}},"styles":{"line.linework.runway.concrete":{"name":"Runway Concrete","layer":"Ground linework","object_type":"Line","paint":{"stroke":"#111318","stroke-opacity":1.0,"stroke-width":1.5},"feature_count":1},"line.runway.centerline.runway.markings":{"name":"Runway Markings","layer":"Runways","object_type":"Line","paint":{"stroke":"#FEFEFE","stroke-opacity":1.0,"stroke-width":1.5},"feature_count":1},"point.airport.reference.point.labels":{"name":"Labels","layer":"Reference points","object_type":"Point","paint":{"marker-color":"#808080","marker-size":"small"},"feature_count":1}},"features":[{"type":"Feature","id":"LFLA-runway-18-36-5201","properties":{"name":"LFLA RWY 18/36","layer":"Runways","category":"Runway Markings","object_type":"Line","style_id":"line.runway.centerline.runway.markings","airport":"LFLA","geometry_role":"runway_centerline","vsmr_group_ids":[[]]},"geometry":{"type":"LineString","coordinates":[[3.498205833,47.857743889],[3.496249722,47.844032778]]}},{"type":"Feature","id":"lfla.line.linework.runway.concrete.54028","properties":{"name":"LFLA Groundlayout Auxerres Branches","layer":"Ground linework","category":"Runway Concrete","object_type":"Line","style_id":"line.linework.runway.concrete","airport":"LFLA","geometry_role":"linework","vsmr_group_ids":[[]]},"geometry":{"type":"MultiLineString","coordinates":[[[3.494027778,47.844194444],[3.496138889,47.857888889]],[[3.498555556,47.843805556],[3.500666667,47.8575]],[[3.494027778,47.844194444],[3.498555556,47.843805556]],[[3.496138889,47.857888889],[3.500666667,47.8575]],[[3.500666667,47.8575],[3.498555556,47.843805556]],[[3.496138889,47.857888889],[3.494027778,47.844194444]],[[3.500666667,47.8575],[3.496138889,47.857888889]],[[3.498555556,47.843805556],[3.494027778,47.844194444]]]}},{"type":"Feature","id":"LFLA-airport-reference","properties":{"name":"LFLA","layer":"Reference points","category":"Labels","object_type":"Point","style_id":"point.airport.reference.point.labels","airport":"LFLA","geometry_role":"airport_reference_point","text-field":"LFLA","vsmr_group_ids":[[]]},"geometry":{"type":"Point","coordinates":[3.496666944,47.846388889]}}]}
