{"type":"FeatureCollection","name":"LFLB AVISO","bbox":[5.631666667,45.483888889,6.2575,46.044722222],"metadata":{"schema":"vSMR AVISO","schema_version":2,"airport":"LFLB","coordinate_reference_system":"WGS84","coordinate_order":"longitude, latitude","default_color_palette":"night","color_palettes":["night","day"],"feature_count":117,"style_count":14,"layer_counts":{"Airfield surfaces":33,"Ground linework":2,"Labels":79,"Reference points":1,"Runways":2},"category_counts":{"Building":14,"Gras Surface":2,"Hard Surface2":2,"Hard Surface3":3,"Hard Surface4":5,"Labels":80,"Runway Border":1,"Runway Concrete":1,"Runway Grass":1,"Runway Markings":2,"Stopbar":3,"Taxiway":1,"Terrain1":2}},"styles":{"area.filled.region.building":{"name":"Building","layer":"Airfield surfaces","object_type":"Area","paint":{"fill":"#394446","fill-opacity":1.0,"stroke":"#394446","stroke-opacity":1.0,"stroke-width":0.5},"feature_count":14},"area.filled.region.gras.surface":{"name":"Gras Surface","layer":"Airfield surfaces","object_type":"Area","paint":{"fill":"#00512F","fill-opacity":1.0,"stroke":"#00512F","stroke-opacity":1.0,"stroke-width":0.5},"feature_count":2},"area.filled.region.hard.surface2":{"name":"Hard Surface2","layer":"Airfield surfaces","object_type":"Area","paint":{"fill":"#595E5B","fill-opacity":1.0,"stroke":"#595E5B","stroke-opacity":1.0,"stroke-width":0.5},"feature_count":2},"area.filled.region.hard.surface3":{"name":"Hard Surface3","layer":"Airfield surfaces","object_type":"Area","paint":{"fill":"#8A807F","fill-opacity":1.0,"stroke":"#8A807F","stroke-opacity":1.0,"stroke-width":0.5},"feature_count":3},"area.filled.region.hard.surface4":{"name":"Hard Surface4","layer":"Airfield surfaces","object_type":"Area","paint":{"fill":"#969393","fill-opacity":1.0,"stroke":"#969393","stroke-opacity":1.0,"stroke-width":0.5},"feature_count":5},"area.filled.region.runway.concrete":{"name":"Runway Concrete","layer":"Airfield surfaces","object_type":"Area","paint":{"fill":"#111318","fill-opacity":1.0,"stroke":"#111318","stroke-opacity":1.0,"stroke-width":0.5},"feature_count":1},"area.filled.region.runway.grass":{"name":"Runway Grass","layer":"Airfield surfaces","object_type":"Area","paint":{"fill":"#008000","fill-opacity":1.0,"stroke":"#008000","stroke-opacity":1.0,"stroke-width":0.5},"feature_count":1},"area.filled.region.stopbar":{"name":"Stopbar","layer":"Airfield surfaces","object_type":"Area","paint":{"fill":"#7E0000","fill-opacity":1.0,"stroke":"#7E0000","stroke-opacity":1.0,"stroke-width":0.5},"feature_count":3},"area.filled.region.terrain1":{"name":"Terrain1","layer":"Airfield surfaces","object_type":"Area","paint":{"fill":"#574242","fill-opacity":1.0,"stroke":"#574242","stroke-opacity":1.0,"stroke-width":0.5},"feature_count":2},"label.text.label.labels":{"name":"Labels","layer":"Labels","object_type":"Label","paint":{"text-anchor":"center","text-color":"#CCCCCC","text-halo-color":"#000000","text-halo-width":1,"text-size":12,"zoomLevel":12},"feature_count":79},"line.linework.runway.border":{"name":"Runway Border","layer":"Ground linework","object_type":"Line","paint":{"stroke":"#808080","stroke-opacity":1.0,"stroke-width":1.5},"feature_count":1},"line.linework.taxiway":{"name":"Taxiway","layer":"Ground linework","object_type":"Line","paint":{"stroke":"#4E5A69","stroke-opacity":1.0,"stroke-width":1.5},"feature_count":1},"line.runway.centerline.runway.markings":{"name":"Runway Markings","layer":"Runways","object_type":"Line","paint":{"stroke":"#FEFEFE","stroke-opacity":1.0,"stroke-width":1.5},"feature_count":2},"point.airport.reference.point.labels":{"name":"Labels","layer":"Reference points","object_type":"Point","paint":{"marker-color":"#808080","marker-size":"small"},"feature_count":1}},"features":[{"type":"Feature","id":"lflb.area.filled.region.gras.surface.86765","properties":{"name":"LFLB AVISO","layer":"Airfield surfaces","category":"Gras Surface","object_type":"Area","style_id":"area.filled.region.gras.surface","airport":"LFLB","geometry_role":"filled_region","vsmr_group_ids":[[]]},"geometry":{"type":"Polygon","coordinates":[[[5.876623056,45.648177778],[5.876230833,45.647931944],[5.876212222,45.64791],[5.87621,45.647888056],[5.87623,45.647648611],[5.876251111,45.647538333],[5.876586111,45.646418611],[5.877121944,45.644650833],[5.877339722,45.643921667],[5.877542778,45.643250278],[5.877640556,45.642887778],[5.877668056,45.642770833],[5.877731944,45.642103056],[5.877789167,45.641359444],[5.878028333,45.638345278],[5.8780425,45.638241111],[5.878072222,45.637880833],[5.878126389,45.637245],[5.878163611,45.636818333],[5.878362778,45.634322778],[5.878453056,45.633142778],[5.87865,45.630639444],[5.878765833,45.630645278],[5.878851111,45.629645556],[5.878884722,45.629214167],[5.8789325,45.629189167],[5.878911667,45.629064167],[5.878911667,45.628944167],[5.878927778,45.628778889],[5.878934722,45.628609722],[5.878985,45.627951389],[5.880343611,45.627636111],[5.880755,45.627541944],[5.880953611,45.627510278],[5.881109722,45.627490278],[5.881382778,45.627474167],[5.8817875,45.627448611],[5.881950556,45.627439444],[5.883241389,45.627299722],[5.883069722,45.628133056],[5.883117222,45.628139444],[5.883060833,45.628776944],[5.882993333,45.629603333],[5.8829575,45.630164444],[5.882945556,45.630324444],[5.882915,45.630326389],[5.882953056,45.630468333],[5.8829825,45.63062],[5.882993056,45.630728889],[5.884679722,45.630714722],[5.884614167,45.631963333],[5.884911389,45.631971389],[5.884881667,45.6325225],[5.8850225,45.632634722],[5.885002222,45.633076667],[5.8853025,45.633108611],[5.885277222,45.633418889],[5.885243611,45.633482222],[5.885178056,45.633527778],[5.885051111,45.633592778],[5.884966111,45.633643889],[5.884930556,45.633700833],[5.884893611,45.633995278],[5.88485,45.634426389],[5.8848075,45.63501],[5.884778611,45.635374167],[5.884766111,45.635780556],[5.884690278,45.636608333],[5.884696944,45.63665],[5.884713611,45.636693611],[5.884779444,45.636783333],[5.884804167,45.63683],[5.884811111,45.636871111],[5.884710278,45.637857778],[5.884717222,45.637999444],[5.884756389,45.638103889],[5.884817222,45.638174722],[5.884940833,45.638266944],[5.884981111,45.638283889],[5.885042222,45.6383],[5.885126667,45.638304444],[5.885696389,45.638253056],[5.885754722,45.6382625],[5.885781111,45.638294444],[5.885815,45.638346389],[5.885788056,45.638720833],[5.885746111,45.638803056],[5.885561667,45.639063056],[5.885181944,45.639531111],[5.884852778,45.640106667],[5.88482,45.640220556],[5.884722222,45.641738056],[5.884811667,45.641754167],[5.884819167,45.642027222],[5.884670833,45.643942778],[5.884601944,45.644653056],[5.884550833,45.644748889],[5.884501389,45.645241944],[5.884309722,45.648105],[5.879870556,45.648164722],[5.876731667,45.648201667],[5.876623056,45.648177778]]]}},{"type":"Feature","id":"lflb.area.filled.region.terrain1.86867","properties":{"name":"LFLB AVISO","layer":"Airfield surfaces","category":"Terrain1","object_type":"Area","style_id":"area.filled.region.terrain1","airport":"LFLB","geometry_role":"filled_region","vsmr_group_ids":[[]]},"geometry":{"type":"Polygon","coordinates":[[[5.8798275,45.639361667],[5.879811667,45.639344167],[5.879788611,45.639325],[5.879768611,45.639312222],[5.879741944,45.6393],[5.879718333,45.639291667],[5.8796925,45.639286667],[5.879663611,45.639284167],[5.879041667,45.639267222],[5.879021667,45.639271667],[5.879009444,45.639276944],[5.878976667,45.639290833],[5.878947778,45.639298889],[5.878918333,45.639300278],[5.878891944,45.639296944],[5.878868889,45.639289167],[5.878849722,45.639277778],[5.878838333,45.639266667],[5.878831111,45.6392475],[5.878830556,45.639231111],[5.878835556,45.639215],[5.878846111,45.639199444],[5.87886,45.639187778],[5.878879167,45.6391775],[5.878902222,45.639168611],[5.878926667,45.639166944],[5.878951944,45.639168611],[5.878979167,45.639175833],[5.878997222,45.639186944],[5.879018056,45.639201111],[5.879035833,45.639209722],[5.879055278,45.639213056],[5.879700278,45.639236667],[5.879729722,45.639235],[5.879766389,45.639228333],[5.87979,45.639219167],[5.879816944,45.639205278],[5.879840556,45.639186389],[5.879858333,45.639163889],[5.879840556,45.639385],[5.8798275,45.639361667]]]}},{"type":"Feature","id":"lflb.area.filled.region.terrain1.86908","properties":{"name":"LFLB AVISO","layer":"Airfield surfaces","category":"Terrain1","object_type":"Area","style_id":"area.filled.region.terrain1","airport":"LFLB","geometry_role":"filled_region","vsmr_group_ids":[[]]},"geometry":{"type":"Polygon","coordinates":[[[5.879034722,45.646110278],[5.879051667,45.645857778],[5.879109444,45.645828333],[5.879151667,45.645797222],[5.879196667,45.645760556],[5.879234167,45.645720278],[5.879261111,45.645684444],[5.879284167,45.645648611],[5.879308056,45.645604444],[5.879341111,45.645534167],[5.879305833,45.646129167],[5.879034722,45.646110278]]]}},{"type":"Feature","id":"lflb.area.filled.region.hard.surface4.86920","properties":{"name":"LFLB AVISO","layer":"Airfield surfaces","category":"Hard Surface4","object_type":"Area","style_id":"area.filled.region.hard.surface4","airport":"LFLB","geometry_role":"filled_region","vsmr_group_ids":[[]]},"geometry":{"type":"Polygon","coordinates":[[[5.881139444,45.640346389],[5.881191111,45.640333333],[5.881242778,45.640314722],[5.881296389,45.640292222],[5.881335278,45.640265556],[5.8813725,45.640234722],[5.881396944,45.640204722],[5.881420278,45.640165278],[5.881445,45.640119167],[5.881521667,45.639766667],[5.881545278,45.639645556],[5.8815625,45.639552222],[5.881631111,45.638654722],[5.881648889,45.638461111],[5.881654167,45.638377222],[5.88166,45.638336944],[5.881673056,45.638298889],[5.881693611,45.638255278],[5.881715833,45.638217222],[5.8817475,45.638178611],[5.881780556,45.638145],[5.881829167,45.638106111],[5.881884167,45.6380725],[5.881935833,45.638047778],[5.882006667,45.6380175],[5.882048056,45.638000278],[5.882085833,45.637980833],[5.882127222,45.637958056],[5.882164722,45.637931667],[5.8821975,45.637904722],[5.8822,45.638204722],[5.882359167,45.638308333],[5.882124722,45.641004167],[5.881974444,45.640991667],[5.88199,45.640801389],[5.881990278,45.640772778],[5.881986667,45.640751667],[5.881978056,45.640734444],[5.881956944,45.640714444],[5.881931389,45.640701111],[5.881903611,45.640691667],[5.881871111,45.640686389],[5.881842778,45.640686111],[5.881818056,45.640692778],[5.8817975,45.640704444],[5.881785278,45.640718056],[5.881776667,45.640735556],[5.881771389,45.640766111],[5.8816375,45.640744722],[5.881637778,45.640388056],[5.881068333,45.640358056],[5.881139444,45.640346389]]]}},{"type":"Feature","id":"lflb.area.filled.region.hard.surface4.86972","properties":{"name":"LFLB AVISO","layer":"Airfield surfaces","category":"Hard Surface4","object_type":"Area","style_id":"area.filled.region.hard.surface4","airport":"LFLB","geometry_role":"filled_region","vsmr_group_ids":[[]]},"geometry":{"type":"Polygon","coordinates":[[[5.883622778,45.638595],[5.883180833,45.638244167],[5.883223889,45.637690278],[5.882919167,45.637596111],[5.882941389,45.63709],[5.8833025,45.637093611],[5.883332778,45.636906111],[5.883323056,45.636876944],[5.883301667,45.636855556],[5.883273611,45.636834167],[5.883238889,45.636826111],[5.883161111,45.636818333],[5.882951389,45.636806389],[5.882593056,45.636796389],[5.8825575,45.636798333],[5.882533889,45.636806111],[5.882513889,45.636818333],[5.882496389,45.636835],[5.882471389,45.636864167],[5.882486389,45.636676389],[5.882509167,45.636705556],[5.882525556,45.636721944],[5.882544444,45.636733056],[5.882566111,45.636740833],[5.882586667,45.636745833],[5.882615556,45.636748889],[5.882681944,45.636752222],[5.883240556,45.636770278],[5.883254722,45.636768333],[5.883264167,45.636764444],[5.883268611,45.636754444],[5.883330556,45.636265833],[5.883335833,45.636243889],[5.883345278,45.636226111],[5.883357222,45.636211389],[5.883374167,45.636195278],[5.883384444,45.636178333],[5.883386944,45.636155833],[5.883189722,45.636145],[5.883218889,45.635793056],[5.883771944,45.635802222],[5.883871944,45.635737778],[5.883966944,45.634645278],[5.883829444,45.634529444],[5.884196389,45.634534444],[5.884185833,45.635745],[5.8841675,45.6358525],[5.883999722,45.635870278],[5.883935833,45.635869722],[5.883821389,45.635860556],[5.883795556,45.635901944],[5.883777778,45.635943611],[5.883765833,45.636005],[5.883720556,45.6361475],[5.883638056,45.636147778],[5.883607778,45.636244444],[5.883613333,45.636252222],[5.883621944,45.636258333],[5.883636944,45.636264167],[5.8836975,45.636274444],[5.883720833,45.636371111],[5.883583611,45.636415],[5.883566389,45.636425],[5.883560278,45.6364425],[5.883563333,45.6364575],[5.883573611,45.636465556],[5.883751389,45.636474167],[5.88396,45.636715833],[5.883824167,45.637733333],[5.884002778,45.638547778],[5.883930556,45.63928],[5.883901944,45.639404167],[5.883876667,45.639572778],[5.883804444,45.639979167],[5.884023889,45.640496111],[5.883988056,45.640859167],[5.883483056,45.640856667],[5.883622778,45.638595]]]}},{"type":"Feature","id":"lflb.area.filled.region.hard.surface4.87050","properties":{"name":"LFLB AVISO","layer":"Airfield surfaces","category":"Hard Surface4","object_type":"Area","style_id":"area.filled.region.hard.surface4","airport":"LFLB","geometry_role":"filled_region","vsmr_group_ids":[[]]},"geometry":{"type":"Polygon","coordinates":[[[5.884559444,45.631959722],[5.884560556,45.632152222],[5.884549444,45.632253611],[5.884529722,45.632447222],[5.884527778,45.632595833],[5.884533889,45.632631944],[5.884544444,45.632667778],[5.884565833,45.632713889],[5.884570556,45.632745],[5.884570278,45.632784167],[5.884568056,45.632818056],[5.884578889,45.632850556],[5.884605833,45.632907778],[5.884615,45.632950278],[5.884620833,45.633011667],[5.884620556,45.633055833],[5.884618056,45.6330875],[5.884609722,45.633239722],[5.884606389,45.633315278],[5.884605278,45.6333525],[5.884592222,45.633492778],[5.884585,45.633501944],[5.8845725,45.633508333],[5.884551667,45.633511944],[5.884030278,45.633491111],[5.884181944,45.631945556],[5.884559444,45.631959722]]]}},{"type":"Feature","id":"lflb.area.filled.region.hard.surface4.87077","properties":{"name":"LFLB AVISO","layer":"Airfield surfaces","category":"Hard Surface4","object_type":"Area","style_id":"area.filled.region.hard.surface4","airport":"LFLB","geometry_role":"filled_region","vsmr_group_ids":[[]]},"geometry":{"type":"Polygon","coordinates":[[[5.881284722,45.630259444],[5.881274722,45.630404167],[5.8811175,45.630583056],[5.881143333,45.630254722],[5.881284722,45.630259444]]]}},{"type":"Feature","id":"lflb.area.filled.region.hard.surface4.87082","properties":{"name":"LFLB AVISO","layer":"Airfield surfaces","category":"Hard Surface4","object_type":"Area","style_id":"area.filled.region.hard.surface4","airport":"LFLB","geometry_role":"filled_region","vsmr_group_ids":[[]]},"geometry":{"type":"Polygon","coordinates":[[[5.883924167,45.641509444],[5.883915833,45.641568889],[5.8838325,45.641568611],[5.883778611,45.641570556],[5.883751111,45.641580556],[5.883728333,45.641596389],[5.883709722,45.64162],[5.883801667,45.641701944],[5.883860278,45.641704722],[5.883895,45.641739722],[5.883876667,45.641936389],[5.883798056,45.641938056],[5.883784444,45.642047222],[5.883505556,45.642029722],[5.883392222,45.643478056],[5.883286667,45.643473889],[5.883443056,45.641488333],[5.883924167,45.641509444]]]}},{"type":"Feature","id":"lflb.area.filled.region.hard.surface3.87100","properties":{"name":"LFLB AVISO","layer":"Airfield surfaces","category":"Hard Surface3","object_type":"Area","style_id":"area.filled.region.hard.surface3","airport":"LFLB","geometry_role":"filled_region","vsmr_group_ids":[[]]},"geometry":{"type":"Polygon","coordinates":[[[5.882320556,45.6433],[5.882508611,45.643290278],[5.882710278,45.641300556],[5.883431944,45.641322778],[5.883441111,45.64106],[5.882623333,45.641025556],[5.882852778,45.638116667],[5.882609722,45.637880833],[5.882653611,45.637586944],[5.882923333,45.6375925],[5.882982778,45.637610556],[5.883254444,45.637629444],[5.883213889,45.638141944],[5.883218333,45.6381775],[5.883223611,45.638213889],[5.883240833,45.638236389],[5.883273611,45.638260556],[5.883358333,45.638311944],[5.883405,45.638344722],[5.883617778,45.638531944],[5.883641944,45.638559444],[5.883659444,45.638588889],[5.883667222,45.638620833],[5.883668889,45.638648611],[5.883668889,45.638681389],[5.883660278,45.638779722],[5.883497778,45.640838889],[5.883988333,45.640857778],[5.883924722,45.641511667],[5.883445556,45.6415],[5.883288333,45.643474444],[5.883158889,45.643468889],[5.88298,45.643493889],[5.882878889,45.643481667],[5.882841389,45.643455278],[5.881781944,45.643420556],[5.881954167,45.641285833],[5.882436111,45.641285],[5.882320556,45.6433]]]}},{"type":"Feature","id":"lflb.area.filled.region.hard.surface3.87139","properties":{"name":"LFLB AVISO","layer":"Airfield surfaces","category":"Hard Surface3","object_type":"Area","style_id":"area.filled.region.hard.surface3","airport":"LFLB","geometry_role":"filled_region","vsmr_group_ids":[[]]},"geometry":{"type":"Polygon","coordinates":[[[5.882934722,45.635431667],[5.882956111,45.635411944],[5.882971111,45.635390556],[5.882980833,45.635365],[5.883043889,45.634795],[5.883046667,45.634764167],[5.883045556,45.634736667],[5.883036111,45.634713333],[5.883053333,45.634516944],[5.883333333,45.634525278],[5.883496389,45.634528056],[5.883644444,45.634526667],[5.883860278,45.634529167],[5.883885,45.6345425],[5.883913333,45.6345625],[5.883944722,45.634589444],[5.883963056,45.634608333],[5.883973611,45.634627778],[5.88398,45.634645],[5.883983056,45.634668056],[5.883958611,45.635038056],[5.8838975,45.6357225],[5.8838925,45.635747778],[5.883880833,45.635769167],[5.883863611,45.635786944],[5.8838425,45.635799722],[5.88382,45.635810278],[5.883790278,45.635815556],[5.883741944,45.635819167],[5.883672778,45.63582],[5.883520833,45.635815278],[5.882893611,45.635785556],[5.882893611,45.635741389],[5.882885,45.635705833],[5.882905278,45.635455],[5.882934722,45.635431667]]]}},{"type":"Feature","id":"lflb.area.filled.region.hard.surface3.87175","properties":{"name":"LFLB AVISO","layer":"Airfield surfaces","category":"Hard Surface3","object_type":"Area","style_id":"area.filled.region.hard.surface3","airport":"LFLB","geometry_role":"filled_region","vsmr_group_ids":[[]]},"geometry":{"type":"Polygon","coordinates":[[[5.883615556,45.632799167],[5.883621944,45.632774722],[5.883684722,45.631921667],[5.8841875,45.631945556],[5.884034167,45.633491944],[5.883647778,45.633474444],[5.8836725,45.633183889],[5.883670556,45.633148333],[5.883663333,45.633120833],[5.883650556,45.633099722],[5.883631111,45.633079722],[5.883607222,45.633061389],[5.883608889,45.632816944],[5.883615556,45.632799167]]]}},{"type":"Feature","id":"lflb.area.filled.region.hard.surface2.87189","properties":{"name":"LFLB AVISO","layer":"Airfield surfaces","category":"Hard Surface2","object_type":"Area","style_id":"area.filled.region.hard.surface2","airport":"LFLB","geometry_role":"filled_region","vsmr_group_ids":[[]]},"geometry":{"type":"Polygon","coordinates":[[[5.881761389,45.640376944],[5.881819444,45.640376111],[5.881896944,45.640368889],[5.881970833,45.640359444],[5.882029722,45.640345],[5.88207,45.640326667],[5.882105556,45.640303889],[5.882131667,45.640281111],[5.882153889,45.640251111],[5.882165556,45.640219444],[5.882169167,45.640177778],[5.8822725,45.638910556],[5.88232,45.638385278],[5.882320833,45.638355833],[5.882310556,45.638323889],[5.8822925,45.638293611],[5.882264722,45.638268889],[5.882231389,45.638247222],[5.882195556,45.638232222],[5.882151111,45.6382175],[5.88216,45.637975833],[5.882161944,45.637960833],[5.882179167,45.63793],[5.882189167,45.637911667],[5.882218611,45.637573611],[5.882655556,45.637586944],[5.882630278,45.637875],[5.882793611,45.638035],[5.882899722,45.6380575],[5.882666389,45.641011111],[5.883486944,45.641040278],[5.883457222,45.641348611],[5.882716111,45.641319444],[5.882544722,45.6433325],[5.882274722,45.643323889],[5.882419722,45.641307778],[5.881953056,45.641291667],[5.881974167,45.640986111],[5.882105,45.640989167],[5.88212,45.640845556],[5.882123611,45.640788611],[5.88212,45.640754167],[5.882105278,45.640716944],[5.882084444,45.640687222],[5.882049722,45.640658889],[5.882014167,45.640636389],[5.881981667,45.64062],[5.881938611,45.640605833],[5.881899444,45.640599167],[5.881861667,45.6405975],[5.881821389,45.6406],[5.881780278,45.640608056],[5.881743889,45.6406225],[5.881718056,45.6406375],[5.881691667,45.640658889],[5.881673056,45.640682778],[5.881657778,45.640708333],[5.881649722,45.640736111],[5.881430278,45.643418611],[5.881200278,45.646200833],[5.880742778,45.646181944],[5.880753889,45.646050556],[5.880780278,45.64605],[5.880815556,45.646048889],[5.880854167,45.646042222],[5.880896667,45.64603],[5.880933056,45.646013056],[5.880961944,45.645995],[5.880990556,45.645972222],[5.881014444,45.645943333],[5.881029722,45.645914722],[5.881041944,45.645859167],[5.881461111,45.640812778],[5.881475,45.640724444],[5.881473056,45.6406975],[5.881465,45.640668056],[5.881454444,45.640639444],[5.881441389,45.640619444],[5.881420833,45.640598611],[5.881395833,45.640579722],[5.88136,45.640560278],[5.881323056,45.640550278],[5.881283056,45.640541944],[5.881226667,45.640539167],[5.881245833,45.640356111],[5.881761389,45.640376944]]]}},{"type":"Feature","id":"lflb.area.filled.region.hard.surface2.87275","properties":{"name":"LFLB AVISO","layer":"Airfield surfaces","category":"Hard Surface2","object_type":"Area","style_id":"area.filled.region.hard.surface2","airport":"LFLB","geometry_role":"filled_region","vsmr_group_ids":[[]]},"geometry":{"type":"Polygon","coordinates":[[[5.882630556,45.632498333],[5.882637778,45.632331111],[5.882634167,45.632231389],[5.882628889,45.632155556],[5.882612778,45.632100556],[5.882593333,45.632032778],[5.882566111,45.631969167],[5.882530278,45.631912778],[5.882495556,45.631874444],[5.882458611,45.631837778],[5.882404722,45.631796389],[5.882357222,45.631763056],[5.882294722,45.631727222],[5.882233889,45.631699167],[5.882365556,45.631559444],[5.882428611,45.631590278],[5.882487222,45.631622778],[5.882536389,45.6316525],[5.882584444,45.631685833],[5.882629444,45.631725833],[5.882675,45.631765556],[5.882718889,45.631810833],[5.882752778,45.631855833],[5.88278,45.631898889],[5.882806389,45.631945],[5.882826667,45.631989444],[5.882839167,45.632033611],[5.882845833,45.632073889],[5.882848889,45.632116111],[5.882848333,45.632225556],[5.8828175,45.632621389],[5.8828075,45.632781389],[5.882816389,45.632801944],[5.882836389,45.632824167],[5.882859167,45.632843333],[5.882888056,45.6328575],[5.8829275,45.632871944],[5.882971111,45.632882222],[5.883013056,45.632886389],[5.883056111,45.632889167],[5.883136944,45.632895],[5.883232222,45.632900278],[5.883451389,45.632908056],[5.883479444,45.632904722],[5.883512778,45.632895],[5.883545,45.632879167],[5.883573056,45.632861389],[5.883595556,45.632836389],[5.88361,45.632814444],[5.883608333,45.6330625],[5.883588333,45.633050278],[5.8835675,45.633040556],[5.883544167,45.633033333],[5.883511667,45.633028611],[5.883455,45.633025556],[5.883005556,45.633005],[5.882957778,45.633003333],[5.882911944,45.633006667],[5.882873333,45.633018056],[5.88284,45.633035278],[5.882813611,45.633056944],[5.882790556,45.633080278],[5.882780556,45.633108889],[5.882772778,45.633152778],[5.882673056,45.634366944],[5.882676389,45.6343875],[5.882685278,45.634405],[5.8827025,45.634428889],[5.882741389,45.634462778],[5.882779167,45.634482778],[5.882826667,45.634496111],[5.882883889,45.634506667],[5.882941389,45.634511944],[5.883058056,45.6345175],[5.883038611,45.634717222],[5.883022778,45.634695],[5.882998889,45.634671667],[5.882972222,45.634651944],[5.882935556,45.634635],[5.8828975,45.634624722],[5.882851111,45.634616944],[5.882803889,45.634618056],[5.882765833,45.634623889],[5.882729444,45.634637778],[5.882694167,45.634661389],[5.882670556,45.634682778],[5.882652778,45.634706667],[5.882643056,45.634735556],[5.882587222,45.635348889],[5.882589444,45.635371944],[5.882602778,45.635399167],[5.882621389,45.635426389],[5.882645278,45.635448889],[5.882674722,45.635465833],[5.882714167,45.635479444],[5.882756389,45.6354875],[5.882793333,45.635488611],[5.882827778,45.635484444],[5.882861944,45.635473889],[5.882906944,45.635453611],[5.882886111,45.635709444],[5.882871111,45.635678056],[5.882851667,45.635649444],[5.882822778,45.635630833],[5.882782222,45.635611111],[5.8827525,45.635604167],[5.88272,45.635605556],[5.882680556,45.635616667],[5.882642778,45.63563],[5.882614167,45.635645],[5.882589167,45.635671111],[5.882573333,45.635699167],[5.882565278,45.635733889],[5.882532778,45.6361175],[5.882464722,45.636973889],[5.882436111,45.637393056],[5.882441389,45.637434444],[5.882451111,45.637480278],[5.882464444,45.637513889],[5.882483056,45.637537778],[5.882504444,45.63756],[5.882524167,45.637574167],[5.882545278,45.637585],[5.882218889,45.637575833],[5.882588056,45.633029444],[5.882630556,45.632498333]]]}},{"type":"Feature","id":"lflb.area.filled.region.runway.concrete.87401","properties":{"name":"LFLB AVISO","layer":"Airfield surfaces","category":"Runway Concrete","object_type":"Area","style_id":"area.filled.region.runway.concrete","airport":"LFLB","geometry_role":"filled_region","vsmr_group_ids":[[]]},"geometry":{"type":"Polygon","coordinates":[[[5.880683056,45.628969722],[5.881133611,45.628982778],[5.881178889,45.628985556],[5.881231111,45.628992222],[5.881283333,45.629001944],[5.881332222,45.6290175],[5.881375833,45.629034444],[5.881421667,45.62906],[5.881453333,45.629083333],[5.881483611,45.629111111],[5.881506111,45.629144167],[5.881523333,45.629181667],[5.881531111,45.629214167],[5.881535,45.629256944],[5.881536944,45.629320556],[5.881533333,45.629384722],[5.881516389,45.629592222],[5.881506389,45.629635278],[5.88149,45.629663611],[5.881473889,45.629685556],[5.881448889,45.629710556],[5.88131,45.6298375],[5.881275278,45.629874444],[5.881248056,45.629902778],[5.881224722,45.629934722],[5.881201667,45.629972778],[5.881185556,45.630004444],[5.881174722,45.630031389],[5.881165,45.6300625],[5.881152778,45.630215278],[5.881077778,45.63122],[5.881098333,45.631253333],[5.881126667,45.631281667],[5.881169167,45.631317222],[5.8812075,45.6313425],[5.881242778,45.631360833],[5.88128,45.631373889],[5.881329722,45.631386944],[5.881383056,45.631396944],[5.881476944,45.631410833],[5.881587222,45.631425833],[5.881715,45.631438056],[5.881845,45.631449722],[5.8819575,45.631461389],[5.882051111,45.631472222],[5.882116111,45.631482222],[5.882183611,45.631496667],[5.882241111,45.631513333],[5.882293611,45.631530278],[5.882341944,45.631547222],[5.882366944,45.63156],[5.882234722,45.631700833],[5.882189167,45.631682222],[5.882124167,45.631659444],[5.882069722,45.631645278],[5.881999444,45.631631667],[5.881921111,45.631621389],[5.881839444,45.631614444],[5.88175,45.631610833],[5.881660278,45.631611389],[5.881568611,45.631615278],[5.881537778,45.6316175],[5.881507222,45.631626111],[5.881451667,45.631647778],[5.8813575,45.631691667],[5.881294444,45.631723611],[5.881254444,45.631749722],[5.881212778,45.631782222],[5.881178333,45.631814444],[5.881144444,45.6318525],[5.881115278,45.631889444],[5.881085556,45.631927222],[5.881054167,45.631968333],[5.88103,45.632008889],[5.881012778,45.632049444],[5.8803575,45.640145833],[5.880361389,45.640174444],[5.8803725,45.640200833],[5.880398056,45.640230833],[5.880433611,45.640253611],[5.880482778,45.640270278],[5.880555833,45.640289722],[5.880633611,45.640304444],[5.8807225,45.640320833],[5.880800278,45.640331667],[5.880923889,45.640347222],[5.881009444,45.640356389],[5.881042222,45.640357222],[5.881247778,45.640356667],[5.881227778,45.640539444],[5.880830278,45.640520833],[5.880746389,45.640517778],[5.880690833,45.640516944],[5.880635,45.640521389],[5.880582222,45.640529722],[5.880526667,45.640547778],[5.880475,45.640570556],[5.880429722,45.640596111],[5.880393056,45.640622778],[5.880366111,45.640651944],[5.880340278,45.640693889],[5.880318611,45.640736389],[5.880298889,45.640785],[5.8798975,45.645830278],[5.87991,45.645863056],[5.879931944,45.645889722],[5.879960278,45.645920556],[5.880000278,45.645949722],[5.880058889,45.645981111],[5.880122222,45.646006389],[5.880160833,45.646018889],[5.880200278,45.646025278],[5.880251667,45.646028333],[5.880755556,45.646050556],[5.8807475,45.6461825],[5.880339722,45.646162778],[5.8802875,45.646161944],[5.880231667,45.646163889],[5.88016,45.646173889],[5.880089167,45.646187222],[5.880034444,45.646200833],[5.879996389,45.646215833],[5.879956389,45.646242222],[5.879923611,45.6462675],[5.879893889,45.646299722],[5.879874722,45.646331389],[5.879855833,45.646362778],[5.879847778,45.646392778],[5.8798425,45.646431667],[5.879846111,45.646464722],[5.879858889,45.646504444],[5.879877222,45.646543333],[5.879909444,45.646588889],[5.8800575,45.646793333],[5.880078611,45.646827222],[5.880088611,45.646847222],[5.880093611,45.646863056],[5.880093611,45.646884167],[5.880089722,45.646907222],[5.880081667,45.646936389],[5.880069167,45.646961944],[5.880051944,45.64699],[5.8800325,45.647014722],[5.880008333,45.647038611],[5.879982778,45.647057778],[5.879954444,45.647077222],[5.879919444,45.647095556],[5.879871944,45.647112778],[5.879822222,45.647126667],[5.879780556,45.647132222],[5.879733056,45.647134722],[5.879210833,45.647113056],[5.880683056,45.628969722]]]}},{"type":"Feature","id":"lflb.area.filled.region.runway.grass.87554","properties":{"name":"LFLB AVISO","layer":"Airfield surfaces","category":"Runway Grass","object_type":"Area","style_id":"area.filled.region.runway.grass","airport":"LFLB","geometry_role":"filled_region","vsmr_group_ids":[[]]},"geometry":{"type":"Polygon","coordinates":[[[5.882028889,45.631794444],[5.881526389,45.638061944],[5.880812778,45.638043056],[5.881305,45.631766667],[5.882028889,45.631794444]]]}},{"type":"Feature","id":"lflb.area.filled.region.gras.surface.87559","properties":{"name":"LFLB AVISO","layer":"Airfield surfaces","category":"Gras Surface","object_type":"Area","style_id":"area.filled.region.gras.surface","airport":"LFLB","geometry_role":"filled_region","vsmr_group_ids":[[]]},"geometry":{"type":"Polygon","coordinates":[[[5.881751667,45.640149722],[5.881723056,45.640141111],[5.881699167,45.640130556],[5.881809167,45.63882],[5.881819167,45.638710556],[5.881840278,45.638615556],[5.881852778,45.638535833],[5.881871111,45.638461389],[5.881890278,45.638406667],[5.881918611,45.6383525],[5.881964444,45.638298056],[5.8819975,45.638265833],[5.882031389,45.6382375],[5.882067778,45.63822],[5.882093056,45.638213889],[5.882124167,45.638213889],[5.882151944,45.638217222],[5.882171389,45.638228889],[5.882180556,45.638250833],[5.8821875,45.638278611],[5.8821825,45.638374722],[5.882157222,45.638769167],[5.882116389,45.639222778],[5.882071667,45.639763889],[5.882043333,45.640040278],[5.882039167,45.640075556],[5.8820325,45.640103333],[5.882020556,45.640125278],[5.882005,45.640143333],[5.881981389,45.640158889],[5.881961111,45.640164444],[5.881939167,45.640165278],[5.881823333,45.640160833],[5.881781944,45.640155833],[5.881751667,45.640149722]]]}},{"type":"Feature","id":"lflb.area.filled.region.building.87594","properties":{"name":"LFLB AVISO","layer":"Airfield surfaces","category":"Building","object_type":"Area","style_id":"area.filled.region.building","airport":"LFLB","geometry_role":"filled_region","vsmr_group_ids":[[]]},"geometry":{"type":"Polygon","coordinates":[[[5.884147778,45.641749444],[5.8841425,45.641796944],[5.884218611,45.641800556],[5.884209167,45.641886111],[5.884141111,45.641884722],[5.8841375,45.641929722],[5.884089722,45.641928333],[5.884089444,45.641932222],[5.883848889,45.641923333],[5.883866389,45.641737222],[5.884147778,45.641749444]]]}},{"type":"Feature","id":"lflb.area.filled.region.building.87605","properties":{"name":"LFLB AVISO","layer":"Airfield surfaces","category":"Building","object_type":"Area","style_id":"area.filled.region.building","airport":"LFLB","geometry_role":"filled_region","vsmr_group_ids":[[]]},"geometry":{"type":"Polygon","coordinates":[[[5.884050833,45.64066],[5.884039167,45.640842778],[5.883680833,45.640830278],[5.883690833,45.640646667],[5.884050833,45.64066]]]}},{"type":"Feature","id":"lflb.area.filled.region.building.87610","properties":{"name":"LFLB AVISO","layer":"Airfield surfaces","category":"Building","object_type":"Area","style_id":"area.filled.region.building","airport":"LFLB","geometry_role":"filled_region","vsmr_group_ids":[[]]},"geometry":{"type":"Polygon","coordinates":[[[5.883701667,45.639953889],[5.883709444,45.639882222],[5.883841667,45.639889722],[5.883835278,45.639959444],[5.884015833,45.639966944],[5.884021111,45.639905833],[5.884172222,45.639914722],[5.8841675,45.639974444],[5.884210278,45.639977222],[5.884176667,45.6405625],[5.884055833,45.640559722],[5.884057778,45.640521667],[5.883703611,45.640508611],[5.883745278,45.639956111],[5.883701667,45.639953889]]]}},{"type":"Feature","id":"lflb.area.filled.region.building.87625","properties":{"name":"LFLB AVISO","layer":"Airfield surfaces","category":"Building","object_type":"Area","style_id":"area.filled.region.building","airport":"LFLB","geometry_role":"filled_region","vsmr_group_ids":[[]]},"geometry":{"type":"Polygon","coordinates":[[[5.8840175,45.638588333],[5.883753611,45.638344722],[5.883742222,45.638404444],[5.883583333,45.638283889],[5.883593056,45.638209722],[5.883683333,45.638213889],[5.883689722,45.638142778],[5.883670833,45.638141944],[5.883669444,45.638155556],[5.883596111,45.638153889],[5.883595,45.638170833],[5.883589167,45.638184722],[5.883576389,45.638198611],[5.883560278,45.638208889],[5.88354,45.6382175],[5.883518889,45.638221667],[5.883496944,45.638223056],[5.883477222,45.638221944],[5.883458056,45.638218333],[5.883442222,45.638212222],[5.883426111,45.638204722],[5.883412778,45.638194444],[5.8834025,45.638183056],[5.883395,45.638171111],[5.883391944,45.638158056],[5.883390278,45.638145833],[5.883448611,45.637601111],[5.883589167,45.637605833],[5.883589444,45.637603611],[5.883583889,45.637601111],[5.883576389,45.637597778],[5.883568333,45.637593333],[5.883558611,45.637586389],[5.883551667,45.637578056],[5.883548611,45.637569722],[5.883548611,45.637558333],[5.8835525,45.637545833],[5.883560556,45.637536111],[5.883569722,45.637528889],[5.883581111,45.637523333],[5.883593611,45.637519444],[5.883605833,45.637518333],[5.883623056,45.637518333],[5.883637778,45.637521111],[5.883651944,45.637526389],[5.883663889,45.637534444],[5.8836725,45.637544722],[5.8836775,45.637555833],[5.883677778,45.637569444],[5.883673333,45.637580833],[5.883664722,45.637589444],[5.883652778,45.637597222],[5.883641667,45.637601389],[5.883629722,45.637604167],[5.883629722,45.637606111],[5.883710833,45.6376075],[5.883703611,45.637721111],[5.883766667,45.637720833],[5.884109444,45.637480556],[5.8841175,45.637478889],[5.884089444,45.6378475],[5.884322778,45.637855278],[5.884318333,45.637906944],[5.884084167,45.637901389],[5.884073333,45.638063333],[5.884310556,45.638072222],[5.884305278,45.638124167],[5.88407,45.638115833],[5.884026667,45.638590556],[5.8840175,45.638588333]]]}},{"type":"Feature","id":"lflb.area.filled.region.building.87695","properties":{"name":"LFLB AVISO","layer":"Airfield surfaces","category":"Building","object_type":"Area","style_id":"area.filled.region.building","airport":"LFLB","geometry_role":"filled_region","vsmr_group_ids":[[]]},"geometry":{"type":"Polygon","coordinates":[[[5.883442222,45.637426389],[5.883504167,45.637427778],[5.883502778,45.637481389],[5.883439444,45.637480833],[5.883442222,45.637426389]]]}},{"type":"Feature","id":"lflb.area.filled.region.building.87700","properties":{"name":"LFLB AVISO","layer":"Airfield surfaces","category":"Building","object_type":"Area","style_id":"area.filled.region.building","airport":"LFLB","geometry_role":"filled_region","vsmr_group_ids":[[]]},"geometry":{"type":"Polygon","coordinates":[[[5.883538056,45.637367778],[5.8835225,45.637367222],[5.883529444,45.637280556],[5.883562222,45.6372825],[5.8835725,45.637138056],[5.883514444,45.637137222],[5.883522778,45.637043611],[5.883789722,45.637053611],[5.883769444,45.637265278],[5.88368,45.637261667],[5.883664167,45.637406944],[5.883636389,45.637406389],[5.883634722,45.637435278],[5.883532222,45.637430833],[5.883538056,45.637367778]]]}},{"type":"Feature","id":"lflb.area.filled.region.building.87715","properties":{"name":"LFLB AVISO","layer":"Airfield surfaces","category":"Building","object_type":"Area","style_id":"area.filled.region.building","airport":"LFLB","geometry_role":"filled_region","vsmr_group_ids":[[]]},"geometry":{"type":"Polygon","coordinates":[[[5.883598056,45.636715556],[5.883580278,45.636714722],[5.883595,45.636547778],[5.883712778,45.6365525],[5.8837225,45.636409722],[5.884055,45.636424167],[5.884041667,45.636563889],[5.884016944,45.636563611],[5.883998333,45.636732778],[5.883850833,45.636725278],[5.8838375,45.636891111],[5.883756944,45.636889722],[5.8837525,45.636932778],[5.883856667,45.636936389],[5.883851111,45.636995833],[5.883706667,45.636991389],[5.883709167,45.636951944],[5.883573056,45.636945833],[5.883598056,45.636715556]]]}},{"type":"Feature","id":"lflb.area.filled.region.building.87734","properties":{"name":"LFLB AVISO","layer":"Airfield surfaces","category":"Building","object_type":"Area","style_id":"area.filled.region.building","airport":"LFLB","geometry_role":"filled_region","vsmr_group_ids":[[]]},"geometry":{"type":"Polygon","coordinates":[[[5.883798333,45.636278611],[5.883783611,45.636378056],[5.883670833,45.6363725],[5.883684722,45.63627],[5.883798333,45.636278611]]]}},{"type":"Feature","id":"lflb.area.filled.region.building.87739","properties":{"name":"LFLB AVISO","layer":"Airfield surfaces","category":"Building","object_type":"Area","style_id":"area.filled.region.building","airport":"LFLB","geometry_role":"filled_region","vsmr_group_ids":[[]]},"geometry":{"type":"Polygon","coordinates":[[[5.883909722,45.635950556],[5.883976389,45.635966111],[5.883963056,45.636104167],[5.883893333,45.636112778],[5.883818333,45.636097222],[5.88383,45.635959722],[5.883909722,45.635950556]]]}},{"type":"Feature","id":"lflb.area.filled.region.building.87746","properties":{"name":"LFLB AVISO","layer":"Airfield surfaces","category":"Building","object_type":"Area","style_id":"area.filled.region.building","airport":"LFLB","geometry_role":"filled_region","vsmr_group_ids":[[]]},"geometry":{"type":"Polygon","coordinates":[[[5.884315278,45.6345675],[5.884217778,45.635764167],[5.884008889,45.635753056],[5.884106667,45.634566111],[5.884315278,45.6345675]]]}},{"type":"Feature","id":"lflb.area.filled.region.building.87751","properties":{"name":"LFLB AVISO","layer":"Airfield surfaces","category":"Building","object_type":"Area","style_id":"area.filled.region.building","airport":"LFLB","geometry_role":"filled_region","vsmr_group_ids":[[]]},"geometry":{"type":"Polygon","coordinates":[[[5.884141944,45.634458333],[5.884579722,45.634456111],[5.884573333,45.6345525],[5.884144167,45.634552778],[5.884141944,45.634458333]]]}},{"type":"Feature","id":"lflb.area.filled.region.building.87756","properties":{"name":"LFLB AVISO","layer":"Airfield surfaces","category":"Building","object_type":"Area","style_id":"area.filled.region.building","airport":"LFLB","geometry_role":"filled_region","vsmr_group_ids":[[]]},"geometry":{"type":"Polygon","coordinates":[[[5.88459,45.632955278],[5.884544167,45.633498611],[5.884083333,45.633481111],[5.884121944,45.632934444],[5.88459,45.632955278]]]}},{"type":"Feature","id":"lflb.area.filled.region.building.87761","properties":{"name":"LFLB AVISO","layer":"Airfield surfaces","category":"Building","object_type":"Area","style_id":"area.filled.region.building","airport":"LFLB","geometry_role":"filled_region","vsmr_group_ids":[[]]},"geometry":{"type":"Polygon","coordinates":[[[5.884265,45.632678889],[5.884258333,45.632733333],[5.884243611,45.632733056],[5.884235556,45.632807222],[5.884143056,45.632803333],[5.884158611,45.632676667],[5.884265,45.632678889]]]}},{"type":"Feature","id":"lflb.area.filled.region.building.87768","properties":{"name":"LFLB AVISO","layer":"Airfield surfaces","category":"Building","object_type":"Area","style_id":"area.filled.region.building","airport":"LFLB","geometry_role":"filled_region","vsmr_group_ids":[[]]},"geometry":{"type":"Polygon","coordinates":[[[5.884487222,45.631950833],[5.884417778,45.632675556],[5.884105833,45.632663056],[5.884181667,45.6319425],[5.884487222,45.631950833]]]}},{"type":"Feature","id":"lflb.area.filled.region.stopbar.87773","properties":{"name":"LFLB AVISO","layer":"Airfield surfaces","category":"Stopbar","object_type":"Area","style_id":"area.filled.region.stopbar","airport":"LFLB","geometry_role":"filled_region","vsmr_group_ids":[[]]},"geometry":{"type":"Polygon","coordinates":[[[5.880764167,45.64605],[5.880751944,45.646182778],[5.880724167,45.646181389],[5.880733333,45.646049444],[5.880764167,45.64605]]]}},{"type":"Feature","id":"lflb.area.filled.region.stopbar.87778","properties":{"name":"LFLB AVISO","layer":"Airfield surfaces","category":"Stopbar","object_type":"Area","style_id":"area.filled.region.stopbar","airport":"LFLB","geometry_role":"filled_region","vsmr_group_ids":[[]]},"geometry":{"type":"Polygon","coordinates":[[[5.881251389,45.640356111],[5.881235556,45.640540278],[5.881205833,45.640538889],[5.881222222,45.640355833],[5.881251389,45.640356111]]]}},{"type":"Feature","id":"lflb.area.filled.region.stopbar.87783","properties":{"name":"LFLB AVISO","layer":"Airfield surfaces","category":"Stopbar","object_type":"Area","style_id":"area.filled.region.stopbar","airport":"LFLB","geometry_role":"filled_region","vsmr_group_ids":[[]]},"geometry":{"type":"Polygon","coordinates":[[[5.8823725,45.6315625],[5.882240278,45.631703611],[5.882216667,45.631693611],[5.882348889,45.631550278],[5.8823725,45.6315625]]]}},{"type":"Feature","id":"LFLB-runway-18L-36R-5336","properties":{"name":"LFLB RWY 18L/36R","layer":"Runways","category":"Runway Markings","object_type":"Line","style_id":"line.runway.centerline.runway.markings","airport":"LFLB","geometry_role":"runway_centerline","vsmr_group_ids":[[]]},"geometry":{"type":"LineString","coordinates":[[5.881185833,45.638035833],[5.881655833,45.631782778]]}},{"type":"Feature","id":"LFLB-runway-18-36-5337","properties":{"name":"LFLB RWY 18/36","layer":"Runways","category":"Runway Markings","object_type":"Line","style_id":"line.runway.centerline.runway.markings","airport":"LFLB","geometry_role":"runway_centerline","vsmr_group_ids":[[]]},"geometry":{"type":"LineString","coordinates":[[5.879652778,45.645032778],[5.880863889,45.630202778]]}},{"type":"Feature","id":"lflb.line.linework.runway.border.61614","properties":{"name":"LFLB Groundlayout AVISO","layer":"Ground linework","category":"Runway Border","object_type":"Line","style_id":"line.linework.runway.border","airport":"LFLB","geometry_role":"linework","vsmr_group_ids":[[]]},"geometry":{"type":"MultiLineString","coordinates":[[[5.879499722,45.647121667],[5.879514722,45.646955]],[[5.879491944,45.646954444],[5.879520833,45.646865833]],[[5.879520833,45.646865833],[5.879535833,45.646956944]],[[5.879540556,45.6465775],[5.879555833,45.646416667]],[[5.8795325,45.646416111],[5.879562778,45.646327222]],[[5.879562778,45.646327222],[5.879580278,45.646416944]],[[5.879588333,45.646037778],[5.879604444,45.645877222]],[[5.879581111,45.645877222],[5.879609722,45.645789722]],[[5.879609722,45.645789722],[5.879626111,45.645878611]],[[5.879627222,45.645501667],[5.8796425,45.645339722]],[[5.879618889,45.645339722],[5.879650556,45.645251111]],[[5.879650556,45.645251111],[5.879666111,45.645341667]],[[5.87938,45.645024444],[5.879959722,45.64505]],[[5.880583611,45.6301925],[5.881153056,45.630215278]],[[5.880873056,45.629898333],[5.880889722,45.629989444]],[[5.880889722,45.629989444],[5.880918333,45.6299]],[[5.880895833,45.629899167],[5.880913611,45.629719722]],[[5.880922222,45.62936],[5.880938611,45.629450278]],[[5.880938611,45.629450278],[5.8809675,45.629362222]],[[5.880954444,45.629179444],[5.880945278,45.629361944]],[[5.881456389,45.63259],[5.881475278,45.632646111]],[[5.881475278,45.632646111],[5.881503611,45.632590278]],[[5.881713056,45.632598611],[5.881732778,45.632655556]],[[5.881732778,45.632655556],[5.881761389,45.632599722]]]}},{"type":"Feature","id":"lflb.line.linework.taxiway.61638","properties":{"name":"LFLB Groundlayout AVISO","layer":"Ground linework","category":"Taxiway","object_type":"Line","style_id":"line.linework.taxiway","airport":"LFLB","geometry_role":"linework","vsmr_group_ids":[[]]},"geometry":{"type":"MultiLineString","coordinates":[[[5.882445833,45.637786667],[5.883200556,45.6378225]],[[5.882596944,45.638466667],[5.883495278,45.638501667]],[[5.882568889,45.638828889],[5.882648333,45.638830833]],[[5.882743611,45.638835],[5.882831389,45.638838889]],[[5.8829375,45.638843333],[5.883027222,45.638846667]],[[5.883128889,45.638851667],[5.883223056,45.638855278]],[[5.883325,45.638859444],[5.883426944,45.638863333]],[[5.883521667,45.638866944],[5.883608611,45.638871111]],[[5.882559444,45.638904167],[5.883602222,45.638946667]],[[5.882539444,45.639190278],[5.882616111,45.639193611]],[[5.882711389,45.639197778],[5.882802222,45.639201667]],[[5.882904722,45.639205556],[5.882999444,45.639208889]],[[5.883096111,45.639213333],[5.883191944,45.639217222]],[[5.883290556,45.639221389],[5.883393611,45.639225278]],[[5.88349,45.639229167],[5.883576667,45.639233333]],[[5.882527222,45.639339444],[5.883564444,45.639381667]],[[5.882510833,45.639553333],[5.882589167,45.639556111]],[[5.882685556,45.639559722],[5.882773333,45.639563056]],[[5.882876944,45.639566944],[5.882963889,45.639570833]],[[5.883069167,45.639574722],[5.883161667,45.639578611]],[[5.883264167,45.639583056],[5.883354722,45.639587222]],[[5.883458611,45.639591389],[5.883545556,45.639594167]],[[5.882489722,45.639775],[5.883523889,45.639818056]],[[5.882479722,45.639915556],[5.882561667,45.639918333]],[[5.882654444,45.639921944],[5.882744444,45.639925278]],[[5.882849167,45.639929167],[5.882936667,45.6399325]],[[5.88305,45.639938333],[5.883144722,45.639940833]],[[5.883235278,45.639945278],[5.883331389,45.639949444]],[[5.883420278,45.639953056],[5.8835125,45.639956667]],[[5.882453333,45.640295278],[5.883468611,45.640336389]],[[5.882445,45.640384444],[5.882519167,45.640387222]],[[5.882619167,45.640391667],[5.882705556,45.640395]],[[5.882811667,45.640398611],[5.882902778,45.640401944]],[[5.883005,45.640407778],[5.883094722,45.640411389]],[[5.883199444,45.640416389],[5.883286111,45.640419444]],[[5.883389722,45.640423611],[5.883461667,45.640426111]],[[5.882419722,45.640748056],[5.8834575,45.640790833]],[[5.883613889,45.641049167],[5.883909444,45.640922222]],[[5.883614444,45.641181389],[5.883913889,45.641194722]],[[5.883583889,45.641339167],[5.883888889,45.641441667]],[[5.882683889,45.641551389],[5.883388611,45.641579444]],[[5.882660278,45.641923056],[5.88337,45.641951667]],[[5.882633056,45.642225833],[5.883353056,45.642255]],[[5.882611111,45.642466944],[5.882683611,45.642469444]],[[5.882796111,45.642473611],[5.882883333,45.642477222]],[[5.882983611,45.642481111],[5.883072222,45.642484722]],[[5.883188056,45.642488889],[5.88327,45.642492778]],[[5.882609722,45.642523056],[5.883313056,45.642552778]],[[5.882594167,45.642707778],[5.882670833,45.642710556]],[[5.8827775,45.642714167],[5.882865,45.642717778]],[[5.882968056,45.642721667],[5.883057222,45.642725]],[[5.88316,45.64273],[5.883253889,45.642733611]],[[5.8825825,45.642820833],[5.883288056,45.642848889]],[[5.882573056,45.642947778],[5.882651667,45.64295]],[[5.882758889,45.642955278],[5.882856389,45.642959167]],[[5.882951389,45.6429625],[5.88304,45.642965833]],[[5.883142222,45.642970556],[5.883235,45.642974444]],[[5.882558889,45.643188889],[5.882631389,45.643191111]],[[5.882738889,45.643195278],[5.882823889,45.643198056]],[[5.882929722,45.643203611],[5.883017778,45.643206944]],[[5.883123333,45.643211111],[5.883218056,45.643214722]],[[5.882549444,45.643255278],[5.883252778,45.643283889]],[[5.881871389,45.643156389],[5.88224,45.643170556]],[[5.881893333,45.642868056],[5.882259444,45.642881667]],[[5.881916667,45.642579167],[5.882278056,45.642594167]],[[5.8819375,45.6422925],[5.882298889,45.642306667]],[[5.881961111,45.642003611],[5.882318611,45.6420175]],[[5.881981667,45.641753611],[5.882343889,45.641767778]],[[5.881993889,45.641575],[5.882360833,45.641588056]],[[5.882005833,45.641395556],[5.882376667,45.641409722]]]}},{"type":"Feature","id":"LFLB-airport-reference","properties":{"name":"LFLB","layer":"Reference points","category":"Labels","object_type":"Point","style_id":"point.airport.reference.point.labels","airport":"LFLB","geometry_role":"airport_reference_point","text-field":"LFLB","vsmr_group_ids":[[]]},"geometry":{"type":"Point","coordinates":[5.879999722,45.639166944]}},{"type":"Feature","id":"LFLB-text-lfmm-20231","properties":{"name":"7000","layer":"Labels","category":"Labels","object_type":"Label","style_id":"label.text.label.labels","airport":"LFLB","geometry_role":"text_label","text-field":"7000","vsmr_group_ids":[[]]},"geometry":{"type":"Point","coordinates":[5.758972222,45.879908611]}},{"type":"Feature","id":"LFLB-text-lfmm-20232","properties":{"name":"6500","layer":"Labels","category":"Labels","object_type":"Label","style_id":"label.text.label.labels","airport":"LFLB","geometry_role":"text_label","text-field":"6500","vsmr_group_ids":[[]]},"geometry":{"type":"Point","coordinates":[5.699759167,45.802835]}},{"type":"Feature","id":"LFLB-text-lfmm-20233","properties":{"name":"7000","layer":"Labels","category":"Labels","object_type":"Label","style_id":"label.text.label.labels","airport":"LFLB","geometry_role":"text_label","text-field":"7000","vsmr_group_ids":[[]]},"geometry":{"type":"Point","coordinates":[5.729365833,45.693010833]}},{"type":"Feature","id":"LFLB-text-lfmm-20234","properties":{"name":"7200","layer":"Labels","category":"Labels","object_type":"Label","style_id":"label.text.label.labels","airport":"LFLB","geometry_role":"text_label","text-field":"7200","vsmr_group_ids":[[]]},"geometry":{"type":"Point","coordinates":[5.781566944,45.594420556]}},{"type":"Feature","id":"LFLB-text-lfmm-20235","properties":{"name":"8600","layer":"Labels","category":"Labels","object_type":"Label","style_id":"label.text.label.labels","airport":"LFLB","geometry_role":"text_label","text-field":"8600","vsmr_group_ids":[[]]},"geometry":{"type":"Point","coordinates":[5.888306667,45.528961111]}},{"type":"Feature","id":"LFLB-text-lfmm-20236","properties":{"name":"8000","layer":"Labels","category":"Labels","object_type":"Label","style_id":"label.text.label.labels","airport":"LFLB","geometry_role":"text_label","text-field":"8000","vsmr_group_ids":[[]]},"geometry":{"type":"Point","coordinates":[5.952194444,45.769149444]}},{"type":"Feature","id":"LFLB-text-lfmm-20237","properties":{"name":"8500","layer":"Labels","category":"Labels","object_type":"Label","style_id":"label.text.label.labels","airport":"LFLB","geometry_role":"text_label","text-field":"8500","vsmr_group_ids":[[]]},"geometry":{"type":"Point","coordinates":[6.124380278,45.914069167]}},{"type":"Feature","id":"LFLB-text-lfmm-20239","properties":{"name":"P","layer":"Labels","category":"Labels","object_type":"Label","style_id":"label.text.label.labels","airport":"LFLB","geometry_role":"text_label","text-field":"P","vsmr_group_ids":[[]]},"geometry":{"type":"Point","coordinates":[5.883822778,45.632596944]}},{"type":"Feature","id":"LFLB-text-lfmm-20240","properties":{"name":"L","layer":"Labels","category":"Labels","object_type":"Label","style_id":"label.text.label.labels","airport":"LFLB","geometry_role":"text_label","text-field":"L","vsmr_group_ids":[[]]},"geometry":{"type":"Point","coordinates":[5.883461389,45.635217222]}},{"type":"Feature","id":"LFLB-text-lfmm-20241","properties":{"name":"ACB","layer":"Labels","category":"Labels","object_type":"Label","style_id":"label.text.label.labels","airport":"LFLB","geometry_role":"text_label","text-field":"ACB","vsmr_group_ids":[[]]},"geometry":{"type":"Point","coordinates":[5.884164167,45.635036944]}},{"type":"Feature","id":"LFLB-text-lfmm-20242","properties":{"name":"1","layer":"Labels","category":"Labels","object_type":"Label","style_id":"label.text.label.labels","airport":"LFLB","geometry_role":"text_label","text-field":"1","vsmr_group_ids":[[]]},"geometry":{"type":"Point","coordinates":[5.882943611,45.637712778]}},{"type":"Feature","id":"LFLB-text-lfmm-20243","properties":{"name":"2","layer":"Labels","category":"Labels","object_type":"Label","style_id":"label.text.label.labels","airport":"LFLB","geometry_role":"text_label","text-field":"2","vsmr_group_ids":[[]]},"geometry":{"type":"Point","coordinates":[5.8831525,45.638384167]}},{"type":"Feature","id":"LFLB-text-lfmm-20244","properties":{"name":"3","layer":"Labels","category":"Labels","object_type":"Label","style_id":"label.text.label.labels","airport":"LFLB","geometry_role":"text_label","text-field":"3","vsmr_group_ids":[[]]},"geometry":{"type":"Point","coordinates":[5.883256944,45.638740556]}},{"type":"Feature","id":"LFLB-text-lfmm-20245","properties":{"name":"4","layer":"Labels","category":"Labels","object_type":"Label","style_id":"label.text.label.labels","airport":"LFLB","geometry_role":"text_label","text-field":"4","vsmr_group_ids":[[]]},"geometry":{"type":"Point","coordinates":[5.883375278,45.639028333]}},{"type":"Feature","id":"LFLB-text-lfmm-20246","properties":{"name":"5","layer":"Labels","category":"Labels","object_type":"Label","style_id":"label.text.label.labels","airport":"LFLB","geometry_role":"text_label","text-field":"5","vsmr_group_ids":[[]]},"geometry":{"type":"Point","coordinates":[5.883145556,45.639137778]}},{"type":"Feature","id":"LFLB-text-lfmm-20247","properties":{"name":"6","layer":"Labels","category":"Labels","object_type":"Label","style_id":"label.text.label.labels","airport":"LFLB","geometry_role":"text_label","text-field":"6","vsmr_group_ids":[[]]},"geometry":{"type":"Point","coordinates":[5.883354444,45.639453056]}},{"type":"Feature","id":"LFLB-text-lfmm-20248","properties":{"name":"7","layer":"Labels","category":"Labels","object_type":"Label","style_id":"label.text.label.labels","airport":"LFLB","geometry_role":"text_label","text-field":"7","vsmr_group_ids":[[]]},"geometry":{"type":"Point","coordinates":[5.883034167,45.639653889]}},{"type":"Feature","id":"LFLB-text-lfmm-20249","properties":{"name":"8","layer":"Labels","category":"Labels","object_type":"Label","style_id":"label.text.label.labels","airport":"LFLB","geometry_role":"text_label","text-field":"8","vsmr_group_ids":[[]]},"geometry":{"type":"Point","coordinates":[5.88325,45.639736111]}},{"type":"Feature","id":"LFLB-text-lfmm-20250","properties":{"name":"9","layer":"Labels","category":"Labels","object_type":"Label","style_id":"label.text.label.labels","airport":"LFLB","geometry_role":"text_label","text-field":"9","vsmr_group_ids":[[]]},"geometry":{"type":"Point","coordinates":[5.8829575,45.6400375]}},{"type":"Feature","id":"LFLB-text-lfmm-20251","properties":{"name":"10","layer":"Labels","category":"Labels","object_type":"Label","style_id":"label.text.label.labels","airport":"LFLB","geometry_role":"text_label","text-field":"10","vsmr_group_ids":[[]]},"geometry":{"type":"Point","coordinates":[5.883187222,45.640215556]}},{"type":"Feature","id":"LFLB-text-lfmm-20252","properties":{"name":"11","layer":"Labels","category":"Labels","object_type":"Label","style_id":"label.text.label.labels","airport":"LFLB","geometry_role":"text_label","text-field":"11","vsmr_group_ids":[[]]},"geometry":{"type":"Point","coordinates":[5.882908889,45.640526389]}},{"type":"Feature","id":"LFLB-text-lfmm-20253","properties":{"name":"12","layer":"Labels","category":"Labels","object_type":"Label","style_id":"label.text.label.labels","airport":"LFLB","geometry_role":"text_label","text-field":"12","vsmr_group_ids":[[]]},"geometry":{"type":"Point","coordinates":[5.883180278,45.640686111]}},{"type":"Feature","id":"LFLB-text-lfmm-20254","properties":{"name":"13","layer":"Labels","category":"Labels","object_type":"Label","style_id":"label.text.label.labels","airport":"LFLB","geometry_role":"text_label","text-field":"13","vsmr_group_ids":[[]]},"geometry":{"type":"Point","coordinates":[5.88317,45.641460278]}},{"type":"Feature","id":"LFLB-text-lfmm-20255","properties":{"name":"14","layer":"Labels","category":"Labels","object_type":"Label","style_id":"label.text.label.labels","airport":"LFLB","geometry_role":"text_label","text-field":"14","vsmr_group_ids":[[]]},"geometry":{"type":"Point","coordinates":[5.883138611,45.641857778]}},{"type":"Feature","id":"LFLB-text-lfmm-20256","properties":{"name":"15","layer":"Labels","category":"Labels","object_type":"Label","style_id":"label.text.label.labels","airport":"LFLB","geometry_role":"text_label","text-field":"15","vsmr_group_ids":[[]]},"geometry":{"type":"Point","coordinates":[5.8831075,45.642164722]}},{"type":"Feature","id":"LFLB-text-lfmm-20257","properties":{"name":"16","layer":"Labels","category":"Labels","object_type":"Label","style_id":"label.text.label.labels","airport":"LFLB","geometry_role":"text_label","text-field":"16","vsmr_group_ids":[[]]},"geometry":{"type":"Point","coordinates":[5.882973889,45.64241]}},{"type":"Feature","id":"LFLB-text-lfmm-20258","properties":{"name":"17","layer":"Labels","category":"Labels","object_type":"Label","style_id":"label.text.label.labels","airport":"LFLB","geometry_role":"text_label","text-field":"17","vsmr_group_ids":[[]]},"geometry":{"type":"Point","coordinates":[5.883094167,45.642603056]}},{"type":"Feature","id":"LFLB-text-lfmm-20259","properties":{"name":"18","layer":"Labels","category":"Labels","object_type":"Label","style_id":"label.text.label.labels","airport":"LFLB","geometry_role":"text_label","text-field":"18","vsmr_group_ids":[[]]},"geometry":{"type":"Point","coordinates":[5.882933611,45.642670278]}},{"type":"Feature","id":"LFLB-text-lfmm-20260","properties":{"name":"19","layer":"Labels","category":"Labels","object_type":"Label","style_id":"label.text.label.labels","airport":"LFLB","geometry_role":"text_label","text-field":"19","vsmr_group_ids":[[]]},"geometry":{"type":"Point","coordinates":[5.883076389,45.642889444]}},{"type":"Feature","id":"LFLB-text-lfmm-20261","properties":{"name":"20","layer":"Labels","category":"Labels","object_type":"Label","style_id":"label.text.label.labels","airport":"LFLB","geometry_role":"text_label","text-field":"20","vsmr_group_ids":[[]]},"geometry":{"type":"Point","coordinates":[5.882884722,45.643026944]}},{"type":"Feature","id":"LFLB-text-lfmm-20262","properties":{"name":"21","layer":"Labels","category":"Labels","object_type":"Label","style_id":"label.text.label.labels","airport":"LFLB","geometry_role":"text_label","text-field":"21","vsmr_group_ids":[[]]},"geometry":{"type":"Point","coordinates":[5.882866944,45.643143889]}},{"type":"Feature","id":"LFLB-text-lfmm-20263","properties":{"name":"22","layer":"Labels","category":"Labels","object_type":"Label","style_id":"label.text.label.labels","airport":"LFLB","geometry_role":"text_label","text-field":"22","vsmr_group_ids":[[]]},"geometry":{"type":"Point","coordinates":[5.883053889,45.643348333]}},{"type":"Feature","id":"LFLB-text-lfmm-20264","properties":{"name":"23","layer":"Labels","category":"Labels","object_type":"Label","style_id":"label.text.label.labels","airport":"LFLB","geometry_role":"text_label","text-field":"23","vsmr_group_ids":[[]]},"geometry":{"type":"Point","coordinates":[5.882006667,45.643240278]}},{"type":"Feature","id":"LFLB-text-lfmm-20265","properties":{"name":"24","layer":"Labels","category":"Labels","object_type":"Label","style_id":"label.text.label.labels","airport":"LFLB","geometry_role":"text_label","text-field":"24","vsmr_group_ids":[[]]},"geometry":{"type":"Point","coordinates":[5.882024722,45.642950833]}},{"type":"Feature","id":"LFLB-text-lfmm-20266","properties":{"name":"25","layer":"Labels","category":"Labels","object_type":"Label","style_id":"label.text.label.labels","airport":"LFLB","geometry_role":"text_label","text-field":"25","vsmr_group_ids":[[]]},"geometry":{"type":"Point","coordinates":[5.882033611,45.642655556]}},{"type":"Feature","id":"LFLB-text-lfmm-20267","properties":{"name":"26","layer":"Labels","category":"Labels","object_type":"Label","style_id":"label.text.label.labels","airport":"LFLB","geometry_role":"text_label","text-field":"26","vsmr_group_ids":[[]]},"geometry":{"type":"Point","coordinates":[5.882046944,45.642378056]}},{"type":"Feature","id":"LFLB-text-lfmm-20268","properties":{"name":"27","layer":"Labels","category":"Labels","object_type":"Label","style_id":"label.text.label.labels","airport":"LFLB","geometry_role":"text_label","text-field":"27","vsmr_group_ids":[[]]},"geometry":{"type":"Point","coordinates":[5.882069167,45.642085556]}},{"type":"Feature","id":"LFLB-text-lfmm-20269","properties":{"name":"28","layer":"Labels","category":"Labels","object_type":"Label","style_id":"label.text.label.labels","airport":"LFLB","geometry_role":"text_label","text-field":"28","vsmr_group_ids":[[]]},"geometry":{"type":"Point","coordinates":[5.882078056,45.641831389]}},{"type":"Feature","id":"LFLB-text-lfmm-20270","properties":{"name":"29","layer":"Labels","category":"Labels","object_type":"Label","style_id":"label.text.label.labels","airport":"LFLB","geometry_role":"text_label","text-field":"29","vsmr_group_ids":[[]]},"geometry":{"type":"Point","coordinates":[5.882086944,45.641641389]}},{"type":"Feature","id":"LFLB-text-lfmm-20271","properties":{"name":"30","layer":"Labels","category":"Labels","object_type":"Label","style_id":"label.text.label.labels","airport":"LFLB","geometry_role":"text_label","text-field":"30","vsmr_group_ids":[[]]},"geometry":{"type":"Point","coordinates":[5.882086944,45.641471944]}},{"type":"Feature","id":"LFLB-text-lfmm-20273","properties":{"name":"7000","layer":"Labels","category":"Labels","object_type":"Label","style_id":"label.text.label.labels","airport":"LFLB","geometry_role":"text_label","text-field":"7000","vsmr_group_ids":[[]]},"geometry":{"type":"Point","coordinates":[5.758972222,45.879908611]}},{"type":"Feature","id":"LFLB-text-lfmm-20274","properties":{"name":"6500","layer":"Labels","category":"Labels","object_type":"Label","style_id":"label.text.label.labels","airport":"LFLB","geometry_role":"text_label","text-field":"6500","vsmr_group_ids":[[]]},"geometry":{"type":"Point","coordinates":[5.699759167,45.802835]}},{"type":"Feature","id":"LFLB-text-lfmm-20275","properties":{"name":"7000","layer":"Labels","category":"Labels","object_type":"Label","style_id":"label.text.label.labels","airport":"LFLB","geometry_role":"text_label","text-field":"7000","vsmr_group_ids":[[]]},"geometry":{"type":"Point","coordinates":[5.729365833,45.693010833]}},{"type":"Feature","id":"LFLB-text-lfmm-20276","properties":{"name":"7200","layer":"Labels","category":"Labels","object_type":"Label","style_id":"label.text.label.labels","airport":"LFLB","geometry_role":"text_label","text-field":"7200","vsmr_group_ids":[[]]},"geometry":{"type":"Point","coordinates":[5.781566944,45.594420556]}},{"type":"Feature","id":"LFLB-text-lfmm-20277","properties":{"name":"8600","layer":"Labels","category":"Labels","object_type":"Label","style_id":"label.text.label.labels","airport":"LFLB","geometry_role":"text_label","text-field":"8600","vsmr_group_ids":[[]]},"geometry":{"type":"Point","coordinates":[5.888306667,45.528961111]}},{"type":"Feature","id":"LFLB-text-lfmm-20278","properties":{"name":"8000","layer":"Labels","category":"Labels","object_type":"Label","style_id":"label.text.label.labels","airport":"LFLB","geometry_role":"text_label","text-field":"8000","vsmr_group_ids":[[]]},"geometry":{"type":"Point","coordinates":[5.952194444,45.769149444]}},{"type":"Feature","id":"LFLB-text-lfmm-20279","properties":{"name":"8500","layer":"Labels","category":"Labels","object_type":"Label","style_id":"label.text.label.labels","airport":"LFLB","geometry_role":"text_label","text-field":"8500","vsmr_group_ids":[[]]},"geometry":{"type":"Point","coordinates":[6.124380278,45.914069167]}},{"type":"Feature","id":"LFLB-text-lfmm-20281","properties":{"name":"ALBY","layer":"Labels","category":"Labels","object_type":"Label","style_id":"label.text.label.labels","airport":"LFLB","geometry_role":"text_label","text-field":"ALBY","vsmr_group_ids":[[]]},"geometry":{"type":"Point","coordinates":[6.020277778,45.816666667]}},{"type":"Feature","id":"LFLB-text-lfmm-20282","properties":{"name":"EY","layer":"Labels","category":"Labels","object_type":"Label","style_id":"label.text.label.labels","airport":"LFLB","geometry_role":"text_label","text-field":"EY","vsmr_group_ids":[[]]},"geometry":{"type":"Point","coordinates":[5.923888889,45.714166667]}},{"type":"Feature","id":"LFLB-text-lfmm-20283","properties":{"name":"NL","layer":"Labels","category":"Labels","object_type":"Label","style_id":"label.text.label.labels","airport":"LFLB","geometry_role":"text_label","text-field":"NL","vsmr_group_ids":[[]]},"geometry":{"type":"Point","coordinates":[5.828888889,45.805833333]}},{"type":"Feature","id":"LFLB-text-lfmm-20284","properties":{"name":"SB","layer":"Labels","category":"Labels","object_type":"Label","style_id":"label.text.label.labels","airport":"LFLB","geometry_role":"text_label","text-field":"SB","vsmr_group_ids":[[]]},"geometry":{"type":"Point","coordinates":[5.956666667,45.543055556]}},{"type":"Feature","id":"LFLB-text-lfmm-20285","properties":{"name":"SM","layer":"Labels","category":"Labels","object_type":"Label","style_id":"label.text.label.labels","airport":"LFLB","geometry_role":"text_label","text-field":"SM","vsmr_group_ids":[[]]},"geometry":{"type":"Point","coordinates":[6.023611111,45.483888889]}},{"type":"Feature","id":"LFLB-text-lfmm-20286","properties":{"name":"SW","layer":"Labels","category":"Labels","object_type":"Label","style_id":"label.text.label.labels","airport":"LFLB","geometry_role":"text_label","text-field":"SW","vsmr_group_ids":[[]]},"geometry":{"type":"Point","coordinates":[5.831111111,45.555555556]}},{"type":"Feature","id":"LFLB-text-lfmm-20287","properties":{"name":"WA","layer":"Labels","category":"Labels","object_type":"Label","style_id":"label.text.label.labels","airport":"LFLB","geometry_role":"text_label","text-field":"WA","vsmr_group_ids":[[]]},"geometry":{"type":"Point","coordinates":[5.846944444,45.692777778]}},{"type":"Feature","id":"LFLB-text-lfmm-20288","properties":{"name":"WB","layer":"Labels","category":"Labels","object_type":"Label","style_id":"label.text.label.labels","airport":"LFLB","geometry_role":"text_label","text-field":"WB","vsmr_group_ids":[[]]},"geometry":{"type":"Point","coordinates":[5.705555556,45.758055556]}},{"type":"Feature","id":"LFLB-text-lfmm-20289","properties":{"name":"WC","layer":"Labels","category":"Labels","object_type":"Label","style_id":"label.text.label.labels","airport":"LFLB","geometry_role":"text_label","text-field":"WC","vsmr_group_ids":[[]]},"geometry":{"type":"Point","coordinates":[5.779166667,45.843055556]}},{"type":"Feature","id":"LFLB-text-lfmm-20290","properties":{"name":"WG","layer":"Labels","category":"Labels","object_type":"Label","style_id":"label.text.label.labels","airport":"LFLB","geometry_role":"text_label","text-field":"WG","vsmr_group_ids":[[]]},"geometry":{"type":"Point","coordinates":[5.631666667,45.598055556]}},{"type":"Feature","id":"LFLB-text-lfmm-20291","properties":{"name":"N","layer":"Labels","category":"Labels","object_type":"Label","style_id":"label.text.label.labels","airport":"LFLB","geometry_role":"text_label","text-field":"N","vsmr_group_ids":[[]]},"geometry":{"type":"Point","coordinates":[6.107222222,46.034444444]}},{"type":"Feature","id":"LFLB-text-lfmm-20292","properties":{"name":"NE","layer":"Labels","category":"Labels","object_type":"Label","style_id":"label.text.label.labels","airport":"LFLB","geometry_role":"text_label","text-field":"NE","vsmr_group_ids":[[]]},"geometry":{"type":"Point","coordinates":[6.2575,46.044722222]}},{"type":"Feature","id":"LFLB-text-lfmm-20293","properties":{"name":"E","layer":"Labels","category":"Labels","object_type":"Label","style_id":"label.text.label.labels","airport":"LFLB","geometry_role":"text_label","text-field":"E","vsmr_group_ids":[[]]},"geometry":{"type":"Point","coordinates":[6.168055556,45.935277778]}},{"type":"Feature","id":"LFLB-text-lfmm-20295","properties":{"name":"36","layer":"Labels","category":"Labels","object_type":"Label","style_id":"label.text.label.labels","airport":"LFLB","geometry_role":"text_label","text-field":"36","vsmr_group_ids":[[]]},"geometry":{"type":"Point","coordinates":[5.880818611,45.630509722]}},{"type":"Feature","id":"LFLB-text-lfmm-20296","properties":{"name":"18","layer":"Labels","category":"Labels","object_type":"Label","style_id":"label.text.label.labels","airport":"LFLB","geometry_role":"text_label","text-field":"18","vsmr_group_ids":[[]]},"geometry":{"type":"Point","coordinates":[5.879623333,45.644813611]}},{"type":"Feature","id":"LFLB-text-lfmm-20297","properties":{"name":"36R","layer":"Labels","category":"Labels","object_type":"Label","style_id":"label.text.label.labels","airport":"LFLB","geometry_role":"text_label","text-field":"36R","vsmr_group_ids":[[]]},"geometry":{"type":"Point","coordinates":[5.881535833,45.632983611]}},{"type":"Feature","id":"LFLB-text-lfmm-20298","properties":{"name":"18L","layer":"Labels","category":"Labels","object_type":"Label","style_id":"label.text.label.labels","airport":"LFLB","geometry_role":"text_label","text-field":"18L","vsmr_group_ids":[[]]},"geometry":{"type":"Point","coordinates":[5.881110833,45.6377575]}},{"type":"Feature","id":"LFLB-text-lfmm-20299","properties":{"name":"C","layer":"Labels","category":"Labels","object_type":"Label","style_id":"label.text.label.labels","airport":"LFLB","geometry_role":"text_label","text-field":"C","vsmr_group_ids":[[]]},"geometry":{"type":"Point","coordinates":[5.881188889,45.640718333]}},{"type":"Feature","id":"LFLB-text-lfmm-20300","properties":{"name":"C","layer":"Labels","category":"Labels","object_type":"Label","style_id":"label.text.label.labels","airport":"LFLB","geometry_role":"text_label","text-field":"C","vsmr_group_ids":[[]]},"geometry":{"type":"Point","coordinates":[5.881885278,45.640471667]}},{"type":"Feature","id":"LFLB-text-lfmm-20301","properties":{"name":"N","layer":"Labels","category":"Labels","object_type":"Label","style_id":"label.text.label.labels","airport":"LFLB","geometry_role":"text_label","text-field":"N","vsmr_group_ids":[[]]},"geometry":{"type":"Point","coordinates":[5.881163056,45.645445]}},{"type":"Feature","id":"LFLB-text-lfmm-20302","properties":{"name":"N","layer":"Labels","category":"Labels","object_type":"Label","style_id":"label.text.label.labels","airport":"LFLB","geometry_role":"text_label","text-field":"N","vsmr_group_ids":[[]]},"geometry":{"type":"Point","coordinates":[5.881498056,45.641371389]}},{"type":"Feature","id":"LFLB-text-lfmm-20303","properties":{"name":"N1","layer":"Labels","category":"Labels","object_type":"Label","style_id":"label.text.label.labels","airport":"LFLB","geometry_role":"text_label","text-field":"N1","vsmr_group_ids":[[]]},"geometry":{"type":"Point","coordinates":[5.8824225,45.638628056]}},{"type":"Feature","id":"LFLB-text-lfmm-20304","properties":{"name":"N1","layer":"Labels","category":"Labels","object_type":"Label","style_id":"label.text.label.labels","airport":"LFLB","geometry_role":"text_label","text-field":"N1","vsmr_group_ids":[[]]},"geometry":{"type":"Point","coordinates":[5.882286389,45.640082222]}},{"type":"Feature","id":"LFLB-text-lfmm-20305","properties":{"name":"N2","layer":"Labels","category":"Labels","object_type":"Label","style_id":"label.text.label.labels","airport":"LFLB","geometry_role":"text_label","text-field":"N2","vsmr_group_ids":[[]]},"geometry":{"type":"Point","coordinates":[5.882503889,45.6417325]}},{"type":"Feature","id":"LFLB-text-lfmm-20306","properties":{"name":"N2","layer":"Labels","category":"Labels","object_type":"Label","style_id":"label.text.label.labels","airport":"LFLB","geometry_role":"text_label","text-field":"N2","vsmr_group_ids":[[]]},"geometry":{"type":"Point","coordinates":[5.882395278,45.643043611]}},{"type":"Feature","id":"LFLB-text-lfmm-20307","properties":{"name":"S","layer":"Labels","category":"Labels","object_type":"Label","style_id":"label.text.label.labels","airport":"LFLB","geometry_role":"text_label","text-field":"S","vsmr_group_ids":[[]]},"geometry":{"type":"Point","coordinates":[5.882583333,45.631839167]}},{"type":"Feature","id":"LFLB-text-lfmm-20308","properties":{"name":"S","layer":"Labels","category":"Labels","object_type":"Label","style_id":"label.text.label.labels","airport":"LFLB","geometry_role":"text_label","text-field":"S","vsmr_group_ids":[[]]},"geometry":{"type":"Point","coordinates":[5.882633056,45.633829722]}},{"type":"Feature","id":"LFLB-text-lfmm-20309","properties":{"name":"S","layer":"Labels","category":"Labels","object_type":"Label","style_id":"label.text.label.labels","airport":"LFLB","geometry_role":"text_label","text-field":"S","vsmr_group_ids":[[]]},"geometry":{"type":"Point","coordinates":[5.882314444,45.637209722]}},{"type":"Feature","id":"LFLB-text-lfmm-20310","properties":{"name":"X","layer":"Labels","category":"Labels","object_type":"Label","style_id":"label.text.label.labels","airport":"LFLB","geometry_role":"text_label","text-field":"X","vsmr_group_ids":[[]]},"geometry":{"type":"Point","coordinates":[5.881561667,45.640008889]}},{"type":"Feature","id":"LFLB-text-lfmm-20311","properties":{"name":"X","layer":"Labels","category":"Labels","object_type":"Label","style_id":"label.text.label.labels","airport":"LFLB","geometry_role":"text_label","text-field":"X","vsmr_group_ids":[[]]},"geometry":{"type":"Point","coordinates":[5.881648611,45.639388056]}},{"type":"Feature","id":"LFLB-text-lfmm-20312","properties":{"name":"X","layer":"Labels","category":"Labels","object_type":"Label","style_id":"label.text.label.labels","airport":"LFLB","geometry_role":"text_label","text-field":"X","vsmr_group_ids":[[]]},"geometry":{"type":"Point","coordinates":[5.881703056,45.638695833]}},{"type":"Feature","id":"LFLB-text-lfmm-20313","properties":{"name":"X","layer":"Labels","category":"Labels","object_type":"Label","style_id":"label.text.label.labels","airport":"LFLB","geometry_role":"text_label","text-field":"X","vsmr_group_ids":[[]]},"geometry":{"type":"Point","coordinates":[5.881888056,45.638196389]}}]}
