{"type":"FeatureCollection","name":"LFLD AVISO","bbox":[2.358777778,47.055138889,2.377611111,47.064638889],"metadata":{"schema":"vSMR AVISO","schema_version":2,"geometry_mode":"shared","airport":"LFLD","coordinate_reference_system":"WGS84","coordinate_order":"longitude, latitude","default_color_palette":"dark","color_palettes":["dark","light"],"background_colors":{"dark":"#434A4F","light":"#434A4F"},"feature_count":4,"style_count":3,"layer_counts":{"Guidance lines":2,"Runways":2},"category_counts":{"Grass runways":1,"Runway centerlines":2,"Runways":1},"runways":[{"ends":["06R","24L"],"headings":[58,238],"thresholds":[[2.365457778,47.058080833],[2.375618889,47.062280833]]},{"ends":["06","24"],"headings":[58,238],"thresholds":[[2.359880833,47.056566944],[2.375871944,47.063177778]]}],"saved_active_runways":[],"saved_active_airport_modes":[],"geometry_source":"EuroScope sector pack","source_files":{"LFBB.sct":"fc92f16bc65e3a10b9aeb0cf4d1cae1add9856a4f4f2f653af5abaa0d98c77ed","LFBB.ese":"c7c252d4a274f6fd98bcefd2364b7bb9799385a6e602b62ccbe85cc32042ef62","LFBB.rwy":"d9387919da6406482f154f391ab2d20783610a60930f986e160686134ea8a7df","LFEE.sct":"10fcc997213ee24336ef8bd37f3a9423cb07bbdfb57b1494c61b8310b9641d8a","LFEE.ese":"3391dc3a47130a4a8c12ab895a6743c77668044183634bd45d425513ef5baa2f","LFFF.sct":"cb6698888ce3e8e8be34ea45922976a5fb3ebe1baef7814f040c91785f8641f2","LFFF.ese":"0c1e64c4a0524a6cdc30766699492d362f78011da36daeacfde4597a1761b64c","LFFF.rwy":"a12900bf1f18188caf2e598c44e55b2c0c6fb2c66cee43ff843cbe216617ae96","LFMM.sct":"fc0d266315a59cb027803be613657d9e9875a2a4b912535d08d1c7892a53b194","LFMM.ese":"6a319d7f7c1c2f7e457ae789f4aae2feafec03b24f5d3d95752e96922a971c9e","LFMM.rwy":"236563995d9b5be668ee3fc8d653cf8f33f20a511137652b197e5877b85d5693","LFRR.sct":"c5a55173543154d388eb65309d606b41ac5da09af59142e69878a4cde03add83","LFRR.ese":"e4542200e8322297f954327131cfe6e73da3ac264cf5610ff6871309cd6eeb40"},"airport_reference":[2.37,47.060832778]},"styles":{"line.runwayconcrete.555555":{"name":"Runways","layer":"Guidance lines","object_type":"Line","paint":{"stroke":"#111318","stroke-opacity":1,"stroke-width":1,"palette-overrides":{"light":{"stroke":"#555555"}}},"feature_count":1},"line.runwaygrass.008000":{"name":"Grass runways","layer":"Guidance lines","object_type":"Line","paint":{"stroke":"#859A77","stroke-opacity":1,"stroke-width":1,"palette-overrides":{"light":{"stroke":"#008000"}}},"feature_count":1},"runway.reference":{"name":"Runway centerlines","layer":"Runways","object_type":"Line","paint":{"stroke":"#CCCCCC","stroke-width":2,"stroke-opacity":1},"feature_count":2}},"vsmr_groups":[],"features":[{"type":"Feature","id":"LFLD-ecab327436a11a446396","properties":{"airport":"LFLD","name":"LFLD Groundlayout Bourges","layer":"Guidance lines","category":"Runways","object_type":"Line","style_id":"line.runwayconcrete.555555","source_group":"LFLD Groundlayout Bourges","vsmr_group_ids":[],"geometry_role":"linework"},"geometry":{"type":"MultiLineString","coordinates":[[[2.358777778,47.058055556],[2.374777778,47.064638889]],[[2.361027778,47.055138889],[2.377027778,47.06175]],[[2.358777778,47.058055556],[2.361027778,47.055138889]],[[2.374777778,47.064638889],[2.377027778,47.06175]]]}},{"type":"Feature","id":"LFLD-87c5efa2862866865be7","properties":{"airport":"LFLD","name":"LFLD Groundlayout Bourges","layer":"Guidance lines","category":"Grass runways","object_type":"Line","style_id":"line.runwaygrass.008000","source_group":"LFLD Groundlayout Bourges","vsmr_group_ids":[],"geometry_role":"linework"},"geometry":{"type":"MultiLineString","coordinates":[[[2.365083333,47.059861111],[2.375388889,47.064138889]],[[2.367333333,47.056944444],[2.377611111,47.06125]],[[2.365083333,47.059861111],[2.367333333,47.056944444]],[[2.375388889,47.064138889],[2.377611111,47.06125]]]}},{"type":"Feature","id":"LFLD-8bbc5f40db7c1853a07e","properties":{"airport":"LFLD","name":"06R/24L","layer":"Runways","category":"Runway centerlines","object_type":"Line","style_id":"runway.reference","source_group":"LFLD Runways","vsmr_group_ids":[],"geometry_role":"runway_centerline"},"geometry":{"type":"LineString","coordinates":[[2.365457778,47.058080833],[2.375618889,47.062280833]]}},{"type":"Feature","id":"LFLD-445820943409533d33d7","properties":{"airport":"LFLD","name":"06/24","layer":"Runways","category":"Runway centerlines","object_type":"Line","style_id":"runway.reference","source_group":"LFLD Runways","vsmr_group_ids":[],"geometry_role":"runway_centerline"},"geometry":{"type":"LineString","coordinates":[[2.359880833,47.056566944],[2.375871944,47.063177778]]}}]}
