{"type":"FeatureCollection","name":"LFLE AVISO","bbox":[5.971916944,45.557135833,5.979818889,45.564343889],"metadata":{"schema":"vSMR AVISO","schema_version":2,"airport":"LFLE","coordinate_reference_system":"WGS84","coordinate_order":"longitude, latitude","feature_count":3,"style_count":2,"layer_counts":{"Reference points":1,"Runways":2},"category_counts":{"Labels":1,"Runway Markings":2}},"styles":{"line.runway.centerline.runway.markings":{"name":"Runway Markings","layer":"Runways","object_type":"Line","paint":{"stroke":"#FEFEFE","stroke-opacity":1.0,"stroke-width":1.5},"feature_count":2},"point.airport.reference.point.labels":{"name":"Labels","layer":"Reference points","object_type":"Point","paint":{"marker-color":"#808080","marker-size":"small"},"feature_count":1}},"features":[{"type":"Feature","id":"LFLE-runway-14L-32R-5395","properties":{"name":"LFLE RWY 14L/32R","layer":"Runways","category":"Runway Markings","object_type":"Line","style_id":"line.runway.centerline.runway.markings","airport":"LFLE","geometry_role":"runway_centerline","vsmr_group_ids":[[]]},"geometry":{"type":"LineString","coordinates":[[5.973116944,45.563941944],[5.979818889,45.557463889]]}},{"type":"Feature","id":"LFLE-runway-14-32-5396","properties":{"name":"LFLE RWY 14/32","layer":"Runways","category":"Runway Markings","object_type":"Line","style_id":"line.runway.centerline.runway.markings","airport":"LFLE","geometry_role":"runway_centerline","vsmr_group_ids":[[]]},"geometry":{"type":"LineString","coordinates":[[5.971916944,45.564343889],[5.979355833,45.557135833]]}},{"type":"Feature","id":"LFLE-airport-reference","properties":{"name":"LFLE","layer":"Reference points","category":"Labels","object_type":"Point","style_id":"point.airport.reference.point.labels","airport":"LFLE","geometry_role":"airport_reference_point","text-field":"LFLE","vsmr_group_ids":[[]]},"geometry":{"type":"Point","coordinates":[5.975832778,45.560555833]}}]}
