{"type":"FeatureCollection","name":"LFLH AVISO","bbox":[4.814361111,46.821196944,4.824444444,46.833305556],"metadata":{"schema":"vSMR AVISO","schema_version":2,"airport":"LFLH","coordinate_reference_system":"WGS84","coordinate_order":"longitude, latitude","feature_count":5,"style_count":4,"layer_counts":{"Ground linework":2,"Reference points":1,"Runways":2},"category_counts":{"Labels":1,"Runway Concrete":1,"Runway Grass":1,"Runway Markings":2}},"styles":{"line.linework.runway.concrete":{"name":"Runway Concrete","layer":"Ground linework","object_type":"Line","paint":{"stroke":"#111318","stroke-opacity":1.0,"stroke-width":1.5},"feature_count":1},"line.linework.runway.grass":{"name":"Runway Grass","layer":"Ground linework","object_type":"Line","paint":{"stroke":"#008000","stroke-opacity":1.0,"stroke-width":1.5},"feature_count":1},"line.runway.centerline.runway.markings":{"name":"Runway Markings","layer":"Runways","object_type":"Line","paint":{"stroke":"#FEFEFE","stroke-opacity":1.0,"stroke-width":1.5},"feature_count":2},"point.airport.reference.point.labels":{"name":"Labels","layer":"Reference points","object_type":"Point","paint":{"marker-color":"#808080","marker-size":"small"},"feature_count":1}},"features":[{"type":"Feature","id":"LFLH-runway-17L-35R-6755","properties":{"name":"LFLH RWY 17L/35R","layer":"Runways","category":"Runway Markings","object_type":"Line","style_id":"line.runway.centerline.runway.markings","airport":"LFLH","geometry_role":"runway_centerline","vsmr_group_ids":[[]]},"geometry":{"type":"LineString","coordinates":[[4.820666944,46.832555833],[4.822555833,46.825027778]]}},{"type":"Feature","id":"LFLH-runway-17-35-6756","properties":{"name":"LFLH RWY 17/35","layer":"Runways","category":"Runway Markings","object_type":"Line","style_id":"line.runway.centerline.runway.markings","airport":"LFLH","geometry_role":"runway_centerline","vsmr_group_ids":[[]]},"geometry":{"type":"LineString","coordinates":[[4.816157778,46.832013889],[4.818768889,46.821196944]]}},{"type":"Feature","id":"lflh.line.linework.runway.concrete.40776","properties":{"name":"LFLH Groundlayout Chalon","layer":"Ground linework","category":"Runway Concrete","object_type":"Line","style_id":"line.linework.runway.concrete","airport":"LFLH","geometry_role":"linework","vsmr_group_ids":[[]]},"geometry":{"type":"MultiLineString","coordinates":[[[4.822527778,46.833305556],[4.824444444,46.825805556]],[[4.818055556,46.832694444],[4.819972222,46.825194444]],[[4.822527778,46.833305556],[4.818055556,46.832694444]],[[4.824444444,46.825805556],[4.819972222,46.825194444]]]}},{"type":"Feature","id":"lflh.line.linework.runway.grass.40780","properties":{"name":"LFLH Groundlayout Chalon","layer":"Ground linework","category":"Runway Grass","object_type":"Line","style_id":"line.linework.runway.grass","airport":"LFLH","geometry_role":"linework","vsmr_group_ids":[[]]},"geometry":{"type":"MultiLineString","coordinates":[[[4.818833333,46.830694444],[4.820944444,46.821777778]],[[4.814361111,46.830111111],[4.816472222,46.821222222]],[[4.818833333,46.830694444],[4.814361111,46.830111111]],[[4.820944444,46.821777778],[4.816472222,46.821222222]]]}},{"type":"Feature","id":"LFLH-airport-reference","properties":{"name":"LFLH","layer":"Reference points","category":"Labels","object_type":"Point","style_id":"point.airport.reference.point.labels","airport":"LFLH","geometry_role":"airport_reference_point","text-field":"LFLH","vsmr_group_ids":[[]]},"geometry":{"type":"Point","coordinates":[4.816943889,46.828332778]}}]}
