{"type":"FeatureCollection","name":"LFLI AVISO","bbox":[5.9,46.121666667,6.68,46.443333333],"metadata":{"schema":"vSMR AVISO","schema_version":2,"airport":"LFLI","coordinate_reference_system":"WGS84","coordinate_order":"longitude, latitude","default_color_palette":"night","color_palettes":["night","day"],"background_colors":{"night":"#434A4F","day":"#434A4F"},"feature_count":11,"style_count":3,"layer_counts":{"Labels":9,"Reference points":1,"Runways":1},"category_counts":{"Labels":10,"Runway Markings":1}},"styles":{"label.text.label.labels":{"name":"Labels","layer":"Labels","object_type":"Label","paint":{"text-anchor":"center","text-color":"#CCCCCC","text-halo-color":"#000000","text-halo-width":1,"text-size":12,"zoomLevel":0},"feature_count":9},"line.runway.centerline.runway.markings":{"name":"Runway Markings","layer":"Runways","object_type":"Line","paint":{"stroke":"#FEFEFE","stroke-opacity":1.0,"stroke-width":1.5},"feature_count":1},"point.airport.reference.point.labels":{"name":"Labels","layer":"Reference points","object_type":"Point","paint":{"marker-color":"#808080","marker-size":"small"},"feature_count":1}},"features":[{"type":"Feature","id":"LFLI-runway-12-30-5400","properties":{"name":"LFLI RWY 12/30","layer":"Runways","category":"Runway Markings","object_type":"Line","style_id":"line.runway.centerline.runway.markings","airport":"LFLI","geometry_role":"runway_centerline","vsmr_group_ids":[]},"geometry":{"type":"LineString","coordinates":[[6.263202778,46.193832778],[6.273646944,46.190071944]]}},{"type":"Feature","id":"LFLI-airport-reference","properties":{"name":"LFLI","layer":"Reference points","category":"Labels","object_type":"Point","style_id":"point.airport.reference.point.labels","airport":"LFLI","geometry_role":"airport_reference_point","text-field":"LFLI","vsmr_group_ids":[]},"geometry":{"type":"Point","coordinates":[6.268332778,46.191943889]}},{"type":"Feature","id":"LFLI-text-lfmm-20450","properties":{"name":"R","layer":"Labels","category":"Labels","object_type":"Label","style_id":"label.text.label.labels","airport":"LFLI","geometry_role":"text_label","text-field":"R","vsmr_group_ids":[]},"geometry":{"type":"Point","coordinates":[6.261111111,46.141944444]}},{"type":"Feature","id":"LFLI-text-lfmm-20451","properties":{"name":"E","layer":"Labels","category":"Labels","object_type":"Label","style_id":"label.text.label.labels","airport":"LFLI","geometry_role":"text_label","text-field":"E","vsmr_group_ids":[]},"geometry":{"type":"Point","coordinates":[6.363333333,46.346666667]}},{"type":"Feature","id":"LFLI-text-lfmm-20452","properties":{"name":"N","layer":"Labels","category":"Labels","object_type":"Label","style_id":"label.text.label.labels","airport":"LFLI","geometry_role":"text_label","text-field":"N","vsmr_group_ids":[]},"geometry":{"type":"Point","coordinates":[6.153333333,46.355]}},{"type":"Feature","id":"LFLI-text-lfmm-20453","properties":{"name":"W","layer":"Labels","category":"Labels","object_type":"Label","style_id":"label.text.label.labels","airport":"LFLI","geometry_role":"text_label","text-field":"W","vsmr_group_ids":[]},"geometry":{"type":"Point","coordinates":[5.995,46.228333333]}},{"type":"Feature","id":"LFLI-text-lfmm-20454","properties":{"name":"SW","layer":"Labels","category":"Labels","object_type":"Label","style_id":"label.text.label.labels","airport":"LFLI","geometry_role":"text_label","text-field":"SW","vsmr_group_ids":[]},"geometry":{"type":"Point","coordinates":[5.9,46.121666667]}},{"type":"Feature","id":"LFLI-text-lfmm-20455","properties":{"name":"S","layer":"Labels","category":"Labels","object_type":"Label","style_id":"label.text.label.labels","airport":"LFLI","geometry_role":"text_label","text-field":"S","vsmr_group_ids":[]},"geometry":{"type":"Point","coordinates":[6.1,46.133333333]}},{"type":"Feature","id":"LFLI-text-lfmm-20456","properties":{"name":"SE","layer":"Labels","category":"Labels","object_type":"Label","style_id":"label.text.label.labels","airport":"LFLI","geometry_role":"text_label","text-field":"SE","vsmr_group_ids":[]},"geometry":{"type":"Point","coordinates":[6.173333333,46.213333333]}},{"type":"Feature","id":"LFLI-text-lfmm-20457","properties":{"name":"BIVLO","layer":"Labels","category":"Labels","object_type":"Label","style_id":"label.text.label.labels","airport":"LFLI","geometry_role":"text_label","text-field":"BIVLO","vsmr_group_ids":[]},"geometry":{"type":"Point","coordinates":[6.253333333,46.196666667]}},{"type":"Feature","id":"LFLI-text-lfmm-20458","properties":{"name":"MOLUS","layer":"Labels","category":"Labels","object_type":"Label","style_id":"label.text.label.labels","airport":"LFLI","geometry_role":"text_label","text-field":"MOLUS","vsmr_group_ids":[]},"geometry":{"type":"Point","coordinates":[6.68,46.443333333]}}]}
