{"type":"FeatureCollection","name":"LFLJ AVISO","bbox":[6.623305556,45.395777778,6.637324722,45.400055556],"metadata":{"schema":"vSMR AVISO","schema_version":2,"geometry_mode":"shared","airport":"LFLJ","coordinate_reference_system":"WGS84","coordinate_order":"longitude, latitude","default_color_palette":"dark","color_palettes":["dark","light"],"background_colors":{"dark":"#434A4F","light":"#434A4F"},"feature_count":9,"style_count":5,"layer_counts":{"Guidance lines":3,"Labels":5,"Runways":1},"category_counts":{"Apron Surface":1,"Gates":5,"Runway centerlines":1,"Runways":1,"Taxiways":1},"runways":[{"ends":["04","22"],"headings":[42,222],"thresholds":[[6.632602778,45.395807778],[6.637324722,45.399230833]]}],"saved_active_runways":[],"saved_active_airport_modes":[],"geometry_source":"EuroScope sector pack","source_files":{"LFBB.sct":"fc92f16bc65e3a10b9aeb0cf4d1cae1add9856a4f4f2f653af5abaa0d98c77ed","LFBB.ese":"c7c252d4a274f6fd98bcefd2364b7bb9799385a6e602b62ccbe85cc32042ef62","LFBB.rwy":"d9387919da6406482f154f391ab2d20783610a60930f986e160686134ea8a7df","LFEE.sct":"10fcc997213ee24336ef8bd37f3a9423cb07bbdfb57b1494c61b8310b9641d8a","LFEE.ese":"3391dc3a47130a4a8c12ab895a6743c77668044183634bd45d425513ef5baa2f","LFFF.sct":"cb6698888ce3e8e8be34ea45922976a5fb3ebe1baef7814f040c91785f8641f2","LFFF.ese":"0c1e64c4a0524a6cdc30766699492d362f78011da36daeacfde4597a1761b64c","LFFF.rwy":"a12900bf1f18188caf2e598c44e55b2c0c6fb2c66cee43ff843cbe216617ae96","LFMM.sct":"fc0d266315a59cb027803be613657d9e9875a2a4b912535d08d1c7892a53b194","LFMM.ese":"6a319d7f7c1c2f7e457ae789f4aae2feafec03b24f5d3d95752e96922a971c9e","LFMM.rwy":"236563995d9b5be668ee3fc8d653cf8f33f20a511137652b197e5877b85d5693","LFRR.sct":"c5a55173543154d388eb65309d606b41ac5da09af59142e69878a4cde03add83","LFRR.ese":"e4542200e8322297f954327131cfe6e73da3ac264cf5610ff6871309cd6eeb40"},"airport_reference":[6.6325,45.395832778]},"styles":{"line.taxiway.c0b631":{"name":"Taxiways","layer":"Guidance lines","object_type":"Line","paint":{"stroke":"#4E5A69","stroke-opacity":1,"stroke-width":1,"palette-overrides":{"light":{"stroke":"#C0B631"}}},"feature_count":1},"line.runwayconcrete.555555":{"name":"Runways","layer":"Guidance lines","object_type":"Line","paint":{"stroke":"#111318","stroke-opacity":1,"stroke-width":1,"palette-overrides":{"light":{"stroke":"#555555"}}},"feature_count":1},"line.apronsurface.808080":{"name":"Apron Surface","layer":"Guidance lines","object_type":"Line","paint":{"stroke":"#808080","stroke-opacity":1,"stroke-width":1,"palette-overrides":{"light":{"stroke":"#808080"}}},"feature_count":1},"label.gates":{"name":"Gates","layer":"Labels","object_type":"Label","paint":{"text-color":"#CCCCCC","text-font":"Arial","text-size":12,"text-halo-color":"#000000","text-halo-width":1,"text-anchor":"center","zoomLevel":9},"feature_count":5},"runway.reference":{"name":"Runway centerlines","layer":"Runways","object_type":"Line","paint":{"stroke":"#CCCCCC","stroke-width":2,"stroke-opacity":1},"feature_count":1}},"vsmr_groups":[{"id":"stands-and-gates","name":"Stands & gates","visible":true,"accent":"#d4bd39"}],"features":[{"type":"Feature","id":"LFLJ-60416ee2769fba27812b","properties":{"airport":"LFLJ","name":"LFLJ Groundlayout Courchevel","layer":"Guidance lines","category":"Taxiways","object_type":"Line","style_id":"line.taxiway.c0b631","source_group":"LFLJ Groundlayout Courchevel","vsmr_group_ids":[],"geometry_role":"linework"},"geometry":{"type":"MultiLineString","coordinates":[[[6.626083333,45.396694444],[6.62525,45.396416667]],[[6.626,45.396833333],[6.625305556,45.396583333]],[[6.626083333,45.396694444],[6.626,45.396833333]],[[6.624916667,45.39775],[6.624583333,45.397555556]],[[6.624805556,45.397833333],[6.624472222,45.397638889]],[[6.624916667,45.39775],[6.624805556,45.397833333]],[[6.624583333,45.397555556],[6.624305556,45.397388889]],[[6.624472222,45.397638889],[6.624111111,45.397388889]],[[6.624305556,45.397388889],[6.624583333,45.397138889]],[[6.624111111,45.397388889],[6.624472222,45.397083333]],[[6.624583333,45.397138889],[6.624694444,45.397055556]],[[6.624472222,45.397083333],[6.624583333,45.397]],[[6.62525,45.396416667],[6.625,45.396611111]],[[6.625305556,45.396583333],[6.625166667,45.396694444]],[[6.625,45.396611111],[6.624888889,45.396694444]],[[6.625166667,45.396694444],[6.625027778,45.396805556]]]}},{"type":"Feature","id":"LFLJ-b1a7c826e594dc3570c8","properties":{"airport":"LFLJ","name":"LFLJ Groundlayout Courchevel","layer":"Guidance lines","category":"Runways","object_type":"Line","style_id":"line.runwayconcrete.555555","source_group":"LFLJ Groundlayout Courchevel","vsmr_group_ids":[],"geometry_role":"linework"},"geometry":{"type":"MultiLineString","coordinates":[[[6.629916667,45.399777778],[6.625027778,45.396805556]],[[6.629583333,45.400055556],[6.624694444,45.397055556]],[[6.629916667,45.399777778],[6.629583333,45.400055556]],[[6.624888889,45.396694444],[6.62475,45.396611111]],[[6.624583333,45.397],[6.624416667,45.396888889]],[[6.62475,45.396611111],[6.624416667,45.396888889]]]}},{"type":"Feature","id":"LFLJ-d97d8fe9bd41a8d9e64c","properties":{"airport":"LFLJ","name":"LFLJ Groundlayout Courchevel","layer":"Guidance lines","category":"Apron Surface","object_type":"Line","style_id":"line.apronsurface.808080","source_group":"LFLJ Groundlayout Courchevel","vsmr_group_ids":[],"geometry_role":"linework"},"geometry":{"type":"MultiLineString","coordinates":[[[6.625777778,45.395777778],[6.623305556,45.397833333],[6.624361111,45.398472222],[6.626888889,45.396388889]],[[6.625777778,45.395777778],[6.626888889,45.396388889]]]}},{"type":"Feature","id":"LFLJ-42c70f3bd1f06a66e835","properties":{"airport":"LFLJ","name":"2","layer":"Labels","category":"Gates","object_type":"Label","style_id":"label.gates","source_group":"LFLJ Gates","vsmr_group_ids":["stands-and-gates"],"geometry_role":"text_label","text-field":"2"},"geometry":{"type":"Point","coordinates":[6.626305556,45.396527778]}},{"type":"Feature","id":"LFLJ-2802c64616772590d1f2","properties":{"airport":"LFLJ","name":"1","layer":"Labels","category":"Gates","object_type":"Label","style_id":"label.gates","source_group":"LFLJ Gates","vsmr_group_ids":["stands-and-gates"],"geometry_role":"text_label","text-field":"1"},"geometry":{"type":"Point","coordinates":[6.624527778,45.398027778]}},{"type":"Feature","id":"LFLJ-c6540e172c8ac228cfab","properties":{"airport":"LFLJ","name":"2","layer":"Labels","category":"Gates","object_type":"Label","style_id":"label.gates","source_group":"LFLJ Gates","vsmr_group_ids":["stands-and-gates"],"geometry_role":"text_label","text-field":"2"},"geometry":{"type":"Point","coordinates":[6.623888889,45.397638889]}},{"type":"Feature","id":"LFLJ-37cd9eeb5636d72c346a","properties":{"airport":"LFLJ","name":"3","layer":"Labels","category":"Gates","object_type":"Label","style_id":"label.gates","source_group":"LFLJ Gates","vsmr_group_ids":["stands-and-gates"],"geometry_role":"text_label","text-field":"3"},"geometry":{"type":"Point","coordinates":[6.624194444,45.397861111]}},{"type":"Feature","id":"LFLJ-35f8f612025504795c15","properties":{"airport":"LFLJ","name":"1","layer":"Labels","category":"Gates","object_type":"Label","style_id":"label.gates","source_group":"LFLJ Gates","vsmr_group_ids":["stands-and-gates"],"geometry_role":"text_label","text-field":"1"},"geometry":{"type":"Point","coordinates":[6.625638889,45.396222222]}},{"type":"Feature","id":"LFLJ-9b845db271eb2e8ba050","properties":{"airport":"LFLJ","name":"04/22","layer":"Runways","category":"Runway centerlines","object_type":"Line","style_id":"runway.reference","source_group":"LFLJ Runways","vsmr_group_ids":[],"geometry_role":"runway_centerline"},"geometry":{"type":"LineString","coordinates":[[6.632602778,45.395807778],[6.637324722,45.399230833]]}}]}
