{"type":"FeatureCollection","name":"LFLO AVISO","bbox":[3.994138889,46.0495,4.005777778,46.062583333],"metadata":{"schema":"vSMR AVISO","schema_version":2,"airport":"LFLO","coordinate_reference_system":"WGS84","coordinate_order":"longitude, latitude","default_color_palette":"night","color_palettes":["night","day"],"feature_count":5,"style_count":4,"layer_counts":{"Ground linework":2,"Reference points":1,"Runways":2},"category_counts":{"Labels":1,"Runway Concrete":1,"Runway Grass":1,"Runway Markings":2}},"styles":{"line.linework.runway.concrete":{"name":"Runway Concrete","layer":"Ground linework","object_type":"Line","paint":{"stroke":"#111318","stroke-opacity":1.0,"stroke-width":1.5},"feature_count":1},"line.linework.runway.grass":{"name":"Runway Grass","layer":"Ground linework","object_type":"Line","paint":{"stroke":"#008000","stroke-opacity":1.0,"stroke-width":1.5},"feature_count":1},"line.runway.centerline.runway.markings":{"name":"Runway Markings","layer":"Runways","object_type":"Line","paint":{"stroke":"#FEFEFE","stroke-opacity":1.0,"stroke-width":1.5},"feature_count":2},"point.airport.reference.point.labels":{"name":"Labels","layer":"Reference points","object_type":"Point","paint":{"marker-color":"#808080","marker-size":"small"},"feature_count":1}},"features":[{"type":"Feature","id":"LFLO-runway-01L-19R-5349","properties":{"name":"LFLO RWY 01L/19R","layer":"Runways","category":"Runway Markings","object_type":"Line","style_id":"line.runway.centerline.runway.markings","airport":"LFLO","geometry_role":"runway_centerline","vsmr_group_ids":[[]]},"geometry":{"type":"LineString","coordinates":[[3.996418889,46.049913889],[3.999113889,46.056321944]]}},{"type":"Feature","id":"LFLO-runway-01-19-5350","properties":{"name":"LFLO RWY 01/19","layer":"Runways","category":"Runway Markings","object_type":"Line","style_id":"line.runway.centerline.runway.markings","airport":"LFLO","geometry_role":"runway_centerline","vsmr_group_ids":[[]]},"geometry":{"type":"LineString","coordinates":[[3.998310833,46.049602778],[4.003563889,46.062132778]]}},{"type":"Feature","id":"lflo.line.linework.runway.concrete.62548","properties":{"name":"LFLO Groundlayout Roanne","layer":"Ground linework","category":"Runway Concrete","object_type":"Line","style_id":"line.linework.runway.concrete","airport":"LFLO","geometry_role":"linework","vsmr_group_ids":[[]]},"geometry":{"type":"MultiLineString","coordinates":[[[3.997138889,46.0525],[4.001416667,46.062583333]],[[4.001472222,46.0515],[4.005777778,46.061611111]],[[3.997138889,46.0525],[4.001472222,46.0515]],[[4.001416667,46.062583333],[4.005777778,46.061611111]]]}},{"type":"Feature","id":"lflo.line.linework.runway.grass.62552","properties":{"name":"LFLO Groundlayout Roanne","layer":"Ground linework","category":"Runway Grass","object_type":"Line","style_id":"line.linework.runway.grass","airport":"LFLO","geometry_role":"linework","vsmr_group_ids":[[]]},"geometry":{"type":"MultiLineString","coordinates":[[[3.994138889,46.0505],[3.996833333,46.056888889]],[[3.998472222,46.0495],[4.001166667,46.055916667]],[[3.994138889,46.0505],[3.998472222,46.0495]],[[3.996833333,46.056888889],[4.001166667,46.055916667]]]}},{"type":"Feature","id":"LFLO-airport-reference","properties":{"name":"LFLO","layer":"Reference points","category":"Labels","object_type":"Point","style_id":"point.airport.reference.point.labels","airport":"LFLO","geometry_role":"airport_reference_point","text-field":"LFLO","vsmr_group_ids":[[]]},"geometry":{"type":"Point","coordinates":[3.999721944,46.052777778]}}]}
