{"type":"FeatureCollection","name":"LFLQ AVISO","bbox":[4.736438889,44.575291944,4.741875,44.585388889],"metadata":{"schema":"vSMR AVISO","schema_version":2,"airport":"LFLQ","coordinate_reference_system":"WGS84","coordinate_order":"longitude, latitude","feature_count":2,"style_count":2,"layer_counts":{"Reference points":1,"Runways":1},"category_counts":{"Labels":1,"Runway Markings":1}},"styles":{"line.runway.centerline.runway.markings":{"name":"Runway Markings","layer":"Runways","object_type":"Line","paint":{"stroke":"#FEFEFE","stroke-opacity":1.0,"stroke-width":1.5},"feature_count":1},"point.airport.reference.point.labels":{"name":"Labels","layer":"Reference points","object_type":"Point","paint":{"marker-color":"#808080","marker-size":"small"},"feature_count":1}},"features":[{"type":"Feature","id":"LFLQ-runway-02-20-5309","properties":{"name":"LFLQ RWY 02/20","layer":"Runways","category":"Runway Markings","object_type":"Line","style_id":"line.runway.centerline.runway.markings","airport":"LFLQ","geometry_role":"runway_centerline","vsmr_group_ids":[[]]},"geometry":{"type":"LineString","coordinates":[[4.736438889,44.575291944],[4.741875,44.585388889]]}},{"type":"Feature","id":"LFLQ-airport-reference","properties":{"name":"LFLQ","layer":"Reference points","category":"Labels","object_type":"Point","style_id":"point.airport.reference.point.labels","airport":"LFLQ","geometry_role":"airport_reference_point","text-field":"LFLQ","vsmr_group_ids":[[]]},"geometry":{"type":"Point","coordinates":[4.739166944,44.580277778]}}]}
