{"type":"FeatureCollection","name":"LFLR AVISO","bbox":[4.824721944,45.247774722,4.828021944,45.255971944],"metadata":{"schema":"vSMR AVISO","schema_version":2,"airport":"LFLR","coordinate_reference_system":"WGS84","coordinate_order":"longitude, latitude","default_color_palette":"night","color_palettes":["night","day"],"feature_count":3,"style_count":2,"layer_counts":{"Reference points":1,"Runways":2},"category_counts":{"Labels":1,"Runway Markings":2}},"styles":{"line.runway.centerline.runway.markings":{"name":"Runway Markings","layer":"Runways","object_type":"Line","paint":{"stroke":"#FEFEFE","stroke-opacity":1.0,"stroke-width":1.5},"feature_count":2},"point.airport.reference.point.labels":{"name":"Labels","layer":"Reference points","object_type":"Point","paint":{"marker-color":"#808080","marker-size":"small"},"feature_count":1}},"features":[{"type":"Feature","id":"LFLR-runway-01R-19L-5307","properties":{"name":"LFLR RWY 01R/19L","layer":"Runways","category":"Runway Markings","object_type":"Line","style_id":"line.runway.centerline.runway.markings","airport":"LFLR","geometry_role":"runway_centerline","vsmr_group_ids":[]},"geometry":{"type":"LineString","coordinates":[[4.826566944,45.247774722],[4.828021944,45.255830833]]}},{"type":"Feature","id":"LFLR-runway-01L-19R-5308","properties":{"name":"LFLR RWY 01L/19R","layer":"Runways","category":"Runway Markings","object_type":"Line","style_id":"line.runway.centerline.runway.markings","airport":"LFLR","geometry_role":"runway_centerline","vsmr_group_ids":[]},"geometry":{"type":"LineString","coordinates":[[4.824985833,45.247918889],[4.826441944,45.255971944]]}},{"type":"Feature","id":"LFLR-airport-reference","properties":{"name":"LFLR","layer":"Reference points","category":"Labels","object_type":"Point","style_id":"point.airport.reference.point.labels","airport":"LFLR","geometry_role":"airport_reference_point","text-field":"LFLR","vsmr_group_ids":[]},"geometry":{"type":"Point","coordinates":[4.824721944,45.255]}}]}
