{"type":"FeatureCollection","name":"LFLS AVISO","bbox":[5.0325,45.251666667,5.6175,45.471944444],"metadata":{"schema":"vSMR AVISO","schema_version":2,"airport":"LFLS","coordinate_reference_system":"WGS84","coordinate_order":"longitude, latitude","feature_count":121,"style_count":12,"layer_counts":{"Airfield surfaces":58,"Ground linework":1,"Labels":59,"Reference points":1,"Runways":2},"category_counts":{"Building":38,"Gras Surface":1,"Hard Surface2":2,"Hard Surface3":6,"Hard Surface4":2,"Labels":60,"Runway Concrete":1,"Runway Grass":1,"Runway Markings":2,"Stopbar":7,"Taxiway":1}},"styles":{"area.filled.region.building":{"name":"Building","layer":"Airfield surfaces","object_type":"Area","paint":{"fill":"#394446","fill-opacity":1.0,"stroke":"#394446","stroke-opacity":1.0,"stroke-width":0.5},"feature_count":38},"area.filled.region.gras.surface":{"name":"Gras Surface","layer":"Airfield surfaces","object_type":"Area","paint":{"fill":"#00512F","fill-opacity":1.0,"stroke":"#00512F","stroke-opacity":1.0,"stroke-width":0.5},"feature_count":1},"area.filled.region.hard.surface2":{"name":"Hard Surface2","layer":"Airfield surfaces","object_type":"Area","paint":{"fill":"#595E5B","fill-opacity":1.0,"stroke":"#595E5B","stroke-opacity":1.0,"stroke-width":0.5},"feature_count":2},"area.filled.region.hard.surface3":{"name":"Hard Surface3","layer":"Airfield surfaces","object_type":"Area","paint":{"fill":"#8A807F","fill-opacity":1.0,"stroke":"#8A807F","stroke-opacity":1.0,"stroke-width":0.5},"feature_count":6},"area.filled.region.hard.surface4":{"name":"Hard Surface4","layer":"Airfield surfaces","object_type":"Area","paint":{"fill":"#969393","fill-opacity":1.0,"stroke":"#969393","stroke-opacity":1.0,"stroke-width":0.5},"feature_count":2},"area.filled.region.runway.concrete":{"name":"Runway Concrete","layer":"Airfield surfaces","object_type":"Area","paint":{"fill":"#111318","fill-opacity":1.0,"stroke":"#111318","stroke-opacity":1.0,"stroke-width":0.5},"feature_count":1},"area.filled.region.runway.grass":{"name":"Runway Grass","layer":"Airfield surfaces","object_type":"Area","paint":{"fill":"#008000","fill-opacity":1.0,"stroke":"#008000","stroke-opacity":1.0,"stroke-width":0.5},"feature_count":1},"area.filled.region.stopbar":{"name":"Stopbar","layer":"Airfield surfaces","object_type":"Area","paint":{"fill":"#7E0000","fill-opacity":1.0,"stroke":"#7E0000","stroke-opacity":1.0,"stroke-width":0.5},"feature_count":7},"label.text.label.labels":{"name":"Labels","layer":"Labels","object_type":"Label","paint":{"text-anchor":"center","text-color":"#808080","text-halo-color":"#000000","text-halo-width":1,"text-size":12},"feature_count":59},"line.linework.taxiway":{"name":"Taxiway","layer":"Ground linework","object_type":"Line","paint":{"stroke":"#4E5A69","stroke-opacity":1.0,"stroke-width":1.5},"feature_count":1},"line.runway.centerline.runway.markings":{"name":"Runway Markings","layer":"Runways","object_type":"Line","paint":{"stroke":"#FEFEFE","stroke-opacity":1.0,"stroke-width":1.5},"feature_count":2},"point.airport.reference.point.labels":{"name":"Labels","layer":"Reference points","object_type":"Point","paint":{"marker-color":"#808080","marker-size":"small"},"feature_count":1}},"features":[{"type":"Feature","id":"lfls.area.filled.region.gras.surface.93097","properties":{"name":"LFLS AVISO","layer":"Airfield surfaces","category":"Gras Surface","object_type":"Area","style_id":"area.filled.region.gras.surface","airport":"LFLS","geometry_role":"filled_region","vsmr_group_ids":[[]]},"geometry":{"type":"Polygon","coordinates":[[[5.331840556,45.3679625],[5.327940556,45.366846667],[5.327016667,45.366519444],[5.323809722,45.364663056],[5.323472778,45.364375],[5.323271389,45.364274167],[5.308593056,45.364559722],[5.308438611,45.364513333],[5.308332778,45.3643625],[5.30778,45.361623611],[5.310048333,45.360623056],[5.312258611,45.360205556],[5.313061389,45.360811111],[5.314459167,45.36062],[5.314926944,45.360876389],[5.327640833,45.360886944],[5.330076111,45.35655],[5.330405556,45.356265278],[5.330834444,45.356176667],[5.334048056,45.356158611],[5.333385556,45.357235833],[5.333457222,45.357343611],[5.3348425,45.357683056],[5.334417222,45.358372222],[5.3344975,45.359404167],[5.334480556,45.360041111],[5.338456111,45.359964167],[5.33859,45.359418889],[5.343403611,45.359383056],[5.343576389,45.360771111],[5.349095556,45.3607575],[5.349174722,45.361287222],[5.351741667,45.361290278],[5.352041944,45.362363611],[5.352174444,45.362636944],[5.352267222,45.362889722],[5.352248333,45.363168889],[5.352288333,45.3644825],[5.337130556,45.364529167],[5.335153611,45.368701111],[5.331840556,45.3679625]]]}},{"type":"Feature","id":"lfls.area.filled.region.hard.surface4.93138","properties":{"name":"LFLS AVISO","layer":"Airfield surfaces","category":"Hard Surface4","object_type":"Area","style_id":"area.filled.region.hard.surface4","airport":"LFLS","geometry_role":"filled_region","vsmr_group_ids":[[]]},"geometry":{"type":"Polygon","coordinates":[[[5.3134125,45.363198333],[5.313288611,45.363272778],[5.313198889,45.363323889],[5.3131425,45.363366944],[5.313090278,45.363393889],[5.313050278,45.363416667],[5.313006667,45.3634325],[5.312948056,45.363448611],[5.312874722,45.363453333],[5.312806667,45.363453056],[5.312754444,45.363446944],[5.312693333,45.363436111],[5.312635833,45.363422222],[5.312595556,45.363407778],[5.312563889,45.363388889],[5.312546389,45.363372778],[5.312525833,45.363358611],[5.312502778,45.363336944],[5.312484167,45.3632825],[5.312472778,45.363246667],[5.312465833,45.363199444],[5.3134125,45.363198333]]]}},{"type":"Feature","id":"lfls.area.filled.region.hard.surface4.93160","properties":{"name":"LFLS AVISO","layer":"Airfield surfaces","category":"Hard Surface4","object_type":"Area","style_id":"area.filled.region.hard.surface4","airport":"LFLS","geometry_role":"filled_region","vsmr_group_ids":[[]]},"geometry":{"type":"Polygon","coordinates":[[[5.332153611,45.358082778],[5.332185278,45.358163056],[5.332058333,45.358393611],[5.331798611,45.358452222],[5.331610833,45.358800278],[5.331438333,45.358767778],[5.331120556,45.359373056],[5.331249444,45.359436111],[5.330822778,45.360292778],[5.330611389,45.360266667],[5.330499167,45.360483889],[5.330480556,45.360547778],[5.330525833,45.360603889],[5.330578056,45.360630833],[5.330652222,45.360643056],[5.33069,45.360612778],[5.330765556,45.360603333],[5.33089,45.360595556],[5.331011944,45.360580278],[5.332519167,45.360544722],[5.332528889,45.360357222],[5.332756944,45.360373056],[5.332776944,45.360541667],[5.333108056,45.360530278],[5.333348889,45.360511111],[5.333685556,45.360488889],[5.333674167,45.360322778],[5.334086944,45.360311389],[5.334079722,45.360375556],[5.334510278,45.360364444],[5.334680556,45.360398333],[5.334743611,45.360496944],[5.335958056,45.360493056],[5.336003611,45.360446389],[5.336059167,45.3604125],[5.336118611,45.3603825],[5.336178611,45.360359722],[5.336254167,45.360334722],[5.336343611,45.360306667],[5.336409444,45.360291111],[5.336481389,45.3602775],[5.336549167,45.360275],[5.336623611,45.360269444],[5.336715556,45.360270278],[5.3368425,45.360271944],[5.336836111,45.360546944],[5.333846111,45.360571667],[5.333506944,45.360646111],[5.331151389,45.360654444],[5.331026111,45.360692778],[5.330905278,45.360696944],[5.330535833,45.360707222],[5.330544722,45.360740556],[5.330568056,45.360766111],[5.330919167,45.361016389],[5.330931389,45.361112222],[5.330904167,45.361126111],[5.330896389,45.361095556],[5.330867222,45.3610675],[5.330527222,45.360809444],[5.330491389,45.360783056],[5.330463056,45.360753056],[5.330455833,45.360731111],[5.3304475,45.360711667],[5.330199444,45.360708333],[5.330212778,45.360813056],[5.330160278,45.360833333],[5.329977778,45.360807778],[5.329973889,45.360649722],[5.330311111,45.360647778],[5.330338056,45.360624167],[5.330348056,45.360601389],[5.330350833,45.360571111],[5.330361111,45.360530278],[5.330598056,45.360081667],[5.331754167,45.358023333],[5.332102222,45.358110833],[5.332138056,45.358071944],[5.332153611,45.358082778]]]}},{"type":"Feature","id":"lfls.area.filled.region.hard.surface2.93239","properties":{"name":"LFLS AVISO","layer":"Airfield surfaces","category":"Hard Surface2","object_type":"Area","style_id":"area.filled.region.hard.surface2","airport":"LFLS","geometry_role":"filled_region","vsmr_group_ids":[[]]},"geometry":{"type":"Polygon","coordinates":[[[5.31004,45.361734444],[5.31009,45.361678333],[5.310153333,45.361611389],[5.310227222,45.361553333],[5.310293889,45.361511389],[5.310376944,45.361472778],[5.310452778,45.361440556],[5.310531389,45.361415833],[5.310610278,45.361398056],[5.310695833,45.361381111],[5.310810556,45.361362778],[5.310949167,45.361357778],[5.311077222,45.361353889],[5.327883333,45.361316111],[5.327913056,45.361285],[5.329033056,45.361223889],[5.329122222,45.361193611],[5.329189167,45.361159444],[5.329244167,45.361115833],[5.329294167,45.361072778],[5.329328333,45.361022778],[5.329348889,45.360974444],[5.329358889,45.360917222],[5.329380556,45.360846111],[5.329416389,45.360767778],[5.329453333,45.360700556],[5.329516389,45.36059],[5.329889722,45.360043056],[5.329988056,45.359892778],[5.3300025,45.35959],[5.329851944,45.359301667],[5.330757778,45.357639722],[5.330370833,45.35754],[5.330551111,45.3572025],[5.331973056,45.357597778],[5.332118333,45.357575833],[5.332131944,45.357561667],[5.333458889,45.3579075],[5.3333325,45.358143333],[5.332308333,45.35786],[5.332214444,45.357876389],[5.331915833,45.357862222],[5.331823333,45.357863333],[5.331265833,45.357718333],[5.330384167,45.359334444],[5.330381667,45.359373889],[5.330398611,45.359417778],[5.330480833,45.359656389],[5.330488333,45.359749722],[5.3304825,45.359830278],[5.3304625,45.359936667],[5.330425833,45.360009167],[5.330407778,45.360050556],[5.330306667,45.360021111],[5.330158056,45.360194444],[5.330086667,45.360305278],[5.330034167,45.360399722],[5.329966944,45.360524722],[5.329925,45.360638056],[5.329901111,45.360754444],[5.329889167,45.360856111],[5.329909444,45.360943056],[5.3299525,45.361016111],[5.329999167,45.361069167],[5.330083333,45.361128333],[5.330193333,45.361179167],[5.330312778,45.361214167],[5.330417222,45.361228333],[5.330524722,45.361236389],[5.330663611,45.361231389],[5.330772222,45.361217778],[5.330843889,45.361186111],[5.330923056,45.361114444],[5.336849167,45.361083889],[5.3368775,45.361138889],[5.336925556,45.361183056],[5.336974444,45.361219167],[5.337021944,45.361250278],[5.33707,45.361275278],[5.337117222,45.361284167],[5.337168611,45.361283611],[5.347715833,45.361257222],[5.347869722,45.361258889],[5.347966944,45.361265833],[5.348080833,45.361278889],[5.348189444,45.361308889],[5.348285833,45.361345556],[5.348365556,45.361380833],[5.348413056,45.361405556],[5.348465,45.361430556],[5.348512778,45.361461667],[5.34856,45.361493611],[5.348595,45.361520556],[5.348350833,45.361655556],[5.348294444,45.361616389],[5.348254722,45.361592222],[5.348215278,45.361568611],[5.348166111,45.361548333],[5.348107778,45.361525],[5.348050833,45.361506944],[5.347998889,45.361493056],[5.347931389,45.361481944],[5.347875,45.361475556],[5.347814167,45.361468056],[5.347708056,45.3614625],[5.347605833,45.361455],[5.347525556,45.361449167],[5.347431111,45.361442222],[5.347326944,45.361436389],[5.339236667,45.361459444],[5.3390625,45.361485],[5.338963056,45.361512778],[5.338883889,45.361548611],[5.338820556,45.361588611],[5.338765278,45.361627222],[5.338728333,45.361664444],[5.338698611,45.3617025],[5.338663889,45.361755556],[5.33864,45.3618125],[5.338624444,45.361886944],[5.338614722,45.361951944],[5.338619167,45.362009444],[5.338324722,45.362017778],[5.338323611,45.361954722],[5.338309444,45.361918333],[5.338293611,45.361879444],[5.338261944,45.361836944],[5.338232222,45.361790556],[5.338193889,45.3617475],[5.338141667,45.361698611],[5.338099167,45.361663056],[5.338044722,45.361630278],[5.337996944,45.361598056],[5.337939444,45.361569444],[5.337890278,45.361548611],[5.337842222,45.361531111],[5.337766111,45.361509167],[5.337698056,45.361492222],[5.337600833,45.361475556],[5.337468889,45.361468611],[5.337225556,45.3614625],[5.333076667,45.361478333],[5.332971389,45.361505833],[5.332896111,45.361547222],[5.332839722,45.361585278],[5.332789167,45.361630278],[5.332763611,45.361671944],[5.332764722,45.361718333],[5.332774444,45.362019167],[5.332530833,45.362024167],[5.332526111,45.361746944],[5.332516667,45.361693056],[5.332504167,45.361655556],[5.332479722,45.361618056],[5.332436111,45.361579444],[5.332381111,45.361549444],[5.332331389,45.361531667],[5.332288889,45.361518611],[5.332211667,45.361501667],[5.332138333,45.3614925],[5.332045833,45.361484722],[5.331927778,45.361480556],[5.329776944,45.361479722],[5.329766389,45.361505278],[5.329774444,45.361920556],[5.329622222,45.361921667],[5.329608333,45.36149],[5.318641111,45.361512778],[5.318628889,45.361938889],[5.318433889,45.361941111],[5.318450833,45.361513056],[5.317461944,45.361509167],[5.317351111,45.361536667],[5.317256389,45.361568333],[5.3172025,45.361595],[5.317142778,45.361629722],[5.317080833,45.361677778],[5.317028889,45.361731667],[5.31699,45.361774444],[5.316967778,45.361808056],[5.316663611,45.361805833],[5.316626389,45.361754167],[5.316594167,45.3617125],[5.316563889,45.361685833],[5.316533889,45.361659444],[5.316501389,45.361635833],[5.316469444,45.361612778],[5.316417222,45.361588611],[5.3163575,45.361563889],[5.316299444,45.361543611],[5.316222222,45.361526389],[5.316168889,45.361519444],[5.311297778,45.361515],[5.311006667,45.361518889],[5.3108775,45.361523056],[5.310761389,45.361536389],[5.310686389,45.361555833],[5.310597778,45.3615875],[5.310527778,45.361627778],[5.310448333,45.361675556],[5.3103875,45.361724167],[5.310333333,45.361779722],[5.310288056,45.361840833],[5.31004,45.361734444]]]}},{"type":"Feature","id":"lfls.area.filled.region.hard.surface2.93443","properties":{"name":"LFLS AVISO","layer":"Airfield surfaces","category":"Hard Surface2","object_type":"Area","style_id":"area.filled.region.hard.surface2","airport":"LFLS","geometry_role":"filled_region","vsmr_group_ids":[[]]},"geometry":{"type":"Polygon","coordinates":[[[5.336891944,45.363820556],[5.336890278,45.363846667],[5.336903056,45.363873333],[5.336903333,45.363892222],[5.336905,45.363919722],[5.336899444,45.363955556],[5.336882222,45.363991111],[5.336838611,45.364035556],[5.336745,45.364124444],[5.336704722,45.364144444],[5.336670556,45.364155833],[5.336628333,45.364163889],[5.336586389,45.364166389],[5.336543889,45.364172222],[5.336501667,45.364188611],[5.335993889,45.364698889],[5.335973889,45.364737778],[5.335961389,45.364795278],[5.335961667,45.364840556],[5.335974167,45.366096111],[5.335969722,45.366169444],[5.335967778,45.366207222],[5.335959167,45.36625],[5.335949167,45.366282222],[5.335930278,45.366315556],[5.335911667,45.36634],[5.335892222,45.366363889],[5.335866389,45.366384167],[5.335835833,45.366404722],[5.335798056,45.366423889],[5.335748056,45.366438333],[5.335683333,45.366444167],[5.334378333,45.366449167],[5.334302222,45.366465556],[5.334248611,45.366491944],[5.334205278,45.366520278],[5.334176667,45.366577778],[5.334179444,45.366779444],[5.330756667,45.366772222],[5.330763333,45.366734167],[5.330756944,45.365484444],[5.330761389,45.365408056],[5.330780278,45.365324444],[5.330815,45.365251111],[5.330854444,45.365206111],[5.331359722,45.364647778],[5.331351667,45.364617778],[5.331308056,45.364414167],[5.331307778,45.364380556],[5.331330278,45.364351389],[5.331578056,45.364196944],[5.331773889,45.364175833],[5.331866944,45.364212778],[5.33098,45.365243333],[5.330923056,45.365334444],[5.330906389,45.365375833],[5.330899722,45.365434167],[5.330899722,45.366241389],[5.330903056,45.366289444],[5.330917778,45.366338889],[5.330952222,45.366365278],[5.330978611,45.366377778],[5.331036944,45.366379167],[5.335625833,45.36637],[5.335695833,45.366366389],[5.335744444,45.3663525],[5.335785,45.366322778],[5.335805833,45.366298333],[5.335833333,45.366264722],[5.335855,45.366222778],[5.335859444,45.366162222],[5.335841944,45.364798611],[5.335849722,45.364725833],[5.335868333,45.364674722],[5.335925833,45.364615833],[5.336710833,45.363838056],[5.336847222,45.363868611],[5.336891944,45.363820556]]]}},{"type":"Feature","id":"lfls.area.filled.region.hard.surface3.93521","properties":{"name":"LFLS AVISO","layer":"Airfield surfaces","category":"Hard Surface3","object_type":"Area","style_id":"area.filled.region.hard.surface3","airport":"LFLS","geometry_role":"filled_region","vsmr_group_ids":[[]]},"geometry":{"type":"Polygon","coordinates":[[[5.330753611,45.357635],[5.329860833,45.359298611],[5.329645833,45.358978889],[5.329629167,45.358921111],[5.3296375,45.358867222],[5.33038,45.357541111],[5.330753611,45.357635]]]}},{"type":"Feature","id":"lfls.area.filled.region.hard.surface3.93528","properties":{"name":"LFLS AVISO","layer":"Airfield surfaces","category":"Hard Surface3","object_type":"Area","style_id":"area.filled.region.hard.surface3","airport":"LFLS","geometry_role":"filled_region","vsmr_group_ids":[[]]},"geometry":{"type":"Polygon","coordinates":[[[5.330747222,45.356853056],[5.331620278,45.3570725],[5.331910833,45.357059722],[5.332070833,45.356789722],[5.332256389,45.356428333],[5.332343056,45.356442778],[5.332560556,45.356498333],[5.332676111,45.356335556],[5.332646944,45.356268611],[5.332916667,45.356275278],[5.332638889,45.356774722],[5.332882222,45.356835833],[5.332815833,45.357045],[5.332406389,45.356946667],[5.332117778,45.357510833],[5.332160278,45.357525833],[5.332131944,45.357561389],[5.332120833,45.357573611],[5.331980556,45.357596667],[5.330547222,45.357201667],[5.330747222,45.356853056]]]}},{"type":"Feature","id":"lfls.area.filled.region.hard.surface3.93549","properties":{"name":"LFLS AVISO","layer":"Airfield surfaces","category":"Hard Surface3","object_type":"Area","style_id":"area.filled.region.hard.surface3","airport":"LFLS","geometry_role":"filled_region","vsmr_group_ids":[[]]},"geometry":{"type":"Polygon","coordinates":[[[5.333237778,45.358310833],[5.332186111,45.358024444],[5.332107222,45.358113333],[5.331753056,45.358022778],[5.330594444,45.360089444],[5.330413611,45.360048889],[5.330466111,45.359929167],[5.330477778,45.359844722],[5.33049,45.359755278],[5.330485278,45.359656389],[5.330380833,45.359360278],[5.331268056,45.357715],[5.331820833,45.357858889],[5.332306111,45.357856667],[5.333335,45.35814],[5.333237778,45.358310833]]]}},{"type":"Feature","id":"lfls.area.filled.region.hard.surface3.93565","properties":{"name":"LFLS AVISO","layer":"Airfield surfaces","category":"Hard Surface3","object_type":"Area","style_id":"area.filled.region.hard.surface3","airport":"LFLS","geometry_role":"filled_region","vsmr_group_ids":[[]]},"geometry":{"type":"Polygon","coordinates":[[[5.330904722,45.3606925],[5.331026389,45.360693056],[5.331062778,45.360682778],[5.3311025,45.360668611],[5.331152222,45.360655278],[5.333507778,45.360646667],[5.333844167,45.360568611],[5.3368375,45.360546667],[5.3368375,45.360545],[5.33684,45.361034167],[5.336851389,45.361085833],[5.330924722,45.361115],[5.330904722,45.3606925]]]}},{"type":"Feature","id":"lfls.area.filled.region.hard.surface3.93578","properties":{"name":"LFLS AVISO","layer":"Airfield surfaces","category":"Hard Surface3","object_type":"Area","style_id":"area.filled.region.hard.surface3","airport":"LFLS","geometry_role":"filled_region","vsmr_group_ids":[[]]},"geometry":{"type":"Polygon","coordinates":[[[5.330928056,45.366473611],[5.333952778,45.366476944],[5.333948889,45.366690556],[5.330923889,45.366696111],[5.330928056,45.366473611]]]}},{"type":"Feature","id":"lfls.area.filled.region.hard.surface3.93583","properties":{"name":"LFLS AVISO","layer":"Airfield surfaces","category":"Hard Surface3","object_type":"Area","style_id":"area.filled.region.hard.surface3","airport":"LFLS","geometry_role":"filled_region","vsmr_group_ids":[[]]},"geometry":{"type":"Polygon","coordinates":[[[5.329353889,45.366908056],[5.330275278,45.366893611],[5.330274167,45.366835],[5.330638056,45.366821111],[5.330693056,45.366813333],[5.330738889,45.366784722],[5.330760278,45.366763611],[5.334183889,45.366771944],[5.334176667,45.366792222],[5.331026944,45.366808056],[5.331039444,45.3669825],[5.330611667,45.366981111],[5.330611667,45.367041944],[5.3302775,45.3670475],[5.330270833,45.366986667],[5.329353611,45.366990278],[5.329353889,45.366908056]]]}},{"type":"Feature","id":"lfls.area.filled.region.runway.concrete.93600","properties":{"name":"LFLS AVISO","layer":"Airfield surfaces","category":"Runway Concrete","object_type":"Area","style_id":"area.filled.region.runway.concrete","airport":"LFLS","geometry_role":"filled_region","vsmr_group_ids":[[]]},"geometry":{"type":"Polygon","coordinates":[[[5.310209722,45.361976944],[5.310192222,45.362063056],[5.310195833,45.362117222],[5.310210833,45.362192778],[5.310242778,45.362248889],[5.310303611,45.362323056],[5.310366944,45.362394167],[5.310439722,45.36246],[5.310520556,45.362525],[5.310619722,45.362589444],[5.310739167,45.362663333],[5.310824167,45.362708611],[5.310903889,45.362746667],[5.310998056,45.362775278],[5.311091389,45.362799722],[5.316384444,45.362786111],[5.316466111,45.362763333],[5.316525278,45.362736389],[5.316580556,45.362698611],[5.316625278,45.362660833],[5.316652222,45.362623333],[5.316666944,45.362580556],[5.316663889,45.361802222],[5.316965556,45.361800556],[5.316951944,45.362583889],[5.316955833,45.362645833],[5.316976389,45.362698333],[5.317013611,45.362746111],[5.317091111,45.362790278],[5.332228333,45.362743611],[5.332298889,45.362718611],[5.332350278,45.362685833],[5.332418611,45.362638611],[5.332463333,45.362598333],[5.3325025,45.3625525],[5.332518056,45.362494167],[5.332523611,45.362426667],[5.332526111,45.362045],[5.3327775,45.362041944],[5.332775556,45.362491667],[5.332798056,45.3625625],[5.3328325,45.362609722],[5.332886111,45.362654722],[5.3329325,45.362691111],[5.333029167,45.362741111],[5.3375525,45.3627275],[5.337627778,45.362705556],[5.337684167,45.362691111],[5.337752222,45.362671389],[5.337799444,45.362657222],[5.337856667,45.362625],[5.337921111,45.362577778],[5.337998611,45.362511667],[5.338059722,45.3624525],[5.3381175,45.362391667],[5.338171389,45.3623325],[5.338208333,45.362287778],[5.338261944,45.362221944],[5.338301944,45.3621675],[5.338315,45.3621275],[5.338325,45.362074167],[5.3383225,45.362035],[5.338622222,45.362031667],[5.338630556,45.362285833],[5.338635278,45.362338056],[5.338652778,45.362399722],[5.338667222,45.362443056],[5.338690556,45.362478333],[5.338719167,45.362514444],[5.338755278,45.362554167],[5.338796389,45.362580556],[5.338830556,45.362605278],[5.338885278,45.362631111],[5.338942778,45.362661111],[5.339002222,45.3626775],[5.339071667,45.362700278],[5.339111944,45.362707778],[5.339177222,45.362724722],[5.347720556,45.362703056],[5.347892778,45.362639167],[5.347998333,45.362583611],[5.348100833,45.362513889],[5.348213333,45.362428611],[5.348329167,45.362318056],[5.348400278,45.362249167],[5.348471667,45.362160833],[5.34851,45.362093611],[5.348524722,45.361996111],[5.348512778,45.361912222],[5.348484167,45.361846389],[5.348454167,45.3617725],[5.348410556,45.361721944],[5.348348056,45.361660833],[5.348598889,45.361521111],[5.348618056,45.361540278],[5.348658889,45.361587778],[5.348694722,45.361631389],[5.348736389,45.361695278],[5.34877,45.361755833],[5.348795,45.361821667],[5.348813611,45.361914722],[5.348825833,45.362037222],[5.348818889,45.363093889],[5.337905556,45.3631225],[5.337801389,45.363159167],[5.337708889,45.363188889],[5.3376175,45.363219167],[5.337533056,45.363252222],[5.337461389,45.363276111],[5.337380278,45.363312222],[5.33686,45.363853333],[5.336728056,45.3638225],[5.3372125,45.363328056],[5.337239167,45.363301944],[5.337255278,45.363265556],[5.337245833,45.363238611],[5.337218056,45.363202778],[5.337179722,45.363166944],[5.337131944,45.363123611],[5.33315,45.363135278],[5.333071667,45.363156389],[5.333002778,45.363183889],[5.332937778,45.363208056],[5.332867222,45.3632325],[5.332790833,45.363265],[5.332728333,45.363294722],[5.332652222,45.363340278],[5.331891389,45.364195833],[5.331795556,45.364156111],[5.332516389,45.363346944],[5.332536389,45.363285556],[5.3325275,45.363251389],[5.332494167,45.363209444],[5.332460833,45.363180556],[5.3324275,45.363153889],[5.332374444,45.363138889],[5.309906944,45.363195556],[5.309906389,45.362091111],[5.309918889,45.361953889],[5.309940833,45.361889167],[5.309966389,45.361819167],[5.310028333,45.361747222],[5.310275278,45.361855278],[5.31024,45.361913889],[5.310209722,45.361976944]]]}},{"type":"Feature","id":"lfls.area.filled.region.runway.grass.93745","properties":{"name":"LFLS AVISO","layer":"Airfield surfaces","category":"Runway Grass","object_type":"Area","style_id":"area.filled.region.runway.grass","airport":"LFLS","geometry_role":"filled_region","vsmr_group_ids":[[]]},"geometry":{"type":"Polygon","coordinates":[[[5.3183575,45.361942778],[5.329846667,45.361918611],[5.329850833,45.362365],[5.318363611,45.3623975],[5.3183575,45.361942778]]]}},{"type":"Feature","id":"lfls.area.filled.region.building.93750","properties":{"name":"LFLS AVISO","layer":"Airfield surfaces","category":"Building","object_type":"Area","style_id":"area.filled.region.building","airport":"LFLS","geometry_role":"filled_region","vsmr_group_ids":[[]]},"geometry":{"type":"Polygon","coordinates":[[[5.332645556,45.356773611],[5.332921389,45.356277222],[5.333164167,45.356343611],[5.332881667,45.356833056],[5.332645556,45.356773611]]]}},{"type":"Feature","id":"lfls.area.filled.region.building.93755","properties":{"name":"LFLS AVISO","layer":"Airfield surfaces","category":"Building","object_type":"Area","style_id":"area.filled.region.building","airport":"LFLS","geometry_role":"filled_region","vsmr_group_ids":[[]]},"geometry":{"type":"Polygon","coordinates":[[[5.3328075,45.3571075],[5.332768056,45.3571475],[5.332363889,45.357038056],[5.332410556,45.356945556],[5.332816944,45.357043056],[5.3328075,45.3571075]]]}},{"type":"Feature","id":"lfls.area.filled.region.building.93761","properties":{"name":"LFLS AVISO","layer":"Airfield surfaces","category":"Building","object_type":"Area","style_id":"area.filled.region.building","airport":"LFLS","geometry_role":"filled_region","vsmr_group_ids":[[]]},"geometry":{"type":"Polygon","coordinates":[[[5.332673056,45.357200278],[5.332675278,45.357244722],[5.332622778,45.357293056],[5.332275,45.357196667],[5.332326944,45.357103611],[5.332673056,45.357200278]]]}},{"type":"Feature","id":"lfls.area.filled.region.building.93767","properties":{"name":"LFLS AVISO","layer":"Airfield surfaces","category":"Building","object_type":"Area","style_id":"area.filled.region.building","airport":"LFLS","geometry_role":"filled_region","vsmr_group_ids":[[]]},"geometry":{"type":"Polygon","coordinates":[[[5.3325125,45.357330278],[5.332474167,45.357453056],[5.332379722,45.357584444],[5.332116667,45.357505833],[5.332236111,45.357264722],[5.332276389,45.357265556],[5.3325125,45.357330278]]]}},{"type":"Feature","id":"lfls.area.filled.region.building.93774","properties":{"name":"LFLS AVISO","layer":"Airfield surfaces","category":"Building","object_type":"Area","style_id":"area.filled.region.building","airport":"LFLS","geometry_role":"filled_region","vsmr_group_ids":[[]]},"geometry":{"type":"Polygon","coordinates":[[[5.332448056,45.357488333],[5.332474167,45.357498889],[5.332506944,45.357472222],[5.332657778,45.3575],[5.332755278,45.357540556],[5.332685,45.357670833],[5.332391667,45.357586389],[5.332448056,45.357488333]]]}},{"type":"Feature","id":"lfls.area.filled.region.building.93782","properties":{"name":"LFLS AVISO","layer":"Airfield surfaces","category":"Building","object_type":"Area","style_id":"area.filled.region.building","airport":"LFLS","geometry_role":"filled_region","vsmr_group_ids":[[]]},"geometry":{"type":"Polygon","coordinates":[[[5.333166389,45.357659167],[5.333096667,45.357784722],[5.332765278,45.357690278],[5.332831111,45.357565],[5.333166389,45.357659167]]]}},{"type":"Feature","id":"lfls.area.filled.region.building.93787","properties":{"name":"LFLS AVISO","layer":"Airfield surfaces","category":"Building","object_type":"Area","style_id":"area.filled.region.building","airport":"LFLS","geometry_role":"filled_region","vsmr_group_ids":[[]]},"geometry":{"type":"Polygon","coordinates":[[[5.332727222,45.357585278],[5.332810556,45.357601667],[5.332776111,45.357670278],[5.332699722,45.357652222],[5.332727222,45.357585278]]]}},{"type":"Feature","id":"lfls.area.filled.region.building.93792","properties":{"name":"LFLS AVISO","layer":"Airfield surfaces","category":"Building","object_type":"Area","style_id":"area.filled.region.building","airport":"LFLS","geometry_role":"filled_region","vsmr_group_ids":[[]]},"geometry":{"type":"Polygon","coordinates":[[[5.333263889,45.357637778],[5.333593056,45.357731389],[5.333499444,45.3578975],[5.333158611,45.357808333],[5.333263889,45.357637778]]]}},{"type":"Feature","id":"lfls.area.filled.region.building.93797","properties":{"name":"LFLS AVISO","layer":"Airfield surfaces","category":"Building","object_type":"Area","style_id":"area.filled.region.building","airport":"LFLS","geometry_role":"filled_region","vsmr_group_ids":[[]]},"geometry":{"type":"Polygon","coordinates":[[[5.333833889,45.357913889],[5.333798889,45.357965556],[5.333711111,45.357940833],[5.333625278,45.358105],[5.333621944,45.358137222],[5.333683611,45.358160278],[5.333653056,45.3582075],[5.333590833,45.358196111],[5.333547778,45.358258611],[5.333524722,45.3582925],[5.333476944,45.358281389],[5.333456389,45.3583],[5.333425,45.358289444],[5.333428611,45.358268889],[5.333390278,45.358254722],[5.333398611,45.358224167],[5.333328333,45.358208056],[5.3334125,45.358056111],[5.333486944,45.3580775],[5.333526111,45.358005278],[5.333590278,45.358018056],[5.333628056,45.357921389],[5.333519167,45.357887778],[5.333552222,45.357834722],[5.333833889,45.357913889]]]}},{"type":"Feature","id":"lfls.area.filled.region.building.93822","properties":{"name":"LFLS AVISO","layer":"Airfield surfaces","category":"Building","object_type":"Area","style_id":"area.filled.region.building","airport":"LFLS","geometry_role":"filled_region","vsmr_group_ids":[[]]},"geometry":{"type":"Polygon","coordinates":[[[5.332501111,45.358609167],[5.3324825,45.358598889],[5.332461111,45.358591667],[5.332434167,45.358593056],[5.332402222,45.358599444],[5.332315278,45.358476389],[5.332391389,45.358457222],[5.332507222,45.358465833],[5.332597778,45.358490833],[5.332659167,45.358528889],[5.3327,45.358586667],[5.332516389,45.358633333],[5.332515,45.358621389],[5.332501111,45.358609167]]]}},{"type":"Feature","id":"lfls.area.filled.region.building.93836","properties":{"name":"LFLS AVISO","layer":"Airfield surfaces","category":"Building","object_type":"Area","style_id":"area.filled.region.building","airport":"LFLS","geometry_role":"filled_region","vsmr_group_ids":[[]]},"geometry":{"type":"Polygon","coordinates":[[[5.331688889,45.358501944],[5.331659722,45.358557222],[5.331566944,45.358530556],[5.331593056,45.358483611],[5.331688889,45.358501944]]]}},{"type":"Feature","id":"lfls.area.filled.region.building.93841","properties":{"name":"LFLS AVISO","layer":"Airfield surfaces","category":"Building","object_type":"Area","style_id":"area.filled.region.building","airport":"LFLS","geometry_role":"filled_region","vsmr_group_ids":[[]]},"geometry":{"type":"Polygon","coordinates":[[[5.331515556,45.358993889],[5.331286389,45.359418056],[5.331249722,45.359443333],[5.331095278,45.3594],[5.331110278,45.3593675],[5.33124,45.359116389],[5.331333889,45.358945278],[5.331356667,45.358950833],[5.331385278,45.358908056],[5.331351389,45.358893889],[5.331425278,45.358765556],[5.331622778,45.358808056],[5.331598333,45.358878333],[5.331515556,45.358993889]]]}},{"type":"Feature","id":"lfls.area.filled.region.building.93855","properties":{"name":"LFLS AVISO","layer":"Airfield surfaces","category":"Building","object_type":"Area","style_id":"area.filled.region.building","airport":"LFLS","geometry_role":"filled_region","vsmr_group_ids":[[]]},"geometry":{"type":"Polygon","coordinates":[[[5.331529722,45.359095833],[5.331485278,45.359181111],[5.331419444,45.359164444],[5.331475,45.359075833],[5.331529722,45.359095833]]]}},{"type":"Feature","id":"lfls.area.filled.region.building.93860","properties":{"name":"LFLS AVISO","layer":"Airfield surfaces","category":"Building","object_type":"Area","style_id":"area.filled.region.building","airport":"LFLS","geometry_role":"filled_region","vsmr_group_ids":[[]]},"geometry":{"type":"Polygon","coordinates":[[[5.331348889,45.359365278],[5.331379444,45.359314444],[5.331395556,45.359317778],[5.331424444,45.359265278],[5.331511944,45.359287222],[5.3314875,45.359337222],[5.331457778,45.359391389],[5.3314275,45.359455833],[5.331318611,45.359431111],[5.331348889,45.359365278]]]}},{"type":"Feature","id":"lfls.area.filled.region.building.93870","properties":{"name":"LFLS AVISO","layer":"Airfield surfaces","category":"Building","object_type":"Area","style_id":"area.filled.region.building","airport":"LFLS","geometry_role":"filled_region","vsmr_group_ids":[[]]},"geometry":{"type":"Polygon","coordinates":[[[5.330772222,45.360006111],[5.330869444,45.360018611],[5.330916389,45.359919167],[5.331047778,45.359953056],[5.331083611,45.359968056],[5.330974444,45.360170833],[5.330940556,45.360231389],[5.330918056,45.360241944],[5.330676667,45.360173056],[5.330772222,45.360006111]]]}},{"type":"Feature","id":"lfls.area.filled.region.building.93880","properties":{"name":"LFLS AVISO","layer":"Airfield surfaces","category":"Building","object_type":"Area","style_id":"area.filled.region.building","airport":"LFLS","geometry_role":"filled_region","vsmr_group_ids":[[]]},"geometry":{"type":"Polygon","coordinates":[[[5.331272778,45.359683889],[5.331206944,45.359771944],[5.331159167,45.359754444],[5.331218889,45.359666667],[5.331272778,45.359683889]]]}},{"type":"Feature","id":"lfls.area.filled.region.building.93885","properties":{"name":"LFLS AVISO","layer":"Airfield surfaces","category":"Building","object_type":"Area","style_id":"area.filled.region.building","airport":"LFLS","geometry_role":"filled_region","vsmr_group_ids":[[]]},"geometry":{"type":"Polygon","coordinates":[[[5.331508333,45.359886389],[5.331296667,45.359888611],[5.331302778,45.359817778],[5.331499444,45.359815278],[5.331508333,45.359886389]]]}},{"type":"Feature","id":"lfls.area.filled.region.building.93890","properties":{"name":"LFLS AVISO","layer":"Airfield surfaces","category":"Building","object_type":"Area","style_id":"area.filled.region.building","airport":"LFLS","geometry_role":"filled_region","vsmr_group_ids":[[]]},"geometry":{"type":"Polygon","coordinates":[[[5.330651944,45.360495],[5.3306925,45.360487778],[5.330692778,45.360321667],[5.330843611,45.360317778],[5.330841111,45.360491111],[5.330922778,45.360503056],[5.3309275,45.360552778],[5.330739444,45.360555],[5.330646944,45.360553889],[5.330651944,45.360495]]]}},{"type":"Feature","id":"lfls.area.filled.region.building.93900","properties":{"name":"LFLS AVISO","layer":"Airfield surfaces","category":"Building","object_type":"Area","style_id":"area.filled.region.building","airport":"LFLS","geometry_role":"filled_region","vsmr_group_ids":[[]]},"geometry":{"type":"Polygon","coordinates":[[[5.331195833,45.3602475],[5.331170833,45.3602425],[5.331177222,45.359988333],[5.331247222,45.359984722],[5.331248056,45.359943056],[5.331547222,45.359939167],[5.331553889,45.359953611],[5.3316875,45.359949444],[5.331692778,45.359868333],[5.332726389,45.359863333],[5.332728333,45.3599225],[5.332766389,45.360201389],[5.332753889,45.360228056],[5.332740556,45.360239167],[5.332547778,45.360253889],[5.332539444,45.36028],[5.332518333,45.360283611],[5.332523056,45.360365556],[5.332531667,45.360539167],[5.331500833,45.360554722],[5.331497778,45.360521111],[5.331506667,45.360442778],[5.331503889,45.360385833],[5.331685,45.360382778],[5.331679167,45.360351667],[5.331608889,45.360352222],[5.331608333,45.360327778],[5.331640278,45.360321944],[5.331635833,45.360302778],[5.331561111,45.360304167],[5.331514167,45.360308611],[5.331512778,45.360330278],[5.331435556,45.360331944],[5.331433333,45.360357778],[5.331332222,45.360356667],[5.331329722,45.360393889],[5.331198611,45.360392222],[5.331195833,45.3602475]]]}},{"type":"Feature","id":"lfls.area.filled.region.building.93938","properties":{"name":"LFLS AVISO","layer":"Airfield surfaces","category":"Building","object_type":"Area","style_id":"area.filled.region.building","airport":"LFLS","geometry_role":"filled_region","vsmr_group_ids":[[]]},"geometry":{"type":"Polygon","coordinates":[[[5.333044722,45.359984722],[5.333061389,45.359995278],[5.333069167,45.360006667],[5.3331075,45.360007222],[5.3331225,45.360132778],[5.333193889,45.360136944],[5.3332,45.360307222],[5.333135556,45.360319722],[5.333148056,45.360373611],[5.333117778,45.360383056],[5.333105,45.360549167],[5.332760556,45.360547778],[5.332754167,45.360489722],[5.332731667,45.360489444],[5.332729444,45.360392222],[5.332751667,45.360386389],[5.332751111,45.3603725],[5.332591389,45.360368333],[5.332583889,45.360315556],[5.332670556,45.360315278],[5.332676944,45.360284167],[5.332761389,45.360282778],[5.332756111,45.360306667],[5.332789167,45.360285556],[5.332794444,45.360258333],[5.332768056,45.360259167],[5.332777222,45.359990556],[5.333044722,45.359984722]]]}},{"type":"Feature","id":"lfls.area.filled.region.building.93966","properties":{"name":"LFLS AVISO","layer":"Airfield surfaces","category":"Building","object_type":"Area","style_id":"area.filled.region.building","airport":"LFLS","geometry_role":"filled_region","vsmr_group_ids":[[]]},"geometry":{"type":"Polygon","coordinates":[[[5.333336667,45.36056],[5.333140556,45.360563333],[5.333151111,45.360508056],[5.333218889,45.360505278],[5.3332325,45.360326389],[5.333678333,45.360316944],[5.333685,45.360499722],[5.333343611,45.360508611],[5.333336667,45.36056]]]}},{"type":"Feature","id":"lfls.area.filled.region.building.93975","properties":{"name":"LFLS AVISO","layer":"Airfield surfaces","category":"Building","object_type":"Area","style_id":"area.filled.region.building","airport":"LFLS","geometry_role":"filled_region","vsmr_group_ids":[[]]},"geometry":{"type":"Polygon","coordinates":[[[5.3334525,45.356344167],[5.333743056,45.356424722],[5.333723889,45.356473056],[5.333675,45.356533889],[5.333380556,45.356462778],[5.333424167,45.3563975],[5.3334525,45.356344167]]]}},{"type":"Feature","id":"lfls.area.filled.region.building.93982","properties":{"name":"LFLS AVISO","layer":"Airfield surfaces","category":"Building","object_type":"Area","style_id":"area.filled.region.building","airport":"LFLS","geometry_role":"filled_region","vsmr_group_ids":[[]]},"geometry":{"type":"Polygon","coordinates":[[[5.333395278,45.356333056],[5.333328056,45.356434722],[5.333274167,45.356420556],[5.333332222,45.356322222],[5.333395278,45.356333056]]]}},{"type":"Feature","id":"lfls.area.filled.region.building.93987","properties":{"name":"LFLS AVISO","layer":"Airfield surfaces","category":"Building","object_type":"Area","style_id":"area.filled.region.building","airport":"LFLS","geometry_role":"filled_region","vsmr_group_ids":[[]]},"geometry":{"type":"Polygon","coordinates":[[[5.33259,45.359395556],[5.332583056,45.359574444],[5.332539444,45.359590556],[5.332467778,45.359594444],[5.332464722,45.359403333],[5.33259,45.359395556]]]}},{"type":"Feature","id":"lfls.area.filled.region.building.93993","properties":{"name":"LFLS AVISO","layer":"Airfield surfaces","category":"Building","object_type":"Area","style_id":"area.filled.region.building","airport":"LFLS","geometry_role":"filled_region","vsmr_group_ids":[[]]},"geometry":{"type":"Polygon","coordinates":[[[5.332137778,45.356591111],[5.3321175,45.356590278],[5.332084722,45.356656111],[5.331988611,45.356627222],[5.332021667,45.356564167],[5.332055833,45.356567222],[5.332085,45.356522778],[5.332160278,45.356538889],[5.332137778,45.356591111]]]}},{"type":"Feature","id":"lfls.area.filled.region.building.94002","properties":{"name":"LFLS AVISO","layer":"Airfield surfaces","category":"Building","object_type":"Area","style_id":"area.filled.region.building","airport":"LFLS","geometry_role":"filled_region","vsmr_group_ids":[[]]},"geometry":{"type":"Polygon","coordinates":[[[5.331984167,45.356451944],[5.3319475,45.356518056],[5.331630278,45.356434167],[5.331673333,45.356365],[5.331984167,45.356451944]]]}},{"type":"Feature","id":"lfls.area.filled.region.building.94007","properties":{"name":"LFLS AVISO","layer":"Airfield surfaces","category":"Building","object_type":"Area","style_id":"area.filled.region.building","airport":"LFLS","geometry_role":"filled_region","vsmr_group_ids":[[]]},"geometry":{"type":"Polygon","coordinates":[[[5.327232222,45.366326111],[5.3275325,45.366317778],[5.327533611,45.366509722],[5.327229167,45.366514167],[5.327232222,45.366326111]]]}},{"type":"Feature","id":"lfls.area.filled.region.building.94012","properties":{"name":"LFLS AVISO","layer":"Airfield surfaces","category":"Building","object_type":"Area","style_id":"area.filled.region.building","airport":"LFLS","geometry_role":"filled_region","vsmr_group_ids":[[]]},"geometry":{"type":"Polygon","coordinates":[[[5.330143889,45.367285556],[5.330257222,45.367283611],[5.330262778,45.367361667],[5.330143056,45.367360556],[5.330143889,45.367285556]]]}},{"type":"Feature","id":"lfls.area.filled.region.building.94017","properties":{"name":"LFLS AVISO","layer":"Airfield surfaces","category":"Building","object_type":"Area","style_id":"area.filled.region.building","airport":"LFLS","geometry_role":"filled_region","vsmr_group_ids":[[]]},"geometry":{"type":"Polygon","coordinates":[[[5.329351111,45.366993889],[5.3301475,45.366987778],[5.330151667,45.367175],[5.329342778,45.367180833],[5.329351111,45.366993889]]]}},{"type":"Feature","id":"lfls.area.filled.region.building.94022","properties":{"name":"LFLS AVISO","layer":"Airfield surfaces","category":"Building","object_type":"Area","style_id":"area.filled.region.building","airport":"LFLS","geometry_role":"filled_region","vsmr_group_ids":[[]]},"geometry":{"type":"Polygon","coordinates":[[[5.329159167,45.367036667],[5.329155278,45.367084167],[5.329088056,45.367085556],[5.329095278,45.367038056],[5.329159167,45.367036667]]]}},{"type":"Feature","id":"lfls.area.filled.region.building.94027","properties":{"name":"LFLS AVISO","layer":"Airfield surfaces","category":"Building","object_type":"Area","style_id":"area.filled.region.building","airport":"LFLS","geometry_role":"filled_region","vsmr_group_ids":[[]]},"geometry":{"type":"Polygon","coordinates":[[[5.330613611,45.366981389],[5.331496667,45.366984444],[5.331491667,45.367146944],[5.331423611,45.367146667],[5.331425278,45.367224167],[5.331297778,45.367221944],[5.331298333,45.367311944],[5.331161389,45.367308889],[5.331161667,45.367258056],[5.331112778,45.367259167],[5.331117222,45.3673625],[5.330615278,45.367362778],[5.330613611,45.366981389]]]}},{"type":"Feature","id":"lfls.area.filled.region.building.94040","properties":{"name":"LFLS AVISO","layer":"Airfield surfaces","category":"Building","object_type":"Area","style_id":"area.filled.region.building","airport":"LFLS","geometry_role":"filled_region","vsmr_group_ids":[[]]},"geometry":{"type":"Polygon","coordinates":[[[5.331302222,45.366845],[5.331486389,45.366841111],[5.331483333,45.366959167],[5.331293611,45.366959167],[5.331302222,45.366845]]]}},{"type":"Feature","id":"lfls.area.filled.region.building.94045","properties":{"name":"LFLS AVISO","layer":"Airfield surfaces","category":"Building","object_type":"Area","style_id":"area.filled.region.building","airport":"LFLS","geometry_role":"filled_region","vsmr_group_ids":[[]]},"geometry":{"type":"Polygon","coordinates":[[[5.332103889,45.366800278],[5.333051667,45.366798611],[5.333048333,45.366871667],[5.332905833,45.366875],[5.332903056,45.366886667],[5.332922222,45.366886389],[5.332921944,45.366955],[5.332902222,45.366956111],[5.332897778,45.366981944],[5.332096667,45.366981667],[5.332103889,45.366800278]]]}},{"type":"Feature","id":"lfls.area.filled.region.building.94056","properties":{"name":"LFLS AVISO","layer":"Airfield surfaces","category":"Building","object_type":"Area","style_id":"area.filled.region.building","airport":"LFLS","geometry_role":"filled_region","vsmr_group_ids":[[]]},"geometry":{"type":"Polygon","coordinates":[[[5.333445833,45.366795556],[5.334254167,45.366792222],[5.334252778,45.3669775],[5.333441667,45.366976111],[5.333445833,45.366795556]]]}},{"type":"Feature","id":"lfls.area.filled.region.building.94061","properties":{"name":"LFLS AVISO","layer":"Airfield surfaces","category":"Building","object_type":"Area","style_id":"area.filled.region.building","airport":"LFLS","geometry_role":"filled_region","vsmr_group_ids":[[]]},"geometry":{"type":"Polygon","coordinates":[[[5.335474444,45.367253889],[5.335537222,45.367281111],[5.335538889,45.367334444],[5.335476111,45.367355],[5.335416111,45.367333056],[5.335412222,45.367283333],[5.335474444,45.367253889]]]}},{"type":"Feature","id":"lfls.area.filled.region.building.94068","properties":{"name":"LFLS AVISO","layer":"Airfield surfaces","category":"Building","object_type":"Area","style_id":"area.filled.region.building","airport":"LFLS","geometry_role":"filled_region","vsmr_group_ids":[[]]},"geometry":{"type":"Polygon","coordinates":[[[5.335133333,45.367530278],[5.335106111,45.367519722],[5.33511,45.367508611],[5.335081389,45.3674925],[5.335088333,45.367479722],[5.335060278,45.367467222],[5.335081389,45.367442778],[5.335016389,45.367414167],[5.335023889,45.367401111],[5.334994444,45.3673875],[5.335001389,45.367376667],[5.334972222,45.367361944],[5.334981667,45.367348333],[5.334951944,45.367335],[5.334981111,45.367298056],[5.334918611,45.367275],[5.3349025,45.3672925],[5.3348925,45.367313333],[5.334871111,45.367317222],[5.334845,45.367318333],[5.334819722,45.367310278],[5.334811667,45.367298611],[5.334823056,45.367285278],[5.333983889,45.367288889],[5.334096111,45.367324167],[5.334005278,45.367470556],[5.33389,45.367440833],[5.333831389,45.367533889],[5.333856111,45.367541389],[5.333818889,45.367607222],[5.333708056,45.367585278],[5.333724167,45.367559722],[5.333546389,45.367508333],[5.3335775,45.367451944],[5.333469444,45.367421667],[5.333533056,45.367287778],[5.333095,45.3672875],[5.333097778,45.3674475],[5.332866667,45.367445833],[5.332862778,45.367402778],[5.332685556,45.367406111],[5.332687222,45.3673925],[5.332667222,45.367393056],[5.3326675,45.367526389],[5.332507222,45.367529167],[5.332510278,45.367387222],[5.332418056,45.367388611],[5.332412778,45.367249722],[5.332648889,45.367247222],[5.332653611,45.367262222],[5.334438611,45.36726],[5.334469444,45.367225556],[5.334495556,45.367238611],[5.334528889,45.367201389],[5.334567778,45.367214722],[5.334583056,45.367203056],[5.334614167,45.367214167],[5.334629167,45.367203333],[5.334664444,45.3672125],[5.334674722,45.367200278],[5.334706667,45.3672125],[5.334719167,45.367201389],[5.33475,45.367213611],[5.334759722,45.367201111],[5.334791111,45.367211944],[5.334800833,45.367201944],[5.334833889,45.367212222],[5.334842222,45.367200833],[5.334873889,45.367213611],[5.334885556,45.367199722],[5.334918056,45.367212222],[5.334931389,45.367199167],[5.335030833,45.367242222],[5.3350225,45.367253333],[5.335053889,45.367267778],[5.335043333,45.36728],[5.335076667,45.367294722],[5.335066111,45.367305833],[5.335096944,45.3673175],[5.335089444,45.3673325],[5.335121944,45.367347222],[5.335110556,45.367359167],[5.335143889,45.367370278],[5.335133889,45.367385],[5.335162778,45.367400278],[5.335152778,45.367411389],[5.335184722,45.367425278],[5.335173611,45.367437778],[5.335206944,45.367449722],[5.335195833,45.367464444],[5.335228611,45.367475833],[5.335160833,45.367557222],[5.335126389,45.367545556],[5.335133333,45.367530278]]]}},{"type":"Feature","id":"lfls.area.filled.region.building.94162","properties":{"name":"LFLS AVISO","layer":"Airfield surfaces","category":"Building","object_type":"Area","style_id":"area.filled.region.building","airport":"LFLS","geometry_role":"filled_region","vsmr_group_ids":[[]]},"geometry":{"type":"Polygon","coordinates":[[[5.334232778,45.368178889],[5.334432778,45.368175833],[5.334445,45.368219444],[5.334428611,45.368263333],[5.334238333,45.3682625],[5.334232778,45.368178889]]]}},{"type":"Feature","id":"lfls.area.filled.region.building.94168","properties":{"name":"LFLS AVISO","layer":"Airfield surfaces","category":"Building","object_type":"Area","style_id":"area.filled.region.building","airport":"LFLS","geometry_role":"filled_region","vsmr_group_ids":[[]]},"geometry":{"type":"Polygon","coordinates":[[[5.335140278,45.368231111],[5.335163611,45.368229444],[5.335153889,45.368171389],[5.335221667,45.368171944],[5.335226944,45.368186389],[5.335282778,45.368188611],[5.335296111,45.368235278],[5.335280278,45.368301111],[5.335202778,45.368296389],[5.3352025,45.368281389],[5.335141667,45.36828],[5.335140278,45.36826],[5.335140278,45.368231111]]]}},{"type":"Feature","id":"lfls.area.filled.region.stopbar.94181","properties":{"name":"LFLS AVISO","layer":"Airfield surfaces","category":"Stopbar","object_type":"Area","style_id":"area.filled.region.stopbar","airport":"LFLS","geometry_role":"filled_region","vsmr_group_ids":[[]]},"geometry":{"type":"Polygon","coordinates":[[[5.310043889,45.361731389],[5.310293611,45.3618325],[5.310273333,45.361857778],[5.310022778,45.361753889],[5.310043889,45.361731389]]]}},{"type":"Feature","id":"lfls.area.filled.region.stopbar.94186","properties":{"name":"LFLS AVISO","layer":"Airfield surfaces","category":"Stopbar","object_type":"Area","style_id":"area.filled.region.stopbar","airport":"LFLS","geometry_role":"filled_region","vsmr_group_ids":[[]]},"geometry":{"type":"Polygon","coordinates":[[[5.316653889,45.361792778],[5.316980278,45.361790278],[5.316965,45.361813056],[5.316663056,45.361813611],[5.316653889,45.361792778]]]}},{"type":"Feature","id":"lfls.area.filled.region.stopbar.94191","properties":{"name":"LFLS AVISO","layer":"Airfield surfaces","category":"Stopbar","object_type":"Area","style_id":"area.filled.region.stopbar","airport":"LFLS","geometry_role":"filled_region","vsmr_group_ids":[[]]},"geometry":{"type":"Polygon","coordinates":[[[5.332529167,45.362024167],[5.332775556,45.362019167],[5.332775833,45.362043889],[5.332527778,45.362047222],[5.332529167,45.362024167]]]}},{"type":"Feature","id":"lfls.area.filled.region.stopbar.94196","properties":{"name":"LFLS AVISO","layer":"Airfield surfaces","category":"Stopbar","object_type":"Area","style_id":"area.filled.region.stopbar","airport":"LFLS","geometry_role":"filled_region","vsmr_group_ids":[[]]},"geometry":{"type":"Polygon","coordinates":[[[5.338324722,45.362014167],[5.338616667,45.362008056],[5.338622222,45.362033056],[5.338323333,45.362036389],[5.338324722,45.362014167]]]}},{"type":"Feature","id":"lfls.area.filled.region.stopbar.94201","properties":{"name":"LFLS AVISO","layer":"Airfield surfaces","category":"Stopbar","object_type":"Area","style_id":"area.filled.region.stopbar","airport":"LFLS","geometry_role":"filled_region","vsmr_group_ids":[[]]},"geometry":{"type":"Polygon","coordinates":[[[5.348336389,45.361646389],[5.348588333,45.361513056],[5.348607778,45.361529722],[5.348354167,45.361666944],[5.348336389,45.361646389]]]}},{"type":"Feature","id":"lfls.area.filled.region.stopbar.94206","properties":{"name":"LFLS AVISO","layer":"Airfield surfaces","category":"Stopbar","object_type":"Area","style_id":"area.filled.region.stopbar","airport":"LFLS","geometry_role":"filled_region","vsmr_group_ids":[[]]},"geometry":{"type":"Polygon","coordinates":[[[5.336730833,45.363820556],[5.336865,45.363852222],[5.336846389,45.3638725],[5.336712222,45.363837778],[5.336730833,45.363820556]]]}},{"type":"Feature","id":"lfls.area.filled.region.stopbar.94211","properties":{"name":"LFLS AVISO","layer":"Airfield surfaces","category":"Stopbar","object_type":"Area","style_id":"area.filled.region.stopbar","airport":"LFLS","geometry_role":"filled_region","vsmr_group_ids":[[]]},"geometry":{"type":"Polygon","coordinates":[[[5.3318,45.364156389],[5.331891111,45.364195556],[5.331869444,45.364216389],[5.331776667,45.364176944],[5.3318,45.364156389]]]}},{"type":"Feature","id":"LFLS-runway-09R-27L-5353","properties":{"name":"LFLS RWY 09R/27L","layer":"Runways","category":"Runway Markings","object_type":"Line","style_id":"line.runway.centerline.runway.markings","airport":"LFLS","geometry_role":"runway_centerline","vsmr_group_ids":[[]]},"geometry":{"type":"LineString","coordinates":[[5.318368889,45.362163889],[5.329857778,45.362138889]]}},{"type":"Feature","id":"LFLS-runway-09-27-5354","properties":{"name":"LFLS RWY 09/27","layer":"Runways","category":"Runway Markings","object_type":"Line","style_id":"line.runway.centerline.runway.markings","airport":"LFLS","geometry_role":"runway_centerline","vsmr_group_ids":[[]]},"geometry":{"type":"LineString","coordinates":[[5.309910833,45.362996944],[5.348838889,45.362888889]]}},{"type":"Feature","id":"lfls.line.linework.taxiway.63218","properties":{"name":"LFLS Groundlayout AVISO","layer":"Ground linework","category":"Taxiway","object_type":"Line","style_id":"line.linework.taxiway","airport":"LFLS","geometry_role":"linework","vsmr_group_ids":[[]]},"geometry":{"type":"MultiLineString","coordinates":[[[5.336383611,45.361086111],[5.336381944,45.360727222]],[[5.336074167,45.360568611],[5.3365425,45.360985833]],[[5.335889167,45.361052778],[5.335345278,45.3605725]],[[5.335429444,45.361090278],[5.3354175,45.360688611]],[[5.335155833,45.361056667],[5.334611667,45.3605725]],[[5.335167222,45.360798333],[5.334855556,45.361092222]],[[5.334436389,45.361059444],[5.333901667,45.360606111]],[[5.333472778,45.361041944],[5.332906667,45.360683611]],[[5.332622778,45.361040833],[5.332619444,45.361041389]],[[5.332619444,45.361041389],[5.332059444,45.360686389]],[[5.331782778,45.361049444],[5.331209722,45.360688056]],[[5.331521944,45.360786667],[5.330994167,45.360995556]],[[5.330955833,45.359274722],[5.330476667,45.359593056]],[[5.3296475,45.358863889],[5.329976667,45.358951667]],[[5.330581111,45.359],[5.331073889,45.359131944]],[[5.330127222,45.358670278],[5.329801944,45.358585278]],[[5.330779722,45.358619444],[5.331287222,45.358756667]],[[5.330279444,45.358388889],[5.3299575,45.358302778]],[[5.330436389,45.358105556],[5.330113333,45.358021111]],[[5.331496389,45.358380556],[5.330993333,45.358241111]],[[5.330417778,45.357601667],[5.3304725,45.357854444]],[[5.331179167,45.3578875],[5.331692778,45.358025833]],[[5.331420833,45.357754444],[5.331339722,45.357898611]],[[5.331680833,45.357825833],[5.331606111,45.357971389]],[[5.33116,45.357035833],[5.330785556,45.357156667]],[[5.331383889,45.357040833],[5.331243056,45.357303611]],[[5.331737778,45.357243056],[5.331635556,45.357461944]],[[5.332074722,45.357863611],[5.3319775,45.358045833]],[[5.3323275,45.358060556],[5.332422778,45.357887778]],[[5.332566389,45.358125],[5.332659167,45.357954444]],[[5.332802778,45.358188889],[5.332893056,45.358020833]],[[5.33304,45.358255556],[5.333136667,45.358086944]],[[5.312756944,45.363414167],[5.312939722,45.363280278]],[[5.312939722,45.363280278],[5.312850833,45.363345]],[[5.312850833,45.363345],[5.312766389,45.363290556]],[[5.312766389,45.363290556],[5.312949444,45.363409722]]]}},{"type":"Feature","id":"LFLS-airport-reference","properties":{"name":"LFLS","layer":"Reference points","category":"Labels","object_type":"Point","style_id":"point.airport.reference.point.labels","airport":"LFLS","geometry_role":"airport_reference_point","text-field":"LFLS","vsmr_group_ids":[[]]},"geometry":{"type":"Point","coordinates":[5.332777778,45.363055833]}},{"type":"Feature","id":"LFLS-text-lfmm-20795","properties":{"name":"C11","layer":"Labels","category":"Labels","object_type":"Label","style_id":"label.text.label.labels","airport":"LFLS","geometry_role":"text_label","text-field":"C11","vsmr_group_ids":[[]]},"geometry":{"type":"Point","coordinates":[5.3311375,45.360931944]}},{"type":"Feature","id":"LFLS-text-lfmm-20796","properties":{"name":"C1","layer":"Labels","category":"Labels","object_type":"Label","style_id":"label.text.label.labels","airport":"LFLS","geometry_role":"text_label","text-field":"C1","vsmr_group_ids":[[]]},"geometry":{"type":"Point","coordinates":[5.331420833,45.360734722]}},{"type":"Feature","id":"LFLS-text-lfmm-20797","properties":{"name":"C2","layer":"Labels","category":"Labels","object_type":"Label","style_id":"label.text.label.labels","airport":"LFLS","geometry_role":"text_label","text-field":"C2","vsmr_group_ids":[[]]},"geometry":{"type":"Point","coordinates":[5.332165278,45.360718056]}},{"type":"Feature","id":"LFLS-text-lfmm-20798","properties":{"name":"C3","layer":"Labels","category":"Labels","object_type":"Label","style_id":"label.text.label.labels","airport":"LFLS","geometry_role":"text_label","text-field":"C3","vsmr_group_ids":[[]]},"geometry":{"type":"Point","coordinates":[5.333055556,45.360709722]}},{"type":"Feature","id":"LFLS-text-lfmm-20799","properties":{"name":"C4","layer":"Labels","category":"Labels","object_type":"Label","style_id":"label.text.label.labels","airport":"LFLS","geometry_role":"text_label","text-field":"C4","vsmr_group_ids":[[]]},"geometry":{"type":"Point","coordinates":[5.334045833,45.3606625]}},{"type":"Feature","id":"LFLS-text-lfmm-20800","properties":{"name":"C21","layer":"Labels","category":"Labels","object_type":"Label","style_id":"label.text.label.labels","airport":"LFLS","geometry_role":"text_label","text-field":"C21","vsmr_group_ids":[[]]},"geometry":{"type":"Point","coordinates":[5.334826389,45.361068056]}},{"type":"Feature","id":"LFLS-text-lfmm-20801","properties":{"name":"C5","layer":"Labels","category":"Labels","object_type":"Label","style_id":"label.text.label.labels","airport":"LFLS","geometry_role":"text_label","text-field":"C5","vsmr_group_ids":[[]]},"geometry":{"type":"Point","coordinates":[5.334715278,45.3605875]}},{"type":"Feature","id":"LFLS-text-lfmm-20802","properties":{"name":"C6","layer":"Labels","category":"Labels","object_type":"Label","style_id":"label.text.label.labels","airport":"LFLS","geometry_role":"text_label","text-field":"C6","vsmr_group_ids":[[]]},"geometry":{"type":"Point","coordinates":[5.335429167,45.360579167]}},{"type":"Feature","id":"LFLS-text-lfmm-20803","properties":{"name":"C7","layer":"Labels","category":"Labels","object_type":"Label","style_id":"label.text.label.labels","airport":"LFLS","geometry_role":"text_label","text-field":"C7","vsmr_group_ids":[[]]},"geometry":{"type":"Point","coordinates":[5.336140278,45.360568056]}},{"type":"Feature","id":"LFLS-text-lfmm-20804","properties":{"name":"C22","layer":"Labels","category":"Labels","object_type":"Label","style_id":"label.text.label.labels","airport":"LFLS","geometry_role":"text_label","text-field":"C22","vsmr_group_ids":[[]]},"geometry":{"type":"Point","coordinates":[5.336279167,45.360990278]}},{"type":"Feature","id":"LFLS-text-lfmm-20805","properties":{"name":"Apron J","layer":"Labels","category":"Labels","object_type":"Label","style_id":"label.text.label.labels","airport":"LFLS","geometry_role":"text_label","text-field":"Apron J","vsmr_group_ids":[[]]},"geometry":{"type":"Point","coordinates":[5.341251389,45.360129167]}},{"type":"Feature","id":"LFLS-text-lfmm-20806","properties":{"name":"Apron E","layer":"Labels","category":"Labels","object_type":"Label","style_id":"label.text.label.labels","airport":"LFLS","geometry_role":"text_label","text-field":"Apron E","vsmr_group_ids":[[]]},"geometry":{"type":"Point","coordinates":[5.332484722,45.366598611]}},{"type":"Feature","id":"LFLS-text-lfmm-20807","properties":{"name":"Hangar","layer":"Labels","category":"Labels","object_type":"Label","style_id":"label.text.label.labels","airport":"LFLS","geometry_role":"text_label","text-field":"Hangar","vsmr_group_ids":[[]]},"geometry":{"type":"Point","coordinates":[5.333873611,45.366868056]}},{"type":"Feature","id":"LFLS-text-lfmm-20808","properties":{"name":"Hangar","layer":"Labels","category":"Labels","object_type":"Label","style_id":"label.text.label.labels","airport":"LFLS","geometry_role":"text_label","text-field":"Hangar","vsmr_group_ids":[[]]},"geometry":{"type":"Point","coordinates":[5.332493056,45.3668875]}},{"type":"Feature","id":"LFLS-text-lfmm-20809","properties":{"name":"Hangar","layer":"Labels","category":"Labels","object_type":"Label","style_id":"label.text.label.labels","airport":"LFLS","geometry_role":"text_label","text-field":"Hangar","vsmr_group_ids":[[]]},"geometry":{"type":"Point","coordinates":[5.330968056,45.3671125]}},{"type":"Feature","id":"LFLS-text-lfmm-20810","properties":{"name":"ACD CEP","layer":"Labels","category":"Labels","object_type":"Label","style_id":"label.text.label.labels","airport":"LFLS","geometry_role":"text_label","text-field":"ACD CEP","vsmr_group_ids":[[]]},"geometry":{"type":"Point","coordinates":[5.329745833,45.367084722]}},{"type":"Feature","id":"LFLS-text-lfmm-20811","properties":{"name":"Terminal","layer":"Labels","category":"Labels","object_type":"Label","style_id":"label.text.label.labels","airport":"LFLS","geometry_role":"text_label","text-field":"Terminal","vsmr_group_ids":[[]]},"geometry":{"type":"Point","coordinates":[5.332229167,45.360081944]}},{"type":"Feature","id":"LFLS-text-lfmm-20812","properties":{"name":"TWR","layer":"Labels","category":"Labels","object_type":"Label","style_id":"label.text.label.labels","airport":"LFLS","geometry_role":"text_label","text-field":"TWR","vsmr_group_ids":[[]]},"geometry":{"type":"Point","coordinates":[5.330790278,45.3604375]}},{"type":"Feature","id":"LFLS-text-lfmm-20813","properties":{"name":"Feu","layer":"Labels","category":"Labels","object_type":"Label","style_id":"label.text.label.labels","airport":"LFLS","geometry_role":"text_label","text-field":"Feu","vsmr_group_ids":[[]]},"geometry":{"type":"Point","coordinates":[5.3309375,45.360083333]}},{"type":"Feature","id":"LFLS-text-lfmm-20814","properties":{"name":"A21","layer":"Labels","category":"Labels","object_type":"Label","style_id":"label.text.label.labels","airport":"LFLS","geometry_role":"text_label","text-field":"A21","vsmr_group_ids":[[]]},"geometry":{"type":"Point","coordinates":[5.330840278,45.359270833]}},{"type":"Feature","id":"LFLS-text-lfmm-20815","properties":{"name":"A3","layer":"Labels","category":"Labels","object_type":"Label","style_id":"label.text.label.labels","airport":"LFLS","geometry_role":"text_label","text-field":"A3","vsmr_group_ids":[[]]},"geometry":{"type":"Point","coordinates":[5.331023611,45.359059722]}},{"type":"Feature","id":"LFLS-text-lfmm-20816","properties":{"name":"A5","layer":"Labels","category":"Labels","object_type":"Label","style_id":"label.text.label.labels","airport":"LFLS","geometry_role":"text_label","text-field":"A5","vsmr_group_ids":[[]]},"geometry":{"type":"Point","coordinates":[5.331234722,45.358693056]}},{"type":"Feature","id":"LFLS-text-lfmm-20817","properties":{"name":"A7","layer":"Labels","category":"Labels","object_type":"Label","style_id":"label.text.label.labels","airport":"LFLS","geometry_role":"text_label","text-field":"A7","vsmr_group_ids":[[]]},"geometry":{"type":"Point","coordinates":[5.331398611,45.358290278]}},{"type":"Feature","id":"LFLS-text-lfmm-20818","properties":{"name":"A12","layer":"Labels","category":"Labels","object_type":"Label","style_id":"label.text.label.labels","airport":"LFLS","geometry_role":"text_label","text-field":"A12","vsmr_group_ids":[[]]},"geometry":{"type":"Point","coordinates":[5.3315625,45.357943056]}},{"type":"Feature","id":"LFLS-text-lfmm-20819","properties":{"name":"D5","layer":"Labels","category":"Labels","object_type":"Label","style_id":"label.text.label.labels","airport":"LFLS","geometry_role":"text_label","text-field":"D5","vsmr_group_ids":[[]]},"geometry":{"type":"Point","coordinates":[5.331956944,45.357970833]}},{"type":"Feature","id":"LFLS-text-lfmm-20820","properties":{"name":"D4","layer":"Labels","category":"Labels","object_type":"Label","style_id":"label.text.label.labels","airport":"LFLS","geometry_role":"text_label","text-field":"D4","vsmr_group_ids":[[]]},"geometry":{"type":"Point","coordinates":[5.332395833,45.358001389]}},{"type":"Feature","id":"LFLS-text-lfmm-20821","properties":{"name":"D3","layer":"Labels","category":"Labels","object_type":"Label","style_id":"label.text.label.labels","airport":"LFLS","geometry_role":"text_label","text-field":"D3","vsmr_group_ids":[[]]},"geometry":{"type":"Point","coordinates":[5.332645833,45.358055556]}},{"type":"Feature","id":"LFLS-text-lfmm-20822","properties":{"name":"D2","layer":"Labels","category":"Labels","object_type":"Label","style_id":"label.text.label.labels","airport":"LFLS","geometry_role":"text_label","text-field":"D2","vsmr_group_ids":[[]]},"geometry":{"type":"Point","coordinates":[5.332915278,45.358098611]}},{"type":"Feature","id":"LFLS-text-lfmm-20823","properties":{"name":"D1","layer":"Labels","category":"Labels","object_type":"Label","style_id":"label.text.label.labels","airport":"LFLS","geometry_role":"text_label","text-field":"D1","vsmr_group_ids":[[]]},"geometry":{"type":"Point","coordinates":[5.333168056,45.358159722]}},{"type":"Feature","id":"LFLS-text-lfmm-20824","properties":{"name":"B3","layer":"Labels","category":"Labels","object_type":"Label","style_id":"label.text.label.labels","airport":"LFLS","geometry_role":"text_label","text-field":"B3","vsmr_group_ids":[[]]},"geometry":{"type":"Point","coordinates":[5.331804167,45.357329167]}},{"type":"Feature","id":"LFLS-text-lfmm-20825","properties":{"name":"B2","layer":"Labels","category":"Labels","object_type":"Label","style_id":"label.text.label.labels","airport":"LFLS","geometry_role":"text_label","text-field":"B2","vsmr_group_ids":[[]]},"geometry":{"type":"Point","coordinates":[5.331406944,45.357131944]}},{"type":"Feature","id":"LFLS-text-lfmm-20826","properties":{"name":"B1","layer":"Labels","category":"Labels","object_type":"Label","style_id":"label.text.label.labels","airport":"LFLS","geometry_role":"text_label","text-field":"B1","vsmr_group_ids":[[]]},"geometry":{"type":"Point","coordinates":[5.3310125,45.357023611]}},{"type":"Feature","id":"LFLS-text-lfmm-20827","properties":{"name":"A10","layer":"Labels","category":"Labels","object_type":"Label","style_id":"label.text.label.labels","airport":"LFLS","geometry_role":"text_label","text-field":"A10","vsmr_group_ids":[[]]},"geometry":{"type":"Point","coordinates":[5.330390278,45.357801389]}},{"type":"Feature","id":"LFLS-text-lfmm-20828","properties":{"name":"A8","layer":"Labels","category":"Labels","object_type":"Label","style_id":"label.text.label.labels","airport":"LFLS","geometry_role":"text_label","text-field":"A8","vsmr_group_ids":[[]]},"geometry":{"type":"Point","coordinates":[5.330268056,45.358115278]}},{"type":"Feature","id":"LFLS-text-lfmm-20829","properties":{"name":"A6","layer":"Labels","category":"Labels","object_type":"Label","style_id":"label.text.label.labels","airport":"LFLS","geometry_role":"text_label","text-field":"A6","vsmr_group_ids":[[]]},"geometry":{"type":"Point","coordinates":[5.330123611,45.358415278]}},{"type":"Feature","id":"LFLS-text-lfmm-20830","properties":{"name":"A4","layer":"Labels","category":"Labels","object_type":"Label","style_id":"label.text.label.labels","airport":"LFLS","geometry_role":"text_label","text-field":"A4","vsmr_group_ids":[[]]},"geometry":{"type":"Point","coordinates":[5.330123611,45.358684722]}},{"type":"Feature","id":"LFLS-text-lfmm-20831","properties":{"name":"A2","layer":"Labels","category":"Labels","object_type":"Label","style_id":"label.text.label.labels","airport":"LFLS","geometry_role":"text_label","text-field":"A2","vsmr_group_ids":[[]]},"geometry":{"type":"Point","coordinates":[5.3298625,45.358973611]}},{"type":"Feature","id":"LFLS-text-lfmm-20832","properties":{"name":"GA Buisiness Terminal","layer":"Labels","category":"Labels","object_type":"Label","style_id":"label.text.label.labels","airport":"LFLS","geometry_role":"text_label","text-field":"GA Buisiness Terminal","vsmr_group_ids":[[]]},"geometry":{"type":"Point","coordinates":[5.334751389,45.358151389]}},{"type":"Feature","id":"LFLS-text-lfmm-20834","properties":{"name":"N","layer":"Labels","category":"Labels","object_type":"Label","style_id":"label.text.label.labels","airport":"LFLS","geometry_role":"text_label","text-field":"N","vsmr_group_ids":[[]]},"geometry":{"type":"Point","coordinates":[5.2975,45.468888889]}},{"type":"Feature","id":"LFLS-text-lfmm-20835","properties":{"name":"S","layer":"Labels","category":"Labels","object_type":"Label","style_id":"label.text.label.labels","airport":"LFLS","geometry_role":"text_label","text-field":"S","vsmr_group_ids":[[]]},"geometry":{"type":"Point","coordinates":[5.246388889,45.251666667]}},{"type":"Feature","id":"LFLS-text-lfmm-20836","properties":{"name":"NE","layer":"Labels","category":"Labels","object_type":"Label","style_id":"label.text.label.labels","airport":"LFLS","geometry_role":"text_label","text-field":"NE","vsmr_group_ids":[[]]},"geometry":{"type":"Point","coordinates":[5.555833333,45.471944444]}},{"type":"Feature","id":"LFLS-text-lfmm-20837","properties":{"name":"SE","layer":"Labels","category":"Labels","object_type":"Label","style_id":"label.text.label.labels","airport":"LFLS","geometry_role":"text_label","text-field":"SE","vsmr_group_ids":[[]]},"geometry":{"type":"Point","coordinates":[5.6175,45.309722222]}},{"type":"Feature","id":"LFLS-text-lfmm-20838","properties":{"name":"W","layer":"Labels","category":"Labels","object_type":"Label","style_id":"label.text.label.labels","airport":"LFLS","geometry_role":"text_label","text-field":"W","vsmr_group_ids":[[]]},"geometry":{"type":"Point","coordinates":[5.053611111,45.323888889]}},{"type":"Feature","id":"LFLS-text-lfmm-20839","properties":{"name":"NW","layer":"Labels","category":"Labels","object_type":"Label","style_id":"label.text.label.labels","airport":"LFLS","geometry_role":"text_label","text-field":"NW","vsmr_group_ids":[[]]},"geometry":{"type":"Point","coordinates":[5.0325,45.445]}},{"type":"Feature","id":"LFLS-text-lfmm-20841","properties":{"name":"S1","layer":"Labels","category":"Labels","object_type":"Label","style_id":"label.text.label.labels","airport":"LFLS","geometry_role":"text_label","text-field":"S1","vsmr_group_ids":[[]]},"geometry":{"type":"Point","coordinates":[5.309923611,45.361676389]}},{"type":"Feature","id":"LFLS-text-lfmm-20842","properties":{"name":"T1","layer":"Labels","category":"Labels","object_type":"Label","style_id":"label.text.label.labels","airport":"LFLS","geometry_role":"text_label","text-field":"T1","vsmr_group_ids":[[]]},"geometry":{"type":"Point","coordinates":[5.313918056,45.361193056]}},{"type":"Feature","id":"LFLS-text-lfmm-20843","properties":{"name":"S2","layer":"Labels","category":"Labels","object_type":"Label","style_id":"label.text.label.labels","airport":"LFLS","geometry_role":"text_label","text-field":"S2","vsmr_group_ids":[[]]},"geometry":{"type":"Point","coordinates":[5.316445833,45.3618125]}},{"type":"Feature","id":"LFLS-text-lfmm-20844","properties":{"name":"T2","layer":"Labels","category":"Labels","object_type":"Label","style_id":"label.text.label.labels","airport":"LFLS","geometry_role":"text_label","text-field":"T2","vsmr_group_ids":[[]]},"geometry":{"type":"Point","coordinates":[5.324751389,45.361131944]}},{"type":"Feature","id":"LFLS-text-lfmm-20845","properties":{"name":"TL","layer":"Labels","category":"Labels","object_type":"Label","style_id":"label.text.label.labels","airport":"LFLS","geometry_role":"text_label","text-field":"TL","vsmr_group_ids":[[]]},"geometry":{"type":"Point","coordinates":[5.329551389,45.360229167]}},{"type":"Feature","id":"LFLS-text-lfmm-20846","properties":{"name":"T3","layer":"Labels","category":"Labels","object_type":"Label","style_id":"label.text.label.labels","airport":"LFLS","geometry_role":"text_label","text-field":"T3","vsmr_group_ids":[[]]},"geometry":{"type":"Point","coordinates":[5.330495833,45.3615875]}},{"type":"Feature","id":"LFLS-text-lfmm-20847","properties":{"name":"S3","layer":"Labels","category":"Labels","object_type":"Label","style_id":"label.text.label.labels","airport":"LFLS","geometry_role":"text_label","text-field":"S3","vsmr_group_ids":[[]]},"geometry":{"type":"Point","coordinates":[5.332254167,45.362040278]}},{"type":"Feature","id":"LFLS-text-lfmm-20848","properties":{"name":"T4","layer":"Labels","category":"Labels","object_type":"Label","style_id":"label.text.label.labels","airport":"LFLS","geometry_role":"text_label","text-field":"T4","vsmr_group_ids":[[]]},"geometry":{"type":"Point","coordinates":[5.335190278,45.361601389]}},{"type":"Feature","id":"LFLS-text-lfmm-20849","properties":{"name":"S4","layer":"Labels","category":"Labels","object_type":"Label","style_id":"label.text.label.labels","airport":"LFLS","geometry_role":"text_label","text-field":"S4","vsmr_group_ids":[[]]},"geometry":{"type":"Point","coordinates":[5.338081944,45.362001389]}},{"type":"Feature","id":"LFLS-text-lfmm-20850","properties":{"name":"T5","layer":"Labels","category":"Labels","object_type":"Label","style_id":"label.text.label.labels","airport":"LFLS","geometry_role":"text_label","text-field":"T5","vsmr_group_ids":[[]]},"geometry":{"type":"Point","coordinates":[5.344184722,45.361565278]}},{"type":"Feature","id":"LFLS-text-lfmm-20851","properties":{"name":"S5","layer":"Labels","category":"Labels","object_type":"Label","style_id":"label.text.label.labels","airport":"LFLS","geometry_role":"text_label","text-field":"S5","vsmr_group_ids":[[]]},"geometry":{"type":"Point","coordinates":[5.348156944,45.361756944]}},{"type":"Feature","id":"LFLS-text-lfmm-20852","properties":{"name":"N7","layer":"Labels","category":"Labels","object_type":"Label","style_id":"label.text.label.labels","airport":"LFLS","geometry_role":"text_label","text-field":"N7","vsmr_group_ids":[[]]},"geometry":{"type":"Point","coordinates":[5.336545833,45.363790278]}},{"type":"Feature","id":"LFLS-text-lfmm-20853","properties":{"name":"N7","layer":"Labels","category":"Labels","object_type":"Label","style_id":"label.text.label.labels","airport":"LFLS","geometry_role":"text_label","text-field":"N7","vsmr_group_ids":[[]]},"geometry":{"type":"Point","coordinates":[5.335131944,45.366609722]}},{"type":"Feature","id":"LFLS-text-lfmm-20854","properties":{"name":"N6","layer":"Labels","category":"Labels","object_type":"Label","style_id":"label.text.label.labels","airport":"LFLS","geometry_role":"text_label","text-field":"N6","vsmr_group_ids":[[]]},"geometry":{"type":"Point","coordinates":[5.330593056,45.3658375]}},{"type":"Feature","id":"LFLS-text-lfmm-20855","properties":{"name":"N6","layer":"Labels","category":"Labels","object_type":"Label","style_id":"label.text.label.labels","airport":"LFLS","geometry_role":"text_label","text-field":"N6","vsmr_group_ids":[[]]},"geometry":{"type":"Point","coordinates":[5.332098611,45.364231944]}}]}
