{"type":"FeatureCollection","name":"LFLT AVISO","bbox":[2.564330833,46.351221944,2.576530833,46.354327778],"metadata":{"schema":"vSMR AVISO","schema_version":2,"airport":"LFLT","coordinate_reference_system":"WGS84","coordinate_order":"longitude, latitude","feature_count":2,"style_count":2,"layer_counts":{"Reference points":1,"Runways":1},"category_counts":{"Labels":1,"Runway Markings":1}},"styles":{"line.runway.centerline.runway.markings":{"name":"Runway Markings","layer":"Runways","object_type":"Line","paint":{"stroke":"#FEFEFE","stroke-opacity":1.0,"stroke-width":1.5},"feature_count":1},"point.airport.reference.point.labels":{"name":"Labels","layer":"Reference points","object_type":"Point","paint":{"marker-color":"#808080","marker-size":"small"},"feature_count":1}},"features":[{"type":"Feature","id":"LFLT-runway-11-29-5306","properties":{"name":"LFLT RWY 11/29","layer":"Runways","category":"Runway Markings","object_type":"Line","style_id":"line.runway.centerline.runway.markings","airport":"LFLT","geometry_role":"runway_centerline","vsmr_group_ids":[[]]},"geometry":{"type":"LineString","coordinates":[[2.564330833,46.354327778],[2.576530833,46.351221944]]}},{"type":"Feature","id":"LFLT-airport-reference","properties":{"name":"LFLT","layer":"Reference points","category":"Labels","object_type":"Point","style_id":"point.airport.reference.point.labels","airport":"LFLT","geometry_role":"airport_reference_point","text-field":"LFLT","vsmr_group_ids":[[]]},"geometry":{"type":"Point","coordinates":[2.570555833,46.352777778]}}]}
