{"type":"FeatureCollection","name":"LFLU AVISO","bbox":[4.963805556,44.912222222,4.973305556,44.930972222],"metadata":{"schema":"vSMR AVISO","schema_version":2,"geometry_mode":"shared","airport":"LFLU","coordinate_reference_system":"WGS84","coordinate_order":"longitude, latitude","default_color_palette":"dark","color_palettes":["dark","light"],"background_colors":{"dark":"#434A4F","light":"#434A4F"},"feature_count":10,"style_count":5,"layer_counts":{"Guidance lines":3,"Labels":5,"Runways":2},"category_counts":{"Apron Surface":1,"Gates":5,"Runway centerlines":2,"Runways":1,"Taxiways":1},"runways":[{"ends":["01L","19R"],"headings":[6,186],"thresholds":[[4.969671944,44.915585833],[4.971702778,44.926213889]]},{"ends":["01","19"],"headings":[6,186],"thresholds":[[4.968538889,44.914496944],[4.971482778,44.929832778]]}],"saved_active_runways":[],"saved_active_airport_modes":[],"geometry_source":"EuroScope sector pack","source_files":{"LFBB.sct":"fc92f16bc65e3a10b9aeb0cf4d1cae1add9856a4f4f2f653af5abaa0d98c77ed","LFBB.ese":"c7c252d4a274f6fd98bcefd2364b7bb9799385a6e602b62ccbe85cc32042ef62","LFBB.rwy":"d9387919da6406482f154f391ab2d20783610a60930f986e160686134ea8a7df","LFEE.sct":"10fcc997213ee24336ef8bd37f3a9423cb07bbdfb57b1494c61b8310b9641d8a","LFEE.ese":"3391dc3a47130a4a8c12ab895a6743c77668044183634bd45d425513ef5baa2f","LFFF.sct":"cb6698888ce3e8e8be34ea45922976a5fb3ebe1baef7814f040c91785f8641f2","LFFF.ese":"0c1e64c4a0524a6cdc30766699492d362f78011da36daeacfde4597a1761b64c","LFFF.rwy":"a12900bf1f18188caf2e598c44e55b2c0c6fb2c66cee43ff843cbe216617ae96","LFMM.sct":"fc0d266315a59cb027803be613657d9e9875a2a4b912535d08d1c7892a53b194","LFMM.ese":"6a319d7f7c1c2f7e457ae789f4aae2feafec03b24f5d3d95752e96922a971c9e","LFMM.rwy":"236563995d9b5be668ee3fc8d653cf8f33f20a511137652b197e5877b85d5693","LFRR.sct":"c5a55173543154d388eb65309d606b41ac5da09af59142e69878a4cde03add83","LFRR.ese":"e4542200e8322297f954327131cfe6e73da3ac264cf5610ff6871309cd6eeb40"},"airport_reference":[4.968610833,44.915555833]},"styles":{"line.taxiway.c0b631":{"name":"Taxiways","layer":"Guidance lines","object_type":"Line","paint":{"stroke":"#4E5A69","stroke-opacity":1,"stroke-width":1,"palette-overrides":{"light":{"stroke":"#C0B631"}}},"feature_count":1},"line.runwayconcrete.555555":{"name":"Runways","layer":"Guidance lines","object_type":"Line","paint":{"stroke":"#111318","stroke-opacity":1,"stroke-width":1,"palette-overrides":{"light":{"stroke":"#555555"}}},"feature_count":1},"line.apronsurface.808080":{"name":"Apron Surface","layer":"Guidance lines","object_type":"Line","paint":{"stroke":"#808080","stroke-opacity":1,"stroke-width":1,"palette-overrides":{"light":{"stroke":"#808080"}}},"feature_count":1},"label.gates":{"name":"Gates","layer":"Labels","object_type":"Label","paint":{"text-color":"#CCCCCC","text-font":"Arial","text-size":12,"text-halo-color":"#000000","text-halo-width":1,"text-anchor":"center","zoomLevel":9},"feature_count":5},"runway.reference":{"name":"Runway centerlines","layer":"Runways","object_type":"Line","paint":{"stroke":"#CCCCCC","stroke-width":2,"stroke-opacity":1},"feature_count":2}},"vsmr_groups":[{"id":"stands-and-gates","name":"Stands & gates","visible":true,"accent":"#d4bd39"}],"features":[{"type":"Feature","id":"LFLU-278aba07ffc60e919de4","properties":{"airport":"LFLU","name":"LFLU Groundlayout Valence Chabeuil","layer":"Guidance lines","category":"Taxiways","object_type":"Line","style_id":"line.taxiway.c0b631","source_group":"LFLU Groundlayout Valence Chabeuil","vsmr_group_ids":[],"geometry_role":"linework"},"geometry":{"type":"MultiLineString","coordinates":[[[4.969166667,44.919222222],[4.968777778,44.919277778]],[[4.969222222,44.9195],[4.968833333,44.919527778]],[[4.968777778,44.91925],[4.967444444,44.919388889]],[[4.968833333,44.919527778],[4.967333333,44.919666667]],[[4.967083333,44.919444444],[4.966055556,44.919527778]],[[4.967333333,44.919666667],[4.966111111,44.919805556]],[[4.966055556,44.919527778],[4.966111111,44.919805556]],[[4.967444444,44.919388889],[4.967083333,44.917722222]],[[4.967083333,44.919444444],[4.966694444,44.917777778]],[[4.967027778,44.917472222],[4.966666667,44.915916667]],[[4.966638889,44.9175],[4.966333333,44.916166667]],[[4.966666667,44.915916667],[4.966638889,44.915722222]],[[4.966277778,44.915861111],[4.96625,44.915777778]],[[4.966638889,44.915722222],[4.966611111,44.915583333]],[[4.96625,44.915777778],[4.966222222,44.915638889]],[[4.966527778,44.915333333],[4.966083333,44.913361111]],[[4.966166667,44.915361111],[4.965777778,44.913666667]],[[4.966083333,44.913361111],[4.964416667,44.913555556]],[[4.965777778,44.913666667],[4.964472222,44.913833333]],[[4.964416667,44.913555556],[4.964472222,44.913833333]],[[4.965638889,44.917888889],[4.966694444,44.917777778]],[[4.965583333,44.917611111],[4.966638889,44.9175]],[[4.965638889,44.917888889],[4.965583333,44.917611111]],[[4.967083333,44.917722222],[4.968444444,44.917583333]],[[4.967027778,44.917472222],[4.968388889,44.917305556]],[[4.968444444,44.917583333],[4.968833333,44.917555556]],[[4.968388889,44.917305556],[4.968777778,44.917277778]],[[4.966611111,44.915583333],[4.968055556,44.915444444]],[[4.966527778,44.915333333],[4.968,44.915166667]],[[4.968055556,44.915444444],[4.968416667,44.915388889]],[[4.968,44.915166667],[4.968361111,44.915138889]],[[4.965388889,44.915694444],[4.965861111,44.915666667]],[[4.965361111,44.915416667],[4.965805556,44.915388889]],[[4.965388889,44.915694444],[4.965361111,44.915416667]],[[4.965861111,44.915666667],[4.966222222,44.915638889]],[[4.965805556,44.915388889],[4.966166667,44.915361111]],[[4.965944444,44.916333333],[4.966333333,44.916166667]],[[4.96575,44.916111111],[4.966277778,44.915861111]],[[4.965944444,44.916333333],[4.96575,44.916111111]]]}},{"type":"Feature","id":"LFLU-f3ca0d057a443787560e","properties":{"airport":"LFLU","name":"LFLU Groundlayout Valence Chabeuil","layer":"Guidance lines","category":"Runways","object_type":"Line","style_id":"line.runwayconcrete.555555","source_group":"LFLU Groundlayout Valence Chabeuil","vsmr_group_ids":[],"geometry_role":"linework"},"geometry":{"type":"MultiLineString","coordinates":[[[4.972722222,44.927722222],[4.970555556,44.916888889]],[[4.972138889,44.927777778],[4.97,44.916944444]],[[4.972722222,44.927722222],[4.972138889,44.927777778]],[[4.970555556,44.916888889],[4.97,44.916944444]],[[4.973305556,44.924027778],[4.9725,44.919972222]],[[4.972555556,44.924111111],[4.97175,44.920027778]],[[4.973305556,44.924027778],[4.972555556,44.924111111]],[[4.9725,44.919972222],[4.97175,44.920027778]],[[4.971972222,44.930916667],[4.96975,44.919305556]],[[4.971416667,44.930972222],[4.969222222,44.9195]],[[4.971972222,44.930916667],[4.971416667,44.930972222]],[[4.96975,44.919305556],[4.969361111,44.917361111]],[[4.969166667,44.919222222],[4.968833333,44.917555556]],[[4.969361111,44.917361111],[4.968972222,44.915194444]],[[4.968777778,44.917277778],[4.968416667,44.915388889]],[[4.968972222,44.915194444],[4.968388889,44.912222222]],[[4.968361111,44.915138889],[4.967833333,44.912277778]],[[4.968388889,44.912222222],[4.967833333,44.912277778]]]}},{"type":"Feature","id":"LFLU-22dc2291fa6b8e9dbda2","properties":{"airport":"LFLU","name":"LFLU Groundlayout Valence Chabeuil","layer":"Guidance lines","category":"Apron Surface","object_type":"Line","style_id":"line.apronsurface.808080","source_group":"LFLU Groundlayout Valence Chabeuil","vsmr_group_ids":[],"geometry_role":"linework"},"geometry":{"type":"MultiLineString","coordinates":[[[4.966472222,44.916027778],[4.965777778,44.916472222],[4.964833333,44.916583333],[4.964361111,44.914555556],[4.964694444,44.9145],[4.964833333,44.914944444],[4.966222222,44.914777778]],[[4.966472222,44.916027778],[4.966222222,44.914777778]],[[4.963916667,44.913888889],[4.963805556,44.913472222],[4.964,44.913444444],[4.963888889,44.913055556],[4.964388889,44.913],[4.964583333,44.913805556]],[[4.963916667,44.913888889],[4.964583333,44.913805556]],[[4.965138889,44.917444444],[4.965555556,44.917416667],[4.965888889,44.917694444],[4.96575,44.918222222],[4.965333333,44.918277778]],[[4.965138889,44.917444444],[4.965333333,44.918277778]],[[4.965805556,44.919388889],[4.966138889,44.919361111],[4.966444444,44.919638889],[4.966277778,44.92],[4.965944444,44.920027778]],[[4.965805556,44.919388889],[4.965944444,44.920027778]],[[4.967944444,44.912277778],[4.967638889,44.912305556],[4.967444444,44.912416667],[4.967333333,44.912527778],[4.967333333,44.912694444],[4.967388889,44.912833333],[4.9675,44.912944444],[4.967666667,44.913],[4.967833333,44.913],[4.968055556,44.912972222]],[[4.967944444,44.912277778],[4.968055556,44.912972222]],[[4.970944444,44.927972222],[4.970666667,44.928],[4.970444444,44.928138889],[4.970361111,44.928333333],[4.970416667,44.928527778],[4.970583333,44.928694444],[4.970805556,44.928722222],[4.971083333,44.928722222]],[[4.970944444,44.927972222],[4.971083333,44.928722222]],[[4.9715,44.930972222],[4.971138889,44.930972222],[4.970916667,44.930916667],[4.970833333,44.930805556],[4.970777778,44.930666667],[4.970777778,44.930527778],[4.970861111,44.930388889],[4.971027778,44.930305556],[4.971361111,44.93025]],[[4.9715,44.930972222],[4.971361111,44.93025]]]}},{"type":"Feature","id":"LFLU-70c9baea9cf7058df6a3","properties":{"airport":"LFLU","name":"1","layer":"Labels","category":"Gates","object_type":"Label","style_id":"label.gates","source_group":"LFLU Gates","vsmr_group_ids":["stands-and-gates"],"geometry_role":"text_label","text-field":"1"},"geometry":{"type":"Point","coordinates":[4.964861111,44.915611111]}},{"type":"Feature","id":"LFLU-8e72c346ba7c26b5070a","properties":{"airport":"LFLU","name":"2","layer":"Labels","category":"Gates","object_type":"Label","style_id":"label.gates","source_group":"LFLU Gates","vsmr_group_ids":["stands-and-gates"],"geometry_role":"text_label","text-field":"2"},"geometry":{"type":"Point","coordinates":[4.96525,44.915083333]}},{"type":"Feature","id":"LFLU-fb56f5d5163a57c3351e","properties":{"airport":"LFLU","name":"3","layer":"Labels","category":"Gates","object_type":"Label","style_id":"label.gates","source_group":"LFLU Gates","vsmr_group_ids":["stands-and-gates"],"geometry_role":"text_label","text-field":"3"},"geometry":{"type":"Point","coordinates":[4.965694444,44.915027778]}},{"type":"Feature","id":"LFLU-9da65595f5d820c079b2","properties":{"airport":"LFLU","name":"4","layer":"Labels","category":"Gates","object_type":"Label","style_id":"label.gates","source_group":"LFLU Gates","vsmr_group_ids":["stands-and-gates"],"geometry_role":"text_label","text-field":"4"},"geometry":{"type":"Point","coordinates":[4.964944444,44.915944444]}},{"type":"Feature","id":"LFLU-7a9c2215bcb90570a377","properties":{"airport":"LFLU","name":"5","layer":"Labels","category":"Gates","object_type":"Label","style_id":"label.gates","source_group":"LFLU Gates","vsmr_group_ids":["stands-and-gates"],"geometry_role":"text_label","text-field":"5"},"geometry":{"type":"Point","coordinates":[4.965027778,44.916305556]}},{"type":"Feature","id":"LFLU-7193e78e6b914573c35a","properties":{"airport":"LFLU","name":"01L/19R","layer":"Runways","category":"Runway centerlines","object_type":"Line","style_id":"runway.reference","source_group":"LFLU Runways","vsmr_group_ids":[],"geometry_role":"runway_centerline"},"geometry":{"type":"LineString","coordinates":[[4.969671944,44.915585833],[4.971702778,44.926213889]]}},{"type":"Feature","id":"LFLU-6af707cd2ff07f558d34","properties":{"airport":"LFLU","name":"01/19","layer":"Runways","category":"Runway centerlines","object_type":"Line","style_id":"runway.reference","source_group":"LFLU Runways","vsmr_group_ids":[],"geometry_role":"runway_centerline"},"geometry":{"type":"LineString","coordinates":[[4.968538889,44.914496944],[4.971482778,44.929832778]]}}]}
