{"type":"FeatureCollection","name":"LFLV AVISO","bbox":[3.399361111,46.159666667,3.407861111,46.17975],"metadata":{"schema":"vSMR AVISO","schema_version":2,"airport":"LFLV","coordinate_reference_system":"WGS84","coordinate_order":"longitude, latitude","feature_count":3,"style_count":3,"layer_counts":{"Ground linework":1,"Reference points":1,"Runways":1},"category_counts":{"Labels":1,"Runway Concrete":1,"Runway Markings":1}},"styles":{"line.linework.runway.concrete":{"name":"Runway Concrete","layer":"Ground linework","object_type":"Line","paint":{"stroke":"#111318","stroke-opacity":1.0,"stroke-width":1.5},"feature_count":1},"line.runway.centerline.runway.markings":{"name":"Runway Markings","layer":"Runways","object_type":"Line","paint":{"stroke":"#FEFEFE","stroke-opacity":1.0,"stroke-width":1.5},"feature_count":1},"point.airport.reference.point.labels":{"name":"Labels","layer":"Reference points","object_type":"Point","paint":{"marker-color":"#808080","marker-size":"small"},"feature_count":1}},"features":[{"type":"Feature","id":"LFLV-runway-01-19-5357","properties":{"name":"LFLV RWY 01/19","layer":"Runways","category":"Runway Markings","object_type":"Line","style_id":"line.runway.centerline.runway.markings","airport":"LFLV","geometry_role":"runway_centerline","vsmr_group_ids":[[]]},"geometry":{"type":"LineString","coordinates":[[3.401607778,46.159916944],[3.405607778,46.179502778]]}},{"type":"Feature","id":"lflv.line.linework.runway.concrete.63363","properties":{"name":"LFLV Groundlayout Vichy","layer":"Ground linework","category":"Runway Concrete","object_type":"Line","style_id":"line.linework.runway.concrete","airport":"LFLV","geometry_role":"linework","vsmr_group_ids":[[]]},"geometry":{"type":"MultiLineString","coordinates":[[[3.399361111,46.160138889],[3.403361111,46.17975]],[[3.403861111,46.159666667],[3.407861111,46.17925]],[[3.399361111,46.160138889],[3.403861111,46.159666667]],[[3.403361111,46.17975],[3.407861111,46.17925]],[[3.407861111,46.17925],[3.403861111,46.159666667]],[[3.403361111,46.17975],[3.399361111,46.160138889]],[[3.407861111,46.17925],[3.403361111,46.17975]],[[3.403861111,46.159666667],[3.399361111,46.160138889]]]}},{"type":"Feature","id":"LFLV-airport-reference","properties":{"name":"LFLV","layer":"Reference points","category":"Labels","object_type":"Point","style_id":"point.airport.reference.point.labels","airport":"LFLV","geometry_role":"airport_reference_point","text-field":"LFLV","vsmr_group_ids":[[]]},"geometry":{"type":"Point","coordinates":[3.404166944,46.171666944]}}]}
