{"type":"FeatureCollection","name":"LFLW AVISO","bbox":[2.414638889,44.883638889,2.429361111,44.898555556],"metadata":{"schema":"vSMR AVISO","schema_version":2,"airport":"LFLW","coordinate_reference_system":"WGS84","coordinate_order":"longitude, latitude","default_color_palette":"night","color_palettes":["night","day"],"feature_count":3,"style_count":3,"layer_counts":{"Ground linework":1,"Reference points":1,"Runways":1},"category_counts":{"Labels":1,"Runway Concrete":1,"Runway Markings":1}},"styles":{"line.linework.runway.concrete":{"name":"Runway Concrete","layer":"Ground linework","object_type":"Line","paint":{"stroke":"#111318","stroke-opacity":1.0,"stroke-width":1.5},"feature_count":1},"line.runway.centerline.runway.markings":{"name":"Runway Markings","layer":"Runways","object_type":"Line","paint":{"stroke":"#FEFEFE","stroke-opacity":1.0,"stroke-width":1.5},"feature_count":1},"point.airport.reference.point.labels":{"name":"Labels","layer":"Reference points","object_type":"Point","paint":{"marker-color":"#808080","marker-size":"small"},"feature_count":1}},"features":[{"type":"Feature","id":"LFLW-runway-15-33-4958","properties":{"name":"LFLW RWY 15/33","layer":"Runways","category":"Runway Markings","object_type":"Line","style_id":"line.runway.centerline.runway.markings","airport":"LFLW","geometry_role":"runway_centerline","vsmr_group_ids":[]},"geometry":{"type":"LineString","coordinates":[[2.416593889,44.897735833],[2.427399722,44.884507778]]}},{"type":"Feature","id":"lflw.line.linework.runway.concrete.46128","properties":{"name":"LFLW Groundlayout Aurillac","layer":"Ground linework","category":"Runway Concrete","object_type":"Line","style_id":"line.linework.runway.concrete","airport":"LFLW","geometry_role":"linework","vsmr_group_ids":[]},"geometry":{"type":"MultiLineString","coordinates":[[[2.418555556,44.898555556],[2.429361111,44.885361111]],[[2.414638889,44.896833333],[2.425444444,44.883638889]],[[2.418555556,44.898555556],[2.414638889,44.896833333]],[[2.429361111,44.885361111],[2.425444444,44.883638889]]]}},{"type":"Feature","id":"LFLW-airport-reference","properties":{"name":"LFLW","layer":"Reference points","category":"Labels","object_type":"Point","style_id":"point.airport.reference.point.labels","airport":"LFLW","geometry_role":"airport_reference_point","text-field":"LFLW","vsmr_group_ids":[]},"geometry":{"type":"Point","coordinates":[2.416666944,44.8975]}}]}
