{"type":"FeatureCollection","name":"LFLX AVISO","bbox":[1.530277778,46.699444444,1.997222222,46.972777778],"metadata":{"schema":"vSMR AVISO","schema_version":2,"airport":"LFLX","coordinate_reference_system":"WGS84","coordinate_order":"longitude, latitude","default_color_palette":"night","color_palettes":["night","day"],"feature_count":35,"style_count":9,"layer_counts":{"Ground linework":6,"Labels":27,"Reference points":1,"Runways":1},"category_counts":{"Apron Surface":1,"Labels":29,"Runway Concrete":1,"Runway Markings":1,"Stopbar":1,"Taxiway":1,"TWR CTR":1}},"styles":{"label.text.label.labels":{"name":"Labels","layer":"Labels","object_type":"Label","paint":{"text-anchor":"center","text-color":"#CCCCCC","text-halo-color":"#000000","text-halo-width":1,"text-size":12,"zoomLevel":6},"feature_count":27},"line.linework.apron.surface":{"name":"Apron Surface","layer":"Ground linework","object_type":"Line","paint":{"stroke":"#808080","stroke-opacity":1.0,"stroke-width":1.5},"feature_count":1},"line.linework.labels":{"name":"Labels","layer":"Ground linework","object_type":"Line","paint":{"stroke":"#808080","stroke-opacity":1.0,"stroke-width":1.5},"feature_count":1},"line.linework.runway.concrete":{"name":"Runway Concrete","layer":"Ground linework","object_type":"Line","paint":{"stroke":"#111318","stroke-opacity":1.0,"stroke-width":1.5},"feature_count":1},"line.linework.stopbar":{"name":"Stopbar","layer":"Ground linework","object_type":"Line","paint":{"stroke":"#7E0000","stroke-opacity":1.0,"stroke-width":1.5},"feature_count":1},"line.linework.taxiway":{"name":"Taxiway","layer":"Ground linework","object_type":"Line","paint":{"stroke":"#4E5A69","stroke-opacity":1.0,"stroke-width":1.5},"feature_count":1},"line.linework.twr.ctr":{"name":"TWR CTR","layer":"Ground linework","object_type":"Line","paint":{"stroke":"#000000","stroke-opacity":1.0,"stroke-width":1.5},"feature_count":1},"line.runway.centerline.runway.markings":{"name":"Runway Markings","layer":"Runways","object_type":"Line","paint":{"stroke":"#FEFEFE","stroke-opacity":1.0,"stroke-width":1.5},"feature_count":1},"point.airport.reference.point.labels":{"name":"Labels","layer":"Reference points","object_type":"Point","paint":{"marker-color":"#808080","marker-size":"small"},"feature_count":1}},"features":[{"type":"Feature","id":"LFLX-runway-03-21-4959","properties":{"name":"LFLX RWY 03/21","layer":"Runways","category":"Runway Markings","object_type":"Line","style_id":"line.runway.centerline.runway.markings","airport":"LFLX","geometry_role":"runway_centerline","vsmr_group_ids":[]},"geometry":{"type":"LineString","coordinates":[[1.718060833,46.849582778],[1.743210833,46.875921944]]}},{"type":"Feature","id":"lflx.line.linework.runway.concrete.46133","properties":{"name":"LFLX Groundlayout Chateauroux Deols","layer":"Ground linework","category":"Runway Concrete","object_type":"Line","style_id":"line.linework.runway.concrete","airport":"LFLX","geometry_role":"linework","vsmr_group_ids":[]},"geometry":{"type":"MultiLineString","coordinates":[[[1.726760833,46.859206389],[1.723360833,46.855653333]],[[1.722516944,46.854658611],[1.71837,46.850315833]],[[1.717675278,46.849687778],[1.715808889,46.8476525]],[[1.715808889,46.8476525],[1.716437222,46.847362778]],[[1.716437222,46.847362778],[1.718393333,46.849408056]],[[1.719316667,46.850285556],[1.719566944,46.850565556]],[[1.719566944,46.850565556],[1.719531111,46.850583889]],[[1.719531111,46.850583889],[1.719611667,46.850672778]],[[1.719611667,46.850672778],[1.719553611,46.850700278]],[[1.719553611,46.850700278],[1.720157778,46.851336944]],[[1.720157778,46.851336944],[1.7273975,46.858928889]],[[1.7273975,46.858928889],[1.727468333,46.858906667]],[[1.727468333,46.858906667],[1.727575,46.859007778]],[[1.727575,46.859007778],[1.727604444,46.858997778]],[[1.728346389,46.859841111],[1.744082222,46.876333333]],[[1.744082222,46.876333333],[1.743421667,46.876625278]],[[1.743421667,46.876625278],[1.7431025,46.876319722]],[[1.7431025,46.876319722],[1.742935833,46.876138056]],[[1.742935833,46.876138056],[1.742832778,46.876133333]],[[1.742832778,46.876133333],[1.742686111,46.876128611]],[[1.742686111,46.876128611],[1.742596944,46.876119444]],[[1.742596944,46.876119444],[1.742528056,46.876100556]],[[1.742528056,46.876100556],[1.742431944,46.876069167]],[[1.742431944,46.876069167],[1.742349444,46.876039444]],[[1.742349444,46.876039444],[1.742303611,46.876006667]],[[1.742303611,46.876006667],[1.742246389,46.875958056]],[[1.742246389,46.875958056],[1.742189167,46.875897222]],[[1.742189167,46.875897222],[1.742161667,46.875851667]],[[1.742161667,46.875851667],[1.742134167,46.875776667]],[[1.742134167,46.875776667],[1.7420975,46.875573056]],[[1.7420975,46.875573056],[1.742092778,46.875494722]],[[1.742092778,46.875494722],[1.742078333,46.875424167]],[[1.742078333,46.875424167],[1.742069167,46.875361667]],[[1.742069167,46.875361667],[1.742044167,46.875294444]],[[1.742044167,46.875294444],[1.742017222,46.875229444]],[[1.742017222,46.875229444],[1.741992222,46.875159722]],[[1.741992222,46.875159722],[1.741976111,46.875135278]],[[1.741976111,46.875135278],[1.741924167,46.875083889]],[[1.741924167,46.875083889],[1.741716389,46.874865833]],[[1.741716389,46.874865833],[1.736374444,46.8692775]],[[1.735456111,46.868325278],[1.727665278,46.860159444]]]}},{"type":"Feature","id":"lflx.line.linework.taxiway.46174","properties":{"name":"LFLX Groundlayout Chateauroux Deols","layer":"Ground linework","category":"Taxiway","object_type":"Line","style_id":"line.linework.taxiway","airport":"LFLX","geometry_role":"linework","vsmr_group_ids":[]},"geometry":{"type":"MultiLineString","coordinates":[[[1.721123333,46.848001389],[1.721113611,46.847974167]],[[1.721113611,46.847974167],[1.721091667,46.847943333]],[[1.721091667,46.847943333],[1.721063889,46.84792]],[[1.721063889,46.84792],[1.721028611,46.8479]],[[1.721028611,46.8479],[1.720990833,46.8478875]],[[1.720990833,46.8478875],[1.720949444,46.847880833]],[[1.720949444,46.847880833],[1.720909444,46.847880833]],[[1.720909444,46.847880833],[1.720706389,46.847899167]],[[1.720706389,46.847899167],[1.720090833,46.847951389]],[[1.720090833,46.847951389],[1.7200025,46.847965278]],[[1.7200025,46.847965278],[1.719924444,46.847981111]],[[1.719924444,46.847981111],[1.719821944,46.848007778]],[[1.719821944,46.848007778],[1.719738056,46.848031667]],[[1.719738056,46.848031667],[1.719644167,46.848067222]],[[1.719644167,46.848067222],[1.719582222,46.848095833]],[[1.719582222,46.848095833],[1.719494444,46.848141944]],[[1.719494444,46.848141944],[1.719428889,46.848183056]],[[1.719428889,46.848183056],[1.719358889,46.848227778]],[[1.719358889,46.848227778],[1.719290556,46.848281389]],[[1.719290556,46.848281389],[1.719240833,46.848329167]],[[1.719240833,46.848329167],[1.719183611,46.848394444]],[[1.719183611,46.848394444],[1.719128056,46.848460556]],[[1.719128056,46.848460556],[1.719078889,46.848548611]],[[1.719078889,46.848548611],[1.719031111,46.848658889]],[[1.719031111,46.848658889],[1.719009167,46.848755278]],[[1.719009167,46.848755278],[1.719,46.848810278]],[[1.719,46.848810278],[1.719,46.848879167]],[[1.719,46.848879167],[1.719014722,46.848980556]],[[1.719014722,46.848980556],[1.719148056,46.849758333]],[[1.719148056,46.849758333],[1.719166667,46.849885556]],[[1.719166667,46.849885556],[1.719191389,46.850002222]],[[1.719191389,46.850002222],[1.719234167,46.850115278]],[[1.719234167,46.850115278],[1.719279167,46.850194722]],[[1.719279167,46.850194722],[1.7193075,46.850254722]],[[1.7193075,46.850254722],[1.719321944,46.850288333]],[[1.71837,46.850315556],[1.718235833,46.850381111]],[[1.718235833,46.850381111],[1.718178056,46.850332778]],[[1.718178056,46.850332778],[1.718141944,46.850306944]],[[1.718141944,46.850306944],[1.718098333,46.850280833]],[[1.718098333,46.850280833],[1.718035,46.850251111]],[[1.718035,46.850251111],[1.717966389,46.850230278]],[[1.717966389,46.850230278],[1.717866667,46.850209167]],[[1.717866667,46.850209167],[1.717788889,46.850204167]],[[1.717788889,46.850204167],[1.717709167,46.850204167]],[[1.717709167,46.850204167],[1.717626111,46.850211667]],[[1.717626111,46.850211667],[1.717546389,46.85023]],[[1.717546389,46.85023],[1.717495833,46.850245278]],[[1.717495833,46.850245278],[1.717385556,46.850291667]],[[1.717385556,46.850291667],[1.716752222,46.850574722]],[[1.716752222,46.850574722],[1.716093889,46.850877222]],[[1.716093889,46.850877222],[1.715984444,46.8509425]],[[1.715984444,46.8509425],[1.715887222,46.851014444]],[[1.715887222,46.851014444],[1.715793611,46.851104167]],[[1.715793611,46.851104167],[1.715741944,46.851174722]],[[1.715741944,46.851174722],[1.715674722,46.851291389]],[[1.715674722,46.851291389],[1.715645,46.851375278]],[[1.715645,46.851375278],[1.715631389,46.851498056]],[[1.715631389,46.851498056],[1.715640556,46.851617778]],[[1.715640556,46.851617778],[1.715679167,46.851743611]],[[1.715679167,46.851743611],[1.715745,46.851892778]],[[1.715745,46.851892778],[1.716614722,46.853900556]],[[1.716614722,46.853900556],[1.716676944,46.854017222]],[[1.716676944,46.854017222],[1.716771944,46.854146944]],[[1.716771944,46.854146944],[1.716901944,46.854286111]],[[1.716901944,46.854286111],[1.717026667,46.854410278]],[[1.717026667,46.854410278],[1.717200278,46.854551389]],[[1.717200278,46.854551389],[1.718410833,46.855361111]],[[1.718410833,46.855361111],[1.719085278,46.855779167]],[[1.719085278,46.855779167],[1.7194325,46.855997222]],[[1.7194325,46.855997222],[1.719564722,46.8560475]],[[1.719564722,46.8560475],[1.719738333,46.856096389]],[[1.719738333,46.856096389],[1.719944167,46.8561275]],[[1.719944167,46.8561275],[1.720154444,46.856121667]],[[1.720154444,46.856121667],[1.720356111,46.856091944]],[[1.720356111,46.856091944],[1.72051,46.856049167]],[[1.72051,46.856049167],[1.720661667,46.855986944]],[[1.720661667,46.855986944],[1.721712222,46.855507222]],[[1.721712222,46.855507222],[1.722308889,46.855235278]],[[1.722308889,46.855235278],[1.7223625,46.855188056]],[[1.7223625,46.855188056],[1.722425556,46.855121667]],[[1.722425556,46.855121667],[1.722463889,46.855044722]],[[1.722463889,46.855044722],[1.722488611,46.85496]],[[1.722488611,46.85496],[1.722475278,46.854892222]],[[1.722475278,46.854892222],[1.722452778,46.854833611]],[[1.722452778,46.854833611],[1.722425833,46.854785833]],[[1.722425833,46.854785833],[1.722378333,46.854730556]],[[1.722378333,46.854730556],[1.722518611,46.854659722]],[[1.717672778,46.849690556],[1.714758333,46.850988056]],[[1.715499722,46.852623611],[1.715585,46.852707778]],[[1.715585,46.852707778],[1.715617222,46.852745833]],[[1.715617222,46.852745833],[1.716099444,46.853868889]],[[1.716099444,46.853868889],[1.716133056,46.853943889]],[[1.716133056,46.853943889],[1.716181111,46.854045556]],[[1.723365556,46.855657222],[1.723305556,46.855680833]],[[1.723305556,46.855680833],[1.723276667,46.855672222]],[[1.723276667,46.855672222],[1.723254722,46.855662222]],[[1.723254722,46.855662222],[1.7231675,46.855590278]],[[1.7231675,46.855590278],[1.723102222,46.855550556]],[[1.723102222,46.855550556],[1.723016944,46.855515833]],[[1.723016944,46.855515833],[1.722936944,46.855494722]],[[1.722936944,46.855494722],[1.722846111,46.855482222]],[[1.722846111,46.855482222],[1.7227425,46.855482222]],[[1.7227425,46.855482222],[1.722628056,46.855499444]],[[1.722628056,46.855499444],[1.722517222,46.855525556]],[[1.722517222,46.855525556],[1.722437778,46.855561389]],[[1.722437778,46.855561389],[1.721376667,46.856037778]],[[1.721376667,46.856037778],[1.720843056,46.856283056]],[[1.720843056,46.856283056],[1.720733056,46.856350833]],[[1.720733056,46.856350833],[1.720671667,46.856403611]],[[1.720671667,46.856403611],[1.720633889,46.856456667]],[[1.720633889,46.856456667],[1.720601389,46.856528333]],[[1.720601389,46.856528333],[1.7205925,46.856596111]],[[1.7205925,46.856596111],[1.720597778,46.856648889]],[[1.720597778,46.856648889],[1.720628611,46.856748333]],[[1.720628611,46.856748333],[1.720685278,46.856816389]],[[1.720685278,46.856816389],[1.720773611,46.856889167]],[[1.720773611,46.856889167],[1.720906944,46.8569725]],[[1.720906944,46.8569725],[1.721291667,46.857220278]],[[1.721291667,46.857220278],[1.722016389,46.857711389]],[[1.722016389,46.857711389],[1.72213,46.857793333]],[[1.72213,46.857793333],[1.722221389,46.857858333]],[[1.722221389,46.857858333],[1.722328889,46.857955278]],[[1.722328889,46.857955278],[1.722426667,46.858050278]],[[1.722426667,46.858050278],[1.722493056,46.858117222]],[[1.722493056,46.858117222],[1.722615833,46.858261667]],[[1.722615833,46.858261667],[1.722729444,46.858380278]],[[1.722729444,46.858380278],[1.722849167,46.858503056]],[[1.722849167,46.858503056],[1.723136389,46.858793611]],[[1.723136389,46.858793611],[1.723297778,46.8589675]],[[1.723297778,46.8589675],[1.724184444,46.859893611]],[[1.724184444,46.859893611],[1.7244125,46.860140556]],[[1.7244125,46.860140556],[1.724561944,46.860284722]],[[1.724561944,46.860284722],[1.724646667,46.860340278]],[[1.724646667,46.860340278],[1.724727778,46.860374167]],[[1.724727778,46.860374167],[1.7248425,46.860403056]],[[1.7248425,46.860403056],[1.724967778,46.86042]],[[1.724967778,46.86042],[1.725094722,46.8604175]],[[1.725094722,46.8604175],[1.725200556,46.860403056]],[[1.725200556,46.860403056],[1.725304722,46.860370556]],[[1.725304722,46.860370556],[1.725484722,46.860291944]],[[1.725484722,46.860291944],[1.726549444,46.859795833]],[[1.726549444,46.859795833],[1.726666667,46.859719722]],[[1.726666667,46.859719722],[1.726721111,46.859663333]],[[1.726721111,46.859663333],[1.726761389,46.859609444]],[[1.726761389,46.859609444],[1.726780833,46.859542222]],[[1.726780833,46.859542222],[1.726793056,46.859443611]],[[1.726793056,46.859443611],[1.726782222,46.859392778]],[[1.726782222,46.859392778],[1.72677,46.859355833]],[[1.72677,46.859355833],[1.726743056,46.859308889]],[[1.726743056,46.859308889],[1.726715,46.859271111]],[[1.726715,46.859271111],[1.726689167,46.859238056]],[[1.726689167,46.859238056],[1.726758056,46.8592075]],[[1.727664167,46.860157778],[1.727590833,46.860189444]],[[1.727590833,46.860189444],[1.727556667,46.860156944]],[[1.727556667,46.860156944],[1.727509167,46.860119722]],[[1.727509167,46.860119722],[1.727469722,46.86009]],[[1.727469722,46.86009],[1.727399167,46.860055556]],[[1.727399167,46.860055556],[1.727340556,46.860031389]],[[1.727340556,46.860031389],[1.727278056,46.860013611]],[[1.727278056,46.860013611],[1.727215556,46.860001667]],[[1.727215556,46.860001667],[1.727139444,46.859997778]],[[1.727139444,46.859997778],[1.727063056,46.859998889]],[[1.727063056,46.859998889],[1.726991111,46.860004444]],[[1.726991111,46.860004444],[1.726905556,46.860019167]],[[1.726905556,46.860019167],[1.726839444,46.860038333]],[[1.726839444,46.860038333],[1.726758611,46.8600725]],[[1.726758611,46.8600725],[1.726435278,46.860220278]],[[1.726435278,46.860220278],[1.72623,46.860312778]],[[1.72623,46.860312778],[1.725842778,46.860493333]],[[1.725842778,46.860493333],[1.725651389,46.8605775]],[[1.725651389,46.8605775],[1.725563333,46.860619167]],[[1.725563333,46.860619167],[1.725493333,46.860660556]],[[1.725493333,46.860660556],[1.725437222,46.860704167]],[[1.725437222,46.860704167],[1.7253825,46.860766667]],[[1.7253825,46.860766667],[1.725346111,46.860813333]],[[1.725346111,46.860813333],[1.725323056,46.860865833]],[[1.725323056,46.860865833],[1.725309167,46.860925278]],[[1.725309167,46.860925278],[1.725303889,46.860988056]],[[1.725303889,46.860988056],[1.725317778,46.861045278]],[[1.725317778,46.861045278],[1.725345556,46.8611]],[[1.725345556,46.8611],[1.725385556,46.861156944]],[[1.725385556,46.861156944],[1.725460278,46.861248611]],[[1.725460278,46.861248611],[1.725571667,46.861365]],[[1.725571667,46.861365],[1.725904167,46.861711667]],[[1.725904167,46.861711667],[1.726164167,46.861955278]],[[1.726164167,46.861955278],[1.726280556,46.862071111]],[[1.726280556,46.862071111],[1.727406389,46.863263056]],[[1.727406389,46.863263056],[1.728270833,46.864174167]],[[1.728270833,46.864174167],[1.728838333,46.864741111]],[[1.728838333,46.864741111],[1.729248889,46.865195278]],[[1.729248889,46.865195278],[1.729838889,46.865803056]],[[1.729838889,46.865803056],[1.730763889,46.866810278]],[[1.730763889,46.866810278],[1.731261667,46.867351389]],[[1.731261667,46.867351389],[1.73189,46.868015278]],[[1.73189,46.868015278],[1.732573333,46.868712222]],[[1.732573333,46.868712222],[1.732855833,46.869005278]],[[1.732855833,46.869005278],[1.733072778,46.869215833]],[[1.733072778,46.869215833],[1.733259444,46.869350278]],[[1.733259444,46.869350278],[1.733471389,46.869419167]],[[1.733471389,46.869419167],[1.733658056,46.869450278]],[[1.733658056,46.869450278],[1.73388,46.869446667]],[[1.73388,46.869446667],[1.734051667,46.869415833]],[[1.734051667,46.869415833],[1.734334167,46.869319167]],[[1.734334167,46.869319167],[1.7352875,46.868846667]],[[1.7352875,46.868846667],[1.735399444,46.868730278]],[[1.735399444,46.868730278],[1.735442222,46.86865]],[[1.735442222,46.86865],[1.73545,46.868573611]],[[1.73545,46.868573611],[1.735434167,46.868493611]],[[1.735434167,46.868493611],[1.735418056,46.8684425]],[[1.735418056,46.8684425],[1.735360556,46.868366944]],[[1.735360556,46.868366944],[1.735452778,46.868323611]],[[1.736369722,46.869278611],[1.736296389,46.869223333]],[[1.736296389,46.869223333],[1.736224722,46.869179167]],[[1.736224722,46.869179167],[1.736134167,46.869148333]],[[1.736134167,46.869148333],[1.736053056,46.869125556]],[[1.736053056,46.869125556],[1.735957778,46.869115556]],[[1.735957778,46.869115556],[1.735853889,46.869105833]],[[1.735853889,46.869105833],[1.735836111,46.869122222]],[[1.735836111,46.869122222],[1.735810278,46.869183333]],[[1.735810278,46.869183333],[1.735796389,46.869259722]],[[1.735796389,46.869259722],[1.735790278,46.869349444]],[[1.735790278,46.869349444],[1.735792222,46.869437778]],[[1.735792222,46.869437778],[1.735804167,46.869530278]],[[1.735804167,46.869530278],[1.735505833,46.869663611]],[[1.735505833,46.869663611],[1.734631667,46.870046944]],[[1.734631667,46.870046944],[1.734462778,46.870088611]],[[1.734462778,46.870088611],[1.734325833,46.870111944]],[[1.734325833,46.870111944],[1.734169167,46.870130556]],[[1.734169167,46.870130556],[1.734007778,46.870132222]],[[1.734007778,46.870132222],[1.733841111,46.870118889]],[[1.733841111,46.870118889],[1.733643056,46.870088611]],[[1.733643056,46.870088611],[1.733491111,46.870050278]],[[1.733491111,46.870050278],[1.733368889,46.87001]],[[1.733368889,46.87001],[1.733145833,46.869906944]],[[1.733145833,46.869906944],[1.733006389,46.869807222]],[[1.733006389,46.869807222],[1.732850833,46.869640278]],[[1.732850833,46.869640278],[1.732594167,46.8693675]],[[1.732594167,46.8693675],[1.730377778,46.867060833]],[[1.730377778,46.867060833],[1.726325278,46.862779444]],[[1.726325278,46.862779444],[1.726211667,46.862750556]],[[1.726211667,46.862750556],[1.726117222,46.862734444]],[[1.728349444,46.859842778],[1.7283675,46.859835833]],[[1.7283675,46.859835833],[1.728265556,46.859722778]],[[1.728265556,46.859722778],[1.728293611,46.859707778]],[[1.728293611,46.859707778],[1.728279722,46.859681667]],[[1.728279722,46.859681667],[1.728273611,46.859654444]],[[1.728273611,46.859654444],[1.728267778,46.859624444]],[[1.728267778,46.859624444],[1.728265556,46.859588889]],[[1.728265556,46.859588889],[1.728267778,46.859558889]],[[1.728267778,46.859558889],[1.7282875,46.859481111]],[[1.7282875,46.859481111],[1.728311667,46.859419722]],[[1.728311667,46.859419722],[1.728369722,46.859338333]],[[1.728369722,46.859338333],[1.728431111,46.859282222]],[[1.728431111,46.859282222],[1.728491389,46.859239167]],[[1.728491389,46.859239167],[1.728584167,46.859189722]],[[1.728584167,46.859189722],[1.728685278,46.859139444]],[[1.728685278,46.859139444],[1.728771389,46.859086944]],[[1.728771389,46.859086944],[1.7288425,46.859036667]],[[1.7288425,46.859036667],[1.728998333,46.858902778]],[[1.728998333,46.858902778],[1.729085278,46.858807222]],[[1.729085278,46.858807222],[1.729147222,46.858716389]],[[1.729147222,46.858716389],[1.729193333,46.858635278]],[[1.729193333,46.858635278],[1.729228611,46.858552778]],[[1.729228611,46.858552778],[1.729264444,46.858412778]],[[1.729264444,46.858412778],[1.729275833,46.858321944]],[[1.729275833,46.858321944],[1.729269167,46.858138611]],[[1.729269167,46.858138611],[1.729227222,46.85758]],[[1.729227222,46.85758],[1.729216389,46.857289444]],[[1.729216389,46.857289444],[1.729205278,46.856881667]],[[1.729205278,46.856881667],[1.729190833,46.856536111]],[[1.729190833,46.856536111],[1.729106389,46.855419167]],[[1.729106389,46.855419167],[1.729060833,46.854688056]],[[1.729060833,46.854688056],[1.729082778,46.854652778]],[[1.729082778,46.854652778],[1.729120833,46.854613611]],[[1.729120833,46.854613611],[1.729177778,46.854589444]],[[1.729177778,46.854589444],[1.729234722,46.854582222]],[[1.729247778,46.854450278],[1.729210278,46.854449167]],[[1.729210278,46.854449167],[1.729159167,46.854441111]],[[1.729159167,46.854441111],[1.729115556,46.854423611]],[[1.729115556,46.854423611],[1.729085556,46.854403056]],[[1.729085556,46.854403056],[1.729062778,46.854376389]],[[1.729062778,46.854376389],[1.729047778,46.854348611]],[[1.729047778,46.854348611],[1.729049444,46.854306389]],[[1.729049444,46.854306389],[1.729037222,46.85411]],[[1.729037222,46.85411],[1.728976111,46.853333333]],[[1.728976111,46.853333333],[1.728965278,46.853156944]],[[1.728965278,46.853156944],[1.728951944,46.853049444]],[[1.728951944,46.853049444],[1.728936111,46.852974722]],[[1.728936111,46.852974722],[1.728911944,46.852883611]],[[1.728911944,46.852883611],[1.728885,46.852787222]],[[1.728885,46.852787222],[1.728838611,46.852690278]],[[1.728838611,46.852690278],[1.728759722,46.852539444]],[[1.728759722,46.852539444],[1.728558056,46.8521725]],[[1.728558056,46.8521725],[1.728421111,46.851914444]],[[1.728421111,46.851914444],[1.728404722,46.851877222]],[[1.728404722,46.851877222],[1.728406389,46.851847778]],[[1.728406389,46.851847778],[1.728419444,46.851817222]],[[1.728419444,46.851817222],[1.728447778,46.851786667]],[[1.728447778,46.851786667],[1.7284775,46.851764167]],[[1.7284775,46.851764167],[1.728528611,46.851739167]],[[1.728433889,46.8515525],[1.728385278,46.851560556]],[[1.728385278,46.851560556],[1.728335,46.851559722]],[[1.728335,46.851559722],[1.728275556,46.851551667]],[[1.728275556,46.851551667],[1.728234167,46.851533333]],[[1.728234167,46.851533333],[1.728206111,46.851513056]],[[1.728206111,46.851513056],[1.728181111,46.851483889]],[[1.728181111,46.851483889],[1.728155833,46.851439167]],[[1.728155833,46.851439167],[1.727891667,46.85096]],[[1.727891667,46.85096],[1.7277775,46.8507825]],[[1.7277775,46.8507825],[1.727699722,46.850683889]],[[1.727699722,46.850683889],[1.727623611,46.8506025]],[[1.727623611,46.8506025],[1.727560833,46.850543611]],[[1.727560833,46.850543611],[1.7273675,46.850379444]],[[1.7273675,46.850379444],[1.727218611,46.850273889]],[[1.727218611,46.850273889],[1.727018611,46.850142222]],[[1.727018611,46.850142222],[1.72673,46.849962222]],[[1.72673,46.849962222],[1.725552778,46.849236667]],[[1.725552778,46.849236667],[1.724596389,46.848645556]],[[1.724596389,46.848645556],[1.724251667,46.848428056]],[[1.724251667,46.848428056],[1.7235625,46.848003056]],[[1.7235625,46.848003056],[1.723414722,46.847912778]],[[1.723414722,46.847912778],[1.723328611,46.847855833]],[[1.723328611,46.847855833],[1.723094722,46.847724722]],[[1.723094722,46.847724722],[1.722878889,46.847658889]],[[1.722878889,46.847658889],[1.722668889,46.847601111]],[[1.722668889,46.847601111],[1.722436111,46.847574167]],[[1.722436111,46.847574167],[1.7223475,46.847566111]],[[1.7223475,46.847566111],[1.722258889,46.847566111]],[[1.722258889,46.847566111],[1.722179167,46.847568056]],[[1.722179167,46.847568056],[1.722111389,46.847549722]],[[1.722111389,46.847549722],[1.722061111,46.847533611]],[[1.722061111,46.847533611],[1.722025833,46.847499444]],[[1.722025833,46.847499444],[1.722002222,46.847452778]],[[1.721715833,46.847481667],[1.721709444,46.847518056]],[[1.721709444,46.847518056],[1.721699722,46.847548611]],[[1.721699722,46.847548611],[1.721672778,46.847577778]],[[1.721672778,46.847577778],[1.721641111,46.847599444]],[[1.721641111,46.847599444],[1.7216,46.84762]],[[1.7216,46.84762],[1.721557222,46.847625556]],[[1.721557222,46.847625556],[1.7208725,46.847685]],[[1.7208725,46.847685],[1.720838056,46.847686667]],[[1.720838056,46.847686667],[1.720805556,46.847680556]],[[1.720805556,46.847680556],[1.720758889,46.847668611]],[[1.720758889,46.847668611],[1.720731389,46.847653889]],[[1.720731389,46.847653889],[1.7207,46.847634167]],[[1.7207,46.847634167],[1.7206725,46.847610278]],[[1.7206725,46.847610278],[1.720661111,46.847588611]],[[1.720661111,46.847588611],[1.720651111,46.8475725]],[[1.720373333,46.847595278],[1.720373333,46.847629722]],[[1.720373333,46.847629722],[1.720356667,46.847663889]],[[1.720356667,46.847663889],[1.720326667,46.847699444]],[[1.720326667,46.847699444],[1.720286389,46.847721111]],[[1.720286389,46.847721111],[1.720229722,46.847737222]],[[1.720229722,46.847737222],[1.720151111,46.847745]],[[1.720151111,46.847745],[1.719978889,46.847764444]],[[1.719978889,46.847764444],[1.719861944,46.847786111]],[[1.719861944,46.847786111],[1.719743056,46.847813611]],[[1.719743056,46.847813611],[1.719624444,46.847849167]],[[1.719624444,46.847849167],[1.719435,46.847924722]],[[1.719435,46.847924722],[1.719284167,46.848000556]],[[1.719284167,46.848000556],[1.719183056,46.848063889]],[[1.719183056,46.848063889],[1.719110833,46.848116944]],[[1.719110833,46.848116944],[1.718986111,46.848230556]],[[1.718986111,46.848230556],[1.718926667,46.848296944]],[[1.718926667,46.848296944],[1.718826111,46.848438056]],[[1.718826111,46.848438056],[1.718765833,46.848561111]],[[1.718765833,46.848561111],[1.718728056,46.848677222]],[[1.718728056,46.848677222],[1.718714444,46.848788611]],[[1.718714444,46.848788611],[1.7187075,46.848869722]],[[1.7187075,46.848869722],[1.718715556,46.848944444]],[[1.718715556,46.848944444],[1.718724167,46.849035556]],[[1.718724167,46.849035556],[1.718720833,46.849095278]],[[1.718720833,46.849095278],[1.718698333,46.849148056]],[[1.718698333,46.849148056],[1.718667778,46.849220556]],[[1.718667778,46.849220556],[1.718624722,46.849281389]],[[1.718624722,46.849281389],[1.718568333,46.849336389]],[[1.718568333,46.849336389],[1.718523889,46.849375]],[[1.718523889,46.849375],[1.718450278,46.849413611]],[[1.718450278,46.849413611],[1.718423056,46.849390278]],[[1.718423056,46.849390278],[1.718392222,46.849408889]],[[1.727606111,46.859000556],[1.727668056,46.859036111]],[[1.727668056,46.859036111],[1.727756111,46.859066389]],[[1.727756111,46.859066389],[1.727847222,46.859088611]],[[1.727847222,46.859088611],[1.727948333,46.859101944]],[[1.727948333,46.859101944],[1.7280575,46.859108611]],[[1.7280575,46.859108611],[1.728155278,46.859098611]],[[1.728155278,46.859098611],[1.728233611,46.859088611]],[[1.728233611,46.859088611],[1.728316667,46.859064167]],[[1.728316667,46.859064167],[1.728386667,46.859042778]],[[1.728386667,46.859042778],[1.728456667,46.859005]],[[1.728456667,46.859005],[1.728569444,46.858932778]],[[1.728569444,46.858932778],[1.728675278,46.858852778]],[[1.728675278,46.858852778],[1.728749167,46.858783333]],[[1.728749167,46.858783333],[1.7288125,46.858710278]],[[1.7288125,46.858710278],[1.728864444,46.858638889]],[[1.728864444,46.858638889],[1.728918611,46.858535278]],[[1.728918611,46.858535278],[1.728945278,46.8584525]],[[1.728945278,46.8584525],[1.728957222,46.858370556]],[[1.728957222,46.858370556],[1.728965278,46.858296944]],[[1.728965278,46.858296944],[1.728965278,46.858201111]],[[1.728965278,46.858201111],[1.728954167,46.858069167]],[[1.728954167,46.858069167],[1.728943056,46.8579125]],[[1.728943056,46.8579125],[1.728924722,46.857584167]],[[1.728924722,46.857584167],[1.728924722,46.857516389]],[[1.728924722,46.857516389],[1.728920833,46.857379444]],[[1.728920833,46.857379444],[1.728928333,46.857213889]],[[1.728928333,46.857213889],[1.728935833,46.857055278]],[[1.728935833,46.857055278],[1.728926667,46.8568625]],[[1.728926667,46.8568625],[1.728905278,46.856609167]],[[1.728905278,46.856609167],[1.728874722,46.856366111]],[[1.728874722,46.856366111],[1.7288225,46.855670278]],[[1.7288225,46.855670278],[1.728805833,46.855644722]],[[1.728805833,46.855644722],[1.728775,46.855616389]],[[1.728775,46.855616389],[1.7287375,46.855598056]],[[1.7287375,46.855598056],[1.728683611,46.8555825]],[[1.728683611,46.8555825],[1.728648611,46.855575278]],[[1.728648611,46.855575278],[1.7286175,46.855573889]],[[1.728600556,46.855381944],[1.728673889,46.855365556]],[[1.728673889,46.855365556],[1.728725556,46.855341667]],[[1.728725556,46.855341667],[1.728760278,46.855312778]],[[1.728760278,46.855312778],[1.7287825,46.855282778]],[[1.7287825,46.855282778],[1.728791667,46.855258889]],[[1.728791667,46.855258889],[1.728795278,46.855216111]],[[1.728795278,46.855216111],[1.728789722,46.85503]],[[1.728789722,46.85503],[1.728600556,46.854896667]],[[1.728600556,46.854896667],[1.728558056,46.854898056]],[[1.728539167,46.854555278],[1.728579444,46.854553611]],[[1.728579444,46.854553611],[1.728768889,46.854414444]],[[1.728768889,46.854414444],[1.728759444,46.854343333]],[[1.728759444,46.854343333],[1.728669444,46.854283333]],[[1.728669444,46.854283333],[1.728663611,46.854215]],[[1.728663611,46.854215],[1.728482778,46.854088056]],[[1.728519167,46.853594167],[1.728706667,46.853585278]],[[1.728706667,46.853585278],[1.728699167,46.8534425]],[[1.728699167,46.8534425],[1.728672778,46.853092778]],[[1.728672778,46.853092778],[1.728652778,46.852993333]],[[1.728652778,46.852993333],[1.7286125,46.852845833]],[[1.7286125,46.852845833],[1.728532222,46.852689722]],[[1.728532222,46.852689722],[1.728474444,46.852585]],[[1.728474444,46.852585],[1.728141389,46.851994722]],[[1.728141389,46.851994722],[1.728003056,46.851731944]],[[1.728003056,46.851731944],[1.727929167,46.851601389]],[[1.727929167,46.851601389],[1.727736389,46.851252222]],[[1.727736389,46.851252222],[1.727540278,46.850900833]],[[1.727540278,46.850900833],[1.727480556,46.8508175]],[[1.727480556,46.8508175],[1.727420833,46.850752778]],[[1.727420833,46.850752778],[1.727302222,46.850636389]],[[1.727302222,46.850636389],[1.727225833,46.850566111]],[[1.727225833,46.850566111],[1.727063333,46.850451389]],[[1.727063333,46.850451389],[1.727006944,46.850493611]],[[1.726345278,46.850136667],[1.726335,46.850087778]],[[1.726335,46.850087778],[1.726255278,46.850037222]],[[1.726255278,46.850037222],[1.726248889,46.849943611]],[[1.726248889,46.849943611],[1.726088611,46.84984]],[[1.726088611,46.84984],[1.726047222,46.849825278]],[[1.726047222,46.849825278],[1.726000556,46.849814167]],[[1.726000556,46.849814167],[1.725950278,46.849812778]],[[1.725950278,46.849812778],[1.725918056,46.849820278]],[[1.725918056,46.849820278],[1.725878611,46.849826389]],[[1.725878611,46.849826389],[1.725831944,46.849846111]],[[1.725831944,46.849846111],[1.725803056,46.849865556]],[[1.725583333,46.849739722],[1.72562,46.849708056]],[[1.72562,46.849708056],[1.725643056,46.849682778]],[[1.725643056,46.849682778],[1.725646389,46.849661667]],[[1.725646389,46.849661667],[1.7256525,46.849638611]],[[1.7256525,46.849638611],[1.725650833,46.8496125]],[[1.725650833,46.8496125],[1.725643333,46.849590278]],[[1.725643333,46.849590278],[1.725635556,46.849570278]],[[1.725635556,46.849570278],[1.725606389,46.849543889]],[[1.725606389,46.849543889],[1.725573889,46.849519722]],[[1.725573889,46.849519722],[1.725398611,46.849408333]],[[1.725398611,46.849408333],[1.725308056,46.849351111]],[[1.725308056,46.849351111],[1.725263889,46.849329722]],[[1.725263889,46.849329722],[1.7252225,46.849316111]],[[1.7252225,46.849316111],[1.725182778,46.849309167]],[[1.725182778,46.849309167],[1.72514,46.849310278]],[[1.72514,46.849310278],[1.725097222,46.849318056]],[[1.725097222,46.849318056],[1.725055833,46.849326944]],[[1.725055833,46.849326944],[1.725021667,46.849349167]],[[1.724802778,46.849219722],[1.724828333,46.849192778]],[[1.724828333,46.849192778],[1.724845,46.849172222]],[[1.724845,46.849172222],[1.72485,46.8491525]],[[1.72485,46.8491525],[1.724855278,46.8491275]],[[1.724855278,46.8491275],[1.7248475,46.849096111]],[[1.7248475,46.849096111],[1.724838333,46.849073056]],[[1.724838333,46.849073056],[1.72482,46.849050556]],[[1.72482,46.849050556],[1.72479,46.849029167]],[[1.72479,46.849029167],[1.724691944,46.848970278]],[[1.724691944,46.848970278],[1.724416111,46.848804722]],[[1.724416111,46.848804722],[1.724067778,46.848589167]],[[1.724067778,46.848589167],[1.723646944,46.848325556]],[[1.723646944,46.848325556],[1.723293611,46.848104444]],[[1.723293611,46.848104444],[1.723065278,46.8479725]],[[1.723065278,46.8479725],[1.722942778,46.847906944]],[[1.722942778,46.847906944],[1.722824167,46.847863333]],[[1.722824167,46.847863333],[1.722723056,46.847831944]],[[1.722723056,46.847831944],[1.722629167,46.84781]],[[1.722629167,46.84781],[1.722446389,46.847781389]],[[1.722446389,46.847781389],[1.722303056,46.847773056]],[[1.722303056,46.847773056],[1.722163056,46.847775556]],[[1.722163056,46.847775556],[1.721918611,46.847796111]],[[1.721918611,46.847796111],[1.721638889,46.847820278]],[[1.721638889,46.847820278],[1.721566389,46.847827222]],[[1.721566389,46.847827222],[1.721500833,46.847843333]],[[1.721500833,46.847843333],[1.721458611,46.847871111]],[[1.721458611,46.847871111],[1.721426667,46.847898889]],[[1.721426667,46.847898889],[1.721411389,46.847940278]],[[1.721411389,46.847940278],[1.721408056,46.847973611]]]}},{"type":"Feature","id":"lflx.line.linework.apron.surface.46682","properties":{"name":"LFLX Groundlayout Chateauroux Deols","layer":"Ground linework","category":"Apron Surface","object_type":"Line","style_id":"line.linework.apron.surface","airport":"LFLX","geometry_role":"linework","vsmr_group_ids":[]},"geometry":{"type":"MultiLineString","coordinates":[[[1.716181944,46.854047222],[1.716715556,46.855296111]],[[1.716715556,46.855296111],[1.716750556,46.855405833]],[[1.716750556,46.855405833],[1.716755556,46.855484722]],[[1.716755556,46.855484722],[1.716725556,46.855560278]],[[1.716725556,46.855560278],[1.716665278,46.855632222]],[[1.716665278,46.855632222],[1.71659,46.85567]],[[1.71659,46.85567],[1.716524722,46.855697222]],[[1.716524722,46.855697222],[1.716414444,46.855717778]],[[1.716414444,46.855717778],[1.715128889,46.856007778]],[[1.715128889,46.856007778],[1.715063333,46.856049167]],[[1.715063333,46.856049167],[1.715028056,46.856090556]],[[1.715028056,46.856090556],[1.715002778,46.856138889]],[[1.715002778,46.856138889],[1.715027778,46.856194167]],[[1.715027778,46.856194167],[1.715189444,46.856525556]],[[1.715189444,46.856525556],[1.716234167,46.856311389]],[[1.716234167,46.856311389],[1.716929722,46.857943611]],[[1.716929722,46.857943611],[1.714938889,46.858342778]],[[1.714938889,46.858342778],[1.715299167,46.859074444]],[[1.715299167,46.859074444],[1.716637778,46.858802222]],[[1.716637778,46.858802222],[1.716673889,46.85886]],[[1.716673889,46.85886],[1.716746111,46.858888889]],[[1.716746111,46.858888889],[1.716830556,46.858880556]],[[1.716830556,46.858880556],[1.716975278,46.858880833]],[[1.716975278,46.858880833],[1.717113889,46.858905556]],[[1.717113889,46.858905556],[1.717246667,46.8589425]],[[1.717246667,46.8589425],[1.717367222,46.859000278]],[[1.717367222,46.859000278],[1.717469722,46.859086944]],[[1.717469722,46.859086944],[1.717560278,46.859169444]],[[1.717560278,46.859169444],[1.717668611,46.859276667]],[[1.717668611,46.859276667],[1.717925556,46.859563056]],[[1.717925556,46.859563056],[1.717989167,46.859600556]],[[1.717989167,46.859600556],[1.71805,46.859631667]],[[1.71805,46.859631667],[1.718135,46.859664722]],[[1.718135,46.859664722],[1.718216667,46.859698056]],[[1.718216667,46.859698056],[1.718316944,46.859735278]],[[1.718316944,46.859735278],[1.718398889,46.859751944]],[[1.718398889,46.859751944],[1.718468611,46.859756111]],[[1.718468611,46.859756111],[1.718541389,46.859762222]],[[1.718541389,46.859762222],[1.718614167,46.859756111]],[[1.718614167,46.859756111],[1.718705278,46.859747778]],[[1.718705278,46.859747778],[1.718778056,46.859735278]],[[1.718778056,46.859735278],[1.718866111,46.859718889]],[[1.718866111,46.859718889],[1.718969167,46.859685556]],[[1.718969167,46.859685556],[1.719679444,46.859355833]],[[1.719679444,46.859355833],[1.720285556,46.859076111]],[[1.720285556,46.859076111],[1.720329167,46.859056389]],[[1.720329167,46.859056389],[1.720387222,46.859049167]],[[1.720387222,46.859049167],[1.720439167,46.859049167]],[[1.720439167,46.859049167],[1.720493056,46.859056389]],[[1.720493056,46.859056389],[1.720528333,46.859076111]],[[1.720528333,46.859076111],[1.720571944,46.859117222]],[[1.720571944,46.859117222],[1.7210875,46.859623333]],[[1.7210875,46.859623333],[1.721100556,46.859654444]],[[1.721100556,46.859654444],[1.721102778,46.8596825]],[[1.721102778,46.8596825],[1.721098333,46.859716667]],[[1.721098333,46.859716667],[1.721074444,46.859753611]],[[1.721074444,46.859753611],[1.721041944,46.859780556]],[[1.721041944,46.859780556],[1.720994444,46.859801111]],[[1.720994444,46.859801111],[1.720820833,46.859873889]],[[1.720820833,46.859873889],[1.721048611,46.8601125]],[[1.721048611,46.8601125],[1.721225556,46.860312222]],[[1.721225556,46.860312222],[1.721474444,46.860200556]],[[1.721474444,46.860200556],[1.721523056,46.860198889]],[[1.721523056,46.860198889],[1.721564444,46.860200556]],[[1.721564444,46.860200556],[1.721603611,46.860212222]],[[1.721603611,46.860212222],[1.721645,46.860228889]],[[1.721645,46.860228889],[1.721676667,46.860242222]],[[1.721676667,46.860242222],[1.721703611,46.860272222]],[[1.721703611,46.860272222],[1.721833333,46.860409722]],[[1.721833333,46.860409722],[1.721844444,46.860453889]],[[1.721844444,46.860453889],[1.721836111,46.860496389]],[[1.721836111,46.860496389],[1.721819167,46.860528889]],[[1.721819167,46.860528889],[1.721802222,46.860557778]],[[1.721802222,46.860557778],[1.721768611,46.860576944]],[[1.721768611,46.860576944],[1.7217125,46.860588611]],[[1.7217125,46.860588611],[1.721465,46.860498056]],[[1.721465,46.860498056],[1.721400278,46.860523056]],[[1.721400278,46.860523056],[1.721613889,46.860644167]],[[1.721613889,46.860644167],[1.721515556,46.860696111]],[[1.721515556,46.860696111],[1.722139722,46.8613225]],[[1.722139722,46.8613225],[1.722503889,46.861157222]],[[1.722503889,46.861157222],[1.722569444,46.861148889]],[[1.722569444,46.861148889],[1.722618611,46.861168611]],[[1.722618611,46.861168611],[1.722659444,46.861190833]],[[1.722659444,46.861190833],[1.722684167,46.861227222]],[[1.722684167,46.861227222],[1.723334722,46.861879444]],[[1.723334722,46.861879444],[1.724692778,46.8633175]],[[1.724692778,46.8633175],[1.725466667,46.862977778]],[[1.725466667,46.862977778],[1.725760833,46.862846944]],[[1.725760833,46.862846944],[1.725906111,46.862775278]],[[1.725906111,46.862775278],[1.725970278,46.862750833]],[[1.725970278,46.862750833],[1.726017778,46.862737778]],[[1.726017778,46.862737778],[1.726058333,46.862731389]],[[1.726058333,46.862731389],[1.726103611,46.862726389]],[[1.726103611,46.862726389],[1.726127222,46.862734444]],[[1.728618333,46.855575278],[1.728590556,46.855579444]],[[1.728590556,46.855579444],[1.728540556,46.855590556]],[[1.728540556,46.855590556],[1.728505,46.8556075]],[[1.728505,46.8556075],[1.72848,46.855623333]],[[1.72848,46.855623333],[1.728458611,46.855644444]],[[1.728458611,46.855644444],[1.728448056,46.855662222]],[[1.728448056,46.855662222],[1.728436667,46.855691111]],[[1.728436667,46.855691111],[1.728435556,46.85572]],[[1.728435556,46.85572],[1.7284375,46.855750833]],[[1.7284375,46.855750833],[1.728441111,46.855852778]],[[1.728441111,46.855852778],[1.7279125,46.855864167]],[[1.7279125,46.855864167],[1.727884167,46.855630833]],[[1.727884167,46.855630833],[1.7276075,46.855640833]],[[1.7276075,46.855640833],[1.7276025,46.855370556]],[[1.7276025,46.855370556],[1.727856667,46.855360556]],[[1.727856667,46.855360556],[1.727855556,46.855126667]],[[1.727855556,46.855126667],[1.728401111,46.855108333]],[[1.728401111,46.855108333],[1.728401111,46.855246944]],[[1.728401111,46.855246944],[1.728412222,46.855286389]],[[1.728412222,46.855286389],[1.728432222,46.85532]],[[1.728432222,46.85532],[1.728456944,46.855342778]],[[1.728456944,46.855342778],[1.728490278,46.855361111]],[[1.728490278,46.855361111],[1.728515278,46.855368611]],[[1.728515278,46.855368611],[1.728546667,46.855378056]],[[1.728546667,46.855378056],[1.728580278,46.855381111]],[[1.728580278,46.855381111],[1.728600556,46.855384167]],[[1.728559167,46.854898056],[1.728066389,46.854915556]],[[1.728066389,46.854915556],[1.72789,46.855065833]],[[1.72789,46.855065833],[1.727686389,46.855069167]],[[1.727686389,46.855069167],[1.727681944,46.855129444]],[[1.727681944,46.855129444],[1.727121944,46.855139444]],[[1.727121944,46.855139444],[1.727098611,46.854388889]],[[1.727098611,46.854388889],[1.727741111,46.854370278]],[[1.727741111,46.854370278],[1.727938611,46.854501111]],[[1.727938611,46.854501111],[1.728214167,46.854490833]],[[1.728214167,46.854490833],[1.728307778,46.8545625]],[[1.728307778,46.8545625],[1.728549444,46.854553889]],[[1.7284825,46.854088056],[1.728461111,46.854093889]],[[1.728461111,46.854093889],[1.728426944,46.854113889]],[[1.728426944,46.854113889],[1.728400833,46.854137778]],[[1.728400833,46.854137778],[1.728382222,46.854161944]],[[1.728382222,46.854161944],[1.728368611,46.854195278]],[[1.728368611,46.854195278],[1.728368611,46.8542325]],[[1.728368611,46.8542325],[1.728372222,46.854353611]],[[1.728372222,46.854353611],[1.727960278,46.854365]],[[1.727960278,46.854365],[1.727810278,46.854369722]],[[1.727810278,46.854369722],[1.727479722,46.854175278]],[[1.727479722,46.854175278],[1.727472222,46.853623056]],[[1.727472222,46.853623056],[1.728525,46.853594167]],[[1.729233056,46.8545825],[1.730206111,46.854563611]],[[1.730206111,46.854563611],[1.730206111,46.854581111]],[[1.730206111,46.854581111],[1.730260278,46.854581111]],[[1.730260278,46.854581111],[1.730268333,46.854705]],[[1.730268333,46.854705],[1.73153,46.854670833]],[[1.73153,46.854670833],[1.731462778,46.8537825]],[[1.731462778,46.8537825],[1.730144167,46.853829444]],[[1.730144167,46.853829444],[1.730196667,46.854423889]],[[1.730196667,46.854423889],[1.729244444,46.854449167]],[[1.728535833,46.851737778],[1.728570556,46.851733611]],[[1.728570556,46.851733611],[1.728620278,46.851736389]],[[1.728620278,46.851736389],[1.728661944,46.851739167]],[[1.728661944,46.851739167],[1.7286975,46.851748889]],[[1.7286975,46.851748889],[1.728725833,46.85176]],[[1.728725833,46.85176],[1.728754444,46.851776667]],[[1.728754444,46.851776667],[1.728774722,46.851796111]],[[1.728774722,46.851796111],[1.728796944,46.851821667]],[[1.728796944,46.851821667],[1.728868056,46.851946944]],[[1.728868056,46.851946944],[1.729379167,46.851810833]],[[1.729379167,46.851810833],[1.728982222,46.851107778]],[[1.728982222,46.851107778],[1.728473889,46.851251111]],[[1.728473889,46.851251111],[1.728551944,46.8513925]],[[1.728551944,46.8513925],[1.728555556,46.851415556]],[[1.728555556,46.851415556],[1.728553056,46.851441944]],[[1.728553056,46.851441944],[1.728546944,46.851468611]],[[1.728546944,46.851468611],[1.728533056,46.851493333]],[[1.728533056,46.851493333],[1.728509444,46.851515556]],[[1.728509444,46.851515556],[1.728469444,46.851537778]],[[1.728469444,46.851537778],[1.728431389,46.851551389]],[[1.727008889,46.850491389],[1.726236667,46.851087778]],[[1.726236667,46.851087778],[1.725636944,46.850716111]],[[1.725636944,46.850716111],[1.725628611,46.850425556]],[[1.725628611,46.850425556],[1.725990556,46.850150833]],[[1.725990556,46.850150833],[1.726170556,46.850250556]],[[1.726170556,46.850250556],[1.726210556,46.850266111]],[[1.726210556,46.850266111],[1.726254167,46.850271389]],[[1.726254167,46.850271389],[1.726303333,46.850268889]],[[1.726303333,46.850268889],[1.726350833,46.850261111]],[[1.726350833,46.850261111],[1.726346944,46.850132778]],[[1.725803056,46.849865278],[1.725371111,46.850201389]],[[1.725371111,46.850201389],[1.725329167,46.850228611]],[[1.725329167,46.850228611],[1.725306667,46.850256944]],[[1.725306667,46.850256944],[1.725295278,46.850285556]],[[1.725295278,46.850285556],[1.725285278,46.850319444]],[[1.725285278,46.850319444],[1.725294167,46.850351111]],[[1.725294167,46.850351111],[1.725314722,46.850383333]],[[1.725314722,46.850383333],[1.725512778,46.850509444]],[[1.725512778,46.850509444],[1.725156944,46.850790833]],[[1.725156944,46.850790833],[1.724334444,46.850290556]],[[1.724334444,46.850290556],[1.724696944,46.850007778]],[[1.724696944,46.850007778],[1.724895278,46.850121389]],[[1.724895278,46.850121389],[1.724952778,46.850133056]],[[1.724952778,46.850133056],[1.725023056,46.850128889]],[[1.725023056,46.850128889],[1.725078611,46.850112778]],[[1.725078611,46.850112778],[1.725136111,46.850076389]],[[1.725136111,46.850076389],[1.725584167,46.849738333]],[[1.725024167,46.849348889],[1.725005278,46.849368333]],[[1.725005278,46.849368333],[1.724979722,46.849404167]],[[1.724979722,46.849404167],[1.72497,46.849435]],[[1.72497,46.849435],[1.724970833,46.849466111]],[[1.724970833,46.849466111],[1.724981389,46.849492222]],[[1.724981389,46.849492222],[1.7249975,46.849518056]],[[1.7249975,46.849518056],[1.725028333,46.849543056]],[[1.725028333,46.849543056],[1.725182222,46.849639444]],[[1.725182222,46.849639444],[1.724813333,46.849917222]],[[1.724813333,46.849917222],[1.7245475,46.849758611]],[[1.7245475,46.849758611],[1.724373056,46.849890278]],[[1.724373056,46.849890278],[1.724075,46.849712222]],[[1.724075,46.849712222],[1.724251111,46.849576667]],[[1.724251111,46.849576667],[1.723985278,46.849417778]],[[1.723985278,46.849417778],[1.724366111,46.849133611]],[[1.724366111,46.849133611],[1.724544722,46.849245]],[[1.724544722,46.849245],[1.7246,46.849257778]],[[1.7246,46.849257778],[1.724650556,46.849265278]],[[1.724650556,46.849265278],[1.724704444,46.849258889]],[[1.724704444,46.849258889],[1.724753333,46.849249167]],[[1.724753333,46.849249167],[1.724779444,46.849235833]],[[1.724779444,46.849235833],[1.724804444,46.849217222]],[[1.721408056,46.8479725],[1.721412778,46.847998333]],[[1.721412778,46.847998333],[1.721429167,46.848023889]],[[1.721429167,46.848023889],[1.721448611,46.848043611]],[[1.721448611,46.848043611],[1.721478611,46.848064167]],[[1.721478611,46.848064167],[1.7215075,46.8480775]],[[1.7215075,46.8480775],[1.721544722,46.848088611]],[[1.721544722,46.848088611],[1.721587222,46.848095]],[[1.721587222,46.848095],[1.721625278,46.848096111]],[[1.721625278,46.848096111],[1.721667778,46.848093889]],[[1.721667778,46.848093889],[1.721726667,46.848086944]],[[1.721726667,46.848086944],[1.7218375,46.848076389]],[[1.7218375,46.848076389],[1.721898333,46.848373333]],[[1.721898333,46.848373333],[1.722070278,46.848436667]],[[1.722070278,46.848436667],[1.722095833,46.848566111]],[[1.722095833,46.848566111],[1.720872222,46.848670833]],[[1.720872222,46.848670833],[1.720848611,46.848544167]],[[1.720848611,46.848544167],[1.720805,46.848486667]],[[1.720805,46.848486667],[1.72077,46.848208056]],[[1.72077,46.848208056],[1.720816667,46.848170278]],[[1.720816667,46.848170278],[1.720953333,46.848152222]],[[1.720953333,46.848152222],[1.721013333,46.848140278]],[[1.721013333,46.848140278],[1.7210425,46.848127778]],[[1.7210425,46.848127778],[1.721071667,46.848112222]],[[1.721071667,46.848112222],[1.721091111,46.848093056]],[[1.721091111,46.848093056],[1.721109722,46.848068611]],[[1.721109722,46.848068611],[1.721121389,46.848043333]],[[1.721121389,46.848043333],[1.7211225,46.848019722]],[[1.7211225,46.848019722],[1.721123611,46.848000556]],[[1.722002778,46.847453333],[1.722001944,46.847431944]],[[1.722001944,46.847431944],[1.722003889,46.847412222]],[[1.722003889,46.847412222],[1.722015833,46.847388611]],[[1.722015833,46.847388611],[1.722029444,46.847368056]],[[1.722029444,46.847368056],[1.722049722,46.847348611]],[[1.722049722,46.847348611],[1.722073889,46.847329444]],[[1.722073889,46.847329444],[1.722107778,46.847312778]],[[1.722107778,46.847312778],[1.722144167,46.847301667]],[[1.722144167,46.847301667],[1.722197778,46.847295833]],[[1.722197778,46.847295833],[1.722247222,46.84729]],[[1.722247222,46.84729],[1.722387222,46.847276389]],[[1.722387222,46.847276389],[1.722349167,46.847067222]],[[1.722349167,46.847067222],[1.722098333,46.847075556]],[[1.722098333,46.847075556],[1.722080278,46.846967778]],[[1.722080278,46.846967778],[1.721906944,46.846976111]],[[1.721906944,46.846976111],[1.721916944,46.847091944]],[[1.721916944,46.847091944],[1.721769444,46.847109444]],[[1.721769444,46.847109444],[1.721755556,46.847102778]],[[1.721755556,46.847102778],[1.721739444,46.847090556]],[[1.721739444,46.847090556],[1.721709722,46.846976111]],[[1.721709722,46.846976111],[1.721665833,46.846970556]],[[1.721665833,46.846970556],[1.721243611,46.847012222]],[[1.721243611,46.847012222],[1.721298611,46.847375]],[[1.721298611,46.847375],[1.721533333,46.847355]],[[1.721533333,46.847355],[1.721576111,46.847360278]],[[1.721576111,46.847360278],[1.721614444,46.847370833]],[[1.721614444,46.847370833],[1.721651389,46.847389722]],[[1.721651389,46.847389722],[1.721677222,46.847411667]],[[1.721677222,46.847411667],[1.721705,46.847436667]],[[1.721705,46.847436667],[1.721712222,46.84746]],[[1.721712222,46.84746],[1.721714722,46.847483333]],[[1.720650833,46.847573056],[1.72065,46.847558333]],[[1.72065,46.847558333],[1.720655833,46.847532778]],[[1.720655833,46.847532778],[1.720666389,46.8475075]],[[1.720666389,46.8475075],[1.720683056,46.847483333]],[[1.720683056,46.847483333],[1.720708333,46.847461667]],[[1.720708333,46.847461667],[1.72074,46.847443611]],[[1.72074,46.847443611],[1.720776667,46.847426944]],[[1.720776667,46.847426944],[1.720815,46.847417222]],[[1.720815,46.847417222],[1.720903333,46.847410278]],[[1.720903333,46.847410278],[1.721027222,46.847399444]],[[1.721027222,46.847399444],[1.721021667,46.847298056]],[[1.721021667,46.847298056],[1.720977222,46.847035278]],[[1.720977222,46.847035278],[1.720480556,46.847069444]],[[1.720480556,46.847069444],[1.719869722,46.847123611]],[[1.719869722,46.847123611],[1.719921944,46.847410556]],[[1.719921944,46.847410556],[1.7199425,46.847492778]],[[1.7199425,46.847492778],[1.720146944,46.847476111]],[[1.720146944,46.847476111],[1.720196944,46.847475278]],[[1.720196944,46.847475278],[1.720237778,46.847480556]],[[1.720237778,46.847480556],[1.720278611,46.847492778]],[[1.720278611,46.847492778],[1.720313333,46.847511944]],[[1.720313333,46.847511944],[1.720353889,46.847551389]],[[1.720353889,46.847551389],[1.720367222,46.847577778]],[[1.720367222,46.847577778],[1.720372778,46.8475975]],[[1.714763333,46.8509875],[1.713359167,46.851469444]],[[1.713359167,46.851469444],[1.713035278,46.851570833]],[[1.713035278,46.851570833],[1.713529722,46.8526025]],[[1.713529722,46.8526025],[1.713631667,46.852582778]],[[1.713631667,46.852582778],[1.713694722,46.852715556]],[[1.713694722,46.852715556],[1.7144125,46.852569444]],[[1.7144125,46.852569444],[1.714849167,46.852485278]],[[1.714849167,46.852485278],[1.714943611,46.852474444]],[[1.714943611,46.852474444],[1.715008333,46.852471944]],[[1.715008333,46.852471944],[1.715083056,46.852473056]],[[1.715083056,46.852473056],[1.715153611,46.8524825]],[[1.715153611,46.8524825],[1.715228333,46.8525]],[[1.715228333,46.8525],[1.715308889,46.852522778]],[[1.715308889,46.852522778],[1.715379722,46.852549722]],[[1.715379722,46.852549722],[1.715430833,46.852573889]],[[1.715430833,46.852573889],[1.715466111,46.852599444]],[[1.715466111,46.852599444],[1.715501944,46.852625278]]]}},{"type":"Feature","id":"lflx.line.linework.stopbar.47004","properties":{"name":"LFLX Groundlayout Chateauroux Deols","layer":"Ground linework","category":"Stopbar","object_type":"Line","style_id":"line.linework.stopbar","airport":"LFLX","geometry_role":"linework","vsmr_group_ids":[]},"geometry":{"type":"MultiLineString","coordinates":[[[1.735025278,46.869876389],[1.734463611,46.869256111]],[[1.716325278,46.8502925],[1.716645833,46.850625278]],[[1.719117778,46.848111111],[1.71934,46.848241667]],[[1.721422778,46.855641111],[1.721673056,46.855905556]],[[1.725761667,46.8601625],[1.726002778,46.860420833]],[[1.728958333,46.858362778],[1.729265278,46.858389167]]]}},{"type":"Feature","id":"lflx.line.linework.twr.ctr.47010","properties":{"name":"LFLX Groundlayout Chateauroux Deols","layer":"Ground linework","category":"TWR CTR","object_type":"Line","style_id":"line.linework.twr.ctr","airport":"LFLX","geometry_role":"linework","vsmr_group_ids":[]},"geometry":{"type":"MultiLineString","coordinates":[[[1.721093056,46.860340278],[1.721143333,46.860396111]],[[1.721143333,46.860396111],[1.721285833,46.860333889]],[[1.721285833,46.860333889],[1.721295,46.8603175]],[[1.721295,46.8603175],[1.721258611,46.860281111]],[[1.721258611,46.860281111],[1.721231389,46.860275833]],[[1.721231389,46.860275833],[1.721093056,46.860340278]]]}},{"type":"Feature","id":"lflx.line.linework.labels.47016","properties":{"name":"LFLX Groundlayout Chateauroux Deols","layer":"Ground linework","category":"Labels","object_type":"Line","style_id":"line.linework.labels","airport":"LFLX","geometry_role":"linework","vsmr_group_ids":[]},"geometry":{"type":"MultiLineString","coordinates":[[[1.742776389,46.875580833],[1.742796111,46.875572222]],[[1.742796111,46.875572222],[1.7426875,46.875461389]],[[1.7426875,46.875461389],[1.742694722,46.8754575]],[[1.742694722,46.8754575],[1.742675556,46.875438889]],[[1.742675556,46.875438889],[1.742664167,46.875436944]],[[1.742664167,46.875436944],[1.742645,46.875445278]],[[1.742645,46.875445278],[1.742776389,46.875580833]],[[1.742714722,46.875413889],[1.742768611,46.87547]],[[1.742768611,46.87547],[1.742843333,46.875473056]],[[1.742843333,46.875473056],[1.742874167,46.875505556]],[[1.742874167,46.875505556],[1.742825,46.875525833]],[[1.742825,46.875525833],[1.742849722,46.875550556]],[[1.742849722,46.875550556],[1.742918611,46.87552]],[[1.742918611,46.87552],[1.742856944,46.875456389]],[[1.742856944,46.875456389],[1.742782222,46.875453333]],[[1.742782222,46.875453333],[1.742759167,46.875429167]],[[1.742759167,46.875429167],[1.742785,46.875418056]],[[1.742785,46.875418056],[1.742797222,46.875430278]],[[1.742797222,46.875430278],[1.742819167,46.875421389]],[[1.742819167,46.875421389],[1.742784444,46.875383056]],[[1.742784444,46.875383056],[1.742714722,46.875413889]],[[1.71847,46.850108889],[1.718496111,46.850096389]],[[1.718496111,46.850096389],[1.718414444,46.850008333]],[[1.718414444,46.850008333],[1.7183875,46.850020556]],[[1.7183875,46.850020556],[1.71847,46.850108889]],[[1.718473889,46.850140833],[1.718538056,46.850111389]],[[1.718538056,46.850111389],[1.718411111,46.849973333]],[[1.718411111,46.849973333],[1.718344722,46.850005556]],[[1.718344722,46.850005556],[1.718473889,46.850140833]],[[1.718588056,46.850089444],[1.718652778,46.850058611]],[[1.718652778,46.850058611],[1.718613333,46.850020833]],[[1.718613333,46.850020833],[1.718578611,46.850015833]],[[1.718578611,46.850015833],[1.718586389,46.84999]],[[1.718586389,46.84999],[1.718525,46.849923333]],[[1.718525,46.849923333],[1.718455556,46.8499525]],[[1.718455556,46.8499525],[1.718481111,46.849978056]],[[1.718481111,46.849978056],[1.718525556,46.849957222]],[[1.718525556,46.849957222],[1.718561944,46.849992778]],[[1.718561944,46.849992778],[1.718550833,46.850027222]],[[1.718550833,46.850027222],[1.7186025,46.850035833]],[[1.7186025,46.850035833],[1.718611389,46.850045]],[[1.718611389,46.850045],[1.718564167,46.850066667]],[[1.718564167,46.850066667],[1.718588056,46.850089444]]]}},{"type":"Feature","id":"LFLX-airport-reference","properties":{"name":"LFLX","layer":"Reference points","category":"Labels","object_type":"Point","style_id":"point.airport.reference.point.labels","airport":"LFLX","geometry_role":"airport_reference_point","text-field":"LFLX","vsmr_group_ids":[]},"geometry":{"type":"Point","coordinates":[1.721110833,46.860277778]}},{"type":"Feature","id":"LFLX-text-lfbb-22021","properties":{"name":"TWR","layer":"Labels","category":"Labels","object_type":"Label","style_id":"label.text.label.labels","airport":"LFLX","geometry_role":"text_label","text-field":"TWR","vsmr_group_ids":[]},"geometry":{"type":"Point","coordinates":[1.720949444,46.860459444]}},{"type":"Feature","id":"LFLX-text-lfbb-22022","properties":{"name":"Terminal","layer":"Labels","category":"Labels","object_type":"Label","style_id":"label.text.label.labels","airport":"LFLX","geometry_role":"text_label","text-field":"Terminal","vsmr_group_ids":[]},"geometry":{"type":"Point","coordinates":[1.719505556,46.859930556]}},{"type":"Feature","id":"LFLX-text-lfbb-22023","properties":{"name":"Parking","layer":"Labels","category":"Labels","object_type":"Label","style_id":"label.text.label.labels","airport":"LFLX","geometry_role":"text_label","text-field":"Parking","vsmr_group_ids":[]},"geometry":{"type":"Point","coordinates":[1.724261389,46.861756389]}},{"type":"Feature","id":"LFLX-text-lfbb-22024","properties":{"name":"Hangar","layer":"Labels","category":"Labels","object_type":"Label","style_id":"label.text.label.labels","airport":"LFLX","geometry_role":"text_label","text-field":"Hangar","vsmr_group_ids":[]},"geometry":{"type":"Point","coordinates":[1.713955,46.8573775]}},{"type":"Feature","id":"LFLX-text-lfbb-22025","properties":{"name":"AVT","layer":"Labels","category":"Labels","object_type":"Label","style_id":"label.text.label.labels","airport":"LFLX","geometry_role":"text_label","text-field":"AVT","vsmr_group_ids":[]},"geometry":{"type":"Point","coordinates":[1.719170556,46.858971944]}},{"type":"Feature","id":"LFLX-text-lfbb-22026","properties":{"name":"1","layer":"Labels","category":"Labels","object_type":"Label","style_id":"label.text.label.labels","airport":"LFLX","geometry_role":"text_label","text-field":"1","vsmr_group_ids":[]},"geometry":{"type":"Point","coordinates":[1.728153611,46.855496667]}},{"type":"Feature","id":"LFLX-text-lfbb-22027","properties":{"name":"2","layer":"Labels","category":"Labels","object_type":"Label","style_id":"label.text.label.labels","airport":"LFLX","geometry_role":"text_label","text-field":"2","vsmr_group_ids":[]},"geometry":{"type":"Point","coordinates":[1.727781389,46.854754167]}},{"type":"Feature","id":"LFLX-text-lfbb-22028","properties":{"name":"3","layer":"Labels","category":"Labels","object_type":"Label","style_id":"label.text.label.labels","airport":"LFLX","geometry_role":"text_label","text-field":"3","vsmr_group_ids":[]},"geometry":{"type":"Point","coordinates":[1.728117778,46.853959444]}},{"type":"Feature","id":"LFLX-text-lfbb-22029","properties":{"name":"6","layer":"Labels","category":"Labels","object_type":"Label","style_id":"label.text.label.labels","airport":"LFLX","geometry_role":"text_label","text-field":"6","vsmr_group_ids":[]},"geometry":{"type":"Point","coordinates":[1.726221944,46.850546667]}},{"type":"Feature","id":"LFLX-text-lfbb-22030","properties":{"name":"5","layer":"Labels","category":"Labels","object_type":"Label","style_id":"label.text.label.labels","airport":"LFLX","geometry_role":"text_label","text-field":"5","vsmr_group_ids":[]},"geometry":{"type":"Point","coordinates":[1.724852222,46.850336111]}},{"type":"Feature","id":"LFLX-text-lfbb-22031","properties":{"name":"4","layer":"Labels","category":"Labels","object_type":"Label","style_id":"label.text.label.labels","airport":"LFLX","geometry_role":"text_label","text-field":"4","vsmr_group_ids":[]},"geometry":{"type":"Point","coordinates":[1.724507778,46.849463611]}},{"type":"Feature","id":"LFLX-text-lfbb-22033","properties":{"name":"SE","layer":"Labels","category":"Labels","object_type":"Label","style_id":"label.text.label.labels","airport":"LFLX","geometry_role":"text_label","text-field":"SE","vsmr_group_ids":[]},"geometry":{"type":"Point","coordinates":[1.830555556,46.741666667]}},{"type":"Feature","id":"LFLX-text-lfbb-22034","properties":{"name":"W","layer":"Labels","category":"Labels","object_type":"Label","style_id":"label.text.label.labels","airport":"LFLX","geometry_role":"text_label","text-field":"W","vsmr_group_ids":[]},"geometry":{"type":"Point","coordinates":[1.530277778,46.850555556]}},{"type":"Feature","id":"LFLX-text-lfbb-22035","properties":{"name":"NW","layer":"Labels","category":"Labels","object_type":"Label","style_id":"label.text.label.labels","airport":"LFLX","geometry_role":"text_label","text-field":"NW","vsmr_group_ids":[]},"geometry":{"type":"Point","coordinates":[1.598611111,46.914722222]}},{"type":"Feature","id":"LFLX-text-lfbb-22036","properties":{"name":"E","layer":"Labels","category":"Labels","object_type":"Label","style_id":"label.text.label.labels","airport":"LFLX","geometry_role":"text_label","text-field":"E","vsmr_group_ids":[]},"geometry":{"type":"Point","coordinates":[1.925,46.821944444]}},{"type":"Feature","id":"LFLX-text-lfbb-22037","properties":{"name":"S","layer":"Labels","category":"Labels","object_type":"Label","style_id":"label.text.label.labels","airport":"LFLX","geometry_role":"text_label","text-field":"S","vsmr_group_ids":[]},"geometry":{"type":"Point","coordinates":[1.583333333,46.699444444]}},{"type":"Feature","id":"LFLX-text-lfbb-22038","properties":{"name":"N","layer":"Labels","category":"Labels","object_type":"Label","style_id":"label.text.label.labels","airport":"LFLX","geometry_role":"text_label","text-field":"N","vsmr_group_ids":[]},"geometry":{"type":"Point","coordinates":[1.6,46.972777778]}},{"type":"Feature","id":"LFLX-text-lfbb-22039","properties":{"name":"NE","layer":"Labels","category":"Labels","object_type":"Label","style_id":"label.text.label.labels","airport":"LFLX","geometry_role":"text_label","text-field":"NE","vsmr_group_ids":[]},"geometry":{"type":"Point","coordinates":[1.997222222,46.938611111]}},{"type":"Feature","id":"LFLX-text-lfbb-22041","properties":{"name":"E","layer":"Labels","category":"Labels","object_type":"Label","style_id":"label.text.label.labels","airport":"LFLX","geometry_role":"text_label","text-field":"E","vsmr_group_ids":[]},"geometry":{"type":"Point","coordinates":[1.715818889,46.8499425]}},{"type":"Feature","id":"LFLX-text-lfbb-22042","properties":{"name":"T4","layer":"Labels","category":"Labels","object_type":"Label","style_id":"label.text.label.labels","airport":"LFLX","geometry_role":"text_label","text-field":"T4","vsmr_group_ids":[]},"geometry":{"type":"Point","coordinates":[1.717008333,46.853546111]}},{"type":"Feature","id":"LFLX-text-lfbb-22043","properties":{"name":"D","layer":"Labels","category":"Labels","object_type":"Label","style_id":"label.text.label.labels","airport":"LFLX","geometry_role":"text_label","text-field":"D","vsmr_group_ids":[]},"geometry":{"type":"Point","coordinates":[1.720878611,46.855279722]}},{"type":"Feature","id":"LFLX-text-lfbb-22044","properties":{"name":"T3","layer":"Labels","category":"Labels","object_type":"Label","style_id":"label.text.label.labels","airport":"LFLX","geometry_role":"text_label","text-field":"T3","vsmr_group_ids":[]},"geometry":{"type":"Point","coordinates":[1.7221625,46.857273611]}},{"type":"Feature","id":"LFLX-text-lfbb-22045","properties":{"name":"C","layer":"Labels","category":"Labels","object_type":"Label","style_id":"label.text.label.labels","airport":"LFLX","geometry_role":"text_label","text-field":"C","vsmr_group_ids":[]},"geometry":{"type":"Point","coordinates":[1.725480278,46.859859444]}},{"type":"Feature","id":"LFLX-text-lfbb-22046","properties":{"name":"T2","layer":"Labels","category":"Labels","object_type":"Label","style_id":"label.text.label.labels","airport":"LFLX","geometry_role":"text_label","text-field":"T2","vsmr_group_ids":[]},"geometry":{"type":"Point","coordinates":[1.730229167,46.865764167]}},{"type":"Feature","id":"LFLX-text-lfbb-22047","properties":{"name":"B","layer":"Labels","category":"Labels","object_type":"Label","style_id":"label.text.label.labels","airport":"LFLX","geometry_role":"text_label","text-field":"B","vsmr_group_ids":[]},"geometry":{"type":"Point","coordinates":[1.734045833,46.8688075]}},{"type":"Feature","id":"LFLX-text-lfbb-22048","properties":{"name":"F","layer":"Labels","category":"Labels","object_type":"Label","style_id":"label.text.label.labels","airport":"LFLX","geometry_role":"text_label","text-field":"F","vsmr_group_ids":[]},"geometry":{"type":"Point","coordinates":[1.729525833,46.858256111]}},{"type":"Feature","id":"LFLX-text-lfbb-22049","properties":{"name":"G","layer":"Labels","category":"Labels","object_type":"Label","style_id":"label.text.label.labels","airport":"LFLX","geometry_role":"text_label","text-field":"G","vsmr_group_ids":[]},"geometry":{"type":"Point","coordinates":[1.719295,46.848623611]}}]}
