{"type":"FeatureCollection","name":"LFLZ AVISO","bbox":[4.195002778,45.702782778,4.199741944,45.709277778],"metadata":{"schema":"vSMR AVISO","schema_version":2,"airport":"LFLZ","coordinate_reference_system":"WGS84","coordinate_order":"longitude, latitude","default_color_palette":"night","color_palettes":["night","day"],"feature_count":2,"style_count":2,"layer_counts":{"Reference points":1,"Runways":1},"category_counts":{"Labels":1,"Runway Markings":1}},"styles":{"line.runway.centerline.runway.markings":{"name":"Runway Markings","layer":"Runways","object_type":"Line","paint":{"stroke":"#FEFEFE","stroke-opacity":1.0,"stroke-width":1.5},"feature_count":1},"point.airport.reference.point.labels":{"name":"Labels","layer":"Reference points","object_type":"Point","paint":{"marker-color":"#808080","marker-size":"small"},"feature_count":1}},"features":[{"type":"Feature","id":"LFLZ-runway-15-33-5305","properties":{"name":"LFLZ RWY 15/33","layer":"Runways","category":"Runway Markings","object_type":"Line","style_id":"line.runway.centerline.runway.markings","airport":"LFLZ","geometry_role":"runway_centerline","vsmr_group_ids":[]},"geometry":{"type":"LineString","coordinates":[[4.195002778,45.709277778],[4.199741944,45.702782778]]}},{"type":"Feature","id":"LFLZ-airport-reference","properties":{"name":"LFLZ","layer":"Reference points","category":"Labels","object_type":"Point","style_id":"point.airport.reference.point.labels","airport":"LFLZ","geometry_role":"airport_reference_point","text-field":"LFLZ","vsmr_group_ids":[]},"geometry":{"type":"Point","coordinates":[4.196943889,45.706666944]}}]}
