{"type":"FeatureCollection","name":"LFMC AVISO","bbox":[6.378527778,43.379611111,6.394555556,43.388388889],"metadata":{"schema":"vSMR AVISO","schema_version":2,"geometry_mode":"shared","airport":"LFMC","coordinate_reference_system":"WGS84","coordinate_order":"longitude, latitude","default_color_palette":"dark","color_palettes":["dark","light"],"background_colors":{"dark":"#434A4F","light":"#434A4F"},"feature_count":3,"style_count":2,"layer_counts":{"Guidance lines":1,"Runways":2},"category_counts":{"Runway centerlines":2,"Runways":1},"runways":[{"ends":["13","31"],"headings":[128,308],"thresholds":[[6.382796944,43.387080833],[6.393066944,43.380913889]]},{"ends":["09","27"],"headings":[86,266],"thresholds":[[6.378696944,43.384555833],[6.388468889,43.384705833]]}],"saved_active_runways":[],"saved_active_airport_modes":[],"geometry_source":"EuroScope sector pack","source_files":{"LFBB.sct":"fc92f16bc65e3a10b9aeb0cf4d1cae1add9856a4f4f2f653af5abaa0d98c77ed","LFBB.ese":"c7c252d4a274f6fd98bcefd2364b7bb9799385a6e602b62ccbe85cc32042ef62","LFBB.rwy":"d9387919da6406482f154f391ab2d20783610a60930f986e160686134ea8a7df","LFEE.sct":"10fcc997213ee24336ef8bd37f3a9423cb07bbdfb57b1494c61b8310b9641d8a","LFEE.ese":"3391dc3a47130a4a8c12ab895a6743c77668044183634bd45d425513ef5baa2f","LFFF.sct":"cb6698888ce3e8e8be34ea45922976a5fb3ebe1baef7814f040c91785f8641f2","LFFF.ese":"0c1e64c4a0524a6cdc30766699492d362f78011da36daeacfde4597a1761b64c","LFFF.rwy":"a12900bf1f18188caf2e598c44e55b2c0c6fb2c66cee43ff843cbe216617ae96","LFMM.sct":"fc0d266315a59cb027803be613657d9e9875a2a4b912535d08d1c7892a53b194","LFMM.ese":"6a319d7f7c1c2f7e457ae789f4aae2feafec03b24f5d3d95752e96922a971c9e","LFMM.rwy":"236563995d9b5be668ee3fc8d653cf8f33f20a511137652b197e5877b85d5693","LFRR.sct":"c5a55173543154d388eb65309d606b41ac5da09af59142e69878a4cde03add83","LFRR.ese":"e4542200e8322297f954327131cfe6e73da3ac264cf5610ff6871309cd6eeb40"},"airport_reference":[6.386943889,43.384721944]},"styles":{"line.runwayconcrete.555555":{"name":"Runways","layer":"Guidance lines","object_type":"Line","paint":{"stroke":"#111318","stroke-opacity":1,"stroke-width":1,"palette-overrides":{"light":{"stroke":"#555555"}}},"feature_count":1},"runway.reference":{"name":"Runway centerlines","layer":"Runways","object_type":"Line","paint":{"stroke":"#CCCCCC","stroke-width":2,"stroke-opacity":1},"feature_count":2}},"vsmr_groups":[],"features":[{"type":"Feature","id":"LFMC-88c8f28b72e25e4bd5a3","properties":{"airport":"LFMC","name":"LFMC Groundlayout Le Luc","layer":"Guidance lines","category":"Runways","object_type":"Line","style_id":"line.runwayconcrete.555555","source_group":"LFMC Groundlayout Le Luc","vsmr_group_ids":[],"geometry_role":"linework"},"geometry":{"type":"MultiLineString","coordinates":[[[6.384472222,43.388388889],[6.394555556,43.382166667]],[[6.381527778,43.385833333],[6.391638889,43.379611111]],[[6.384472222,43.388388889],[6.381527778,43.385833333]],[[6.394555556,43.382166667],[6.391638889,43.379611111]],[[6.378527778,43.386166667],[6.388444444,43.386361111]],[[6.378666667,43.382833333],[6.388555556,43.383027778]],[[6.378527778,43.386166667],[6.378666667,43.382833333]],[[6.388444444,43.386361111],[6.388555556,43.383027778]]]}},{"type":"Feature","id":"LFMC-ffc08fad659bff1d5b87","properties":{"airport":"LFMC","name":"13/31","layer":"Runways","category":"Runway centerlines","object_type":"Line","style_id":"runway.reference","source_group":"LFMC Runways","vsmr_group_ids":[],"geometry_role":"runway_centerline"},"geometry":{"type":"LineString","coordinates":[[6.382796944,43.387080833],[6.393066944,43.380913889]]}},{"type":"Feature","id":"LFMC-05dc96c958bb1a0c2b1c","properties":{"airport":"LFMC","name":"09/27","layer":"Runways","category":"Runway centerlines","object_type":"Line","style_id":"runway.reference","source_group":"LFMC Runways","vsmr_group_ids":[],"geometry_role":"runway_centerline"},"geometry":{"type":"LineString","coordinates":[[6.378696944,43.384555833],[6.388468889,43.384705833]]}}]}
