{"type":"FeatureCollection","name":"LFME AVISO","bbox":[4.194722222,43.644175,4.633333333,43.952777778],"metadata":{"schema":"vSMR AVISO","schema_version":2,"airport":"LFME","coordinate_reference_system":"WGS84","coordinate_order":"longitude, latitude","default_color_palette":"night","color_palettes":["night","day"],"background_colors":{"night":"#434A4F","day":"#434A4F"},"feature_count":10,"style_count":3,"layer_counts":{"Labels":7,"Reference points":1,"Runways":2},"category_counts":{"Labels":8,"Runway Markings":2}},"styles":{"label.text.label.labels":{"name":"Labels","layer":"Labels","object_type":"Label","paint":{"text-anchor":"center","text-color":"#CCCCCC","text-halo-color":"#000000","text-halo-width":1,"text-size":12,"zoomLevel":0},"feature_count":7},"line.runway.centerline.runway.markings":{"name":"Runway Markings","layer":"Runways","object_type":"Line","paint":{"stroke":"#FEFEFE","stroke-opacity":1.0,"stroke-width":1.5},"feature_count":2},"point.airport.reference.point.labels":{"name":"Labels","layer":"Reference points","object_type":"Point","paint":{"marker-color":"#808080","marker-size":"small"},"feature_count":1}},"features":[{"type":"Feature","id":"LFME-runway-18R-36L-5277","properties":{"name":"LFME RWY 18R/36L","layer":"Runways","category":"Runway Markings","object_type":"Line","style_id":"line.runway.centerline.runway.markings","airport":"LFME","geometry_role":"runway_centerline","vsmr_group_ids":[]},"geometry":{"type":"LineString","coordinates":[[4.415602778,43.855905833],[4.415868889,43.851280833]]}},{"type":"Feature","id":"LFME-runway-18L-36R-5278","properties":{"name":"LFME RWY 18L/36R","layer":"Runways","category":"Runway Markings","object_type":"Line","style_id":"line.runway.centerline.runway.markings","airport":"LFME","geometry_role":"runway_centerline","vsmr_group_ids":[]},"geometry":{"type":"LineString","coordinates":[[4.416532778,43.855935833],[4.416796944,43.851293889]]}},{"type":"Feature","id":"LFME-airport-reference","properties":{"name":"LFME","layer":"Reference points","category":"Labels","object_type":"Point","style_id":"point.airport.reference.point.labels","airport":"LFME","geometry_role":"airport_reference_point","text-field":"LFME","vsmr_group_ids":[]},"geometry":{"type":"Point","coordinates":[4.414443889,43.853055833]}},{"type":"Feature","id":"LFME-text-lfmm-21077","properties":{"name":"AL","layer":"Labels","category":"Labels","object_type":"Label","style_id":"label.text.label.labels","airport":"LFME","geometry_role":"text_label","text-field":"AL","vsmr_group_ids":[]},"geometry":{"type":"Point","coordinates":[4.5875,43.666388889]}},{"type":"Feature","id":"LFME-text-lfmm-21078","properties":{"name":"BC","layer":"Labels","category":"Labels","object_type":"Label","style_id":"label.text.label.labels","airport":"LFME","geometry_role":"text_label","text-field":"BC","vsmr_group_ids":[]},"geometry":{"type":"Point","coordinates":[4.633333333,43.830277778]}},{"type":"Feature","id":"LFME-text-lfmm-21079","properties":{"name":"CA","layer":"Labels","category":"Labels","object_type":"Label","style_id":"label.text.label.labels","airport":"LFME","geometry_role":"text_label","text-field":"CA","vsmr_group_ids":[]},"geometry":{"type":"Point","coordinates":[4.194722222,43.779444444]}},{"type":"Feature","id":"LFME-text-lfmm-21080","properties":{"name":"CS","layer":"Labels","category":"Labels","object_type":"Label","style_id":"label.text.label.labels","airport":"LFME","geometry_role":"text_label","text-field":"CS","vsmr_group_ids":[]},"geometry":{"type":"Point","coordinates":[4.478333333,43.952777778]}},{"type":"Feature","id":"LFME-text-lfmm-21081","properties":{"name":"AS","layer":"Labels","category":"Labels","object_type":"Label","style_id":"label.text.label.labels","airport":"LFME","geometry_role":"text_label","text-field":"AS","vsmr_group_ids":[]},"geometry":{"type":"Point","coordinates":[4.213888889,43.681944444]}},{"type":"Feature","id":"LFME-text-lfmm-21082","properties":{"name":"SG","layer":"Labels","category":"Labels","object_type":"Label","style_id":"label.text.label.labels","airport":"LFME","geometry_role":"text_label","text-field":"SG","vsmr_group_ids":[]},"geometry":{"type":"Point","coordinates":[4.432444444,43.644175]}},{"type":"Feature","id":"LFME-text-lfmm-21083","properties":{"name":"PA","layer":"Labels","category":"Labels","object_type":"Label","style_id":"label.text.label.labels","airport":"LFME","geometry_role":"text_label","text-field":"PA","vsmr_group_ids":[]},"geometry":{"type":"Point","coordinates":[4.544541667,43.69025]}}]}
