{"type":"FeatureCollection","name":"LFMF AVISO","bbox":[6.693460833,43.608055833,6.701666944,43.613280833],"metadata":{"schema":"vSMR AVISO","schema_version":2,"airport":"LFMF","coordinate_reference_system":"WGS84","coordinate_order":"longitude, latitude","default_color_palette":"night","color_palettes":["night","day"],"background_colors":{"night":"#434A4F","day":"#434A4F"},"feature_count":4,"style_count":2,"layer_counts":{"Reference points":1,"Runways":3},"category_counts":{"Labels":1,"Runway Markings":3}},"styles":{"line.runway.centerline.runway.markings":{"name":"Runway Markings","layer":"Runways","object_type":"Line","paint":{"stroke":"#FEFEFE","stroke-opacity":1.0,"stroke-width":1.5},"feature_count":3},"point.airport.reference.point.labels":{"name":"Labels","layer":"Reference points","object_type":"Point","paint":{"marker-color":"#808080","marker-size":"small"},"feature_count":1}},"features":[{"type":"Feature","id":"LFMF-runway-14-32-5316","properties":{"name":"LFMF RWY 14/32","layer":"Runways","category":"Runway Markings","object_type":"Line","style_id":"line.runway.centerline.runway.markings","airport":"LFMF","geometry_role":"runway_centerline","vsmr_group_ids":[]},"geometry":{"type":"LineString","coordinates":[[6.695885833,43.613280833],[6.701071944,43.608807778]]}},{"type":"Feature","id":"LFMF-runway-10R-28L-5317","properties":{"name":"LFMF RWY 10R/28L","layer":"Runways","category":"Runway Markings","object_type":"Line","style_id":"line.runway.centerline.runway.markings","airport":"LFMF","geometry_role":"runway_centerline","vsmr_group_ids":[]},"geometry":{"type":"LineString","coordinates":[[6.693460833,43.609321944],[6.700577778,43.608338889]]}},{"type":"Feature","id":"LFMF-runway-10L-28R-5318","properties":{"name":"LFMF RWY 10L/28R","layer":"Runways","category":"Runway Markings","object_type":"Line","style_id":"line.runway.centerline.runway.markings","airport":"LFMF","geometry_role":"runway_centerline","vsmr_group_ids":[]},"geometry":{"type":"LineString","coordinates":[[6.693713889,43.610291944],[6.700502778,43.609355833]]}},{"type":"Feature","id":"LFMF-airport-reference","properties":{"name":"LFMF","layer":"Reference points","category":"Labels","object_type":"Point","style_id":"point.airport.reference.point.labels","airport":"LFMF","geometry_role":"airport_reference_point","text-field":"LFMF","vsmr_group_ids":[]},"geometry":{"type":"Point","coordinates":[6.701666944,43.608055833]}}]}
