{"type":"FeatureCollection","name":"LFMG AVISO","bbox":[1.984521944,43.406127778,1.991791944,43.409813889],"metadata":{"schema":"vSMR AVISO","schema_version":2,"airport":"LFMG","coordinate_reference_system":"WGS84","coordinate_order":"longitude, latitude","default_color_palette":"night","color_palettes":["night","day"],"background_colors":{"night":"#434A4F","day":"#434A4F"},"feature_count":4,"style_count":2,"layer_counts":{"Reference points":1,"Runways":3},"category_counts":{"Labels":1,"Runway Markings":3}},"styles":{"line.runway.centerline.runway.markings":{"name":"Runway Markings","layer":"Runways","object_type":"Line","paint":{"stroke":"#FEFEFE","stroke-opacity":1.0,"stroke-width":1.5},"feature_count":3},"point.airport.reference.point.labels":{"name":"Labels","layer":"Reference points","object_type":"Point","paint":{"marker-color":"#808080","marker-size":"small"},"feature_count":1}},"features":[{"type":"Feature","id":"LFMG-runway-18-36-5274","properties":{"name":"LFMG RWY 18/36","layer":"Runways","category":"Runway Markings","object_type":"Line","style_id":"line.runway.centerline.runway.markings","airport":"LFMG","geometry_role":"runway_centerline","vsmr_group_ids":[]},"geometry":{"type":"LineString","coordinates":[[1.991030833,43.409813889],[1.990868889,43.407335833]]}},{"type":"Feature","id":"LFMG-runway-12-30-5275","properties":{"name":"LFMG RWY 12/30","layer":"Runways","category":"Runway Markings","object_type":"Line","style_id":"line.runway.centerline.runway.markings","airport":"LFMG","geometry_role":"runway_centerline","vsmr_group_ids":[]},"geometry":{"type":"LineString","coordinates":[[1.984521944,43.408338889],[1.989838889,43.406127778]]}},{"type":"Feature","id":"LFMG-runway-03-21-5276","properties":{"name":"LFMG RWY 03/21","layer":"Runways","category":"Runway Markings","object_type":"Line","style_id":"line.runway.centerline.runway.markings","airport":"LFMG","geometry_role":"runway_centerline","vsmr_group_ids":[]},"geometry":{"type":"LineString","coordinates":[[1.989243889,43.406555833],[1.991791944,43.409427778]]}},{"type":"Feature","id":"LFMG-airport-reference","properties":{"name":"LFMG","layer":"Reference points","category":"Labels","object_type":"Point","style_id":"point.airport.reference.point.labels","airport":"LFMG","geometry_role":"airport_reference_point","text-field":"LFMG","vsmr_group_ids":[]},"geometry":{"type":"Point","coordinates":[1.989166944,43.406388889]}}]}
