{"type":"FeatureCollection","name":"LFMH AVISO","bbox":[4.125833333,45.392777778,4.518333333,45.739444444],"metadata":{"schema":"vSMR AVISO","schema_version":2,"airport":"LFMH","coordinate_reference_system":"WGS84","coordinate_order":"longitude, latitude","default_color_palette":"night","color_palettes":["night","day"],"feature_count":25,"style_count":6,"layer_counts":{"Ground linework":3,"Labels":20,"Reference points":1,"Runways":1},"category_counts":{"Apron Surface":1,"Labels":21,"Runway Concrete":1,"Runway Markings":1,"Taxiway":1}},"styles":{"label.text.label.labels":{"name":"Labels","layer":"Labels","object_type":"Label","paint":{"text-anchor":"center","text-color":"#CCCCCC","text-halo-color":"#000000","text-halo-width":1,"text-size":12,"zoomLevel":9},"feature_count":20},"line.linework.apron.surface":{"name":"Apron Surface","layer":"Ground linework","object_type":"Line","paint":{"stroke":"#808080","stroke-opacity":1.0,"stroke-width":1.5},"feature_count":1},"line.linework.runway.concrete":{"name":"Runway Concrete","layer":"Ground linework","object_type":"Line","paint":{"stroke":"#111318","stroke-opacity":1.0,"stroke-width":1.5},"feature_count":1},"line.linework.taxiway":{"name":"Taxiway","layer":"Ground linework","object_type":"Line","paint":{"stroke":"#4E5A69","stroke-opacity":1.0,"stroke-width":1.5},"feature_count":1},"line.runway.centerline.runway.markings":{"name":"Runway Markings","layer":"Runways","object_type":"Line","paint":{"stroke":"#FEFEFE","stroke-opacity":1.0,"stroke-width":1.5},"feature_count":1},"point.airport.reference.point.labels":{"name":"Labels","layer":"Reference points","object_type":"Point","paint":{"marker-color":"#808080","marker-size":"small"},"feature_count":1}},"features":[{"type":"Feature","id":"LFMH-runway-17-35-5365","properties":{"name":"LFMH RWY 17/35","layer":"Runways","category":"Runway Markings","object_type":"Line","style_id":"line.runway.centerline.runway.markings","airport":"LFMH","geometry_role":"runway_centerline","vsmr_group_ids":[]},"geometry":{"type":"LineString","coordinates":[[4.295482778,45.548505833],[4.297563889,45.532066944]]}},{"type":"Feature","id":"lfmh.line.linework.taxiway.65760","properties":{"name":"LFMH Groundlayout Saint-Etienne Boutheon","layer":"Ground linework","category":"Taxiway","object_type":"Line","style_id":"line.linework.taxiway","airport":"LFMH","geometry_role":"linework","vsmr_group_ids":[]},"geometry":{"type":"MultiLineString","coordinates":[[[4.297472222,45.530555556],[4.297083333,45.530527778]],[[4.297444444,45.530833333],[4.297027778,45.530805556]],[[4.297083333,45.530527778],[4.295694444,45.530444444]],[[4.297027778,45.530805556],[4.296055556,45.53075]],[[4.295694444,45.530444444],[4.295666667,45.530861111]],[[4.296055556,45.53075],[4.296027778,45.530861111]],[[4.295666667,45.530861111],[4.295611111,45.531277778]],[[4.296027778,45.530861111],[4.296,45.531277778]],[[4.295611111,45.531277778],[4.295583333,45.531638889]],[[4.296,45.531277778],[4.295944444,45.531666667]],[[4.295583333,45.531638889],[4.295527778,45.532]],[[4.295944444,45.531666667],[4.295916667,45.532027778]],[[4.295527778,45.532],[4.295388889,45.533472222]],[[4.295916667,45.532027778],[4.295777778,45.5335]],[[4.295361111,45.53375],[4.295194444,45.53525]],[[4.29575,45.533777778],[4.295555556,45.535416667]],[[4.295166667,45.535527778],[4.295083333,45.536194444]],[[4.295555556,45.535416667],[4.295472222,45.536194444]],[[4.295083333,45.536194444],[4.295638889,45.538]],[[4.295472222,45.536194444],[4.295944444,45.53775]],[[4.295638889,45.538],[4.296138889,45.538027778]],[[4.295944444,45.53775],[4.296166667,45.537777778]],[[4.296138889,45.538027778],[4.296527778,45.538055556]],[[4.296166667,45.537777778],[4.296555556,45.537777778]],[[4.293166667,45.534277778],[4.293944444,45.533694444]],[[4.292888889,45.534083333],[4.293611111,45.533555556]],[[4.296527778,45.5425],[4.296916667,45.542527778]],[[4.296555556,45.542222222],[4.296972222,45.54225]],[[4.296916667,45.542527778],[4.298694444,45.542694444]],[[4.296972222,45.54225],[4.29875,45.542416667]],[[4.297083333,45.533583333],[4.296694444,45.533555556]],[[4.297055556,45.533861111],[4.296666667,45.533833333]],[[4.296694444,45.533555556],[4.295777778,45.5335]],[[4.296666667,45.533833333],[4.29575,45.533777778]],[[4.295388889,45.533472222],[4.293972222,45.533416667]],[[4.295361111,45.53375],[4.293944444,45.533694444]],[[4.293972222,45.533416667],[4.292444444,45.532305556]],[[4.293611111,45.533555556],[4.292444444,45.532722222]],[[4.292444444,45.532305556],[4.291194444,45.533277778]],[[4.292444444,45.532722222],[4.291722222,45.533277778]],[[4.291194444,45.533277778],[4.29275,45.534361111]],[[4.291722222,45.533277778],[4.292888889,45.534083333]],[[4.29275,45.534361111],[4.294305556,45.535472222]],[[4.293166667,45.534277778],[4.294222222,45.535027778]],[[4.294305556,45.535472222],[4.295166667,45.535527778]],[[4.294583333,45.535222222],[4.295194444,45.53525]],[[4.2945,45.532083333],[4.294222222,45.535027778]],[[4.294888889,45.532111111],[4.294583333,45.535222222]],[[4.294638889,45.530805556],[4.294583333,45.531222222]],[[4.295027778,45.530805556],[4.294972222,45.531222222]],[[4.294638889,45.530805556],[4.295027778,45.530805556]],[[4.294583333,45.531222222],[4.294555556,45.531583333]],[[4.294972222,45.531222222],[4.294944444,45.531611111]],[[4.294555556,45.531583333],[4.294527778,45.531888889]],[[4.294944444,45.531611111],[4.294916667,45.531888889]],[[4.294527778,45.531888889],[4.2945,45.532083333]],[[4.294916667,45.531888889],[4.294888889,45.532111111]],[[4.298805556,45.542055556],[4.29875,45.542333333]],[[4.299194444,45.542083333],[4.299138889,45.542361111]],[[4.298805556,45.542055556],[4.299194444,45.542083333]],[[4.29875,45.542333333],[4.29875,45.542416667]],[[4.299138889,45.542361111],[4.299111111,45.542583333]],[[4.298694444,45.542694444],[4.298666667,45.542861111]],[[4.299111111,45.542583333],[4.299055556,45.542888889]],[[4.298666667,45.542861111],[4.298611111,45.543111111]],[[4.299055556,45.542888889],[4.299,45.543138889]],[[4.298611111,45.543111111],[4.299,45.543138889]]]}},{"type":"Feature","id":"lfmh.line.linework.runway.concrete.65827","properties":{"name":"LFMH Groundlayout Saint-Etienne Boutheon","layer":"Ground linework","category":"Runway Concrete","object_type":"Line","style_id":"line.linework.runway.concrete","airport":"LFMH","geometry_role":"linework","vsmr_group_ids":[]},"geometry":{"type":"MultiLineString","coordinates":[[[4.297472222,45.530527778],[4.297472222,45.530555556]],[[4.298027778,45.530583333],[4.298027778,45.530722222]],[[4.297472222,45.530527778],[4.298027778,45.530583333]],[[4.297444444,45.530833333],[4.297083333,45.533583333]],[[4.298027778,45.53075],[4.297638889,45.53375]],[[4.297055556,45.533861111],[4.296555556,45.537777778]],[[4.297638889,45.53375],[4.297111111,45.537972222]],[[4.296527778,45.538055556],[4.295972222,45.542305556]],[[4.297111111,45.537972222],[4.296555556,45.542222222]],[[4.295972222,45.542305556],[4.294861111,45.551166667]],[[4.296527778,45.5425],[4.295444444,45.551194444]],[[4.294861111,45.551166667],[4.295444444,45.551194444]]]}},{"type":"Feature","id":"lfmh.line.linework.apron.surface.65839","properties":{"name":"LFMH Groundlayout Saint-Etienne Boutheon","layer":"Ground linework","category":"Apron Surface","object_type":"Line","style_id":"line.linework.apron.surface","airport":"LFMH","geometry_role":"linework","vsmr_group_ids":[]},"geometry":{"type":"MultiLineString","coordinates":[[[4.295805556,45.530194444],[4.294694444,45.530138889]],[[4.294694444,45.530138889],[4.2945,45.532222222]],[[4.2945,45.532222222],[4.295888889,45.532277778]],[[4.295888889,45.532277778],[4.296055556,45.530583333]],[[4.295805556,45.530194444],[4.296055556,45.530583333]],[[4.295166667,45.536277778],[4.294194444,45.536194444]],[[4.294194444,45.536194444],[4.294333333,45.535416667]],[[4.294333333,45.535416667],[4.295194444,45.535472222]],[[4.295166667,45.536277778],[4.295194444,45.535472222]],[[4.291805556,45.533083333],[4.292638889,45.532472222]],[[4.292638889,45.532472222],[4.291722222,45.531861111]],[[4.291722222,45.531861111],[4.290861111,45.5325]],[[4.291805556,45.533083333],[4.290861111,45.5325]],[[4.298833333,45.541777778],[4.298583333,45.54325]],[[4.298583333,45.54325],[4.299694444,45.543361111]],[[4.299694444,45.543361111],[4.299972222,45.541916667]],[[4.298833333,45.541777778],[4.299972222,45.541916667]]]}},{"type":"Feature","id":"LFMH-airport-reference","properties":{"name":"LFMH","layer":"Reference points","category":"Labels","object_type":"Point","style_id":"point.airport.reference.point.labels","airport":"LFMH","geometry_role":"airport_reference_point","text-field":"LFMH","vsmr_group_ids":[]},"geometry":{"type":"Point","coordinates":[4.297221944,45.534166944]}},{"type":"Feature","id":"LFMH-text-lfmm-21085","properties":{"name":"1","layer":"Labels","category":"Labels","object_type":"Label","style_id":"label.text.label.labels","airport":"LFMH","geometry_role":"text_label","text-field":"1","vsmr_group_ids":[]},"geometry":{"type":"Point","coordinates":[4.295333333,45.530833333]}},{"type":"Feature","id":"LFMH-text-lfmm-21086","properties":{"name":"2","layer":"Labels","category":"Labels","object_type":"Label","style_id":"label.text.label.labels","airport":"LFMH","geometry_role":"text_label","text-field":"2","vsmr_group_ids":[]},"geometry":{"type":"Point","coordinates":[4.295305556,45.531222222]}},{"type":"Feature","id":"LFMH-text-lfmm-21087","properties":{"name":"3","layer":"Labels","category":"Labels","object_type":"Label","style_id":"label.text.label.labels","airport":"LFMH","geometry_role":"text_label","text-field":"3","vsmr_group_ids":[]},"geometry":{"type":"Point","coordinates":[4.29525,45.531638889]}},{"type":"Feature","id":"LFMH-text-lfmm-21088","properties":{"name":"4","layer":"Labels","category":"Labels","object_type":"Label","style_id":"label.text.label.labels","airport":"LFMH","geometry_role":"text_label","text-field":"4","vsmr_group_ids":[]},"geometry":{"type":"Point","coordinates":[4.295222222,45.532]}},{"type":"Feature","id":"LFMH-text-lfmm-21089","properties":{"name":"5","layer":"Labels","category":"Labels","object_type":"Label","style_id":"label.text.label.labels","airport":"LFMH","geometry_role":"text_label","text-field":"5","vsmr_group_ids":[]},"geometry":{"type":"Point","coordinates":[4.299666667,45.542416667]}},{"type":"Feature","id":"LFMH-text-lfmm-21090","properties":{"name":"6","layer":"Labels","category":"Labels","object_type":"Label","style_id":"label.text.label.labels","airport":"LFMH","geometry_role":"text_label","text-field":"6","vsmr_group_ids":[]},"geometry":{"type":"Point","coordinates":[4.299583333,45.542916667]}},{"type":"Feature","id":"LFMH-text-lfmm-21091","properties":{"name":"7","layer":"Labels","category":"Labels","object_type":"Label","style_id":"label.text.label.labels","airport":"LFMH","geometry_role":"text_label","text-field":"7","vsmr_group_ids":[]},"geometry":{"type":"Point","coordinates":[4.299694444,45.542111111]}},{"type":"Feature","id":"LFMH-text-lfmm-21092","properties":{"name":"8","layer":"Labels","category":"Labels","object_type":"Label","style_id":"label.text.label.labels","airport":"LFMH","geometry_role":"text_label","text-field":"8","vsmr_group_ids":[]},"geometry":{"type":"Point","coordinates":[4.299527778,45.543194444]}},{"type":"Feature","id":"LFMH-text-lfmm-21094","properties":{"name":"W","layer":"Labels","category":"Labels","object_type":"Label","style_id":"label.text.label.labels","airport":"LFMH","geometry_role":"text_label","text-field":"W","vsmr_group_ids":[]},"geometry":{"type":"Point","coordinates":[4.125833333,45.5575]}},{"type":"Feature","id":"LFMH-text-lfmm-21095","properties":{"name":"N","layer":"Labels","category":"Labels","object_type":"Label","style_id":"label.text.label.labels","airport":"LFMH","geometry_role":"text_label","text-field":"N","vsmr_group_ids":[]},"geometry":{"type":"Point","coordinates":[4.221388889,45.739444444]}},{"type":"Feature","id":"LFMH-text-lfmm-21096","properties":{"name":"NA","layer":"Labels","category":"Labels","object_type":"Label","style_id":"label.text.label.labels","airport":"LFMH","geometry_role":"text_label","text-field":"NA","vsmr_group_ids":[]},"geometry":{"type":"Point","coordinates":[4.231388889,45.644166667]}},{"type":"Feature","id":"LFMH-text-lfmm-21097","properties":{"name":"S","layer":"Labels","category":"Labels","object_type":"Label","style_id":"label.text.label.labels","airport":"LFMH","geometry_role":"text_label","text-field":"S","vsmr_group_ids":[]},"geometry":{"type":"Point","coordinates":[4.291666667,45.392777778]}},{"type":"Feature","id":"LFMH-text-lfmm-21098","properties":{"name":"SE","layer":"Labels","category":"Labels","object_type":"Label","style_id":"label.text.label.labels","airport":"LFMH","geometry_role":"text_label","text-field":"SE","vsmr_group_ids":[]},"geometry":{"type":"Point","coordinates":[4.518333333,45.473055556]}},{"type":"Feature","id":"LFMH-text-lfmm-21099","properties":{"name":"NE","layer":"Labels","category":"Labels","object_type":"Label","style_id":"label.text.label.labels","airport":"LFMH","geometry_role":"text_label","text-field":"NE","vsmr_group_ids":[]},"geometry":{"type":"Point","coordinates":[4.453888889,45.6325]}},{"type":"Feature","id":"LFMH-text-lfmm-21101","properties":{"name":"A","layer":"Labels","category":"Labels","object_type":"Label","style_id":"label.text.label.labels","airport":"LFMH","geometry_role":"text_label","text-field":"A","vsmr_group_ids":[]},"geometry":{"type":"Point","coordinates":[4.297388889,45.530694444]}},{"type":"Feature","id":"LFMH-text-lfmm-21102","properties":{"name":"A","layer":"Labels","category":"Labels","object_type":"Label","style_id":"label.text.label.labels","airport":"LFMH","geometry_role":"text_label","text-field":"A","vsmr_group_ids":[]},"geometry":{"type":"Point","coordinates":[4.296472222,45.530638889]}},{"type":"Feature","id":"LFMH-text-lfmm-21103","properties":{"name":"C","layer":"Labels","category":"Labels","object_type":"Label","style_id":"label.text.label.labels","airport":"LFMH","geometry_role":"text_label","text-field":"C","vsmr_group_ids":[]},"geometry":{"type":"Point","coordinates":[4.296611111,45.542361111]}},{"type":"Feature","id":"LFMH-text-lfmm-21104","properties":{"name":"C","layer":"Labels","category":"Labels","object_type":"Label","style_id":"label.text.label.labels","airport":"LFMH","geometry_role":"text_label","text-field":"C","vsmr_group_ids":[]},"geometry":{"type":"Point","coordinates":[4.297916667,45.542472222]}},{"type":"Feature","id":"LFMH-text-lfmm-21105","properties":{"name":"B","layer":"Labels","category":"Labels","object_type":"Label","style_id":"label.text.label.labels","airport":"LFMH","geometry_role":"text_label","text-field":"B","vsmr_group_ids":[]},"geometry":{"type":"Point","coordinates":[4.297,45.533722222]}},{"type":"Feature","id":"LFMH-text-lfmm-21106","properties":{"name":"B","layer":"Labels","category":"Labels","object_type":"Label","style_id":"label.text.label.labels","airport":"LFMH","geometry_role":"text_label","text-field":"B","vsmr_group_ids":[]},"geometry":{"type":"Point","coordinates":[4.296111111,45.533666667]}}]}
