{"type":"FeatureCollection","name":"LFMM AVISO","bbox":[2.551944444,41.922805556,9.428380556,46.65],"metadata":{"schema":"vSMR AVISO","schema_version":2,"airport":"LFMM","coordinate_reference_system":"WGS84","coordinate_order":"longitude, latitude","feature_count":59,"style_count":1,"layer_counts":{"Labels":59},"category_counts":{"Labels":59}},"styles":{"label.text.label.labels":{"name":"Labels","layer":"Labels","object_type":"Label","paint":{"text-anchor":"center","text-color":"#CCCCCC","text-halo-color":"#000000","text-halo-width":1,"text-size":12},"feature_count":59}},"features":[{"type":"Feature","id":"LFMM-text-lfmm-21403","properties":{"name":"HOP_HAIX","layer":"Labels","category":"Labels","object_type":"Label","style_id":"label.text.label.labels","airport":"LFMM","geometry_role":"text_label","text-field":"HOP_HAIX","vsmr_group_ids":[[]]},"geometry":{"type":"Point","coordinates":[5.442222222,43.534722222]}},{"type":"Feature","id":"LFMM-text-lfmm-21404","properties":{"name":"HOP_HALB","layer":"Labels","category":"Labels","object_type":"Label","style_id":"label.text.label.labels","airport":"LFMM","geometry_role":"text_label","text-field":"HOP_HALB","vsmr_group_ids":[[]]},"geometry":{"type":"Point","coordinates":[6.37,45.669444444]}},{"type":"Feature","id":"LFMM-text-lfmm-21405","properties":{"name":"HOP_HALE","layer":"Labels","category":"Labels","object_type":"Label","style_id":"label.text.label.labels","airport":"LFMM","geometry_role":"text_label","text-field":"HOP_HALE","vsmr_group_ids":[[]]},"geometry":{"type":"Point","coordinates":[4.095555556,44.147777778]}},{"type":"Feature","id":"LFMM-text-lfmm-21406","properties":{"name":"HOP_HALP","layer":"Labels","category":"Labels","object_type":"Label","style_id":"label.text.label.labels","airport":"LFMM","geometry_role":"text_label","text-field":"HOP_HALP","vsmr_group_ids":[[]]},"geometry":{"type":"Point","coordinates":[6.32,46.141944444]}},{"type":"Feature","id":"LFMM-text-lfmm-21407","properties":{"name":"HOP_HANE","layer":"Labels","category":"Labels","object_type":"Label","style_id":"label.text.label.labels","airport":"LFMM","geometry_role":"text_label","text-field":"HOP_HANE","vsmr_group_ids":[[]]},"geometry":{"type":"Point","coordinates":[6.118333333,45.931388889]}},{"type":"Feature","id":"LFMM-text-lfmm-21408","properties":{"name":"HOP_HANO","layer":"Labels","category":"Labels","object_type":"Label","style_id":"label.text.label.labels","airport":"LFMM","geometry_role":"text_label","text-field":"HOP_HANO","vsmr_group_ids":[[]]},"geometry":{"type":"Point","coordinates":[4.665833333,45.241666667]}},{"type":"Feature","id":"LFMM-text-lfmm-21409","properties":{"name":"HEL_HANT","layer":"Labels","category":"Labels","object_type":"Label","style_id":"label.text.label.labels","airport":"LFMM","geometry_role":"text_label","text-field":"HEL_HANT","vsmr_group_ids":[[]]},"geometry":{"type":"Point","coordinates":[7.132222222,43.588055556]}},{"type":"Feature","id":"LFMM-text-lfmm-21410","properties":{"name":"HOP_HAPT","layer":"Labels","category":"Labels","object_type":"Label","style_id":"label.text.label.labels","airport":"LFMM","geometry_role":"text_label","text-field":"HOP_HAPT","vsmr_group_ids":[[]]},"geometry":{"type":"Point","coordinates":[5.381944444,43.875833333]}},{"type":"Feature","id":"LFMM-text-lfmm-21411","properties":{"name":"HOP_HAUB","layer":"Labels","category":"Labels","object_type":"Label","style_id":"label.text.label.labels","airport":"LFMM","geometry_role":"text_label","text-field":"HOP_HAUB","vsmr_group_ids":[[]]},"geometry":{"type":"Point","coordinates":[4.3975,44.614166667]}},{"type":"Feature","id":"LFMM-text-lfmm-21412","properties":{"name":"HOP_HAVI","layer":"Labels","category":"Labels","object_type":"Label","style_id":"label.text.label.labels","airport":"LFMM","geometry_role":"text_label","text-field":"HOP_HAVI","vsmr_group_ids":[[]]},"geometry":{"type":"Point","coordinates":[4.798888889,43.920277778]}},{"type":"Feature","id":"LFMM-text-lfmm-21413","properties":{"name":"HOP_HBAG","layer":"Labels","category":"Labels","object_type":"Label","style_id":"label.text.label.labels","airport":"LFMM","geometry_role":"text_label","text-field":"HOP_HBAG","vsmr_group_ids":[[]]},"geometry":{"type":"Point","coordinates":[4.615555556,44.158333333]}},{"type":"Feature","id":"LFMM-text-lfmm-21414","properties":{"name":"HOP_HBEZ","layer":"Labels","category":"Labels","object_type":"Label","style_id":"label.text.label.labels","airport":"LFMM","geometry_role":"text_label","text-field":"HOP_HBEZ","vsmr_group_ids":[[]]},"geometry":{"type":"Point","coordinates":[3.255277778,43.341388889]}},{"type":"Feature","id":"LFMM-text-lfmm-21415","properties":{"name":"HOP_HBEB","layer":"Labels","category":"Labels","object_type":"Label","style_id":"label.text.label.labels","airport":"LFMM","geometry_role":"text_label","text-field":"HOP_HBEB","vsmr_group_ids":[[]]},"geometry":{"type":"Point","coordinates":[5.208333333,46.224722222]}},{"type":"Feature","id":"LFMM-text-lfmm-21416","properties":{"name":"HOP_HBJA","layer":"Labels","category":"Labels","object_type":"Label","style_id":"label.text.label.labels","airport":"LFMM","geometry_role":"text_label","text-field":"HOP_HBJA","vsmr_group_ids":[[]]},"geometry":{"type":"Point","coordinates":[5.245,45.596111111]}},{"type":"Feature","id":"LFMM-text-lfmm-21417","properties":{"name":"HOP_HBRI","layer":"Labels","category":"Labels","object_type":"Label","style_id":"label.text.label.labels","airport":"LFMM","geometry_role":"text_label","text-field":"HOP_HBRI","vsmr_group_ids":[[]]},"geometry":{"type":"Point","coordinates":[6.632777778,44.906388889]}},{"type":"Feature","id":"LFMM-text-lfmm-21418","properties":{"name":"HOP_HCAN","layer":"Labels","category":"Labels","object_type":"Label","style_id":"label.text.label.labels","airport":"LFMM","geometry_role":"text_label","text-field":"HOP_HCAN","vsmr_group_ids":[[]]},"geometry":{"type":"Point","coordinates":[7.005277778,43.564166667]}},{"type":"Feature","id":"LFMM-text-lfmm-21419","properties":{"name":"HEL_LFTF","layer":"Labels","category":"Labels","object_type":"Label","style_id":"label.text.label.labels","airport":"LFMM","geometry_role":"text_label","text-field":"HEL_LFTF","vsmr_group_ids":[[]]},"geometry":{"type":"Point","coordinates":[7.017222222,43.545277778]}},{"type":"Feature","id":"LFMM-text-lfmm-21420","properties":{"name":"HOP_HCAP","layer":"Labels","category":"Labels","object_type":"Label","style_id":"label.text.label.labels","airport":"LFMM","geometry_role":"text_label","text-field":"HOP_HCAP","vsmr_group_ids":[[]]},"geometry":{"type":"Point","coordinates":[5.025833333,44.046666667]}},{"type":"Feature","id":"LFMM-text-lfmm-21421","properties":{"name":"HOP_HCMY","layer":"Labels","category":"Labels","object_type":"Label","style_id":"label.text.label.labels","airport":"LFMM","geometry_role":"text_label","text-field":"HOP_HCMY","vsmr_group_ids":[[]]},"geometry":{"type":"Point","coordinates":[5.911944444,45.563055556]}},{"type":"Feature","id":"LFMM-text-lfmm-21422","properties":{"name":"HOP_HCMX","layer":"Labels","category":"Labels","object_type":"Label","style_id":"label.text.label.labels","airport":"LFMM","geometry_role":"text_label","text-field":"HOP_HCMX","vsmr_group_ids":[[]]},"geometry":{"type":"Point","coordinates":[6.863055556,45.914444444]}},{"type":"Feature","id":"LFMM-text-lfmm-21423","properties":{"name":"HOP_HEST","layer":"Labels","category":"Labels","object_type":"Label","style_id":"label.text.label.labels","airport":"LFMM","geometry_role":"text_label","text-field":"HOP_HEST","vsmr_group_ids":[[]]},"geometry":{"type":"Point","coordinates":[3.109722222,45.785555556]}},{"type":"Feature","id":"LFMM-text-lfmm-21424","properties":{"name":"HOP_HCLE","layer":"Labels","category":"Labels","object_type":"Label","style_id":"label.text.label.labels","airport":"LFMM","geometry_role":"text_label","text-field":"HOP_HCLE","vsmr_group_ids":[[]]},"geometry":{"type":"Point","coordinates":[3.091944444,45.756944444]}},{"type":"Feature","id":"LFMM-text-lfmm-21425","properties":{"name":"HOP_HDIG","layer":"Labels","category":"Labels","object_type":"Label","style_id":"label.text.label.labels","airport":"LFMM","geometry_role":"text_label","text-field":"HOP_HDIG","vsmr_group_ids":[[]]},"geometry":{"type":"Point","coordinates":[6.171944444,44.071111111]}},{"type":"Feature","id":"LFMM-text-lfmm-21426","properties":{"name":"HOP_HFRE","layer":"Labels","category":"Labels","object_type":"Label","style_id":"label.text.label.labels","airport":"LFMM","geometry_role":"text_label","text-field":"HOP_HFRE","vsmr_group_ids":[[]]},"geometry":{"type":"Point","coordinates":[6.751666667,43.439722222]}},{"type":"Feature","id":"LFMM-text-lfmm-21427","properties":{"name":"HOP_HGAP","layer":"Labels","category":"Labels","object_type":"Label","style_id":"label.text.label.labels","airport":"LFMM","geometry_role":"text_label","text-field":"HOP_HGAP","vsmr_group_ids":[[]]},"geometry":{"type":"Point","coordinates":[6.073333333,44.390555556]}},{"type":"Feature","id":"LFMM-text-lfmm-21428","properties":{"name":"HOP_HGRA","layer":"Labels","category":"Labels","object_type":"Label","style_id":"label.text.label.labels","airport":"LFMM","geometry_role":"text_label","text-field":"HOP_HGRA","vsmr_group_ids":[[]]},"geometry":{"type":"Point","coordinates":[6.928888889,43.619722222]}},{"type":"Feature","id":"LFMM-text-lfmm-21429","properties":{"name":"HOP_HGRE","layer":"Labels","category":"Labels","object_type":"Label","style_id":"label.text.label.labels","airport":"LFMM","geometry_role":"text_label","text-field":"HOP_HGRE","vsmr_group_ids":[[]]},"geometry":{"type":"Point","coordinates":[5.745277778,45.200833333]}},{"type":"Feature","id":"LFMM-text-lfmm-21430","properties":{"name":"HOP_HLYS","layer":"Labels","category":"Labels","object_type":"Label","style_id":"label.text.label.labels","airport":"LFMM","geometry_role":"text_label","text-field":"HOP_HLYS","vsmr_group_ids":[[]]},"geometry":{"type":"Point","coordinates":[4.8075,45.7025]}},{"type":"Feature","id":"LFMM-text-lfmm-21431","properties":{"name":"HOP_HLYE","layer":"Labels","category":"Labels","object_type":"Label","style_id":"label.text.label.labels","airport":"LFMM","geometry_role":"text_label","text-field":"HOP_HLYE","vsmr_group_ids":[[]]},"geometry":{"type":"Point","coordinates":[4.9025,45.747777778]}},{"type":"Feature","id":"LFMM-text-lfmm-21432","properties":{"name":"HOP_HLYO","layer":"Labels","category":"Labels","object_type":"Label","style_id":"label.text.label.labels","airport":"LFMM","geometry_role":"text_label","text-field":"HOP_HLYO","vsmr_group_ids":[[]]},"geometry":{"type":"Point","coordinates":[4.883055556,45.743888889]}},{"type":"Feature","id":"LFMM-text-lfmm-21433","properties":{"name":"HOP_HMAC","layer":"Labels","category":"Labels","object_type":"Label","style_id":"label.text.label.labels","airport":"LFMM","geometry_role":"text_label","text-field":"HOP_HMAC","vsmr_group_ids":[[]]},"geometry":{"type":"Point","coordinates":[4.812222222,46.314444444]}},{"type":"Feature","id":"LFMM-text-lfmm-21434","properties":{"name":"HOP_HMAN","layer":"Labels","category":"Labels","object_type":"Label","style_id":"label.text.label.labels","airport":"LFMM","geometry_role":"text_label","text-field":"HOP_HMAN","vsmr_group_ids":[[]]},"geometry":{"type":"Point","coordinates":[5.806111111,43.828055556]}},{"type":"Feature","id":"LFMM-text-lfmm-21435","properties":{"name":"HOP_HTIM","layer":"Labels","category":"Labels","object_type":"Label","style_id":"label.text.label.labels","airport":"LFMM","geometry_role":"text_label","text-field":"HOP_HTIM","vsmr_group_ids":[[]]},"geometry":{"type":"Point","coordinates":[5.4025,43.289722222]}},{"type":"Feature","id":"LFMM-text-lfmm-21436","properties":{"name":"HOP_HMHN","layer":"Labels","category":"Labels","object_type":"Label","style_id":"label.text.label.labels","airport":"LFMM","geometry_role":"text_label","text-field":"HOP_HMHN","vsmr_group_ids":[[]]},"geometry":{"type":"Point","coordinates":[5.363055556,43.38]}},{"type":"Feature","id":"LFMM-text-lfmm-21437","properties":{"name":"HOP_HMLN","layer":"Labels","category":"Labels","object_type":"Label","style_id":"label.text.label.labels","airport":"LFMM","geometry_role":"text_label","text-field":"HOP_HMLN","vsmr_group_ids":[[]]},"geometry":{"type":"Point","coordinates":[5.412777778,43.327777778]}},{"type":"Feature","id":"LFMM-text-lfmm-21438","properties":{"name":"HOP_HMAR","layer":"Labels","category":"Labels","object_type":"Label","style_id":"label.text.label.labels","airport":"LFMM","geometry_role":"text_label","text-field":"HOP_HMAR","vsmr_group_ids":[[]]},"geometry":{"type":"Point","coordinates":[5.038888889,43.413055556]}},{"type":"Feature","id":"LFMM-text-lfmm-21439","properties":{"name":"HOP_HMEN","layer":"Labels","category":"Labels","object_type":"Label","style_id":"label.text.label.labels","airport":"LFMM","geometry_role":"text_label","text-field":"HOP_HMEN","vsmr_group_ids":[[]]},"geometry":{"type":"Point","coordinates":[3.489166667,44.522222222]}},{"type":"Feature","id":"LFMM-text-lfmm-21440","properties":{"name":"HOP_HMIN","layer":"Labels","category":"Labels","object_type":"Label","style_id":"label.text.label.labels","airport":"LFMM","geometry_role":"text_label","text-field":"HOP_HMIN","vsmr_group_ids":[[]]},"geometry":{"type":"Point","coordinates":[4.367222222,46.65]}},{"type":"Feature","id":"LFMM-text-lfmm-21441","properties":{"name":"HOP_HMON","layer":"Labels","category":"Labels","object_type":"Label","style_id":"label.text.label.labels","airport":"LFMM","geometry_role":"text_label","text-field":"HOP_HMON","vsmr_group_ids":[[]]},"geometry":{"type":"Point","coordinates":[3.849722222,43.63]}},{"type":"Feature","id":"LFMM-text-lfmm-21442","properties":{"name":"HOP_HNAR","layer":"Labels","category":"Labels","object_type":"Label","style_id":"label.text.label.labels","airport":"LFMM","geometry_role":"text_label","text-field":"HOP_HNAR","vsmr_group_ids":[[]]},"geometry":{"type":"Point","coordinates":[2.994444444,43.172777778]}},{"type":"Feature","id":"LFMM-text-lfmm-21443","properties":{"name":"HOP_HNIC","layer":"Labels","category":"Labels","object_type":"Label","style_id":"label.text.label.labels","airport":"LFMM","geometry_role":"text_label","text-field":"HOP_HNIC","vsmr_group_ids":[[]]},"geometry":{"type":"Point","coordinates":[7.226111111,43.6975]}},{"type":"Feature","id":"LFMM-text-lfmm-21444","properties":{"name":"HOP_HNIV","layer":"Labels","category":"Labels","object_type":"Label","style_id":"label.text.label.labels","airport":"LFMM","geometry_role":"text_label","text-field":"HOP_HNIV","vsmr_group_ids":[[]]},"geometry":{"type":"Point","coordinates":[7.241666667,43.689444444]}},{"type":"Feature","id":"LFMM-text-lfmm-21445","properties":{"name":"HOP_HNIP","layer":"Labels","category":"Labels","object_type":"Label","style_id":"label.text.label.labels","airport":"LFMM","geometry_role":"text_label","text-field":"HOP_HNIP","vsmr_group_ids":[[]]},"geometry":{"type":"Point","coordinates":[7.2825,43.724722222]}},{"type":"Feature","id":"LFMM-text-lfmm-21446","properties":{"name":"HOP_HNIM","layer":"Labels","category":"Labels","object_type":"Label","style_id":"label.text.label.labels","airport":"LFMM","geometry_role":"text_label","text-field":"HOP_HNIM","vsmr_group_ids":[[]]},"geometry":{"type":"Point","coordinates":[4.323055556,43.823888889]}},{"type":"Feature","id":"LFMM-text-lfmm-21447","properties":{"name":"HOP_HORA","layer":"Labels","category":"Labels","object_type":"Label","style_id":"label.text.label.labels","airport":"LFMM","geometry_role":"text_label","text-field":"HOP_HORA","vsmr_group_ids":[[]]},"geometry":{"type":"Point","coordinates":[4.821944444,44.148055556]}},{"type":"Feature","id":"LFMM-text-lfmm-21448","properties":{"name":"HOP_HPAR","layer":"Labels","category":"Labels","object_type":"Label","style_id":"label.text.label.labels","airport":"LFMM","geometry_role":"text_label","text-field":"HOP_HPAR","vsmr_group_ids":[[]]},"geometry":{"type":"Point","coordinates":[4.109722222,46.465]}},{"type":"Feature","id":"LFMM-text-lfmm-21449","properties":{"name":"HOP_HPPG","layer":"Labels","category":"Labels","object_type":"Label","style_id":"label.text.label.labels","airport":"LFMM","geometry_role":"text_label","text-field":"HOP_HPPG","vsmr_group_ids":[[]]},"geometry":{"type":"Point","coordinates":[2.888611111,42.726111111]}},{"type":"Feature","id":"LFMM-text-lfmm-21450","properties":{"name":"HOP_HROA","layer":"Labels","category":"Labels","object_type":"Label","style_id":"label.text.label.labels","airport":"LFMM","geometry_role":"text_label","text-field":"HOP_HROA","vsmr_group_ids":[[]]},"geometry":{"type":"Point","coordinates":[4.079722222,46.0425]}},{"type":"Feature","id":"LFMM-text-lfmm-21451","properties":{"name":"HOP_HBRN","layer":"Labels","category":"Labels","object_type":"Label","style_id":"label.text.label.labels","airport":"LFMM","geometry_role":"text_label","text-field":"HOP_HBRN","vsmr_group_ids":[[]]},"geometry":{"type":"Point","coordinates":[2.551944444,44.358888889]}},{"type":"Feature","id":"LFMM-text-lfmm-21452","properties":{"name":"HOP_HSTC","layer":"Labels","category":"Labels","object_type":"Label","style_id":"label.text.label.labels","airport":"LFMM","geometry_role":"text_label","text-field":"HOP_HSTC","vsmr_group_ids":[[]]},"geometry":{"type":"Point","coordinates":[4.515555556,45.476111111]}},{"type":"Feature","id":"LFMM-text-lfmm-21453","properties":{"name":"HOP_HSEN","layer":"Labels","category":"Labels","object_type":"Label","style_id":"label.text.label.labels","airport":"LFMM","geometry_role":"text_label","text-field":"HOP_HSEN","vsmr_group_ids":[[]]},"geometry":{"type":"Point","coordinates":[4.363333333,45.482222222]}},{"type":"Feature","id":"LFMM-text-lfmm-21454","properties":{"name":"HOP_HSET","layer":"Labels","category":"Labels","object_type":"Label","style_id":"label.text.label.labels","airport":"LFMM","geometry_role":"text_label","text-field":"HOP_HSET","vsmr_group_ids":[[]]},"geometry":{"type":"Point","coordinates":[3.669722222,43.407777778]}},{"type":"Feature","id":"LFMM-text-lfmm-21455","properties":{"name":"HOP_HTSA","layer":"Labels","category":"Labels","object_type":"Label","style_id":"label.text.label.labels","airport":"LFMM","geometry_role":"text_label","text-field":"HOP_HTSA","vsmr_group_ids":[[]]},"geometry":{"type":"Point","coordinates":[5.93,43.133333333]}},{"type":"Feature","id":"LFMM-text-lfmm-21456","properties":{"name":"HOP_HTSM","layer":"Labels","category":"Labels","object_type":"Label","style_id":"label.text.label.labels","airport":"LFMM","geometry_role":"text_label","text-field":"HOP_HTSM","vsmr_group_ids":[[]]},"geometry":{"type":"Point","coordinates":[5.975,43.124444444]}},{"type":"Feature","id":"LFMM-text-lfmm-21457","properties":{"name":"HOP_HVAL","layer":"Labels","category":"Labels","object_type":"Label","style_id":"label.text.label.labels","airport":"LFMM","geometry_role":"text_label","text-field":"HOP_HVAL","vsmr_group_ids":[[]]},"geometry":{"type":"Point","coordinates":[4.904166667,44.914444444]}},{"type":"Feature","id":"LFMM-text-lfmm-21458","properties":{"name":"HOP_HVIL","layer":"Labels","category":"Labels","object_type":"Label","style_id":"label.text.label.labels","airport":"LFMM","geometry_role":"text_label","text-field":"HOP_HVIL","vsmr_group_ids":[[]]},"geometry":{"type":"Point","coordinates":[4.693055556,46.005555556]}},{"type":"Feature","id":"LFMM-text-lfmm-21459","properties":{"name":"HOP_HBAJ","layer":"Labels","category":"Labels","object_type":"Label","style_id":"label.text.label.labels","airport":"LFMM","geometry_role":"text_label","text-field":"HOP_HBAJ","vsmr_group_ids":[[]]},"geometry":{"type":"Point","coordinates":[8.73445,41.922805556]}},{"type":"Feature","id":"LFMM-text-lfmm-21460","properties":{"name":"HOP_HBAS","layer":"Labels","category":"Labels","object_type":"Label","style_id":"label.text.label.labels","airport":"LFMM","geometry_role":"text_label","text-field":"HOP_HBAS","vsmr_group_ids":[[]]},"geometry":{"type":"Point","coordinates":[9.428380556,42.682341111]}},{"type":"Feature","id":"LFMM-text-lfmm-21461","properties":{"name":"HOP_HCAL","layer":"Labels","category":"Labels","object_type":"Label","style_id":"label.text.label.labels","airport":"LFMM","geometry_role":"text_label","text-field":"HOP_HCAL","vsmr_group_ids":[[]]},"geometry":{"type":"Point","coordinates":[8.765722222,42.548825]}}]}
