{"type":"FeatureCollection","name":"LFMP AVISO","bbox":[2.759166667,42.608333333,3.055833333,42.910277778],"metadata":{"schema":"vSMR AVISO","schema_version":2,"airport":"LFMP","coordinate_reference_system":"WGS84","coordinate_order":"longitude, latitude","default_color_palette":"night","color_palettes":["night","day"],"feature_count":114,"style_count":14,"layer_counts":{"Airfield surfaces":58,"Ground linework":2,"Labels":51,"Reference points":1,"Runways":2},"category_counts":{"Building":24,"Gras Surface":1,"Hard Surface2":3,"Hard Surface3":6,"Hard Surface4":9,"Labels":52,"Runway Border":1,"Runway Concrete":2,"Runway Grass":1,"Runway Markings":2,"Stopbar":10,"Taxiway":1,"Terrain1":2}},"styles":{"area.filled.region.building":{"name":"Building","layer":"Airfield surfaces","object_type":"Area","paint":{"fill":"#394446","fill-opacity":1.0,"stroke":"#394446","stroke-opacity":1.0,"stroke-width":0.5},"feature_count":24},"area.filled.region.gras.surface":{"name":"Gras Surface","layer":"Airfield surfaces","object_type":"Area","paint":{"fill":"#00512F","fill-opacity":1.0,"stroke":"#00512F","stroke-opacity":1.0,"stroke-width":0.5},"feature_count":1},"area.filled.region.hard.surface2":{"name":"Hard Surface2","layer":"Airfield surfaces","object_type":"Area","paint":{"fill":"#595E5B","fill-opacity":1.0,"stroke":"#595E5B","stroke-opacity":1.0,"stroke-width":0.5},"feature_count":3},"area.filled.region.hard.surface3":{"name":"Hard Surface3","layer":"Airfield surfaces","object_type":"Area","paint":{"fill":"#8A807F","fill-opacity":1.0,"stroke":"#8A807F","stroke-opacity":1.0,"stroke-width":0.5},"feature_count":6},"area.filled.region.hard.surface4":{"name":"Hard Surface4","layer":"Airfield surfaces","object_type":"Area","paint":{"fill":"#969393","fill-opacity":1.0,"stroke":"#969393","stroke-opacity":1.0,"stroke-width":0.5},"feature_count":9},"area.filled.region.runway.concrete":{"name":"Runway Concrete","layer":"Airfield surfaces","object_type":"Area","paint":{"fill":"#111318","fill-opacity":1.0,"stroke":"#111318","stroke-opacity":1.0,"stroke-width":0.5},"feature_count":2},"area.filled.region.runway.grass":{"name":"Runway Grass","layer":"Airfield surfaces","object_type":"Area","paint":{"fill":"#008000","fill-opacity":1.0,"stroke":"#008000","stroke-opacity":1.0,"stroke-width":0.5},"feature_count":1},"area.filled.region.stopbar":{"name":"Stopbar","layer":"Airfield surfaces","object_type":"Area","paint":{"fill":"#7E0000","fill-opacity":1.0,"stroke":"#7E0000","stroke-opacity":1.0,"stroke-width":0.5},"feature_count":10},"area.filled.region.terrain1":{"name":"Terrain1","layer":"Airfield surfaces","object_type":"Area","paint":{"fill":"#574242","fill-opacity":1.0,"stroke":"#574242","stroke-opacity":1.0,"stroke-width":0.5},"feature_count":2},"label.text.label.labels":{"name":"Labels","layer":"Labels","object_type":"Label","paint":{"text-anchor":"center","text-color":"#CCCCCC","text-halo-color":"#000000","text-halo-width":1,"text-size":12,"zoomLevel":9},"feature_count":51},"line.linework.runway.border":{"name":"Runway Border","layer":"Ground linework","object_type":"Line","paint":{"stroke":"#808080","stroke-opacity":1.0,"stroke-width":1.5},"feature_count":1},"line.linework.taxiway":{"name":"Taxiway","layer":"Ground linework","object_type":"Line","paint":{"stroke":"#4E5A69","stroke-opacity":1.0,"stroke-width":1.5},"feature_count":1},"line.runway.centerline.runway.markings":{"name":"Runway Markings","layer":"Runways","object_type":"Line","paint":{"stroke":"#FEFEFE","stroke-opacity":1.0,"stroke-width":1.5},"feature_count":2},"point.airport.reference.point.labels":{"name":"Labels","layer":"Reference points","object_type":"Point","paint":{"marker-color":"#808080","marker-size":"small"},"feature_count":1}},"features":[{"type":"Feature","id":"lfmp.area.filled.region.gras.surface.106718","properties":{"name":"LFMP AVISO","layer":"Airfield surfaces","category":"Gras Surface","object_type":"Area","style_id":"area.filled.region.gras.surface","airport":"LFMP","geometry_role":"filled_region","vsmr_group_ids":[]},"geometry":{"type":"Polygon","coordinates":[[[2.865255556,42.740963056],[2.865162778,42.740928889],[2.8650775,42.740891111],[2.864978889,42.740844167],[2.864915556,42.740809167],[2.864847222,42.740761944],[2.864760833,42.740699167],[2.8646825,42.740633333],[2.864533889,42.740487222],[2.864416111,42.740279722],[2.864361667,42.740093611],[2.864355556,42.740007778],[2.864360833,42.739945556],[2.864398056,42.7396875],[2.864408889,42.739654167],[2.864486111,42.739500833],[2.864507778,42.739466389],[2.864537778,42.739439722],[2.864576667,42.739413889],[2.868581111,42.73713],[2.8687625,42.737018611],[2.868844444,42.736963611],[2.868898056,42.736921667],[2.868946944,42.736881389],[2.868995833,42.736826944],[2.869045556,42.736766667],[2.869107778,42.736678611],[2.870009444,42.735356944],[2.870413333,42.734698333],[2.870462778,42.734638611],[2.870715,42.734341667],[2.870736389,42.734319722],[2.870762222,42.7343025],[2.873054167,42.733000278],[2.873070556,42.7329875],[2.873083056,42.732973056],[2.873094444,42.732957222],[2.873102778,42.732936667],[2.873105278,42.732916667],[2.873105,42.732897778],[2.8730975,42.732878333],[2.873085278,42.732861111],[2.872724722,42.732515556],[2.872704444,42.732491111],[2.8726975,42.732469722],[2.872696389,42.732441389],[2.872703889,42.732413333],[2.872717778,42.732392778],[2.872740556,42.732366389],[2.873504167,42.731823056],[2.873948889,42.731502222],[2.874687222,42.730975833],[2.875213889,42.730612222],[2.876418333,42.729915833],[2.87694,42.729666667],[2.8770175,42.729631111],[2.877069167,42.729613333],[2.877116667,42.729607778],[2.877165833,42.729604444],[2.877206111,42.729606667],[2.87725,42.72962],[2.877284722,42.729644722],[2.877813333,42.730190278],[2.878086944,42.730471667],[2.8781275,42.730500833],[2.878166944,42.730525556],[2.878211111,42.730546667],[2.878249167,42.730578889],[2.878678889,42.731005],[2.878685,42.731018333],[2.878686111,42.731034167],[2.878691389,42.731046111],[2.879045278,42.731398611],[2.879291389,42.731686111],[2.879386111,42.7318],[2.879476667,42.731925],[2.879562222,42.73206],[2.879638889,42.732187778],[2.879679444,42.732281667],[2.879756111,42.7324825],[2.8797925,42.732595278],[2.8798225,42.732740833],[2.879838889,42.732845556],[2.879878056,42.733158056],[2.879930278,42.733651667],[2.880016389,42.734556389],[2.880069444,42.7351525],[2.880060278,42.735175278],[2.877541667,42.738146111],[2.876104722,42.739863889],[2.876058889,42.739916944],[2.8760325,42.739955278],[2.876022222,42.740008056],[2.875711944,42.741688889],[2.875663056,42.741816944],[2.875533056,42.742006389],[2.875484167,42.742015833],[2.874973333,42.742006667],[2.874953611,42.742019167],[2.874947778,42.742035833],[2.874806944,42.742710278],[2.874491111,42.743558333],[2.874441944,42.743790278],[2.874386111,42.743802222],[2.873683333,42.743809167],[2.873594722,42.743815833],[2.873290278,42.743888056],[2.872230556,42.7446725],[2.872177222,42.744676944],[2.871509444,42.744636944],[2.871336944,42.744852778],[2.871346667,42.745199167],[2.871345278,42.745376667],[2.870696111,42.746238333],[2.868366944,42.749260556],[2.867844444,42.7499125],[2.867995833,42.750439167],[2.867545833,42.750533056],[2.867145833,42.750661111],[2.866794722,42.750776389],[2.866504444,42.750886667],[2.865894167,42.751678611],[2.865738056,42.751868889],[2.865267222,42.752409444],[2.864864722,42.7528675],[2.864465833,42.753333611],[2.864422222,42.7533875],[2.864386111,42.753430833],[2.864364444,42.753476944],[2.864350278,42.753523611],[2.864349167,42.753581111],[2.864383333,42.753841111],[2.863631667,42.753891111],[2.863596111,42.753896111],[2.863570556,42.753903333],[2.863551111,42.754007778],[2.863547222,42.754048056],[2.863551111,42.754083889],[2.863655833,42.754391667],[2.863663889,42.754987778],[2.863656667,42.755008611],[2.863128333,42.755358889],[2.862722222,42.755626111],[2.862597778,42.755698056],[2.862408333,42.7558],[2.862292778,42.755860833],[2.861828056,42.755995278],[2.861768333,42.756006389],[2.861531111,42.756025278],[2.861344722,42.756039444],[2.861273333,42.756042778],[2.861180278,42.7560375],[2.861069444,42.756026944],[2.860851667,42.755996944],[2.860791111,42.755992222],[2.860727222,42.755993056],[2.860673611,42.755996667],[2.860636944,42.755995],[2.860594167,42.755987222],[2.860249444,42.755911667],[2.859954167,42.755821111],[2.859687222,42.75576],[2.859496944,42.755718611],[2.859339167,42.755671111],[2.859202778,42.755626944],[2.859101667,42.7555875],[2.859000833,42.755535556],[2.859123889,42.755306111],[2.859359444,42.7551575],[2.859476944,42.755074722],[2.859540556,42.755030278],[2.859591944,42.754994722],[2.859614167,42.754973056],[2.859620556,42.754957778],[2.859615,42.754941111],[2.859483889,42.754846944],[2.859805833,42.754354167],[2.859631667,42.754133056],[2.859562222,42.754054444],[2.859509167,42.753974444],[2.859471389,42.753885],[2.859440833,42.753791667],[2.859430556,42.753694444],[2.859428333,42.753614444],[2.859468611,42.75329],[2.859738333,42.752619722],[2.859687222,42.752273889],[2.859975833,42.752062222],[2.860247222,42.751854444],[2.860363889,42.751765556],[2.860505833,42.751643889],[2.860698056,42.751471389],[2.860739722,42.751440278],[2.861266944,42.751160833],[2.861304167,42.751140278],[2.861332778,42.751115833],[2.861618056,42.750763333],[2.861875556,42.750441944],[2.862114722,42.750145278],[2.862339444,42.749883889],[2.862769167,42.749392778],[2.862913056,42.749228889],[2.862986389,42.749121111],[2.863133611,42.748891944],[2.863207778,42.748783611],[2.863294444,42.748685],[2.863805556,42.748075833],[2.864625,42.747096944],[2.865678056,42.745845278],[2.866127222,42.745278889],[2.866796111,42.744461944],[2.865812222,42.744521111],[2.865863889,42.743364167],[2.866467778,42.743321667],[2.866473611,42.743075278],[2.866729722,42.742941389],[2.867362222,42.7428325],[2.867624167,42.742765],[2.867469167,42.742455278],[2.867603889,42.742307222],[2.868192222,42.742541944],[2.869022778,42.741521389],[2.869008611,42.741455],[2.868964722,42.741391111],[2.868915278,42.741341111],[2.868814167,42.741298889],[2.868698056,42.741276111],[2.868190833,42.741200556],[2.868003611,42.741170556],[2.867889444,42.741144167],[2.867790278,42.741113333],[2.867651944,42.741073056],[2.867486389,42.741043889],[2.867344444,42.741037222],[2.867202222,42.741035278],[2.86696,42.741052778],[2.866883889,42.741054167],[2.866815,42.741050556],[2.866563333,42.741037222],[2.866491944,42.741036944],[2.866412222,42.741048611],[2.866256667,42.741067778],[2.866050833,42.7410975],[2.865769722,42.741066944],[2.865521111,42.741041944],[2.865368333,42.741000556],[2.865255556,42.740963056]]]}},{"type":"Feature","id":"lfmp.area.filled.region.terrain1.106965","properties":{"name":"LFMP AVISO","layer":"Airfield surfaces","category":"Terrain1","object_type":"Area","style_id":"area.filled.region.terrain1","airport":"LFMP","geometry_role":"filled_region","vsmr_group_ids":[]},"geometry":{"type":"Polygon","coordinates":[[[2.867302778,42.743847222],[2.867226111,42.743945833],[2.866556389,42.743989722],[2.866549167,42.744376944],[2.866870833,42.7443625],[2.866791667,42.744462222],[2.865811944,42.744519444],[2.865878056,42.743366667],[2.866495278,42.74332],[2.866520833,42.743870278],[2.867302778,42.743847222]]]}},{"type":"Feature","id":"lfmp.area.filled.region.terrain1.106976","properties":{"name":"LFMP AVISO","layer":"Airfield surfaces","category":"Terrain1","object_type":"Area","style_id":"area.filled.region.terrain1","airport":"LFMP","geometry_role":"filled_region","vsmr_group_ids":[]},"geometry":{"type":"Polygon","coordinates":[[[2.8657625,42.740778056],[2.865599722,42.740871944],[2.865086667,42.740383333],[2.865253611,42.740293056],[2.8657625,42.740778056]]]}},{"type":"Feature","id":"lfmp.area.filled.region.hard.surface4.106981","properties":{"name":"LFMP AVISO","layer":"Airfield surfaces","category":"Hard Surface4","object_type":"Area","style_id":"area.filled.region.hard.surface4","airport":"LFMP","geometry_role":"filled_region","vsmr_group_ids":[]},"geometry":{"type":"Polygon","coordinates":[[[2.861499167,42.754790556],[2.861024167,42.754563056],[2.861490278,42.754014167],[2.861961389,42.754223889],[2.861499167,42.754790556]]]}},{"type":"Feature","id":"lfmp.area.filled.region.hard.surface4.106986","properties":{"name":"LFMP AVISO","layer":"Airfield surfaces","category":"Hard Surface4","object_type":"Area","style_id":"area.filled.region.hard.surface4","airport":"LFMP","geometry_role":"filled_region","vsmr_group_ids":[]},"geometry":{"type":"Polygon","coordinates":[[[2.8779875,42.734363889],[2.878440833,42.734571111],[2.877989444,42.735105833],[2.877523333,42.734896389],[2.8779875,42.734363889]]]}},{"type":"Feature","id":"lfmp.area.filled.region.hard.surface4.106991","properties":{"name":"LFMP AVISO","layer":"Airfield surfaces","category":"Hard Surface4","object_type":"Area","style_id":"area.filled.region.hard.surface4","airport":"LFMP","geometry_role":"filled_region","vsmr_group_ids":[]},"geometry":{"type":"Polygon","coordinates":[[[2.866636111,42.739173333],[2.865245556,42.739946111],[2.865228333,42.739957778],[2.86521,42.739975556],[2.865189722,42.739996667],[2.865166667,42.740026667],[2.865152778,42.740056111],[2.86514,42.740088056],[2.865133889,42.740118333],[2.865135833,42.740146667],[2.865140833,42.740168889],[2.865157222,42.7401975],[2.865190556,42.740235],[2.865255278,42.740294167],[2.865087778,42.740385556],[2.864707778,42.740015833],[2.866471944,42.739017778],[2.866636111,42.739173333]]]}},{"type":"Feature","id":"lfmp.area.filled.region.hard.surface4.107009","properties":{"name":"LFMP AVISO","layer":"Airfield surfaces","category":"Hard Surface4","object_type":"Area","style_id":"area.filled.region.hard.surface4","airport":"LFMP","geometry_role":"filled_region","vsmr_group_ids":[]},"geometry":{"type":"Polygon","coordinates":[[[2.867613056,42.738633056],[2.867554167,42.738677222],[2.867500278,42.738721389],[2.867458333,42.738757778],[2.867415278,42.738802778],[2.867382778,42.7388425],[2.867366389,42.738866667],[2.867356667,42.738894167],[2.867350556,42.7389275],[2.867346944,42.7389575],[2.86735,42.738993333],[2.86736,42.739033889],[2.867383333,42.739076389],[2.867410278,42.739119722],[2.867447778,42.7391775],[2.867481389,42.739219167],[2.867503611,42.739243611],[2.867523056,42.739259722],[2.867546389,42.739274167],[2.867573611,42.739288611],[2.867607222,42.739304722],[2.867595,42.739319444],[2.867614167,42.739330833],[2.867637778,42.739340278],[2.867676111,42.739350833],[2.867723333,42.739361389],[2.867764722,42.739367222],[2.867802778,42.739369722],[2.8678525,42.739371667],[2.867894167,42.739373056],[2.867920556,42.7393725],[2.867961111,42.739370833],[2.868011111,42.739366111],[2.868072222,42.739358889],[2.867565,42.739664167],[2.867299444,42.739386667],[2.867191389,42.7392825],[2.867138889,42.739233611],[2.867091667,42.739196111],[2.867050833,42.739168611],[2.867021667,42.73915],[2.866999444,42.739140833],[2.866975833,42.739133611],[2.866947222,42.7391275],[2.866910556,42.739123056],[2.866871389,42.73912],[2.866838333,42.739119167],[2.866809444,42.739120278],[2.866780556,42.739123056],[2.8667475,42.739130278],[2.866710556,42.739139444],[2.866653889,42.739161944],[2.867672222,42.738593611],[2.867613056,42.738633056]]]}},{"type":"Feature","id":"lfmp.area.filled.region.hard.surface4.107063","properties":{"name":"LFMP AVISO","layer":"Airfield surfaces","category":"Hard Surface4","object_type":"Area","style_id":"area.filled.region.hard.surface4","airport":"LFMP","geometry_role":"filled_region","vsmr_group_ids":[]},"geometry":{"type":"Polygon","coordinates":[[[2.870883611,42.740760278],[2.8712575,42.740929722],[2.871631944,42.741100833],[2.871704167,42.741130556],[2.871742222,42.741144444],[2.871785,42.741157222],[2.871831111,42.741164444],[2.871883333,42.741166944],[2.871931389,42.741165278],[2.871993333,42.741158056],[2.872059167,42.741146667],[2.872111389,42.741136944],[2.872151667,42.741128611],[2.872191389,42.7411175],[2.872241667,42.741104167],[2.872281944,42.741091667],[2.87229,42.741148889],[2.8717475,42.7417875],[2.871763611,42.7417225],[2.871770833,42.7416825],[2.871776111,42.741643889],[2.871780278,42.741610278],[2.871781389,42.741574444],[2.871776667,42.741546389],[2.871765278,42.741515833],[2.871754167,42.741482222],[2.871735833,42.741446667],[2.871711667,42.741409167],[2.871681389,42.741372778],[2.871647778,42.741339167],[2.871604444,42.741303889],[2.871560556,42.741275833],[2.871471667,42.741232222],[2.870614167,42.740845],[2.870735278,42.740693333],[2.870883611,42.740760278]]]}},{"type":"Feature","id":"lfmp.area.filled.region.hard.surface4.107099","properties":{"name":"LFMP AVISO","layer":"Airfield surfaces","category":"Hard Surface4","object_type":"Area","style_id":"area.filled.region.hard.surface4","airport":"LFMP","geometry_role":"filled_region","vsmr_group_ids":[]},"geometry":{"type":"Polygon","coordinates":[[[2.863332778,42.749920278],[2.863265,42.749928889],[2.863208611,42.749938056],[2.863151667,42.749951111],[2.863103333,42.749964444],[2.863055,42.749978889],[2.863013611,42.749997222],[2.862986667,42.7500125],[2.862959722,42.750031111],[2.862928333,42.750052778],[2.862885833,42.750084444],[2.863357222,42.749516389],[2.863488333,42.749620278],[2.863650833,42.7497225],[2.863875278,42.749794722],[2.864128889,42.749833889],[2.863332778,42.749920278]]]}},{"type":"Feature","id":"lfmp.area.filled.region.hard.surface4.107116","properties":{"name":"LFMP AVISO","layer":"Airfield surfaces","category":"Hard Surface4","object_type":"Area","style_id":"area.filled.region.hard.surface4","airport":"LFMP","geometry_role":"filled_region","vsmr_group_ids":[]},"geometry":{"type":"Polygon","coordinates":[[[2.870293056,42.740787778],[2.870299167,42.740929722],[2.869724444,42.741913333],[2.868959722,42.742828333],[2.869063889,42.742429722],[2.868966389,42.7422],[2.8688675,42.742137778],[2.869380278,42.741531389],[2.869815278,42.741010833],[2.869781389,42.740990833],[2.869900556,42.740849444],[2.869720833,42.740768333],[2.869685,42.740765556],[2.8695175,42.740898889],[2.869338056,42.740872778],[2.868975,42.740844722],[2.868796111,42.741016667],[2.868356111,42.740908611],[2.868303889,42.740824167],[2.868073889,42.740752778],[2.867683333,42.740696667],[2.867685833,42.740661667],[2.867405278,42.740613889],[2.867386667,42.740613056],[2.867370278,42.740614722],[2.867357222,42.740619444],[2.867053889,42.740581389],[2.867205556,42.740286111],[2.870166667,42.740707222],[2.870293056,42.740787778]]]}},{"type":"Feature","id":"lfmp.area.filled.region.hard.surface4.107146","properties":{"name":"LFMP AVISO","layer":"Airfield surfaces","category":"Hard Surface4","object_type":"Area","style_id":"area.filled.region.hard.surface4","airport":"LFMP","geometry_role":"filled_region","vsmr_group_ids":[]},"geometry":{"type":"Polygon","coordinates":[[[2.875250278,42.732390278],[2.875411389,42.732552778],[2.875417222,42.732555833],[2.875423333,42.732557778],[2.875432778,42.732558889],[2.875381389,42.732591111],[2.875320833,42.732621389],[2.875143056,42.732445833],[2.875250278,42.732390278]]]}},{"type":"Feature","id":"lfmp.area.filled.region.hard.surface4.107155","properties":{"name":"LFMP AVISO","layer":"Airfield surfaces","category":"Hard Surface4","object_type":"Area","style_id":"area.filled.region.hard.surface4","airport":"LFMP","geometry_role":"filled_region","vsmr_group_ids":[]},"geometry":{"type":"Polygon","coordinates":[[[2.870466667,42.735081944],[2.872693889,42.733814444],[2.872764722,42.7337725],[2.872786944,42.733795833],[2.873999167,42.733077222],[2.87405,42.733123056],[2.870501667,42.735120278],[2.870466667,42.735081944]]]}},{"type":"Feature","id":"lfmp.area.filled.region.runway.grass.107163","properties":{"name":"LFMP AVISO","layer":"Airfield surfaces","category":"Runway Grass","object_type":"Area","style_id":"area.filled.region.runway.grass","airport":"LFMP","geometry_role":"filled_region","vsmr_group_ids":[]},"geometry":{"type":"Polygon","coordinates":[[[2.870833056,42.735438333],[2.870332778,42.735728333],[2.870202778,42.735583889],[2.870143611,42.735525833],[2.870106944,42.735491944],[2.870078056,42.735474444],[2.870029444,42.735461667],[2.870057778,42.73543],[2.8700925,42.7353925],[2.8701375,42.735359444],[2.870187222,42.735322778],[2.870260556,42.735278333],[2.870411944,42.735186944],[2.870514167,42.735128056],[2.8707775,42.735381667],[2.870833056,42.735438333]]]}},{"type":"Feature","id":"lfmp.area.filled.region.hard.surface3.107179","properties":{"name":"LFMP AVISO","layer":"Airfield surfaces","category":"Hard Surface3","object_type":"Area","style_id":"area.filled.region.hard.surface3","airport":"LFMP","geometry_role":"filled_region","vsmr_group_ids":[]},"geometry":{"type":"Polygon","coordinates":[[[2.867471389,42.743625833],[2.867463889,42.743629722],[2.8673025,42.743850278],[2.866496944,42.7438825],[2.866489167,42.743077778],[2.866713611,42.742964722],[2.866761944,42.742949167],[2.866828889,42.742935556],[2.867273611,42.742860556],[2.867290556,42.742858611],[2.867300278,42.742860556],[2.867313056,42.742869444],[2.867667222,42.743239722],[2.867681111,42.743258056],[2.867678889,42.743274722],[2.867653333,42.74335],[2.867619167,42.743412778],[2.867574444,42.743486111],[2.867551389,42.743529444],[2.8674775,42.743626667],[2.867471389,42.743625833]]]}},{"type":"Feature","id":"lfmp.area.filled.region.hard.surface3.107200","properties":{"name":"LFMP AVISO","layer":"Airfield surfaces","category":"Hard Surface3","object_type":"Area","style_id":"area.filled.region.hard.surface3","airport":"LFMP","geometry_role":"filled_region","vsmr_group_ids":[]},"geometry":{"type":"Polygon","coordinates":[[[2.869949444,42.740683056],[2.867199444,42.740293333],[2.867370556,42.739931389],[2.867411667,42.739843889],[2.867448611,42.739778889],[2.867485278,42.7397325],[2.8675375,42.739679167],[2.867594722,42.739631111],[2.867759722,42.739528333],[2.868770833,42.738944444],[2.868907222,42.7388675],[2.868975,42.738828056],[2.869013611,42.738808889],[2.869047222,42.738802222],[2.869080833,42.738801667],[2.870958333,42.739069444],[2.870948056,42.739342222],[2.870965833,42.7393425],[2.870966111,42.739389444],[2.870977222,42.739391944],[2.870486667,42.740435],[2.870174722,42.740739444],[2.869949444,42.740683056]]]}},{"type":"Feature","id":"lfmp.area.filled.region.hard.surface3.107223","properties":{"name":"LFMP AVISO","layer":"Airfield surfaces","category":"Hard Surface3","object_type":"Area","style_id":"area.filled.region.hard.surface3","airport":"LFMP","geometry_role":"filled_region","vsmr_group_ids":[]},"geometry":{"type":"Polygon","coordinates":[[[2.870955833,42.735285278],[2.8709525,42.735285556],[2.870771389,42.735388333],[2.870500278,42.735119722],[2.873479444,42.733430556],[2.8740175,42.733115],[2.873993611,42.733091944],[2.873961389,42.733108611],[2.873605833,42.732765556],[2.873940556,42.732577222],[2.873915556,42.732553333],[2.874210833,42.732382778],[2.874235278,42.732405833],[2.87426,42.732391944],[2.874279722,42.732385],[2.874296667,42.7323825],[2.874308056,42.732384722],[2.874368056,42.732464722],[2.874398889,42.732501389],[2.874451389,42.732557778],[2.874440556,42.732571667],[2.874434722,42.732585],[2.874434722,42.732651944],[2.874441111,42.732665278],[2.874449167,42.732671389],[2.874458056,42.73267],[2.874461389,42.732658889],[2.874466111,42.732579167],[2.874471944,42.732540833],[2.874484444,42.732474167],[2.874518333,42.732315],[2.874531667,42.732271389],[2.874532778,42.732258333],[2.87453,42.732247778],[2.874523889,42.732235833],[2.874513611,42.732226111],[2.874465,42.732214444],[2.874395278,42.732253056],[2.8743625,42.732217222],[2.874440278,42.732173889],[2.874444722,42.732167778],[2.874445,42.732162778],[2.874442222,42.732157222],[2.874344444,42.732065],[2.874339444,42.732063611],[2.874333056,42.732064167],[2.874324722,42.732067222],[2.874305833,42.732083056],[2.874296111,42.732094722],[2.874283056,42.7321325],[2.874182778,42.732041111],[2.87424,42.732038056],[2.874269444,42.732036111],[2.874293611,42.732032222],[2.874314722,42.732024722],[2.8743225,42.732020278],[2.874323889,42.732015833],[2.87432,42.732009167],[2.874236389,42.731927222],[2.8742825,42.731902778],[2.874367778,42.731992778],[2.8743725,42.731994722],[2.874378611,42.731994722],[2.874467222,42.731955556],[2.874387778,42.731860833],[2.874539167,42.731793611],[2.874676389,42.731950833],[2.874665833,42.732055278],[2.874658611,42.732065556],[2.874627222,42.732081667],[2.874607778,42.732092778],[2.874595,42.732105556],[2.874588056,42.732122222],[2.874584722,42.732138889],[2.874587778,42.732154722],[2.874618889,42.732189167],[2.874630833,42.732202222],[2.874635833,42.732214444],[2.874640278,42.732219722],[2.8746475,42.732221667],[2.874655833,42.732220278],[2.874673056,42.732211944],[2.874743056,42.732168611],[2.874794167,42.732216667],[2.874736944,42.732240833],[2.874706389,42.732256944],[2.874678889,42.732274167],[2.874646667,42.732295833],[2.874638611,42.732303611],[2.874631389,42.732315278],[2.874589167,42.732535556],[2.874558333,42.73267],[2.874548889,42.732715],[2.874546111,42.732743889],[2.874546389,42.732763333],[2.87455,42.732779444],[2.874698333,42.732936389],[2.874724722,42.732963333],[2.874746111,42.732979722],[2.874774167,42.732991944],[2.874816944,42.733002222],[2.874857222,42.7330075],[2.874895833,42.733004722],[2.874935278,42.732999444],[2.874979444,42.732990278],[2.874752222,42.733117222],[2.874741944,42.733104722],[2.8747325,42.733097222],[2.874720278,42.733091944],[2.874702222,42.733089444],[2.874683333,42.733089722],[2.874666944,42.733091667],[2.874651111,42.7330975],[2.874519167,42.733170833],[2.874509167,42.73318],[2.874504167,42.73319],[2.874502778,42.733202222],[2.874503333,42.733214444],[2.874506389,42.733227222],[2.874513889,42.733238611],[2.874521667,42.733248611],[2.874434722,42.733298333],[2.874426111,42.733288889],[2.874413889,42.733281111],[2.874399444,42.733274167],[2.874384167,42.733270833],[2.874367222,42.73327],[2.874350556,42.733271111],[2.874333611,42.733274444],[2.874313333,42.733283333],[2.874251111,42.733319722],[2.874238611,42.733331111],[2.874229167,42.7333425],[2.874224722,42.733350556],[2.874223056,42.733359722],[2.874224444,42.733368611],[2.874251111,42.733402222],[2.874165833,42.733450833],[2.874156944,42.733443056],[2.874143333,42.733433889],[2.874130278,42.733425833],[2.874110556,42.733420833],[2.87409,42.733419722],[2.8740725,42.7334225],[2.874054722,42.733429444],[2.873961667,42.733486389],[2.873956111,42.733495278],[2.873955556,42.733508611],[2.873958056,42.733523333],[2.873963611,42.733535833],[2.873993889,42.7335725],[2.87371,42.733731944],[2.873435278,42.733889167],[2.872701389,42.7343025],[2.872425278,42.734459444],[2.872196944,42.734588333],[2.871910833,42.734749722],[2.871258889,42.735116667],[2.871055278,42.735230278],[2.8710525,42.735233056],[2.870957778,42.735286111],[2.870955833,42.735285278]]]}},{"type":"Feature","id":"lfmp.area.filled.region.hard.surface3.107385","properties":{"name":"LFMP AVISO","layer":"Airfield surfaces","category":"Hard Surface3","object_type":"Area","style_id":"area.filled.region.hard.surface3","airport":"LFMP","geometry_role":"filled_region","vsmr_group_ids":[]},"geometry":{"type":"Polygon","coordinates":[[[2.875144722,42.732444722],[2.875323611,42.732620278],[2.874951111,42.7328275],[2.874773333,42.732652778],[2.875144722,42.732444722]]]}},{"type":"Feature","id":"lfmp.area.filled.region.hard.surface3.107390","properties":{"name":"LFMP AVISO","layer":"Airfield surfaces","category":"Hard Surface3","object_type":"Area","style_id":"area.filled.region.hard.surface3","airport":"LFMP","geometry_role":"filled_region","vsmr_group_ids":[]},"geometry":{"type":"Polygon","coordinates":[[[2.875415,42.732732222],[2.875427222,42.732716944],[2.875434444,42.732703889],[2.8754375,42.732687222],[2.875436111,42.7326675],[2.875429444,42.732646667],[2.87542,42.732629722],[2.875407222,42.732615278],[2.875393889,42.732602222],[2.875377778,42.732590833],[2.875424167,42.732560556],[2.875444444,42.732551944],[2.875470556,42.732545833],[2.875494722,42.732535556],[2.875636111,42.732456111],[2.8757675,42.732378611],[2.875717778,42.73233],[2.875875,42.732245556],[2.875725556,42.732096944],[2.876542222,42.731627778],[2.876563333,42.731648889],[2.876573056,42.731659444],[2.876585,42.731665556],[2.876600556,42.731666667],[2.876622222,42.731658056],[2.876673889,42.731627222],[2.876703889,42.731605],[2.876716111,42.731587222],[2.876719722,42.731574444],[2.876718333,42.731561389],[2.876712222,42.731548611],[2.876705278,42.7315425],[2.876990833,42.731436667],[2.876650278,42.73073],[2.877748056,42.730155556],[2.878497222,42.730898889],[2.877476111,42.731502222],[2.877478056,42.731574167],[2.877140556,42.731762222],[2.877159167,42.731744167],[2.877166944,42.731733333],[2.877167778,42.731724444],[2.877164167,42.731711111],[2.87715,42.731687778],[2.87713,42.731668611],[2.877112222,42.731655278],[2.877088056,42.731644444],[2.877063333,42.73164],[2.877044722,42.731638889],[2.877025833,42.731643889],[2.876934444,42.731700556],[2.876834167,42.731758056],[2.876811111,42.7317725],[2.876800833,42.731780833],[2.876796667,42.731787778],[2.8767975,42.731795278],[2.876801944,42.731804444],[2.876902222,42.731901111],[2.875914167,42.732456389],[2.875915278,42.732451667],[2.875913889,42.732447778],[2.875909722,42.7324425],[2.875898889,42.732435],[2.875885,42.73243],[2.87587,42.732428611],[2.875855,42.732428889],[2.875836389,42.732433889],[2.875697778,42.732511667],[2.875637222,42.732543611],[2.875624167,42.732557778],[2.875620278,42.732569167],[2.875619167,42.732580556],[2.875623611,42.732591111],[2.875631389,42.732599444],[2.875640833,42.732604444],[2.875654722,42.732606111],[2.875395,42.732750556],[2.875415,42.732732222]]]}},{"type":"Feature","id":"lfmp.area.filled.region.hard.surface3.107468","properties":{"name":"LFMP AVISO","layer":"Airfield surfaces","category":"Hard Surface3","object_type":"Area","style_id":"area.filled.region.hard.surface3","airport":"LFMP","geometry_role":"filled_region","vsmr_group_ids":[]},"geometry":{"type":"Polygon","coordinates":[[[2.867135278,42.744334722],[2.867129722,42.744315833],[2.867120278,42.744298611],[2.867107222,42.74428],[2.867090556,42.744262222],[2.867073611,42.744248889],[2.867016111,42.744223889],[2.867008333,42.744224167],[2.866998611,42.744227222],[2.866867778,42.744369167],[2.866527778,42.744396389],[2.866510278,42.743972778],[2.867228889,42.743944722],[2.867112778,42.744094444],[2.867160278,42.744121667],[2.867182222,42.744128889],[2.867205833,42.744133056],[2.867236111,42.744133611],[2.867263889,42.744130833],[2.867291389,42.744124444],[2.867309167,42.744113889],[2.867319167,42.744109444],[2.8673275,42.74411],[2.867337778,42.744109167],[2.867136944,42.7443475],[2.867135278,42.744334722]]]}},{"type":"Feature","id":"lfmp.area.filled.region.hard.surface2.107494","properties":{"name":"LFMP AVISO","layer":"Airfield surfaces","category":"Hard Surface2","object_type":"Area","style_id":"area.filled.region.hard.surface2","airport":"LFMP","geometry_role":"filled_region","vsmr_group_ids":[]},"geometry":{"type":"Polygon","coordinates":[[[2.867917222,42.743411667],[2.86806,42.743238333],[2.8687625,42.742403333],[2.868815556,42.742341944],[2.868849722,42.742311389],[2.868886389,42.742281111],[2.868961111,42.742195556],[2.869005,42.742154722],[2.869050556,42.742116667],[2.869105833,42.742074167],[2.869171389,42.742036944],[2.869243056,42.741995833],[2.869304444,42.741961389],[2.869363056,42.741928889],[2.869413056,42.741896389],[2.869452778,42.741864444],[2.869513889,42.741811944],[2.869558889,42.741769167],[2.869595278,42.741726944],[2.870266389,42.740920278],[2.870277778,42.740889722],[2.870277778,42.740848333],[2.870266944,42.740815],[2.8702475,42.740782778],[2.870206389,42.740753611],[2.8701725,42.740739722],[2.870391944,42.740476111],[2.870416667,42.740444167],[2.870441944,42.740408889],[2.870474722,42.740349722],[2.870948611,42.739451111],[2.870964722,42.739419722],[2.870975,42.739391111],[2.871281111,42.739433333],[2.871325556,42.739424167],[2.871368056,42.739411944],[2.871409722,42.739395833],[2.871449444,42.739377222],[2.871486667,42.739355556],[2.871526389,42.739333056],[2.871564444,42.739306111],[2.871599167,42.739276389],[2.871640278,42.7392325],[2.871703333,42.739153889],[2.874190278,42.736262778],[2.874216944,42.736230833],[2.874242778,42.736201944],[2.874266389,42.736166389],[2.874285556,42.736123889],[2.8742975,42.736078889],[2.874304444,42.736034444],[2.874305,42.735984722],[2.874299444,42.735929444],[2.874286389,42.735881944],[2.874267222,42.735838056],[2.874239167,42.735790278],[2.874201667,42.735747222],[2.874159167,42.735705556],[2.874101111,42.735665278],[2.874036944,42.73563],[2.874153889,42.7354925],[2.874356944,42.735581111],[2.874513333,42.735639722],[2.875321944,42.736009167],[2.875148056,42.736216389],[2.875115278,42.736208333],[2.875066389,42.7361975],[2.875023333,42.736190556],[2.874978333,42.736185],[2.874936667,42.736180278],[2.874898889,42.736179167],[2.874850556,42.736180833],[2.874805556,42.736186667],[2.874761667,42.736195278],[2.874724167,42.736204444],[2.874686111,42.736215556],[2.874653611,42.736226667],[2.874609444,42.736245278],[2.874570278,42.736263611],[2.874525833,42.736281667],[2.874487778,42.7363],[2.874416111,42.736339167],[2.874360556,42.7363875],[2.874290556,42.736456944],[2.8717725,42.739447778],[2.871550556,42.739731389],[2.871503889,42.739798889],[2.871485278,42.739839167],[2.871469167,42.739894722],[2.871458889,42.739956111],[2.871459722,42.740019167],[2.871473889,42.740076944],[2.871494722,42.740133333],[2.871523056,42.740179167],[2.871558056,42.740223056],[2.871595833,42.740254444],[2.871634167,42.740275556],[2.871688611,42.7403],[2.871541389,42.740476944],[2.871517778,42.740468889],[2.871492222,42.740462222],[2.871453889,42.740454167],[2.871403611,42.740446667],[2.871364722,42.740442778],[2.871317778,42.740441111],[2.871269444,42.740441944],[2.871223333,42.740445556],[2.871175833,42.740451389],[2.8711325,42.740458611],[2.871084444,42.740470278],[2.871038611,42.740484444],[2.870993611,42.740501944],[2.870949444,42.740521667],[2.870907778,42.740545],[2.870871389,42.740569722],[2.870834167,42.740595278],[2.870804167,42.740621944],[2.870761944,42.740669444],[2.870725,42.740715],[2.870581111,42.740885556],[2.869723333,42.741916111],[2.869652222,42.741991111],[2.8696125,42.742026389],[2.869542778,42.742069722],[2.869299444,42.742223611],[2.869254722,42.742251111],[2.869215556,42.742281389],[2.8691375,42.742356389],[2.869055278,42.742448333],[2.868868611,42.742665],[2.868301667,42.743348611],[2.867743611,42.744008611],[2.86685,42.745074167],[2.866098333,42.745966944],[2.864875,42.747442222],[2.864121667,42.748337222],[2.863805833,42.748711111],[2.863616389,42.748933889],[2.863571389,42.748988611],[2.863538889,42.749042778],[2.863518333,42.7490975],[2.8635025,42.749154444],[2.863499444,42.749215],[2.863511111,42.749288611],[2.863525,42.749342778],[2.8635475,42.749383056],[2.8635775,42.749430556],[2.863615,42.749473056],[2.863666667,42.749521389],[2.8634975,42.749650556],[2.863459167,42.749621111],[2.863430278,42.749596667],[2.863405556,42.749571389],[2.863385556,42.749549444],[2.863365833,42.749525833],[2.862888056,42.750084444],[2.862364444,42.750695833],[2.8622175,42.750873333],[2.862185,42.750918611],[2.862168889,42.750955],[2.862148611,42.751012222],[2.86213,42.751075833],[2.862123056,42.751152778],[2.862124167,42.751221389],[2.862134722,42.751285556],[2.862155,42.751352778],[2.862185556,42.751414167],[2.862212222,42.7514625],[2.862233611,42.751494167],[2.862253889,42.751523056],[2.862038333,42.751616389],[2.862013889,42.751574444],[2.8619875,42.751533056],[2.861964444,42.751493333],[2.861945278,42.751454722],[2.861923611,42.751411667],[2.861899167,42.751348611],[2.861889444,42.751306389],[2.8618875,42.751300556],[2.861882778,42.7512975],[2.861874722,42.751298889],[2.861865278,42.751305],[2.861835,42.751331389],[2.861748611,42.751433889],[2.861610278,42.751601111],[2.861485,42.751748611],[2.861340833,42.751923056],[2.861252222,42.752029444],[2.861982778,42.75195],[2.8620225,42.752156944],[2.861811944,42.752183889],[2.861660278,42.752203889],[2.861569167,42.752217778],[2.861504167,42.752229167],[2.861460833,42.752238056],[2.861411389,42.752249167],[2.861359167,42.752261111],[2.861303611,42.752275833],[2.861258889,42.752288889],[2.861224444,42.752303333],[2.861185,42.752323056],[2.861141944,42.752346667],[2.861093889,42.752375278],[2.861056111,42.752402222],[2.861016667,42.752429167],[2.860985,42.752454444],[2.860954722,42.752480278],[2.860880278,42.752547778],[2.8607775,42.752643333],[2.860718889,42.752703333],[2.860658333,42.752768056],[2.860637778,42.752791667],[2.860620556,42.752817778],[2.860371667,42.753237778],[2.860335833,42.753308611],[2.860311667,42.753363611],[2.860298333,42.753406944],[2.860290833,42.753453889],[2.860286667,42.753501667],[2.860288889,42.753550556],[2.860294444,42.753592222],[2.860307222,42.753640556],[2.860319167,42.753680556],[2.860336944,42.753722778],[2.860361667,42.753763333],[2.860395556,42.753805833],[2.860430833,42.753843611],[2.860466111,42.7538775],[2.860503889,42.753908333],[2.860245278,42.754090278],[2.860210278,42.754064722],[2.860186111,42.754045],[2.8601625,42.754024722],[2.860140833,42.754003333],[2.860119722,42.753981944],[2.860098056,42.753957778],[2.860077778,42.753932778],[2.860053889,42.753901667],[2.860031111,42.753868056],[2.8600125,42.753836944],[2.859993333,42.753800833],[2.859978611,42.7537675],[2.859965833,42.753734167],[2.859957778,42.753702778],[2.859949167,42.753670278],[2.859942222,42.753633889],[2.859938056,42.753599444],[2.859934167,42.753561667],[2.859933056,42.753521667],[2.859933333,42.75347],[2.859935833,42.753430833],[2.859941667,42.753394167],[2.859950278,42.753352778],[2.859964444,42.753303333],[2.859982222,42.753262222],[2.860001667,42.753222778],[2.860034167,42.753167222],[2.860078056,42.753100278],[2.860121389,42.753041944],[2.860245556,42.7528875],[2.860436111,42.752656389],[2.8610125,42.751969444],[2.862130833,42.750640278],[2.862641944,42.750029444],[2.862899167,42.749720278],[2.863044444,42.749556667],[2.863117222,42.749468333],[2.863165,42.749399444],[2.863203056,42.749323889],[2.86323,42.749233611],[2.863246944,42.749161389],[2.8632525,42.749104167],[2.8632625,42.749049444],[2.863282222,42.748987778],[2.863310278,42.748926667],[2.863341667,42.748873611],[2.864144167,42.747908056],[2.865451667,42.746360278],[2.866985833,42.744524444],[2.8673325,42.744109444],[2.867675278,42.743698889],[2.867616389,42.743671389],[2.867559167,42.743650833],[2.867476111,42.743626667],[2.867550556,42.743527778],[2.867617778,42.743553611],[2.867619167,42.743566944],[2.867628889,42.743578889],[2.867649444,42.743591389],[2.8676875,42.743608889],[2.867736944,42.743628611],[2.867771944,42.743591667],[2.867917222,42.743411667]]]}},{"type":"Feature","id":"lfmp.area.filled.region.hard.surface2.107787","properties":{"name":"LFMP AVISO","layer":"Airfield surfaces","category":"Hard Surface2","object_type":"Area","style_id":"area.filled.region.hard.surface2","airport":"LFMP","geometry_role":"filled_region","vsmr_group_ids":[]},"geometry":{"type":"Polygon","coordinates":[[[2.8698575,42.736343611],[2.8698425,42.736321111],[2.869833056,42.736299722],[2.869823333,42.736276389],[2.869818333,42.736250833],[2.869816389,42.736223333],[2.869818611,42.736197222],[2.869826111,42.736173333],[2.869840278,42.736144722],[2.8698675,42.736111111],[2.869900278,42.736081944],[2.869933056,42.736056111],[2.869978611,42.736029167],[2.871077222,42.735408333],[2.870956667,42.735285833],[2.871052222,42.735232222],[2.871176944,42.735352778],[2.871384167,42.735236111],[2.871256944,42.735116944],[2.8714075,42.735030556],[2.871528333,42.735154167],[2.871833333,42.734984167],[2.871709722,42.734862222],[2.871909722,42.734747222],[2.872034722,42.734867222],[2.872314167,42.734708056],[2.872310833,42.734693333],[2.872310278,42.734680833],[2.87231,42.734672222],[2.872231944,42.7345925],[2.872224167,42.734588333],[2.872216389,42.734587222],[2.872206667,42.7345875],[2.872188333,42.734591111],[2.87243,42.734455278],[2.872427222,42.734466944],[2.872428889,42.734478889],[2.872436111,42.734492222],[2.872470556,42.734524167],[2.872509444,42.7345525],[2.872526944,42.734562778],[2.872540833,42.734566944],[2.872554167,42.734568056],[2.872571111,42.734565278],[2.872799444,42.734434167],[2.872808611,42.734424444],[2.872813333,42.734413333],[2.872813056,42.734401111],[2.872810278,42.734389444],[2.872802778,42.734379722],[2.872735556,42.734312222],[2.872725278,42.734305833],[2.872714444,42.734303889],[2.872694444,42.734304167],[2.872949167,42.734161389],[2.872938889,42.734175278],[2.8729375,42.734186111],[2.872940833,42.734195556],[2.873024167,42.734278889],[2.873034167,42.734286111],[2.873044722,42.734288333],[2.873055278,42.734288056],[2.873066111,42.734285],[2.873318333,42.734140278],[2.873318611,42.734129444],[2.873320556,42.734119167],[2.873321389,42.734112222],[2.873318333,42.734103611],[2.873303889,42.734088611],[2.87325,42.73404],[2.873236667,42.734031667],[2.873224722,42.734025556],[2.873211111,42.734022778],[2.873198889,42.734021389],[2.873443333,42.733881667],[2.873441389,42.733895],[2.873441944,42.733905278],[2.873448611,42.733916944],[2.873521111,42.733987778],[2.873532222,42.733991944],[2.873544167,42.733994167],[2.873553611,42.733996944],[2.873560556,42.733999167],[2.873564722,42.734],[2.8735725,42.733999167],[2.873827778,42.733852778],[2.873829167,42.733828889],[2.873744167,42.733734444],[2.873726389,42.733733611],[2.873708056,42.7337325],[2.873993333,42.733570833],[2.874055556,42.733633611],[2.874072222,42.73365],[2.874085556,42.733659167],[2.874105,42.733666111],[2.874131944,42.733671111],[2.8741475,42.733670833],[2.874164444,42.733666389],[2.874256667,42.733609167],[2.874265278,42.733598056],[2.874269444,42.733585278],[2.874269722,42.733573333],[2.874268333,42.733562778],[2.874263611,42.733551944],[2.874163611,42.73345],[2.874250833,42.733401111],[2.874333333,42.733488333],[2.874349722,42.733500556],[2.874366389,42.733509444],[2.874388333,42.733515278],[2.8744125,42.733515833],[2.874433333,42.733511389],[2.874456667,42.7335],[2.874533889,42.733451111],[2.874540556,42.733438889],[2.874543056,42.733424722],[2.874540556,42.733409722],[2.874528333,42.733385833],[2.874433611,42.7332975],[2.874520833,42.7332475],[2.874611111,42.733335278],[2.874628889,42.733351389],[2.874648056,42.73336],[2.874670833,42.7333625],[2.874694444,42.733359722],[2.874717222,42.733350278],[2.874759167,42.733326111],[2.874787778,42.733301944],[2.874803333,42.733278611],[2.874813056,42.733253333],[2.874816389,42.733231667],[2.874814167,42.733210278],[2.874803889,42.733185],[2.874790278,42.733159444],[2.874749722,42.733115],[2.875384167,42.732755278],[2.875651389,42.732605278],[2.8759025,42.732461944],[2.877140833,42.731761111],[2.877478333,42.73157],[2.877484722,42.731850833],[2.877210556,42.731916111],[2.877188611,42.731900556],[2.877160833,42.731892222],[2.877130833,42.731890833],[2.877089167,42.731894167],[2.877058889,42.731899722],[2.877025556,42.731915278],[2.876235,42.732364167],[2.876129167,42.7324275],[2.876112222,42.732440556],[2.876101944,42.732452778],[2.876098333,42.732464444],[2.876099167,42.732478056],[2.876110278,42.732493056],[2.876124722,42.732505],[2.876142222,42.732513056],[2.876165833,42.732516389],[2.876191111,42.732517222],[2.876248889,42.732511111],[2.876018611,42.732623333],[2.87603,42.7326],[2.876034444,42.732586111],[2.876033889,42.732577222],[2.876031111,42.732566667],[2.876025278,42.732556111],[2.876012222,42.732545556],[2.875996111,42.732536389],[2.875979722,42.732531389],[2.875961667,42.732530833],[2.875944722,42.732534167],[2.875741667,42.732644444],[2.875731944,42.732655556],[2.875728056,42.732667778],[2.8757275,42.732685278],[2.875732778,42.7327],[2.875742222,42.732711944],[2.875756667,42.732721389],[2.875771389,42.732725278],[2.875793333,42.732727778],[2.875816111,42.732726944],[2.875836944,42.7327225],[2.875890556,42.732713889],[2.875640833,42.732838611],[2.875656111,42.732818056],[2.875662778,42.732805278],[2.875664167,42.732794444],[2.875662222,42.732783611],[2.875657222,42.732772778],[2.875646944,42.732761389],[2.875633333,42.732751667],[2.875620278,42.732747222],[2.875595833,42.732744444],[2.875578611,42.732744722],[2.875555833,42.732751389],[2.875083889,42.733021111],[2.875055833,42.733044444],[2.875033056,42.733065833],[2.8750175,42.733088333],[2.875005,42.733110278],[2.874998333,42.733129444],[2.874995556,42.733145],[2.874935556,42.733376111],[2.874915,42.733375833],[2.874894722,42.733376944],[2.874872222,42.733380278],[2.874845833,42.733388611],[2.874816944,42.733403611],[2.873709444,42.734028333],[2.872122778,42.734923889],[2.871383056,42.7353425],[2.870320556,42.735942778],[2.870016111,42.736115278],[2.8699925,42.736130278],[2.869977222,42.736142778],[2.869963889,42.736159444],[2.869950833,42.736178889],[2.869942778,42.736200278],[2.869936667,42.736223611],[2.8699375,42.736245278],[2.869942222,42.736267778],[2.869951667,42.736286667],[2.869968611,42.736310556],[2.869871111,42.736359722],[2.8698575,42.736343611]]]}},{"type":"Feature","id":"lfmp.area.filled.region.hard.surface2.108012","properties":{"name":"LFMP AVISO","layer":"Airfield surfaces","category":"Hard Surface2","object_type":"Area","style_id":"area.filled.region.hard.surface2","airport":"LFMP","geometry_role":"filled_region","vsmr_group_ids":[]},"geometry":{"type":"Polygon","coordinates":[[[2.877483056,42.731849722],[2.877485833,42.731850278],[2.877491944,42.731849722],[2.877503333,42.7318475],[2.877507778,42.731848333],[2.877509722,42.731851944],[2.877509722,42.731898611],[2.877516111,42.731935],[2.877525,42.731976389],[2.877543889,42.732024167],[2.877575556,42.732097778],[2.877341111,42.732159167],[2.87733,42.732133889],[2.877320556,42.732117778],[2.877305833,42.732105278],[2.877285278,42.732096111],[2.877254444,42.7320875],[2.877210556,42.732084444],[2.877177778,42.732085556],[2.877149167,42.732091389],[2.877120833,42.732103333],[2.876921111,42.732213333],[2.876431389,42.732492778],[2.875907778,42.732790556],[2.875223333,42.733175833],[2.875186944,42.733197778],[2.875165,42.7332125],[2.875149444,42.733229444],[2.875136944,42.733251944],[2.87513,42.733273889],[2.875127222,42.733296944],[2.875131389,42.733323611],[2.875139444,42.733348056],[2.875161111,42.733375],[2.875062778,42.73343],[2.8750525,42.733417778],[2.875038889,42.733407222],[2.875021389,42.733399167],[2.874998056,42.733390556],[2.874971111,42.733382222],[2.8749525,42.733378056],[2.874930556,42.733375],[2.874994444,42.733135],[2.874996111,42.733138056],[2.875002222,42.7331425],[2.875011944,42.733144167],[2.875029722,42.733143333],[2.875066944,42.733138889],[2.875100833,42.733131111],[2.875131944,42.7331175],[2.875293333,42.733025833],[2.875659722,42.73282],[2.875823056,42.732729444],[2.87599,42.732635556],[2.876015556,42.7326175],[2.876033056,42.732601111],[2.876171111,42.73252],[2.876188611,42.732516944],[2.876213333,42.732508889],[2.876526944,42.732329722],[2.876976667,42.732075278],[2.877101944,42.732005833],[2.877158889,42.731970556],[2.877188056,42.731947222],[2.877203333,42.731930833],[2.8772075,42.731920556],[2.877207778,42.731911667],[2.877480278,42.731848611],[2.877483056,42.731849722]]]}},{"type":"Feature","id":"lfmp.area.filled.region.runway.concrete.108081","properties":{"name":"LFMP AVISO","layer":"Airfield surfaces","category":"Runway Concrete","object_type":"Area","style_id":"area.filled.region.runway.concrete","airport":"LFMP","geometry_role":"filled_region","vsmr_group_ids":[]},"geometry":{"type":"Polygon","coordinates":[[[2.861954167,42.754233333],[2.861925833,42.754256667],[2.861885,42.754276389],[2.861836667,42.754288889],[2.861711111,42.754303611],[2.861519722,42.754320278],[2.861313889,42.754332222],[2.861190278,42.754336667],[2.861121111,42.754339444],[2.861043611,42.754338889],[2.860987222,42.754337222],[2.860933611,42.754335],[2.860883333,42.754330833],[2.860842222,42.754325833],[2.860793889,42.754317222],[2.860728889,42.754304722],[2.860666111,42.754289444],[2.860606111,42.754271667],[2.8605475,42.754251111],[2.860491389,42.754229722],[2.860445,42.754210833],[2.860408889,42.754192778],[2.860363889,42.754169167],[2.860323889,42.754145556],[2.860291111,42.754124722],[2.860263333,42.754104167],[2.860243611,42.754089444],[2.860502778,42.753906944],[2.860530278,42.753926944],[2.860558889,42.753945833],[2.860596111,42.753966944],[2.860631389,42.753985278],[2.8606725,42.754003333],[2.860708611,42.754017778],[2.860754722,42.754032222],[2.860806667,42.754046667],[2.860875278,42.754060278],[2.860936667,42.754071667],[2.860987778,42.754078611],[2.861038056,42.754082222],[2.861086111,42.754082778],[2.861135,42.754080556],[2.861187222,42.754076111],[2.861239722,42.754069722],[2.861286389,42.754063889],[2.861328889,42.754056389],[2.861366944,42.754047778],[2.861439722,42.754028611],[2.861488333,42.754014167],[2.862978889,42.752241389],[2.862988333,42.752223611],[2.862991111,42.752206111],[2.862990278,42.75219],[2.862988333,42.752171667],[2.862980833,42.752151944],[2.862970556,42.752131389],[2.862958889,42.752116667],[2.862943611,42.752103889],[2.862926667,42.7520925],[2.862903611,42.752078889],[2.862879722,42.752070833],[2.862847778,42.752063611],[2.862812778,42.752061111],[2.862775278,42.752061667],[2.862739722,42.752065278],[2.862018056,42.7521575],[2.861978889,42.751950278],[2.862437222,42.751900556],[2.862401111,42.751883056],[2.862363889,42.751864444],[2.862338333,42.751851111],[2.86231,42.751835],[2.862275,42.7518125],[2.8622275,42.751785],[2.862186944,42.751757778],[2.862150556,42.751728611],[2.862113889,42.751698056],[2.86208,42.751666111],[2.862056389,42.751641111],[2.862036111,42.751614167],[2.862253333,42.751521667],[2.862286944,42.751555278],[2.862326389,42.751594722],[2.862374444,42.751631944],[2.862418056,42.751665278],[2.8624675,42.7516975],[2.862514722,42.751725],[2.862563333,42.751746389],[2.862610556,42.751761944],[2.862676389,42.75178],[2.862730833,42.751794722],[2.862774722,42.751804722],[2.862818056,42.751814722],[2.862863611,42.751822222],[2.862902778,42.751824167],[2.862948056,42.751824444],[2.862993333,42.751822222],[2.863040833,42.751815278],[2.863091111,42.751805556],[2.863136944,42.751795],[2.863168056,42.751785278],[2.863211667,42.751771389],[2.863263056,42.7517525],[2.863315278,42.751730278],[2.863363611,42.751708056],[2.86341,42.751681944],[2.863444444,42.751660278],[2.863476111,42.751637222],[2.863505556,42.751612778],[2.863525833,42.751593056],[2.865028056,42.749798611],[2.864984444,42.749751667],[2.864129444,42.749835],[2.8640825,42.7498375],[2.864033889,42.749836667],[2.863988056,42.749834722],[2.863944167,42.74983],[2.863900833,42.749821944],[2.863843611,42.749808611],[2.863791944,42.749794167],[2.8637475,42.749777778],[2.863705,42.749761667],[2.863661667,42.7497425],[2.863616111,42.749721111],[2.863576111,42.749699444],[2.863536111,42.749675833],[2.863511111,42.749660833],[2.863493889,42.749648611],[2.863665833,42.749518889],[2.863697222,42.749541667],[2.863733889,42.749563889],[2.863772778,42.749584167],[2.863818056,42.749601944],[2.863857778,42.749616944],[2.863897222,42.749627778],[2.863939444,42.749638333],[2.863974444,42.749644722],[2.864003611,42.749653333],[2.864031389,42.749661389],[2.864060278,42.749664444],[2.864094444,42.749664167],[2.864761111,42.749592222],[2.864916111,42.749578056],[2.864989722,42.749567222],[2.865058333,42.749553333],[2.8651125,42.749537222],[2.865165556,42.7495175],[2.865213889,42.749496944],[2.865255278,42.749477778],[2.865289444,42.749458889],[2.865321944,42.749435556],[2.865353056,42.749409167],[2.872280833,42.741146389],[2.872278056,42.741108611],[2.872273056,42.741071944],[2.872268611,42.74104],[2.872261111,42.741006667],[2.872248889,42.740969167],[2.872237778,42.740939167],[2.872222222,42.740904722],[2.87221,42.740880556],[2.872196667,42.740860833],[2.872179167,42.740841667],[2.872151111,42.740817222],[2.872103056,42.740780833],[2.872050556,42.740745],[2.871999722,42.740713611],[2.871939722,42.7406775],[2.871820833,42.740613889],[2.871716944,42.740561389],[2.871614444,42.740511111],[2.871585556,42.740496944],[2.8715625,42.740486111],[2.871548333,42.740479722],[2.871538889,42.740476111],[2.871685556,42.740298333],[2.871738056,42.740321389],[2.8717875,42.740342778],[2.871853611,42.74037],[2.871937222,42.740403056],[2.872033056,42.74044],[2.872113889,42.740470278],[2.872168611,42.740489167],[2.872223889,42.740506944],[2.872275556,42.740521667],[2.872326667,42.740536111],[2.87237,42.7405475],[2.872418889,42.740555556],[2.872464167,42.740561667],[2.872502778,42.740563333],[2.872539444,42.740563333],[2.872581389,42.740558611],[2.872622222,42.740551944],[2.872662222,42.740542778],[2.872696389,42.7405325],[2.872727778,42.740520833],[2.872755833,42.740506667],[2.872791944,42.740489722],[2.872828889,42.740469444],[2.872860556,42.740450833],[2.872873333,42.740440278],[2.875789444,42.736963889],[2.875818056,42.736923611],[2.875839167,42.736889444],[2.875855556,42.736858611],[2.875866944,42.736829167],[2.875877222,42.736798889],[2.875885278,42.736768611],[2.87589,42.736743889],[2.875891389,42.736716944],[2.875888889,42.736693611],[2.875883611,42.736669444],[2.875873889,42.736649722],[2.875853889,42.736619167],[2.875821944,42.736575278],[2.875795,42.736545],[2.875770833,42.736519722],[2.87573,42.736488611],[2.875689722,42.736459722],[2.875650833,42.736431944],[2.875599167,42.736400833],[2.875554722,42.736374444],[2.875505,42.7363475],[2.875463611,42.7363275],[2.875433056,42.736313889],[2.875316111,42.736269167],[2.875265556,42.73625],[2.8752225,42.736236944],[2.875183056,42.736225833],[2.875145556,42.736216111],[2.875319722,42.736007778],[2.8753725,42.736031389],[2.875420556,42.736051389],[2.875476944,42.7360725],[2.875628611,42.736128056],[2.875734722,42.736165278],[2.875815278,42.736191111],[2.875901389,42.736216944],[2.875958333,42.736233333],[2.875995278,42.736239722],[2.876032778,42.736243611],[2.876067222,42.736244722],[2.876109444,42.736243611],[2.876151389,42.736238611],[2.876192222,42.736231944],[2.876238611,42.7362225],[2.876280278,42.736211944],[2.876325278,42.736199167],[2.876369167,42.7361825],[2.8764075,42.736167222],[2.876443889,42.736148333],[2.876483333,42.736125],[2.876519722,42.736097778],[2.876910278,42.735635278],[2.876940556,42.735593889],[2.876961667,42.73556],[2.876972778,42.735531944],[2.8769825,42.735502778],[2.876989444,42.735473889],[2.876993889,42.735443056],[2.876998611,42.735390278],[2.8770175,42.734950278],[2.87705,42.734933333],[2.877089167,42.734915833],[2.877133611,42.734899722],[2.8771775,42.734888333],[2.877221111,42.734879167],[2.877266944,42.734873611],[2.877308056,42.734871389],[2.877350278,42.734871944],[2.877396389,42.734875278],[2.877443333,42.734881944],[2.8774825,42.734891111],[2.87752,42.734900556],[2.877523333,42.734895556],[2.877994444,42.735103333],[2.861954167,42.754233333]]]}},{"type":"Feature","id":"lfmp.area.filled.region.runway.concrete.108358","properties":{"name":"LFMP AVISO","layer":"Airfield surfaces","category":"Runway Concrete","object_type":"Area","style_id":"area.filled.region.runway.concrete","airport":"LFMP","geometry_role":"filled_region","vsmr_group_ids":[]},"geometry":{"type":"Polygon","coordinates":[[[2.866470833,42.739018056],[2.870231667,42.736901111],[2.8702525,42.736883889],[2.870267778,42.736860833],[2.870279722,42.736838333],[2.870285,42.7368125],[2.870284722,42.736785556],[2.870280278,42.736759444],[2.8702675,42.736741667],[2.870241944,42.736713611],[2.870200556,42.736674167],[2.869984722,42.736473056],[2.869939722,42.736430556],[2.869911389,42.736403333],[2.869889167,42.736379444],[2.869870556,42.736359167],[2.869966944,42.736308056],[2.869985556,42.736330833],[2.870011389,42.736358056],[2.870051111,42.736394722],[2.8702975,42.736630556],[2.870331111,42.736660278],[2.87036,42.736684444],[2.870395556,42.736703611],[2.870425556,42.736715833],[2.870454444,42.736720556],[2.870496667,42.736721667],[2.870534444,42.736719167],[2.870563889,42.736712222],[2.8706,42.736695833],[2.875252778,42.734067222],[2.875303333,42.734036667],[2.87534,42.734008056],[2.875365556,42.733981944],[2.875388333,42.733955278],[2.875405278,42.733933056],[2.875414167,42.733910278],[2.875416944,42.733880278],[2.875419167,42.733850278],[2.875416389,42.733823056],[2.875407778,42.733795278],[2.875395278,42.733771389],[2.875375833,42.733748889],[2.875060278,42.733427778],[2.875160556,42.733373889],[2.875418889,42.733633333],[2.875474167,42.733685833],[2.875507222,42.7337125],[2.875544722,42.7337325],[2.875584722,42.733747222],[2.875633333,42.733758889],[2.8756775,42.7337625],[2.875728056,42.733760556],[2.875778611,42.733748333],[2.875833333,42.7337325],[2.875873889,42.733715833],[2.877217778,42.732968056],[2.877205278,42.732918611],[2.8772,42.732884444],[2.8772,42.732846944],[2.877205278,42.732807222],[2.877221667,42.732763611],[2.877242778,42.732722222],[2.877274167,42.732679167],[2.877313056,42.7326425],[2.877358056,42.732610556],[2.877407778,42.732588611],[2.87746,42.732567778],[2.877458056,42.732528611],[2.877450833,42.732489722],[2.877442222,42.732454167],[2.877426389,42.7324],[2.877401389,42.732327778],[2.877338611,42.732154444],[2.877574722,42.732093611],[2.877603056,42.732172778],[2.877657778,42.732284722],[2.877710556,42.732401111],[2.877746389,42.732471944],[2.877743611,42.732475],[2.877734722,42.732479444],[2.877726667,42.732481667],[2.877724167,42.732485],[2.877724444,42.7324925],[2.877753056,42.732551389],[2.877760833,42.732560833],[2.877774444,42.732568889],[2.877820278,42.732588056],[2.877856667,42.7326075],[2.877886944,42.732625556],[2.877913611,42.732648889],[2.877947222,42.732681389],[2.877974722,42.732719722],[2.877989444,42.732756389],[2.878002222,42.732798056],[2.878008333,42.7328425],[2.878009167,42.732881944],[2.878002778,42.732920833],[2.877981389,42.732961389],[2.877959167,42.732993333],[2.877929167,42.733028333],[2.877900833,42.733053889],[2.877865,42.733083333],[2.877823889,42.733103056],[2.877775278,42.733123333],[2.877736111,42.733133056],[2.877690833,42.733143333],[2.877645278,42.733148889],[2.877600278,42.733149722],[2.8775525,42.733146111],[2.877506944,42.73314],[2.877462222,42.73313],[2.877418889,42.733118056],[2.877363611,42.733102222],[2.87431,42.734824444],[2.873831111,42.735096667],[2.873810833,42.735115833],[2.873795,42.735138056],[2.873783889,42.735161944],[2.873776389,42.735189444],[2.873775278,42.735220278],[2.873783611,42.735259444],[2.873795833,42.735293611],[2.873814722,42.735322222],[2.873839722,42.735346944],[2.873878056,42.735369167],[2.874156389,42.735492778],[2.874038889,42.735631667],[2.873857778,42.735548889],[2.873765,42.735506389],[2.873683333,42.735475833],[2.873629722,42.735458333],[2.873580556,42.735448056],[2.873501944,42.735439444],[2.873426111,42.735438333],[2.873368889,42.735441111],[2.873316667,42.735447222],[2.873241389,42.735463611],[2.873188889,42.735478889],[2.873131111,42.7354975],[2.873078611,42.735523333],[2.867870833,42.738459722],[2.867883889,42.738475556],[2.866634167,42.739175],[2.866470833,42.739018056]]]}},{"type":"Feature","id":"lfmp.area.filled.region.building.108503","properties":{"name":"LFMP AVISO","layer":"Airfield surfaces","category":"Building","object_type":"Area","style_id":"area.filled.region.building","airport":"LFMP","geometry_role":"filled_region","vsmr_group_ids":[]},"geometry":{"type":"Polygon","coordinates":[[[2.869663611,42.740819444],[2.869777778,42.740871944],[2.869538333,42.741155833],[2.869433333,42.741103056],[2.869663611,42.740819444]]]}},{"type":"Feature","id":"lfmp.area.filled.region.building.108508","properties":{"name":"LFMP AVISO","layer":"Airfield surfaces","category":"Building","object_type":"Area","style_id":"area.filled.region.building","airport":"LFMP","geometry_role":"filled_region","vsmr_group_ids":[]},"geometry":{"type":"Polygon","coordinates":[[[2.868129722,42.740570556],[2.86896,42.740690278],[2.868974444,42.740637778],[2.869082778,42.740653056],[2.869116111,42.740690556],[2.869086389,42.740797222],[2.869207222,42.740815556],[2.869222778,42.740751944],[2.869316111,42.740765833],[2.86931,42.740791667],[2.869339722,42.740815278],[2.869360833,42.740817778],[2.869356389,42.740837778],[2.869285833,42.741108333],[2.868982778,42.741064722],[2.869023611,42.740920833],[2.868957778,42.740912222],[2.868937778,42.740987222],[2.868943889,42.741050278],[2.868904444,42.741051389],[2.868901667,42.741060556],[2.868868889,42.741060556],[2.868805278,42.741051389],[2.868783611,42.7411075],[2.868290833,42.741033611],[2.868306111,42.7409825],[2.867999167,42.740939444],[2.868050278,42.740755],[2.867791944,42.740717778],[2.867820556,42.740607778],[2.868111111,42.740645278],[2.868129722,42.740570556]]]}},{"type":"Feature","id":"lfmp.area.filled.region.building.108540","properties":{"name":"LFMP AVISO","layer":"Airfield surfaces","category":"Building","object_type":"Area","style_id":"area.filled.region.building","airport":"LFMP","geometry_role":"filled_region","vsmr_group_ids":[]},"geometry":{"type":"Polygon","coordinates":[[[2.867693611,42.740581667],[2.867683889,42.740613056],[2.867703056,42.740615556],[2.867686944,42.740689167],[2.867634722,42.740681389],[2.867624444,42.740714444],[2.867534167,42.740700556],[2.867543333,42.740668056],[2.867487778,42.740659722],[2.867518889,42.740554167],[2.867693611,42.740581667]]]}},{"type":"Feature","id":"lfmp.area.filled.region.building.108551","properties":{"name":"LFMP AVISO","layer":"Airfield surfaces","category":"Building","object_type":"Area","style_id":"area.filled.region.building","airport":"LFMP","geometry_role":"filled_region","vsmr_group_ids":[]},"geometry":{"type":"Polygon","coordinates":[[[2.867218333,42.740468611],[2.867413611,42.740495556],[2.867404167,42.740539444],[2.867386667,42.740604722],[2.86724,42.740585556],[2.867245,42.740562778],[2.867196667,42.740556111],[2.867218333,42.740468611]]]}},{"type":"Feature","id":"lfmp.area.filled.region.building.108559","properties":{"name":"LFMP AVISO","layer":"Airfield surfaces","category":"Building","object_type":"Area","style_id":"area.filled.region.building","airport":"LFMP","geometry_role":"filled_region","vsmr_group_ids":[]},"geometry":{"type":"Polygon","coordinates":[[[2.866853333,42.740355278],[2.866814444,42.740495556],[2.866565,42.740458611],[2.866605,42.740315278],[2.866853333,42.740355278]]]}},{"type":"Feature","id":"lfmp.area.filled.region.building.108564","properties":{"name":"LFMP AVISO","layer":"Airfield surfaces","category":"Building","object_type":"Area","style_id":"area.filled.region.building","airport":"LFMP","geometry_role":"filled_region","vsmr_group_ids":[]},"geometry":{"type":"Polygon","coordinates":[[[2.866386111,42.740527222],[2.866483056,42.740612778],[2.866527778,42.740588611],[2.866645556,42.740705833],[2.866246111,42.740940556],[2.866075278,42.740776944],[2.866116667,42.740753333],[2.8660675,42.740706389],[2.866386111,42.740527222]]]}},{"type":"Feature","id":"lfmp.area.filled.region.building.108573","properties":{"name":"LFMP AVISO","layer":"Airfield surfaces","category":"Building","object_type":"Area","style_id":"area.filled.region.building","airport":"LFMP","geometry_role":"filled_region","vsmr_group_ids":[]},"geometry":{"type":"Polygon","coordinates":[[[2.870914167,42.738733611],[2.870911389,42.7387375],[2.870824722,42.738700833],[2.870878611,42.738621111],[2.870926944,42.738643611],[2.870952778,42.738614722],[2.870913333,42.738596944],[2.870941111,42.738565],[2.870953889,42.7385225],[2.871026389,42.738555556],[2.871091111,42.738480278],[2.871290556,42.738570278],[2.871071389,42.738826111],[2.871006389,42.738796944],[2.87102,42.738780556],[2.870914167,42.738733611]]]}},{"type":"Feature","id":"lfmp.area.filled.region.building.108589","properties":{"name":"LFMP AVISO","layer":"Airfield surfaces","category":"Building","object_type":"Area","style_id":"area.filled.region.building","airport":"LFMP","geometry_role":"filled_region","vsmr_group_ids":[]},"geometry":{"type":"Polygon","coordinates":[[[2.870535,42.738585556],[2.870595278,42.738331111],[2.870678056,42.738341111],[2.870596944,42.738645556],[2.870437778,42.738623889],[2.870449167,42.738574444],[2.870535,42.738585556]]]}},{"type":"Feature","id":"lfmp.area.filled.region.building.108596","properties":{"name":"LFMP AVISO","layer":"Airfield surfaces","category":"Building","object_type":"Area","style_id":"area.filled.region.building","airport":"LFMP","geometry_role":"filled_region","vsmr_group_ids":[]},"geometry":{"type":"Polygon","coordinates":[[[2.872541389,42.737579444],[2.872489167,42.737640278],[2.872419444,42.737605833],[2.872376944,42.737653056],[2.872256389,42.737597778],[2.872298056,42.737551667],[2.872215556,42.737513333],[2.872265556,42.737453056],[2.872541389,42.737579444]]]}},{"type":"Feature","id":"lfmp.area.filled.region.building.108605","properties":{"name":"LFMP AVISO","layer":"Airfield surfaces","category":"Building","object_type":"Area","style_id":"area.filled.region.building","airport":"LFMP","geometry_role":"filled_region","vsmr_group_ids":[]},"geometry":{"type":"Polygon","coordinates":[[[2.871945278,42.737388611],[2.871884167,42.737474167],[2.87193,42.737496667],[2.871908611,42.737528056],[2.871687222,42.737426389],[2.871775278,42.737304167],[2.871945278,42.737388611]]]}},{"type":"Feature","id":"lfmp.area.filled.region.building.108612","properties":{"name":"LFMP AVISO","layer":"Airfield surfaces","category":"Building","object_type":"Area","style_id":"area.filled.region.building","airport":"LFMP","geometry_role":"filled_region","vsmr_group_ids":[]},"geometry":{"type":"Polygon","coordinates":[[[2.870425278,42.735066389],[2.870406667,42.735076111],[2.870373333,42.735040556],[2.870476944,42.734919444],[2.870493333,42.734936944],[2.870516111,42.734926111],[2.870489722,42.734897778],[2.871068889,42.734570556],[2.870981667,42.734492222],[2.871181111,42.734379167],[2.871235,42.734429444],[2.872569722,42.733666389],[2.872697222,42.733816111],[2.870452222,42.735098611],[2.870425278,42.735066389]]]}},{"type":"Feature","id":"lfmp.area.filled.region.building.108627","properties":{"name":"LFMP AVISO","layer":"Airfield surfaces","category":"Building","object_type":"Area","style_id":"area.filled.region.building","airport":"LFMP","geometry_role":"filled_region","vsmr_group_ids":[]},"geometry":{"type":"Polygon","coordinates":[[[2.872920833,42.733308611],[2.872835556,42.7333575],[2.872769444,42.733296944],[2.872854444,42.733246667],[2.872920833,42.733308611]]]}},{"type":"Feature","id":"lfmp.area.filled.region.building.108632","properties":{"name":"LFMP AVISO","layer":"Airfield surfaces","category":"Building","object_type":"Area","style_id":"area.filled.region.building","airport":"LFMP","geometry_role":"filled_region","vsmr_group_ids":[]},"geometry":{"type":"Polygon","coordinates":[[[2.873040556,42.73324],[2.872953333,42.73329],[2.872887778,42.733228333],[2.8729775,42.733176944],[2.873040556,42.73324]]]}},{"type":"Feature","id":"lfmp.area.filled.region.building.108637","properties":{"name":"LFMP AVISO","layer":"Airfield surfaces","category":"Building","object_type":"Area","style_id":"area.filled.region.building","airport":"LFMP","geometry_role":"filled_region","vsmr_group_ids":[]},"geometry":{"type":"Polygon","coordinates":[[[2.873383889,42.733028611],[2.8737075,42.732850556],[2.873968333,42.733109722],[2.8735425,42.733350278],[2.873381111,42.733190833],[2.873481667,42.7331325],[2.873383889,42.733028611]]]}},{"type":"Feature","id":"lfmp.area.filled.region.building.108644","properties":{"name":"LFMP AVISO","layer":"Airfield surfaces","category":"Building","object_type":"Area","style_id":"area.filled.region.building","airport":"LFMP","geometry_role":"filled_region","vsmr_group_ids":[]},"geometry":{"type":"Polygon","coordinates":[[[2.874328333,42.732170833],[2.874446667,42.732277222],[2.874320833,42.732345833],[2.874210278,42.732237222],[2.874328333,42.732170833]]]}},{"type":"Feature","id":"lfmp.area.filled.region.building.108649","properties":{"name":"LFMP AVISO","layer":"Airfield surfaces","category":"Building","object_type":"Area","style_id":"area.filled.region.building","airport":"LFMP","geometry_role":"filled_region","vsmr_group_ids":[]},"geometry":{"type":"Polygon","coordinates":[[[2.874222778,42.732386111],[2.873905278,42.732564722],[2.873683333,42.732352778],[2.874000833,42.7321725],[2.874222778,42.732386111]]]}},{"type":"Feature","id":"lfmp.area.filled.region.building.108654","properties":{"name":"LFMP AVISO","layer":"Airfield surfaces","category":"Building","object_type":"Area","style_id":"area.filled.region.building","airport":"LFMP","geometry_role":"filled_region","vsmr_group_ids":[]},"geometry":{"type":"Polygon","coordinates":[[[2.87413,42.731979722],[2.874305278,42.732142222],[2.874179722,42.732211111],[2.874000833,42.732048611],[2.87413,42.731979722]]]}},{"type":"Feature","id":"lfmp.area.filled.region.building.108659","properties":{"name":"LFMP AVISO","layer":"Airfield surfaces","category":"Building","object_type":"Area","style_id":"area.filled.region.building","airport":"LFMP","geometry_role":"filled_region","vsmr_group_ids":[]},"geometry":{"type":"Polygon","coordinates":[[[2.874421111,42.731641389],[2.874548611,42.731798333],[2.874373611,42.731875278],[2.874240833,42.731717778],[2.874421111,42.731641389]]]}},{"type":"Feature","id":"lfmp.area.filled.region.building.108664","properties":{"name":"LFMP AVISO","layer":"Airfield surfaces","category":"Building","object_type":"Area","style_id":"area.filled.region.building","airport":"LFMP","geometry_role":"filled_region","vsmr_group_ids":[]},"geometry":{"type":"Polygon","coordinates":[[[2.874836389,42.732047222],[2.874957778,42.732165833],[2.874819444,42.732243611],[2.874694444,42.732125833],[2.874836389,42.732047222]]]}},{"type":"Feature","id":"lfmp.area.filled.region.building.108669","properties":{"name":"LFMP AVISO","layer":"Airfield surfaces","category":"Building","object_type":"Area","style_id":"area.filled.region.building","airport":"LFMP","geometry_role":"filled_region","vsmr_group_ids":[]},"geometry":{"type":"Polygon","coordinates":[[[2.874869722,42.7323775],[2.874783889,42.732295],[2.874882222,42.732241389],[2.8751125,42.7324675],[2.874866667,42.732603611],[2.8747225,42.732462778],[2.874869722,42.7323775]]]}},{"type":"Feature","id":"lfmp.area.filled.region.building.108676","properties":{"name":"LFMP AVISO","layer":"Airfield surfaces","category":"Building","object_type":"Area","style_id":"area.filled.region.building","airport":"LFMP","geometry_role":"filled_region","vsmr_group_ids":[]},"geometry":{"type":"Polygon","coordinates":[[[2.87565,42.731963889],[2.876420833,42.731527778],[2.876413889,42.731520278],[2.876471944,42.731486944],[2.876595556,42.7316125],[2.875771667,42.732080833],[2.87565,42.731963889]]]}},{"type":"Feature","id":"lfmp.area.filled.region.building.108683","properties":{"name":"LFMP AVISO","layer":"Airfield surfaces","category":"Building","object_type":"Area","style_id":"area.filled.region.building","airport":"LFMP","geometry_role":"filled_region","vsmr_group_ids":[]},"geometry":{"type":"Polygon","coordinates":[[[2.876836944,42.731179444],[2.876868889,42.731245833],[2.876701389,42.731287222],[2.876683611,42.731254444],[2.876165833,42.731384444],[2.876204444,42.731471944],[2.87611,42.731527778],[2.876073333,42.731518611],[2.875996944,42.7313875],[2.875796389,42.730951667],[2.876309167,42.730817222],[2.876280556,42.730754167],[2.876014167,42.730821667],[2.87599,42.730775833],[2.875970278,42.730780833],[2.8758075,42.730436111],[2.875871111,42.730421389],[2.875851111,42.730375278],[2.876170833,42.730295],[2.876136111,42.730213611],[2.877066667,42.729726944],[2.877618889,42.730260556],[2.8767025,42.730758611],[2.876891389,42.731164444],[2.876836944,42.731179444]]]}},{"type":"Feature","id":"lfmp.area.filled.region.building.108708","properties":{"name":"LFMP AVISO","layer":"Airfield surfaces","category":"Building","object_type":"Area","style_id":"area.filled.region.building","airport":"LFMP","geometry_role":"filled_region","vsmr_group_ids":[]},"geometry":{"type":"Polygon","coordinates":[[[2.867786944,42.742416389],[2.867709444,42.742511944],[2.867492222,42.742414167],[2.867571944,42.742318333],[2.867786944,42.742416389]]]}},{"type":"Feature","id":"lfmp.area.filled.region.building.108713","properties":{"name":"LFMP AVISO","layer":"Airfield surfaces","category":"Building","object_type":"Area","style_id":"area.filled.region.building","airport":"LFMP","geometry_role":"filled_region","vsmr_group_ids":[]},"geometry":{"type":"Polygon","coordinates":[[[2.867675278,42.742560833],[2.867651667,42.742595556],[2.867586667,42.7425675],[2.867613333,42.742534167],[2.867675278,42.742560833]]]}},{"type":"Feature","id":"lfmp.area.filled.region.stopbar.108718","properties":{"name":"LFMP AVISO","layer":"Airfield surfaces","category":"Stopbar","object_type":"Area","style_id":"area.filled.region.stopbar","airport":"LFMP","geometry_role":"filled_region","vsmr_group_ids":[]},"geometry":{"type":"Polygon","coordinates":[[[2.860517778,42.753917778],[2.8602575,42.754100556],[2.860239167,42.754086389],[2.860498889,42.753903611],[2.860517778,42.753917778]]]}},{"type":"Feature","id":"lfmp.area.filled.region.stopbar.108723","properties":{"name":"LFMP AVISO","layer":"Airfield surfaces","category":"Stopbar","object_type":"Area","style_id":"area.filled.region.stopbar","airport":"LFMP","geometry_role":"filled_region","vsmr_group_ids":[]},"geometry":{"type":"Polygon","coordinates":[[[2.8619725,42.751950833],[2.861998611,42.7519475],[2.862036389,42.752155833],[2.862011944,42.752158889],[2.8619725,42.751950833]]]}},{"type":"Feature","id":"lfmp.area.filled.region.stopbar.108728","properties":{"name":"LFMP AVISO","layer":"Airfield surfaces","category":"Stopbar","object_type":"Area","style_id":"area.filled.region.stopbar","airport":"LFMP","geometry_role":"filled_region","vsmr_group_ids":[]},"geometry":{"type":"Polygon","coordinates":[[[2.862255278,42.751522778],[2.862266667,42.751534722],[2.862045833,42.751628333],[2.862036111,42.751615],[2.862033889,42.751610833],[2.862251389,42.751518611],[2.862255278,42.751522778]]]}},{"type":"Feature","id":"lfmp.area.filled.region.stopbar.108735","properties":{"name":"LFMP AVISO","layer":"Airfield surfaces","category":"Stopbar","object_type":"Area","style_id":"area.filled.region.stopbar","airport":"LFMP","geometry_role":"filled_region","vsmr_group_ids":[]},"geometry":{"type":"Polygon","coordinates":[[[2.863667778,42.74952],[2.863681667,42.749530278],[2.863508889,42.749659722],[2.863496667,42.749651111],[2.863489444,42.749645833],[2.863661389,42.749515278],[2.863667778,42.74952]]]}},{"type":"Feature","id":"lfmp.area.filled.region.stopbar.108742","properties":{"name":"LFMP AVISO","layer":"Airfield surfaces","category":"Stopbar","object_type":"Area","style_id":"area.filled.region.stopbar","airport":"LFMP","geometry_role":"filled_region","vsmr_group_ids":[]},"geometry":{"type":"Polygon","coordinates":[[[2.871704722,42.740306389],[2.871555278,42.740483333],[2.871545556,42.740478889],[2.871531667,42.740473889],[2.871680278,42.740295556],[2.871704722,42.740306389]]]}},{"type":"Feature","id":"lfmp.area.filled.region.stopbar.108748","properties":{"name":"LFMP AVISO","layer":"Airfield surfaces","category":"Stopbar","object_type":"Area","style_id":"area.filled.region.stopbar","airport":"LFMP","geometry_role":"filled_region","vsmr_group_ids":[]},"geometry":{"type":"Polygon","coordinates":[[[2.875338333,42.736015556],[2.875165278,42.736221944],[2.875137778,42.736214722],[2.875313611,42.736004444],[2.875338333,42.736015556]]]}},{"type":"Feature","id":"lfmp.area.filled.region.stopbar.108753","properties":{"name":"LFMP AVISO","layer":"Airfield surfaces","category":"Stopbar","object_type":"Area","style_id":"area.filled.region.stopbar","airport":"LFMP","geometry_role":"filled_region","vsmr_group_ids":[]},"geometry":{"type":"Polygon","coordinates":[[[2.877578611,42.7321025],[2.877341389,42.732162778],[2.877337778,42.732153056],[2.877574444,42.732091667],[2.877578611,42.7321025]]]}},{"type":"Feature","id":"lfmp.area.filled.region.stopbar.108758","properties":{"name":"LFMP AVISO","layer":"Airfield surfaces","category":"Stopbar","object_type":"Area","style_id":"area.filled.region.stopbar","airport":"LFMP","geometry_role":"filled_region","vsmr_group_ids":[]},"geometry":{"type":"Polygon","coordinates":[[[2.875058611,42.733426389],[2.875158889,42.733371944],[2.875168056,42.733380833],[2.875066389,42.733434722],[2.875058611,42.733426389]]]}},{"type":"Feature","id":"lfmp.area.filled.region.stopbar.108763","properties":{"name":"LFMP AVISO","layer":"Airfield surfaces","category":"Stopbar","object_type":"Area","style_id":"area.filled.region.stopbar","airport":"LFMP","geometry_role":"filled_region","vsmr_group_ids":[]},"geometry":{"type":"Polygon","coordinates":[[[2.869968056,42.736308889],[2.869973611,42.736315278],[2.869877222,42.736366944],[2.869872778,42.736362222],[2.869868611,42.7363575],[2.869965833,42.736305556],[2.869968056,42.736308889]]]}},{"type":"Feature","id":"lfmp.area.filled.region.stopbar.108770","properties":{"name":"LFMP AVISO","layer":"Airfield surfaces","category":"Stopbar","object_type":"Area","style_id":"area.filled.region.stopbar","airport":"LFMP","geometry_role":"filled_region","vsmr_group_ids":[]},"geometry":{"type":"Polygon","coordinates":[[[2.87416,42.735494722],[2.874043333,42.735634167],[2.874038611,42.735631944],[2.874028889,42.735627222],[2.874147778,42.735488611],[2.87416,42.735494722]]]}},{"type":"Feature","id":"LFMP-runway-15-33-4883","properties":{"name":"LFMP RWY 15/33","layer":"Runways","category":"Runway Markings","object_type":"Line","style_id":"line.runway.centerline.runway.markings","airport":"LFMP","geometry_role":"runway_centerline","vsmr_group_ids":[]},"geometry":{"type":"LineString","coordinates":[[2.861710833,42.754121944],[2.876688889,42.736257778]]}},{"type":"Feature","id":"LFMP-runway-13-31-4884","properties":{"name":"LFMP RWY 13/31","layer":"Runways","category":"Runway Markings","object_type":"Line","style_id":"line.runway.centerline.runway.markings","airport":"LFMP","geometry_role":"runway_centerline","vsmr_group_ids":[]},"geometry":{"type":"LineString","coordinates":[[2.866541944,42.739088889],[2.877060833,42.733146944]]}},{"type":"Feature","id":"lfmp.line.linework.taxiway.70119","properties":{"name":"LFMP Groundlayout AVISO","layer":"Ground linework","category":"Taxiway","object_type":"Line","style_id":"line.linework.taxiway","airport":"LFMP","geometry_role":"linework","vsmr_group_ids":[]},"geometry":{"type":"MultiLineString","coordinates":[[[2.869345,42.7398925],[2.869215556,42.740388889]],[[2.868756389,42.739809444],[2.868628333,42.740318333]],[[2.868849167,42.740430556],[2.868815556,42.740399722]],[[2.868785278,42.740370833],[2.8687525,42.74034]],[[2.868723889,42.740312778],[2.868693333,42.740283611]],[[2.868663333,42.740255833],[2.868659167,42.740251667]],[[2.868659167,42.740251667],[2.868638333,42.740255]],[[2.868638333,42.740255],[2.868616667,42.740256667]],[[2.868569444,42.740256667],[2.868547778,42.740255]],[[2.868547778,42.740255],[2.868519722,42.740250278]],[[2.868475,42.7402375],[2.868454722,42.740230278]],[[2.868454722,42.740230278],[2.868430833,42.74022]],[[2.868389167,42.740198889],[2.868383611,42.740193611]],[[2.868383611,42.740193611],[2.868391667,42.740165]],[[2.868401389,42.740128611],[2.868409722,42.740093611]],[[2.868418611,42.7400575],[2.868427778,42.740021667]],[[2.868436944,42.739986389],[2.868445556,42.73995]],[[2.867643333,42.7396975],[2.867648889,42.739727222]],[[2.867648889,42.739727222],[2.867658333,42.739754167]],[[2.867658333,42.739754167],[2.867670833,42.739776944]],[[2.867670833,42.739776944],[2.867686389,42.739800556]],[[2.867686389,42.739800556],[2.867707778,42.739822222]],[[2.867707778,42.739822222],[2.867731389,42.7398425]],[[2.867731389,42.7398425],[2.8677475,42.739854167]],[[2.8677475,42.739854167],[2.867766944,42.739865833]],[[2.867766944,42.739865833],[2.867685278,42.740178056]],[[2.867929167,42.740281667],[2.867900278,42.740253889]],[[2.867870556,42.740224722],[2.867824444,42.740179167]],[[2.867794167,42.740149722],[2.867765833,42.740121667]],[[2.867742222,42.740125],[2.867714444,42.740126111]],[[2.867714444,42.740126111],[2.867693333,42.740126389]],[[2.867644167,42.740123611],[2.867626389,42.740121111]],[[2.867626389,42.740121111],[2.8676075,42.7401175]],[[2.8676075,42.7401175],[2.867595556,42.740113611]],[[2.867556389,42.740098889],[2.867532778,42.7400875]],[[2.867532778,42.7400875],[2.867517778,42.740079444]],[[2.867479444,42.740055278],[2.867460556,42.7400425]],[[2.867460556,42.7400425],[2.867445278,42.740031111]],[[2.867441944,42.740010833],[2.867459167,42.739976667]],[[2.867476111,42.739941944],[2.867491667,42.7399075]],[[2.867506667,42.7398725],[2.867520833,42.7398375]],[[2.869556667,42.739346389],[2.869650556,42.738989444]],[[2.868857778,42.739251944],[2.868955278,42.7388925]],[[2.868904722,42.739176111],[2.868948889,42.739156944]],[[2.868991944,42.739138333],[2.869036111,42.739120278]],[[2.869080278,42.739103333],[2.869089444,42.739066667]],[[2.869099722,42.739031389],[2.869108333,42.739013889]],[[2.869108333,42.739013889],[2.869120556,42.738998889]],[[2.869152222,42.738971667],[2.869172778,42.738958333]],[[2.869172778,42.738958333],[2.86919,42.738948889]],[[2.869233056,42.7389325],[2.869259167,42.738926667]],[[2.869259167,42.738926667],[2.869281111,42.738922778]],[[2.869328333,42.73892],[2.869356111,42.738921111]],[[2.869356111,42.738921111],[2.869378333,42.738923889]],[[2.869422222,42.738936944],[2.8694475,42.738947222]],[[2.8694475,42.738947222],[2.869466667,42.738956111]],[[2.8694575,42.738991667],[2.869448333,42.7390275]],[[2.869439167,42.739062778],[2.86943,42.739099167]],[[2.869421389,42.739134722],[2.869412778,42.739170278]],[[2.869404722,42.739206667],[2.869395833,42.7392425]]]}},{"type":"Feature","id":"lfmp.line.linework.runway.border.70179","properties":{"name":"LFMP Groundlayout AVISO","layer":"Ground linework","category":"Runway Border","object_type":"Line","style_id":"line.linework.runway.border","airport":"LFMP","geometry_role":"linework","vsmr_group_ids":[]},"geometry":{"type":"MultiLineString","coordinates":[[[2.877626389,42.735159722],[2.877496111,42.735313333]],[[2.877477778,42.735304167],[2.877433611,42.735388611]],[[2.877433611,42.735388611],[2.877517222,42.735321389]],[[2.877304444,42.7355425],[2.877178333,42.735696111]],[[2.877159444,42.735686667],[2.8771125,42.735773611]],[[2.8771125,42.735773611],[2.877198056,42.735704444]],[[2.876985833,42.735924722],[2.876856667,42.736079167]],[[2.876839444,42.736070278],[2.876791389,42.736156667]],[[2.876791389,42.736156667],[2.876875,42.736088611]],[[2.876933333,42.736368889],[2.8764475,42.736146111]],[[2.861954722,42.754232778],[2.861482778,42.754015833]],[[2.877150278,42.7332225],[2.8770075,42.733085]]]}},{"type":"Feature","id":"LFMP-airport-reference","properties":{"name":"LFMP","layer":"Reference points","category":"Labels","object_type":"Point","style_id":"point.airport.reference.point.labels","airport":"LFMP","geometry_role":"airport_reference_point","text-field":"LFMP","vsmr_group_ids":[]},"geometry":{"type":"Point","coordinates":[2.869721944,42.740832778]}},{"type":"Feature","id":"LFMP-text-lfmm-21776","properties":{"name":"Terminal","layer":"Labels","category":"Labels","object_type":"Label","style_id":"label.text.label.labels","airport":"LFMP","geometry_role":"text_label","text-field":"Terminal","vsmr_group_ids":[]},"geometry":{"type":"Point","coordinates":[2.868569722,42.740868889]}},{"type":"Feature","id":"LFMP-text-lfmm-21777","properties":{"name":"ACB","layer":"Labels","category":"Labels","object_type":"Label","style_id":"label.text.label.labels","airport":"LFMP","geometry_role":"text_label","text-field":"ACB","vsmr_group_ids":[]},"geometry":{"type":"Point","coordinates":[2.871672222,42.734613889]}},{"type":"Feature","id":"LFMP-text-lfmm-21778","properties":{"name":"Sabena","layer":"Labels","category":"Labels","object_type":"Label","style_id":"label.text.label.labels","airport":"LFMP","geometry_role":"text_label","text-field":"Sabena","vsmr_group_ids":[]},"geometry":{"type":"Point","coordinates":[2.876678333,42.730318889]}},{"type":"Feature","id":"LFMP-text-lfmm-21779","properties":{"name":"SAMU","layer":"Labels","category":"Labels","object_type":"Label","style_id":"label.text.label.labels","airport":"LFMP","geometry_role":"text_label","text-field":"SAMU","vsmr_group_ids":[]},"geometry":{"type":"Point","coordinates":[2.873653333,42.733087222]}},{"type":"Feature","id":"LFMP-text-lfmm-21780","properties":{"name":"P2-A","layer":"Labels","category":"Labels","object_type":"Label","style_id":"label.text.label.labels","airport":"LFMP","geometry_role":"text_label","text-field":"P2-A","vsmr_group_ids":[]},"geometry":{"type":"Point","coordinates":[2.869510278,42.740149444]}},{"type":"Feature","id":"LFMP-text-lfmm-21781","properties":{"name":"P3-A","layer":"Labels","category":"Labels","object_type":"Label","style_id":"label.text.label.labels","airport":"LFMP","geometry_role":"text_label","text-field":"P3-A","vsmr_group_ids":[]},"geometry":{"type":"Point","coordinates":[2.868863056,42.740041944]}},{"type":"Feature","id":"LFMP-text-lfmm-21782","properties":{"name":"P3-B","layer":"Labels","category":"Labels","object_type":"Label","style_id":"label.text.label.labels","airport":"LFMP","geometry_role":"text_label","text-field":"P3-B","vsmr_group_ids":[]},"geometry":{"type":"Point","coordinates":[2.868925556,42.740302778]}},{"type":"Feature","id":"LFMP-text-lfmm-21783","properties":{"name":"P4-A","layer":"Labels","category":"Labels","object_type":"Label","style_id":"label.text.label.labels","airport":"LFMP","geometry_role":"text_label","text-field":"P4-A","vsmr_group_ids":[]},"geometry":{"type":"Point","coordinates":[2.867888611,42.739985833]}},{"type":"Feature","id":"LFMP-text-lfmm-21784","properties":{"name":"P4-B","layer":"Labels","category":"Labels","object_type":"Label","style_id":"label.text.label.labels","airport":"LFMP","geometry_role":"text_label","text-field":"P4-B","vsmr_group_ids":[]},"geometry":{"type":"Point","coordinates":[2.868028889,42.74018]}},{"type":"Feature","id":"LFMP-text-lfmm-21785","properties":{"name":"P7-A","layer":"Labels","category":"Labels","object_type":"Label","style_id":"label.text.label.labels","airport":"LFMP","geometry_role":"text_label","text-field":"P7-A","vsmr_group_ids":[]},"geometry":{"type":"Point","coordinates":[2.869759722,42.739157222]}},{"type":"Feature","id":"LFMP-text-lfmm-21786","properties":{"name":"P8-A","layer":"Labels","category":"Labels","object_type":"Label","style_id":"label.text.label.labels","airport":"LFMP","geometry_role":"text_label","text-field":"P8-A","vsmr_group_ids":[]},"geometry":{"type":"Point","coordinates":[2.868753889,42.739075556]}},{"type":"Feature","id":"LFMP-text-lfmm-21787","properties":{"name":"P8-B","layer":"Labels","category":"Labels","object_type":"Label","style_id":"label.text.label.labels","airport":"LFMP","geometry_role":"text_label","text-field":"P8-B","vsmr_group_ids":[]},"geometry":{"type":"Point","coordinates":[2.869104722,42.739213611]}},{"type":"Feature","id":"LFMP-text-lfmm-21788","properties":{"name":"H","layer":"Labels","category":"Labels","object_type":"Label","style_id":"label.text.label.labels","airport":"LFMP","geometry_role":"text_label","text-field":"H","vsmr_group_ids":[]},"geometry":{"type":"Point","coordinates":[2.875173611,42.732616111]}},{"type":"Feature","id":"LFMP-text-lfmm-21789","properties":{"name":"H","layer":"Labels","category":"Labels","object_type":"Label","style_id":"label.text.label.labels","airport":"LFMP","geometry_role":"text_label","text-field":"H","vsmr_group_ids":[]},"geometry":{"type":"Point","coordinates":[2.874975556,42.732726944]}},{"type":"Feature","id":"LFMP-text-lfmm-21791","properties":{"name":"NL","layer":"Labels","category":"Labels","object_type":"Label","style_id":"label.text.label.labels","airport":"LFMP","geometry_role":"text_label","text-field":"NL","vsmr_group_ids":[]},"geometry":{"type":"Point","coordinates":[3.055833333,42.910277778]}},{"type":"Feature","id":"LFMP-text-lfmm-21792","properties":{"name":"NF","layer":"Labels","category":"Labels","object_type":"Label","style_id":"label.text.label.labels","airport":"LFMP","geometry_role":"text_label","text-field":"NF","vsmr_group_ids":[]},"geometry":{"type":"Point","coordinates":[3.038611111,42.778888889]}},{"type":"Feature","id":"LFMP-text-lfmm-21793","properties":{"name":"EA","layer":"Labels","category":"Labels","object_type":"Label","style_id":"label.text.label.labels","airport":"LFMP","geometry_role":"text_label","text-field":"EA","vsmr_group_ids":[]},"geometry":{"type":"Point","coordinates":[2.986944444,42.763888889]}},{"type":"Feature","id":"LFMP-text-lfmm-21794","properties":{"name":"E","layer":"Labels","category":"Labels","object_type":"Label","style_id":"label.text.label.labels","airport":"LFMP","geometry_role":"text_label","text-field":"E","vsmr_group_ids":[]},"geometry":{"type":"Point","coordinates":[3.038611111,42.778888889]}},{"type":"Feature","id":"LFMP-text-lfmm-21795","properties":{"name":"PC","layer":"Labels","category":"Labels","object_type":"Label","style_id":"label.text.label.labels","airport":"LFMP","geometry_role":"text_label","text-field":"PC","vsmr_group_ids":[]},"geometry":{"type":"Point","coordinates":[3.0375,42.703055556]}},{"type":"Feature","id":"LFMP-text-lfmm-21796","properties":{"name":"SC","layer":"Labels","category":"Labels","object_type":"Label","style_id":"label.text.label.labels","airport":"LFMP","geometry_role":"text_label","text-field":"SC","vsmr_group_ids":[]},"geometry":{"type":"Point","coordinates":[3.039166667,42.619722222]}},{"type":"Feature","id":"LFMP-text-lfmm-21797","properties":{"name":"MS","layer":"Labels","category":"Labels","object_type":"Label","style_id":"label.text.label.labels","airport":"LFMP","geometry_role":"text_label","text-field":"MS","vsmr_group_ids":[]},"geometry":{"type":"Point","coordinates":[2.860555556,42.608333333]}},{"type":"Feature","id":"LFMP-text-lfmm-21798","properties":{"name":"WS","layer":"Labels","category":"Labels","object_type":"Label","style_id":"label.text.label.labels","airport":"LFMP","geometry_role":"text_label","text-field":"WS","vsmr_group_ids":[]},"geometry":{"type":"Point","coordinates":[2.759166667,42.681944444]}},{"type":"Feature","id":"LFMP-text-lfmm-21800","properties":{"name":"15","layer":"Labels","category":"Labels","object_type":"Label","style_id":"label.text.label.labels","airport":"LFMP","geometry_role":"text_label","text-field":"15","vsmr_group_ids":[]},"geometry":{"type":"Point","coordinates":[2.861898056,42.753854167]}},{"type":"Feature","id":"LFMP-text-lfmm-21801","properties":{"name":"33","layer":"Labels","category":"Labels","object_type":"Label","style_id":"label.text.label.labels","airport":"LFMP","geometry_role":"text_label","text-field":"33","vsmr_group_ids":[]},"geometry":{"type":"Point","coordinates":[2.876285,42.736663056]}},{"type":"Feature","id":"LFMP-text-lfmm-21802","properties":{"name":"13","layer":"Labels","category":"Labels","object_type":"Label","style_id":"label.text.label.labels","airport":"LFMP","geometry_role":"text_label","text-field":"13","vsmr_group_ids":[]},"geometry":{"type":"Point","coordinates":[2.86675,42.738973889]}},{"type":"Feature","id":"LFMP-text-lfmm-21803","properties":{"name":"31","layer":"Labels","category":"Labels","object_type":"Label","style_id":"label.text.label.labels","airport":"LFMP","geometry_role":"text_label","text-field":"31","vsmr_group_ids":[]},"geometry":{"type":"Point","coordinates":[2.8768425,42.733273611]}},{"type":"Feature","id":"LFMP-text-lfmm-21804","properties":{"name":"A","layer":"Labels","category":"Labels","object_type":"Label","style_id":"label.text.label.labels","airport":"LFMP","geometry_role":"text_label","text-field":"A","vsmr_group_ids":[]},"geometry":{"type":"Point","coordinates":[2.860765833,42.753704444]}},{"type":"Feature","id":"LFMP-text-lfmm-21805","properties":{"name":"B","layer":"Labels","category":"Labels","object_type":"Label","style_id":"label.text.label.labels","airport":"LFMP","geometry_role":"text_label","text-field":"B","vsmr_group_ids":[]},"geometry":{"type":"Point","coordinates":[2.861907778,42.752405833]}},{"type":"Feature","id":"LFMP-text-lfmm-21806","properties":{"name":"C","layer":"Labels","category":"Labels","object_type":"Label","style_id":"label.text.label.labels","airport":"LFMP","geometry_role":"text_label","text-field":"C","vsmr_group_ids":[]},"geometry":{"type":"Point","coordinates":[2.862555,42.751407222]}},{"type":"Feature","id":"LFMP-text-lfmm-21807","properties":{"name":"D","layer":"Labels","category":"Labels","object_type":"Label","style_id":"label.text.label.labels","airport":"LFMP","geometry_role":"text_label","text-field":"D","vsmr_group_ids":[]},"geometry":{"type":"Point","coordinates":[2.863944444,42.749297222]}},{"type":"Feature","id":"LFMP-text-lfmm-21808","properties":{"name":"G","layer":"Labels","category":"Labels","object_type":"Label","style_id":"label.text.label.labels","airport":"LFMP","geometry_role":"text_label","text-field":"G","vsmr_group_ids":[]},"geometry":{"type":"Point","coordinates":[2.871913056,42.740036667]}},{"type":"Feature","id":"LFMP-text-lfmm-21809","properties":{"name":"H","layer":"Labels","category":"Labels","object_type":"Label","style_id":"label.text.label.labels","airport":"LFMP","geometry_role":"text_label","text-field":"H","vsmr_group_ids":[]},"geometry":{"type":"Point","coordinates":[2.874798611,42.7364375]}},{"type":"Feature","id":"LFMP-text-lfmm-21810","properties":{"name":"K","layer":"Labels","category":"Labels","object_type":"Label","style_id":"label.text.label.labels","airport":"LFMP","geometry_role":"text_label","text-field":"K","vsmr_group_ids":[]},"geometry":{"type":"Point","coordinates":[2.863899444,42.748372222]}},{"type":"Feature","id":"LFMP-text-lfmm-21811","properties":{"name":"K","layer":"Labels","category":"Labels","object_type":"Label","style_id":"label.text.label.labels","airport":"LFMP","geometry_role":"text_label","text-field":"K","vsmr_group_ids":[]},"geometry":{"type":"Point","coordinates":[2.866555278,42.745209444]}},{"type":"Feature","id":"LFMP-text-lfmm-21812","properties":{"name":"K","layer":"Labels","category":"Labels","object_type":"Label","style_id":"label.text.label.labels","airport":"LFMP","geometry_role":"text_label","text-field":"K","vsmr_group_ids":[]},"geometry":{"type":"Point","coordinates":[2.870087778,42.741294167]}},{"type":"Feature","id":"LFMP-text-lfmm-21813","properties":{"name":"L","layer":"Labels","category":"Labels","object_type":"Label","style_id":"label.text.label.labels","airport":"LFMP","geometry_role":"text_label","text-field":"L","vsmr_group_ids":[]},"geometry":{"type":"Point","coordinates":[2.871848611,42.739180278]}},{"type":"Feature","id":"LFMP-text-lfmm-21814","properties":{"name":"L","layer":"Labels","category":"Labels","object_type":"Label","style_id":"label.text.label.labels","airport":"LFMP","geometry_role":"text_label","text-field":"L","vsmr_group_ids":[]},"geometry":{"type":"Point","coordinates":[2.872915833,42.737909444]}},{"type":"Feature","id":"LFMP-text-lfmm-21815","properties":{"name":"L","layer":"Labels","category":"Labels","object_type":"Label","style_id":"label.text.label.labels","airport":"LFMP","geometry_role":"text_label","text-field":"L","vsmr_group_ids":[]},"geometry":{"type":"Point","coordinates":[2.874130278,42.736480278]}},{"type":"Feature","id":"LFMP-text-lfmm-21816","properties":{"name":"Q","layer":"Labels","category":"Labels","object_type":"Label","style_id":"label.text.label.labels","airport":"LFMP","geometry_role":"text_label","text-field":"Q","vsmr_group_ids":[]},"geometry":{"type":"Point","coordinates":[2.870179722,42.736283889]}},{"type":"Feature","id":"LFMP-text-lfmm-21817","properties":{"name":"R","layer":"Labels","category":"Labels","object_type":"Label","style_id":"label.text.label.labels","airport":"LFMP","geometry_role":"text_label","text-field":"R","vsmr_group_ids":[]},"geometry":{"type":"Point","coordinates":[2.8737975,42.735796389]}},{"type":"Feature","id":"LFMP-text-lfmm-21818","properties":{"name":"T","layer":"Labels","category":"Labels","object_type":"Label","style_id":"label.text.label.labels","airport":"LFMP","geometry_role":"text_label","text-field":"T","vsmr_group_ids":[]},"geometry":{"type":"Point","coordinates":[2.874906111,42.733566944]}},{"type":"Feature","id":"LFMP-text-lfmm-21819","properties":{"name":"U","layer":"Labels","category":"Labels","object_type":"Label","style_id":"label.text.label.labels","airport":"LFMP","geometry_role":"text_label","text-field":"U","vsmr_group_ids":[]},"geometry":{"type":"Point","coordinates":[2.877111111,42.732320556]}},{"type":"Feature","id":"LFMP-text-lfmm-21820","properties":{"name":"V","layer":"Labels","category":"Labels","object_type":"Label","style_id":"label.text.label.labels","airport":"LFMP","geometry_role":"text_label","text-field":"V","vsmr_group_ids":[]},"geometry":{"type":"Point","coordinates":[2.870630278,42.735716389]}},{"type":"Feature","id":"LFMP-text-lfmm-21821","properties":{"name":"V","layer":"Labels","category":"Labels","object_type":"Label","style_id":"label.text.label.labels","airport":"LFMP","geometry_role":"text_label","text-field":"V","vsmr_group_ids":[]},"geometry":{"type":"Point","coordinates":[2.872689167,42.734541944]}},{"type":"Feature","id":"LFMP-text-lfmm-21822","properties":{"name":"V","layer":"Labels","category":"Labels","object_type":"Label","style_id":"label.text.label.labels","airport":"LFMP","geometry_role":"text_label","text-field":"V","vsmr_group_ids":[]},"geometry":{"type":"Point","coordinates":[2.874211944,42.733686944]}},{"type":"Feature","id":"LFMP-text-lfmm-21823","properties":{"name":"X","layer":"Labels","category":"Labels","object_type":"Label","style_id":"label.text.label.labels","airport":"LFMP","geometry_role":"text_label","text-field":"X","vsmr_group_ids":[]},"geometry":{"type":"Point","coordinates":[2.86541,42.740569167]}},{"type":"Feature","id":"LFMP-text-lfmm-21824","properties":{"name":"X","layer":"Labels","category":"Labels","object_type":"Label","style_id":"label.text.label.labels","airport":"LFMP","geometry_role":"text_label","text-field":"X","vsmr_group_ids":[]},"geometry":{"type":"Point","coordinates":[2.867180278,42.739108333]}},{"type":"Feature","id":"LFMP-text-lfmm-21825","properties":{"name":"X","layer":"Labels","category":"Labels","object_type":"Label","style_id":"label.text.label.labels","airport":"LFMP","geometry_role":"text_label","text-field":"X","vsmr_group_ids":[]},"geometry":{"type":"Point","coordinates":[2.867541944,42.739458056]}},{"type":"Feature","id":"LFMP-text-lfmm-21826","properties":{"name":"X","layer":"Labels","category":"Labels","object_type":"Label","style_id":"label.text.label.labels","airport":"LFMP","geometry_role":"text_label","text-field":"X","vsmr_group_ids":[]},"geometry":{"type":"Point","coordinates":[2.87093,42.740881111]}},{"type":"Feature","id":"LFMP-text-lfmm-21827","properties":{"name":"X","layer":"Labels","category":"Labels","object_type":"Label","style_id":"label.text.label.labels","airport":"LFMP","geometry_role":"text_label","text-field":"X","vsmr_group_ids":[]},"geometry":{"type":"Point","coordinates":[2.871405833,42.741105833]}},{"type":"Feature","id":"LFMP-text-lfmm-21828","properties":{"name":"X","layer":"Labels","category":"Labels","object_type":"Label","style_id":"label.text.label.labels","airport":"LFMP","geometry_role":"text_label","text-field":"X","vsmr_group_ids":[]},"geometry":{"type":"Point","coordinates":[2.871824444,42.741318333]}}]}
