{"type":"FeatureCollection","name":"LFMR AVISO","bbox":[6.604221944,44.387099722,6.613241944,44.387327778],"metadata":{"schema":"vSMR AVISO","schema_version":2,"airport":"LFMR","coordinate_reference_system":"WGS84","coordinate_order":"longitude, latitude","default_color_palette":"night","color_palettes":["night","day"],"feature_count":2,"style_count":2,"layer_counts":{"Reference points":1,"Runways":1},"category_counts":{"Labels":1,"Runway Markings":1}},"styles":{"line.runway.centerline.runway.markings":{"name":"Runway Markings","layer":"Runways","object_type":"Line","paint":{"stroke":"#FEFEFE","stroke-opacity":1.0,"stroke-width":1.5},"feature_count":1},"point.airport.reference.point.labels":{"name":"Labels","layer":"Reference points","object_type":"Point","paint":{"marker-color":"#808080","marker-size":"small"},"feature_count":1}},"features":[{"type":"Feature","id":"LFMR-runway-09-27-5273","properties":{"name":"LFMR RWY 09/27","layer":"Runways","category":"Runway Markings","object_type":"Line","style_id":"line.runway.centerline.runway.markings","airport":"LFMR","geometry_role":"runway_centerline","vsmr_group_ids":[]},"geometry":{"type":"LineString","coordinates":[[6.604221944,44.387327778],[6.613241944,44.387099722]]}},{"type":"Feature","id":"LFMR-airport-reference","properties":{"name":"LFMR","layer":"Reference points","category":"Labels","object_type":"Point","style_id":"point.airport.reference.point.labels","airport":"LFMR","geometry_role":"airport_reference_point","text-field":"LFMR","vsmr_group_ids":[]},"geometry":{"type":"Point","coordinates":[6.609166944,44.387221944]}}]}
