{"type":"FeatureCollection","name":"LFMV AVISO","bbox":[4.896777778,43.898991667,4.905277778,43.916194444],"metadata":{"schema":"vSMR AVISO","schema_version":2,"geometry_mode":"shared","airport":"LFMV","coordinate_reference_system":"WGS84","coordinate_order":"longitude, latitude","default_color_palette":"dark","color_palettes":["dark","light"],"background_colors":{"dark":"#434A4F","light":"#434A4F"},"feature_count":28,"style_count":6,"layer_counts":{"Guidance lines":3,"Labels":23,"Runways":2},"category_counts":{"Apron Surface":1,"Gates":13,"Runway centerlines":2,"Runways":1,"Taxiways":11},"runways":[{"ends":["17R","35L"],"headings":[167,347],"thresholds":[[4.899432778,43.912905833],[4.901105833,43.906725]]},{"ends":["17","35"],"headings":[167,347],"thresholds":[[4.900071944,43.913832778],[4.903335833,43.901738889]]}],"saved_active_runways":[],"saved_active_airport_modes":[],"geometry_source":"EuroScope sector pack","source_files":{"LFBB.sct":"fc92f16bc65e3a10b9aeb0cf4d1cae1add9856a4f4f2f653af5abaa0d98c77ed","LFBB.ese":"c7c252d4a274f6fd98bcefd2364b7bb9799385a6e602b62ccbe85cc32042ef62","LFBB.rwy":"d9387919da6406482f154f391ab2d20783610a60930f986e160686134ea8a7df","LFEE.sct":"10fcc997213ee24336ef8bd37f3a9423cb07bbdfb57b1494c61b8310b9641d8a","LFEE.ese":"3391dc3a47130a4a8c12ab895a6743c77668044183634bd45d425513ef5baa2f","LFFF.sct":"cb6698888ce3e8e8be34ea45922976a5fb3ebe1baef7814f040c91785f8641f2","LFFF.ese":"0c1e64c4a0524a6cdc30766699492d362f78011da36daeacfde4597a1761b64c","LFFF.rwy":"a12900bf1f18188caf2e598c44e55b2c0c6fb2c66cee43ff843cbe216617ae96","LFMM.sct":"fc0d266315a59cb027803be613657d9e9875a2a4b912535d08d1c7892a53b194","LFMM.ese":"6a319d7f7c1c2f7e457ae789f4aae2feafec03b24f5d3d95752e96922a971c9e","LFMM.rwy":"236563995d9b5be668ee3fc8d653cf8f33f20a511137652b197e5877b85d5693","LFRR.sct":"c5a55173543154d388eb65309d606b41ac5da09af59142e69878a4cde03add83","LFRR.ese":"e4542200e8322297f954327131cfe6e73da3ac264cf5610ff6871309cd6eeb40"},"airport_reference":[4.901943889,43.906666944]},"styles":{"line.taxiway.c0b631":{"name":"Taxiways","layer":"Guidance lines","object_type":"Line","paint":{"stroke":"#4E5A69","stroke-opacity":1,"stroke-width":1,"palette-overrides":{"light":{"stroke":"#C0B631"}}},"feature_count":1},"line.runwayconcrete.555555":{"name":"Runways","layer":"Guidance lines","object_type":"Line","paint":{"stroke":"#111318","stroke-opacity":1,"stroke-width":1,"palette-overrides":{"light":{"stroke":"#555555"}}},"feature_count":1},"line.apronsurface.808080":{"name":"Apron Surface","layer":"Guidance lines","object_type":"Line","paint":{"stroke":"#808080","stroke-opacity":1,"stroke-width":1,"palette-overrides":{"light":{"stroke":"#808080"}}},"feature_count":1},"label.gates":{"name":"Gates","layer":"Labels","object_type":"Label","paint":{"text-color":"#CCCCCC","text-font":"Arial","text-size":12,"text-halo-color":"#000000","text-halo-width":1,"text-anchor":"center","zoomLevel":9},"feature_count":13},"label.taxiways":{"name":"Taxiways","layer":"Labels","object_type":"Label","paint":{"text-color":"#CCCCCC","text-font":"Arial","text-size":12,"text-halo-color":"#000000","text-halo-width":1,"text-anchor":"center","zoomLevel":7},"feature_count":10},"runway.reference":{"name":"Runway centerlines","layer":"Runways","object_type":"Line","paint":{"stroke":"#CCCCCC","stroke-width":2,"stroke-opacity":1},"feature_count":2}},"vsmr_groups":[{"id":"stands-and-gates","name":"Stands & gates","visible":true,"accent":"#d4bd39"}],"features":[{"type":"Feature","id":"LFMV-0039cb3c2b240bc4ce2a","properties":{"airport":"LFMV","name":"LFMV Groundlayout Avignon","layer":"Guidance lines","category":"Taxiways","object_type":"Line","style_id":"line.taxiway.c0b631","source_group":"LFMV Groundlayout Avignon","vsmr_group_ids":[],"geometry_role":"linework"},"geometry":{"type":"MultiLineString","coordinates":[[[4.899694444,43.914138889],[4.899444444,43.914083333]],[[4.899666667,43.914305556],[4.899388889,43.914277778]],[[4.899444444,43.914083333],[4.898083333,43.913916667]],[[4.899388889,43.914277778],[4.897777778,43.914055556]],[[4.898083333,43.913916667],[4.899194444,43.909805556]],[[4.897777778,43.914055556],[4.898972222,43.909638889]],[[4.89925,43.909611111],[4.899833333,43.9075]],[[4.898972222,43.909638889],[4.899555556,43.907472222]],[[4.899861111,43.907305556],[4.899944444,43.907055556]],[[4.899611111,43.907277778],[4.899694444,43.907]],[[4.9,43.906861111],[4.900527778,43.904861111]],[[4.89975,43.906833333],[4.900277778,43.904833333]],[[4.900583333,43.904666667],[4.901416667,43.901666667]],[[4.900333333,43.904638889],[4.901194444,43.901444444]],[[4.901416667,43.901666667],[4.90275,43.901861111]],[[4.901194444,43.901444444],[4.902805556,43.901666667]],[[4.90275,43.901861111],[4.903,43.901888889]],[[4.902805556,43.901666667],[4.903055556,43.901694444]],[[4.902194444,43.904888889],[4.901944444,43.904861111]],[[4.902138889,43.905083333],[4.901888889,43.905055556]],[[4.901944444,43.904861111],[4.900583333,43.904666667]],[[4.901888889,43.905055556],[4.900527778,43.904861111]],[[4.900333333,43.904638889],[4.900166667,43.904611111]],[[4.900277778,43.904833333],[4.899833333,43.904777778]],[[4.901611111,43.907083333],[4.901333333,43.907027778]],[[4.901555556,43.90725],[4.901305556,43.907222222]],[[4.901333333,43.907027778],[4.9,43.906861111]],[[4.901305556,43.907222222],[4.899944444,43.907055556]],[[4.89975,43.906833333],[4.899111111,43.90675]],[[4.899694444,43.907],[4.899444444,43.906972222]],[[4.900444444,43.907388889],[4.900166667,43.907361111]],[[4.900388889,43.907583333],[4.900111111,43.907527778]],[[4.900166667,43.907361111],[4.899861111,43.907305556]],[[4.900111111,43.907527778],[4.899833333,43.9075]],[[4.899611111,43.907277778],[4.899166667,43.907222222]],[[4.899555556,43.907472222],[4.899111111,43.907416667]],[[4.899194444,43.909805556],[4.899444444,43.909916667]],[[4.89925,43.909611111],[4.899583333,43.90975]],[[4.899444444,43.909916667],[4.899722222,43.910055556]],[[4.899583333,43.90975],[4.899777778,43.909861111]],[[4.90125,43.910555556],[4.901444444,43.910638889]],[[4.901305556,43.910361111],[4.901583333,43.910472222]],[[4.901444444,43.910638889],[4.904388889,43.912027778]],[[4.901583333,43.910472222],[4.904555556,43.911861111]],[[4.897222222,43.907055556],[4.897444444,43.907138889]],[[4.897277778,43.907],[4.897472222,43.907083333]],[[4.897222222,43.907055556],[4.897277778,43.907]],[[4.897444444,43.907138889],[4.898111111,43.907222222]],[[4.897472222,43.907083333],[4.898111111,43.907166667]],[[4.898111111,43.907222222],[4.898638889,43.907277778]],[[4.898111111,43.907166667],[4.898611111,43.907222222]],[[4.898638889,43.907277778],[4.899138889,43.907333333]],[[4.898722222,43.907222222],[4.899138889,43.907277778]],[[4.898861111,43.906333333],[4.898777778,43.906638889]],[[4.898944444,43.906333333],[4.898861111,43.906638889]],[[4.898861111,43.906333333],[4.898944444,43.906333333]],[[4.898777778,43.906638889],[4.898611111,43.907222222]],[[4.898861111,43.906694444],[4.898722222,43.907222222]],[[4.898861111,43.906694444],[4.899444444,43.906972222]],[[4.898861111,43.906638889],[4.899111111,43.90675]],[[4.899666667,43.905],[4.899833333,43.904777778]],[[4.899583333,43.904944444],[4.899777778,43.904722222]],[[4.899666667,43.905],[4.899583333,43.904944444]],[[4.899472222,43.90475],[4.899555556,43.904722222]],[[4.899472222,43.904666667],[4.899944444,43.904638889]],[[4.899472222,43.90475],[4.899472222,43.904666667]],[[4.904277778,43.91225],[4.904555556,43.911972222]],[[4.904222222,43.912194444],[4.904388889,43.912027778]],[[4.904277778,43.91225],[4.904222222,43.912194444]],[[4.904555556,43.911972222],[4.90475,43.911777778]],[[4.904555556,43.911861111],[4.904666667,43.911722222]],[[4.90475,43.911777778],[4.904666667,43.911722222]]]}},{"type":"Feature","id":"LFMV-a77aa1ff43658e742a34","properties":{"airport":"LFMV","name":"LFMV Groundlayout Avignon","layer":"Guidance lines","category":"Runways","object_type":"Line","style_id":"line.runwayconcrete.555555","source_group":"LFMV Groundlayout Avignon","vsmr_group_ids":[],"geometry_role":"linework"},"geometry":{"type":"MultiLineString","coordinates":[[[4.903222222,43.907305556],[4.902305556,43.910666667]],[[4.9035,43.907361111],[4.902583333,43.910722222]],[[4.903222222,43.907305556],[4.9035,43.907361111]],[[4.902305556,43.910666667],[4.902583333,43.910722222]],[[4.903638889,43.899527778],[4.903055556,43.901694444]],[[4.904194444,43.899611111],[4.903583333,43.901888889]],[[4.903638889,43.899527778],[4.904194444,43.899611111]],[[4.903,43.901888889],[4.902194444,43.904888889]],[[4.903583333,43.901888889],[4.902722222,43.905055556]],[[4.902138889,43.905083333],[4.901611111,43.907083333]],[[4.902722222,43.905055556],[4.902138889,43.90725]],[[4.901555556,43.90725],[4.90075,43.910305556]],[[4.902138889,43.90725],[4.901305556,43.910361111]],[[4.90075,43.910305556],[4.899694444,43.914138889]],[[4.90125,43.910555556],[4.900222222,43.914305556]],[[4.899666667,43.914305556],[4.899166667,43.916111111]],[[4.900222222,43.914305556],[4.899722222,43.916194444]],[[4.899166667,43.916111111],[4.899722222,43.916194444]],[[4.900472222,43.907277778],[4.900444444,43.907388889]],[[4.901055556,43.907361111],[4.901027778,43.907555556]],[[4.900472222,43.907277778],[4.901055556,43.907361111]],[[4.900388889,43.907583333],[4.899777778,43.909861111]],[[4.901027778,43.907555556],[4.900333333,43.910111111]],[[4.899722222,43.910055556],[4.898805556,43.913444444]],[[4.900333333,43.910111111],[4.899416667,43.913527778]],[[4.898805556,43.913444444],[4.899416667,43.913527778]]]}},{"type":"Feature","id":"LFMV-3d38e00b17cae6ae1202","properties":{"airport":"LFMV","name":"LFMV Groundlayout Avignon","layer":"Guidance lines","category":"Apron Surface","object_type":"Line","style_id":"line.apronsurface.808080","source_group":"LFMV Groundlayout Avignon","vsmr_group_ids":[],"geometry_role":"linework"},"geometry":{"type":"MultiLineString","coordinates":[[[4.899166667,43.907805556],[4.899416667,43.906833333],[4.899277778,43.906638889],[4.8995,43.905666667],[4.899722222,43.905583333],[4.900083333,43.904277778],[4.899083333,43.904138889],[4.898666667,43.905861111],[4.898361111,43.905805556],[4.898111111,43.906833333],[4.897638889,43.906805556],[4.897666667,43.906694444],[4.896944444,43.906583333],[4.896777778,43.907527778]],[[4.899166667,43.907805556],[4.896777778,43.907527778]],[[4.899277778,43.91575],[4.899166667,43.915722222],[4.899,43.915777778],[4.898944444,43.915916667],[4.898944444,43.916027778],[4.899055556,43.916111111],[4.899194444,43.916111111]],[[4.899277778,43.91575],[4.899194444,43.916111111]],[[4.904055556,43.912333333],[4.904777778,43.911583333],[4.905277778,43.911861111],[4.904555556,43.912583333]],[[4.904055556,43.912333333],[4.904555556,43.912583333]],[[4.899694444,43.914333333],[4.899472222,43.914277778],[4.899416667,43.914166667],[4.899472222,43.913972222],[4.899638889,43.913888889],[4.899805556,43.913916667]],[[4.899694444,43.914333333],[4.899805556,43.913916667]],[[4.904138889,43.899611111],[4.904583333,43.899666667],[4.904527778,43.899888889],[4.904388889,43.900055556],[4.904194444,43.900166667],[4.904,43.900222222]],[[4.904138889,43.899611111],[4.904,43.900222222]]]}},{"type":"Feature","id":"LFMV-4b9357ce5b41227f4380","properties":{"airport":"LFMV","name":"1","layer":"Labels","category":"Gates","object_type":"Label","style_id":"label.gates","source_group":"LFMV Gates","vsmr_group_ids":["stands-and-gates"],"geometry_role":"text_label","text-field":"1"},"geometry":{"type":"Point","coordinates":[4.897277778,43.906777778]}},{"type":"Feature","id":"LFMV-a652f5259186c5d38e04","properties":{"airport":"LFMV","name":"G1","layer":"Labels","category":"Gates","object_type":"Label","style_id":"label.gates","source_group":"LFMV Gates","vsmr_group_ids":["stands-and-gates"],"geometry_role":"text_label","text-field":"G1"},"geometry":{"type":"Point","coordinates":[4.898027778,43.9075]}},{"type":"Feature","id":"LFMV-87fb6b86e9b3be39ed4e","properties":{"airport":"LFMV","name":"2","layer":"Labels","category":"Gates","object_type":"Label","style_id":"label.gates","source_group":"LFMV Gates","vsmr_group_ids":["stands-and-gates"],"geometry_role":"text_label","text-field":"2"},"geometry":{"type":"Point","coordinates":[4.898444444,43.906277778]}},{"type":"Feature","id":"LFMV-9faa0c3f2cda04ccfd17","properties":{"airport":"LFMV","name":"3","layer":"Labels","category":"Gates","object_type":"Label","style_id":"label.gates","source_group":"LFMV Gates","vsmr_group_ids":["stands-and-gates"],"geometry_role":"text_label","text-field":"3"},"geometry":{"type":"Point","coordinates":[4.898555556,43.907583333]}},{"type":"Feature","id":"LFMV-2dab864d978298856e25","properties":{"airport":"LFMV","name":"4","layer":"Labels","category":"Gates","object_type":"Label","style_id":"label.gates","source_group":"LFMV Gates","vsmr_group_ids":["stands-and-gates"],"geometry_role":"text_label","text-field":"4"},"geometry":{"type":"Point","coordinates":[4.898333333,43.906583333]}},{"type":"Feature","id":"LFMV-7330a507b23ad0ff44a6","properties":{"airport":"LFMV","name":"5","layer":"Labels","category":"Gates","object_type":"Label","style_id":"label.gates","source_group":"LFMV Gates","vsmr_group_ids":["stands-and-gates"],"geometry_role":"text_label","text-field":"5"},"geometry":{"type":"Point","coordinates":[4.899083333,43.904888889]}},{"type":"Feature","id":"LFMV-bfb4ab0f4da77311e0aa","properties":{"airport":"LFMV","name":"6","layer":"Labels","category":"Gates","object_type":"Label","style_id":"label.gates","source_group":"LFMV Gates","vsmr_group_ids":["stands-and-gates"],"geometry_role":"text_label","text-field":"6"},"geometry":{"type":"Point","coordinates":[4.899138889,43.904666667]}},{"type":"Feature","id":"LFMV-e4ca71abc62480525a54","properties":{"airport":"LFMV","name":"7","layer":"Labels","category":"Gates","object_type":"Label","style_id":"label.gates","source_group":"LFMV Gates","vsmr_group_ids":["stands-and-gates"],"geometry_role":"text_label","text-field":"7"},"geometry":{"type":"Point","coordinates":[4.9045,43.912333333]}},{"type":"Feature","id":"LFMV-c150a2388b5dfd919c9a","properties":{"airport":"LFMV","name":"8","layer":"Labels","category":"Gates","object_type":"Label","style_id":"label.gates","source_group":"LFMV Gates","vsmr_group_ids":["stands-and-gates"],"geometry_role":"text_label","text-field":"8"},"geometry":{"type":"Point","coordinates":[4.904944444,43.911888889]}},{"type":"Feature","id":"LFMV-47ef6d03e915c5142875","properties":{"airport":"LFMV","name":"Apron F","layer":"Labels","category":"Gates","object_type":"Label","style_id":"label.gates","source_group":"LFMV Gates","vsmr_group_ids":["stands-and-gates"],"geometry_role":"text_label","text-field":"Apron F"},"geometry":{"type":"Point","coordinates":[4.8975,43.906258333]}},{"type":"Feature","id":"LFMV-176a88a6f2259e1be79b","properties":{"airport":"LFMV","name":"Apron C","layer":"Labels","category":"Gates","object_type":"Label","style_id":"label.gates","source_group":"LFMV Gates","vsmr_group_ids":["stands-and-gates"],"geometry_role":"text_label","text-field":"Apron C"},"geometry":{"type":"Point","coordinates":[4.89915,43.905619444]}},{"type":"Feature","id":"LFMV-c9c28839733666a6e2ce","properties":{"airport":"LFMV","name":"Apron B","layer":"Labels","category":"Gates","object_type":"Label","style_id":"label.gates","source_group":"LFMV Gates","vsmr_group_ids":["stands-and-gates"],"geometry_role":"text_label","text-field":"Apron B"},"geometry":{"type":"Point","coordinates":[4.899858333,43.903527778]}},{"type":"Feature","id":"LFMV-262c284fe6b1bf7e349c","properties":{"airport":"LFMV","name":"Grass apron A","layer":"Labels","category":"Gates","object_type":"Label","style_id":"label.gates","source_group":"LFMV Gates","vsmr_group_ids":["stands-and-gates"],"geometry_role":"text_label","text-field":"Grass apron A"},"geometry":{"type":"Point","coordinates":[4.900505556,43.902425]}},{"type":"Feature","id":"LFMV-797d25051f360daf4cd7","properties":{"airport":"LFMV","name":"A","layer":"Labels","category":"Taxiways","object_type":"Label","style_id":"label.taxiways","source_group":"LFMV Taxiways","vsmr_group_ids":[],"geometry_role":"text_label","text-field":"A"},"geometry":{"type":"Point","coordinates":[4.90265,43.898991667]}},{"type":"Feature","id":"LFMV-88164d2cb01e98a6dce9","properties":{"airport":"LFMV","name":"A1","layer":"Labels","category":"Taxiways","object_type":"Label","style_id":"label.taxiways","source_group":"LFMV Taxiways","vsmr_group_ids":[],"geometry_role":"text_label","text-field":"A1"},"geometry":{"type":"Point","coordinates":[4.900605556,43.902088889]}},{"type":"Feature","id":"LFMV-17b578ee209d8cd207d7","properties":{"airport":"LFMV","name":"A2","layer":"Labels","category":"Taxiways","object_type":"Label","style_id":"label.taxiways","source_group":"LFMV Taxiways","vsmr_group_ids":[],"geometry_role":"text_label","text-field":"A2"},"geometry":{"type":"Point","coordinates":[4.900633333,43.902838889]}},{"type":"Feature","id":"LFMV-bf889de15e95f8c2137e","properties":{"airport":"LFMV","name":"B","layer":"Labels","category":"Taxiways","object_type":"Label","style_id":"label.taxiways","source_group":"LFMV Taxiways","vsmr_group_ids":[],"geometry_role":"text_label","text-field":"B"},"geometry":{"type":"Point","coordinates":[4.901325,43.903716667]}},{"type":"Feature","id":"LFMV-af03c62e6138bbdb0319","properties":{"airport":"LFMV","name":"C","layer":"Labels","category":"Taxiways","object_type":"Label","style_id":"label.taxiways","source_group":"LFMV Taxiways","vsmr_group_ids":[],"geometry_role":"text_label","text-field":"C"},"geometry":{"type":"Point","coordinates":[4.900375,43.906325]}},{"type":"Feature","id":"LFMV-7fa64942f6d15877e2cf","properties":{"airport":"LFMV","name":"C2","layer":"Labels","category":"Taxiways","object_type":"Label","style_id":"label.taxiways","source_group":"LFMV Taxiways","vsmr_group_ids":[],"geometry_role":"text_label","text-field":"C2"},"geometry":{"type":"Point","coordinates":[4.899575,43.909016667]}},{"type":"Feature","id":"LFMV-655c59b7191f19ae99a7","properties":{"airport":"LFMV","name":"C3","layer":"Labels","category":"Taxiways","object_type":"Label","style_id":"label.taxiways","source_group":"LFMV Taxiways","vsmr_group_ids":[],"geometry_role":"text_label","text-field":"C3"},"geometry":{"type":"Point","coordinates":[4.898494444,43.913291667]}},{"type":"Feature","id":"LFMV-62ac504d4a25e87e3245","properties":{"airport":"LFMV","name":"D","layer":"Labels","category":"Taxiways","object_type":"Label","style_id":"label.taxiways","source_group":"LFMV Taxiways","vsmr_group_ids":[],"geometry_role":"text_label","text-field":"D"},"geometry":{"type":"Point","coordinates":[4.89775,43.914541667]}},{"type":"Feature","id":"LFMV-4dc41545d611bcc9dae1","properties":{"airport":"LFMV","name":"E","layer":"Labels","category":"Taxiways","object_type":"Label","style_id":"label.taxiways","source_group":"LFMV Taxiways","vsmr_group_ids":[],"geometry_role":"text_label","text-field":"E"},"geometry":{"type":"Point","coordinates":[4.903083333,43.910808333]}},{"type":"Feature","id":"LFMV-cb34d05ec51997a1a49f","properties":{"airport":"LFMV","name":"P","layer":"Labels","category":"Taxiways","object_type":"Label","style_id":"label.taxiways","source_group":"LFMV Taxiways","vsmr_group_ids":[],"geometry_role":"text_label","text-field":"P"},"geometry":{"type":"Point","coordinates":[4.900622222,43.904922222]}},{"type":"Feature","id":"LFMV-20a8c4bdcda654751e71","properties":{"airport":"LFMV","name":"17R/35L","layer":"Runways","category":"Runway centerlines","object_type":"Line","style_id":"runway.reference","source_group":"LFMV Runways","vsmr_group_ids":[],"geometry_role":"runway_centerline"},"geometry":{"type":"LineString","coordinates":[[4.899432778,43.912905833],[4.901105833,43.906725]]}},{"type":"Feature","id":"LFMV-aafd4753db1f477772ef","properties":{"airport":"LFMV","name":"17/35","layer":"Runways","category":"Runway centerlines","object_type":"Line","style_id":"runway.reference","source_group":"LFMV Runways","vsmr_group_ids":[],"geometry_role":"runway_centerline"},"geometry":{"type":"LineString","coordinates":[[4.900071944,43.913832778],[4.903335833,43.901738889]]}}]}
