{"type":"FeatureCollection","name":"LFMZ AVISO","bbox":[2.726138889,43.172361111,2.739166667,43.178833333],"metadata":{"schema":"vSMR AVISO","schema_version":2,"airport":"LFMZ","coordinate_reference_system":"WGS84","coordinate_order":"longitude, latitude","default_color_palette":"night","color_palettes":["night","day"],"feature_count":5,"style_count":4,"layer_counts":{"Ground linework":2,"Reference points":1,"Runways":2},"category_counts":{"Labels":1,"Runway Concrete":1,"Runway Grass":1,"Runway Markings":2}},"styles":{"line.linework.runway.concrete":{"name":"Runway Concrete","layer":"Ground linework","object_type":"Line","paint":{"stroke":"#111318","stroke-opacity":1.0,"stroke-width":1.5},"feature_count":1},"line.linework.runway.grass":{"name":"Runway Grass","layer":"Ground linework","object_type":"Line","paint":{"stroke":"#008000","stroke-opacity":1.0,"stroke-width":1.5},"feature_count":1},"line.runway.centerline.runway.markings":{"name":"Runway Markings","layer":"Runways","object_type":"Line","paint":{"stroke":"#FEFEFE","stroke-opacity":1.0,"stroke-width":1.5},"feature_count":2},"point.airport.reference.point.labels":{"name":"Labels","layer":"Reference points","object_type":"Point","paint":{"marker-color":"#808080","marker-size":"small"},"feature_count":1}},"features":[{"type":"Feature","id":"LFMZ-runway-08L-26R-5385","properties":{"name":"LFMZ RWY 08L/26R","layer":"Runways","category":"Runway Markings","object_type":"Line","style_id":"line.runway.centerline.runway.markings","airport":"LFMZ","geometry_role":"runway_centerline","vsmr_group_ids":[]},"geometry":{"type":"LineString","coordinates":[[2.728963889,43.175638889],[2.738624722,43.177071944]]}},{"type":"Feature","id":"LFMZ-runway-08-26-5386","properties":{"name":"LFMZ RWY 08/26","layer":"Runways","category":"Runway Markings","object_type":"Line","style_id":"line.runway.centerline.runway.markings","airport":"LFMZ","geometry_role":"runway_centerline","vsmr_group_ids":[]},"geometry":{"type":"LineString","coordinates":[[2.726655833,43.174016944],[2.738710833,43.175810833]]}},{"type":"Feature","id":"lfmz.line.linework.runway.concrete.70404","properties":{"name":"LFMZ Groundlayout Lezignan","layer":"Ground linework","category":"Runway Concrete","object_type":"Line","style_id":"line.linework.runway.concrete","airport":"LFMZ","geometry_role":"linework","vsmr_group_ids":[]},"geometry":{"type":"MultiLineString","coordinates":[[[2.72625,43.175638889],[2.73825,43.177444444]],[[2.727166667,43.172361111],[2.739166667,43.174166667]],[[2.72625,43.175638889],[2.727166667,43.172361111]],[[2.73825,43.177444444],[2.739166667,43.174166667]]]}},{"type":"Feature","id":"lfmz.line.linework.runway.grass.70408","properties":{"name":"LFMZ Groundlayout Lezignan","layer":"Ground linework","category":"Runway Grass","object_type":"Line","style_id":"line.linework.runway.grass","airport":"LFMZ","geometry_role":"linework","vsmr_group_ids":[]},"geometry":{"type":"MultiLineString","coordinates":[[[2.726138889,43.177027778],[2.738138889,43.178833333]],[[2.727055556,43.173777778],[2.739055556,43.175555556]],[[2.726138889,43.177027778],[2.727055556,43.173777778]],[[2.738138889,43.178833333],[2.739055556,43.175555556]]]}},{"type":"Feature","id":"LFMZ-airport-reference","properties":{"name":"LFMZ","layer":"Reference points","category":"Labels","object_type":"Point","style_id":"point.airport.reference.point.labels","airport":"LFMZ","geometry_role":"airport_reference_point","text-field":"LFMZ","vsmr_group_ids":[]},"geometry":{"type":"Point","coordinates":[2.732777778,43.174999722]}}]}
