{"type":"FeatureCollection","name":"LFNB AVISO","bbox":[3.527305556,44.497833333,3.538583333,44.504972222],"metadata":{"schema":"vSMR AVISO","schema_version":2,"airport":"LFNB","coordinate_reference_system":"WGS84","coordinate_order":"longitude, latitude","default_color_palette":"night","color_palettes":["night","day"],"feature_count":3,"style_count":3,"layer_counts":{"Ground linework":1,"Reference points":1,"Runways":1},"category_counts":{"Labels":1,"Runway Concrete":1,"Runway Markings":1}},"styles":{"line.linework.runway.concrete":{"name":"Runway Concrete","layer":"Ground linework","object_type":"Line","paint":{"stroke":"#111318","stroke-opacity":1.0,"stroke-width":1.5},"feature_count":1},"line.runway.centerline.runway.markings":{"name":"Runway Markings","layer":"Runways","object_type":"Line","paint":{"stroke":"#FEFEFE","stroke-opacity":1.0,"stroke-width":1.5},"feature_count":1},"point.airport.reference.point.labels":{"name":"Labels","layer":"Reference points","object_type":"Point","paint":{"marker-color":"#808080","marker-size":"small"},"feature_count":1}},"features":[{"type":"Feature","id":"LFNB-runway-12-30-5388","properties":{"name":"LFNB RWY 12/30","layer":"Runways","category":"Runway Markings","object_type":"Line","style_id":"line.runway.centerline.runway.markings","airport":"LFNB","geometry_role":"runway_centerline","vsmr_group_ids":[]},"geometry":{"type":"LineString","coordinates":[[3.528588889,44.503591944],[3.537246944,44.499168889]]}},{"type":"Feature","id":"lfnb.line.linework.runway.concrete.70422","properties":{"name":"LFNB Groundlayout Mende","layer":"Ground linework","category":"Runway Concrete","object_type":"Line","style_id":"line.linework.runway.concrete","airport":"LFNB","geometry_role":"linework","vsmr_group_ids":[]},"geometry":{"type":"MultiLineString","coordinates":[[[3.529888889,44.504972222],[3.538583333,44.500583333]],[[3.527305556,44.502222222],[3.536,44.497833333]],[[3.529888889,44.504972222],[3.527305556,44.502222222]],[[3.538583333,44.500583333],[3.536,44.497833333]]]}},{"type":"Feature","id":"LFNB-airport-reference","properties":{"name":"LFNB","layer":"Reference points","category":"Labels","object_type":"Point","style_id":"point.airport.reference.point.labels","airport":"LFNB","geometry_role":"airport_reference_point","text-field":"LFNB","vsmr_group_ids":[]},"geometry":{"type":"Point","coordinates":[3.527499722,44.504166944]}}]}
