{"type":"FeatureCollection","name":"LFNC AVISO","bbox":[6.597441944,44.697746944,6.600860833,44.704171944],"metadata":{"schema":"vSMR AVISO","schema_version":2,"airport":"LFNC","coordinate_reference_system":"WGS84","coordinate_order":"longitude, latitude","default_color_palette":"night","color_palettes":["night","day"],"feature_count":3,"style_count":2,"layer_counts":{"Reference points":1,"Runways":2},"category_counts":{"Labels":1,"Runway Markings":2}},"styles":{"line.runway.centerline.runway.markings":{"name":"Runway Markings","layer":"Runways","object_type":"Line","paint":{"stroke":"#FEFEFE","stroke-opacity":1.0,"stroke-width":1.5},"feature_count":2},"point.airport.reference.point.labels":{"name":"Labels","layer":"Reference points","object_type":"Point","paint":{"marker-color":"#808080","marker-size":"small"},"feature_count":1}},"features":[{"type":"Feature","id":"LFNC-runway-16L-34R-5397","properties":{"name":"LFNC RWY 16L/34R","layer":"Runways","category":"Runway Markings","object_type":"Line","style_id":"line.runway.centerline.runway.markings","airport":"LFNC","geometry_role":"runway_centerline","vsmr_group_ids":[[]]},"geometry":{"type":"LineString","coordinates":[[6.59825,44.704055833],[6.600860833,44.698721944]]}},{"type":"Feature","id":"LFNC-runway-16-34-5398","properties":{"name":"LFNC RWY 16/34","layer":"Runways","category":"Runway Markings","object_type":"Line","style_id":"line.runway.centerline.runway.markings","airport":"LFNC","geometry_role":"runway_centerline","vsmr_group_ids":[[]]},"geometry":{"type":"LineString","coordinates":[[6.597441944,44.704171944],[6.600588889,44.697746944]]}},{"type":"Feature","id":"LFNC-airport-reference","properties":{"name":"LFNC","layer":"Reference points","category":"Labels","object_type":"Point","style_id":"point.airport.reference.point.labels","airport":"LFNC","geometry_role":"airport_reference_point","text-field":"LFNC","vsmr_group_ids":[[]]},"geometry":{"type":"Point","coordinates":[6.599166944,44.700555833]}}]}
