{"type":"FeatureCollection","name":"LFNE AVISO","bbox":[5.002055833,43.653602778,5.015424722,43.662191944],"metadata":{"schema":"vSMR AVISO","schema_version":2,"airport":"LFNE","coordinate_reference_system":"WGS84","coordinate_order":"longitude, latitude","default_color_palette":"night","color_palettes":["night","day"],"background_colors":{"night":"#434A4F","day":"#434A4F"},"feature_count":3,"style_count":2,"layer_counts":{"Reference points":1,"Runways":2},"category_counts":{"Labels":1,"Runway Markings":2}},"styles":{"line.runway.centerline.runway.markings":{"name":"Runway Markings","layer":"Runways","object_type":"Line","paint":{"stroke":"#FEFEFE","stroke-opacity":1.0,"stroke-width":1.5},"feature_count":2},"point.airport.reference.point.labels":{"name":"Labels","layer":"Reference points","object_type":"Point","paint":{"marker-color":"#808080","marker-size":"small"},"feature_count":1}},"features":[{"type":"Feature","id":"LFNE-runway-15R-33L-5303","properties":{"name":"LFNE RWY 15R/33L","layer":"Runways","category":"Runway Markings","object_type":"Line","style_id":"line.runway.centerline.runway.markings","airport":"LFNE","geometry_role":"runway_centerline","vsmr_group_ids":[]},"geometry":{"type":"LineString","coordinates":[[5.009905833,43.662191944],[5.015424722,43.653602778]]}},{"type":"Feature","id":"LFNE-runway-09-27-5304","properties":{"name":"LFNE RWY 09/27","layer":"Runways","category":"Runway Markings","object_type":"Line","style_id":"line.runway.centerline.runway.markings","airport":"LFNE","geometry_role":"runway_centerline","vsmr_group_ids":[]},"geometry":{"type":"LineString","coordinates":[[5.002055833,43.657596944],[5.013535833,43.657507778]]}},{"type":"Feature","id":"LFNE-airport-reference","properties":{"name":"LFNE","layer":"Reference points","category":"Labels","object_type":"Point","style_id":"point.airport.reference.point.labels","airport":"LFNE","geometry_role":"airport_reference_point","text-field":"LFNE","vsmr_group_ids":[]},"geometry":{"type":"Point","coordinates":[5.012777778,43.657499722]}}]}
