{"type":"FeatureCollection","name":"LFNF AVISO","bbox":[5.778707778,43.734566944,5.787707778,43.743466944],"metadata":{"schema":"vSMR AVISO","schema_version":2,"airport":"LFNF","coordinate_reference_system":"WGS84","coordinate_order":"longitude, latitude","default_color_palette":"night","color_palettes":["night","day"],"feature_count":4,"style_count":2,"layer_counts":{"Reference points":1,"Runways":3},"category_counts":{"Labels":1,"Runway Markings":3}},"styles":{"line.runway.centerline.runway.markings":{"name":"Runway Markings","layer":"Runways","object_type":"Line","paint":{"stroke":"#FEFEFE","stroke-opacity":1.0,"stroke-width":1.5},"feature_count":3},"point.airport.reference.point.labels":{"name":"Labels","layer":"Reference points","object_type":"Point","paint":{"marker-color":"#808080","marker-size":"small"},"feature_count":1}},"features":[{"type":"Feature","id":"LFNF-runway-16-34-5300","properties":{"name":"LFNF RWY 16/34","layer":"Runways","category":"Runway Markings","object_type":"Line","style_id":"line.runway.centerline.runway.markings","airport":"LFNF","geometry_role":"runway_centerline","vsmr_group_ids":[[]]},"geometry":{"type":"LineString","coordinates":[[5.781771944,43.742202778],[5.784518889,43.736502778]]}},{"type":"Feature","id":"LFNF-runway-10-28-5301","properties":{"name":"LFNF RWY 10/28","layer":"Runways","category":"Runway Markings","object_type":"Line","style_id":"line.runway.centerline.runway.markings","airport":"LFNF","geometry_role":"runway_centerline","vsmr_group_ids":[[]]},"geometry":{"type":"LineString","coordinates":[[5.778707778,43.735925],[5.787707778,43.734566944]]}},{"type":"Feature","id":"LFNF-runway-02-20-5302","properties":{"name":"LFNF RWY 02/20","layer":"Runways","category":"Runway Markings","object_type":"Line","style_id":"line.runway.centerline.runway.markings","airport":"LFNF","geometry_role":"runway_centerline","vsmr_group_ids":[[]]},"geometry":{"type":"LineString","coordinates":[[5.781121944,43.735421944],[5.785743889,43.743466944]]}},{"type":"Feature","id":"LFNF-airport-reference","properties":{"name":"LFNF","layer":"Reference points","category":"Labels","object_type":"Point","style_id":"point.airport.reference.point.labels","airport":"LFNF","geometry_role":"airport_reference_point","text-field":"LFNF","vsmr_group_ids":[[]]},"geometry":{"type":"Point","coordinates":[5.783055833,43.736388889]}}]}
