{"type":"FeatureCollection","name":"LFNG AVISO","bbox":[4.067499722,43.606905833,4.073480833,43.612788889],"metadata":{"schema":"vSMR AVISO","schema_version":2,"airport":"LFNG","coordinate_reference_system":"WGS84","coordinate_order":"longitude, latitude","default_color_palette":"night","color_palettes":["night","day"],"background_colors":{"night":"#434A4F","day":"#434A4F"},"feature_count":2,"style_count":2,"layer_counts":{"Reference points":1,"Runways":1},"category_counts":{"Labels":1,"Runway Markings":1}},"styles":{"line.runway.centerline.runway.markings":{"name":"Runway Markings","layer":"Runways","object_type":"Line","paint":{"stroke":"#FEFEFE","stroke-opacity":1.0,"stroke-width":1.5},"feature_count":1},"point.airport.reference.point.labels":{"name":"Labels","layer":"Reference points","object_type":"Point","paint":{"marker-color":"#808080","marker-size":"small"},"feature_count":1}},"features":[{"type":"Feature","id":"LFNG-runway-14-32-5299","properties":{"name":"LFNG RWY 14/32","layer":"Runways","category":"Runway Markings","object_type":"Line","style_id":"line.runway.centerline.runway.markings","airport":"LFNG","geometry_role":"runway_centerline","vsmr_group_ids":[]},"geometry":{"type":"LineString","coordinates":[[4.067499722,43.612788889],[4.073480833,43.606905833]]}},{"type":"Feature","id":"LFNG-airport-reference","properties":{"name":"LFNG","layer":"Reference points","category":"Labels","object_type":"Point","style_id":"point.airport.reference.point.labels","airport":"LFNG","geometry_role":"airport_reference_point","text-field":"LFNG","vsmr_group_ids":[]},"geometry":{"type":"Point","coordinates":[4.070277778,43.610277778]}}]}
