{"type":"FeatureCollection","name":"LFNH AVISO","bbox":[5.079082778,44.0225,5.09472,44.0364],"metadata":{"schema":"vSMR AVISO","schema_version":2,"airport":"LFNH","coordinate_reference_system":"WGS84","coordinate_order":"longitude, latitude","default_color_palette":"night","color_palettes":["night","day"],"background_colors":{"night":"#434A4F","day":"#434A4F"},"feature_count":3,"style_count":3,"layer_counts":{"Labels":1,"Reference points":1,"Runways":1},"category_counts":{"Labels":2,"Runway Markings":1}},"styles":{"label.text.label.labels":{"name":"Labels","layer":"Labels","object_type":"Label","paint":{"text-anchor":"center","text-color":"#CCCCCC","text-halo-color":"#000000","text-halo-width":1,"text-size":12,"zoomLevel":5},"feature_count":1},"line.runway.centerline.runway.markings":{"name":"Runway Markings","layer":"Runways","object_type":"Line","paint":{"stroke":"#FEFEFE","stroke-opacity":1.0,"stroke-width":1.5},"feature_count":1},"point.airport.reference.point.labels":{"name":"Labels","layer":"Reference points","object_type":"Point","paint":{"marker-color":"#808080","marker-size":"small"},"feature_count":1}},"features":[{"type":"Feature","id":"LFNH-runway-13-31-5389","properties":{"name":"LFNH RWY 13/31","layer":"Runways","category":"Runway Markings","object_type":"Line","style_id":"line.runway.centerline.runway.markings","airport":"LFNH","geometry_role":"runway_centerline","vsmr_group_ids":[]},"geometry":{"type":"LineString","coordinates":[[5.079082778,44.031188889],[5.0895,44.024455833]]}},{"type":"Feature","id":"LFNH-airport-reference","properties":{"name":"LFNH","layer":"Reference points","category":"Labels","object_type":"Point","style_id":"point.airport.reference.point.labels","airport":"LFNH","geometry_role":"airport_reference_point","text-field":"LFNH","vsmr_group_ids":[]},"geometry":{"type":"Point","coordinates":[5.089999722,44.0225]}},{"type":"Feature","id":"LFNH-text-lfmm-22046","properties":{"name":"NE","layer":"Labels","category":"Labels","object_type":"Label","style_id":"label.text.label.labels","airport":"LFNH","geometry_role":"text_label","text-field":"NE","vsmr_group_ids":[]},"geometry":{"type":"Point","coordinates":[5.09472,44.0364]}}]}
