{"type":"FeatureCollection","name":"LFNJ AVISO","bbox":[5.733741944,44.512005833,5.741749722,44.520049722],"metadata":{"schema":"vSMR AVISO","schema_version":2,"airport":"LFNJ","coordinate_reference_system":"WGS84","coordinate_order":"longitude, latitude","default_color_palette":"night","color_palettes":["night","day"],"background_colors":{"night":"#434A4F","day":"#434A4F"},"feature_count":3,"style_count":2,"layer_counts":{"Reference points":1,"Runways":2},"category_counts":{"Labels":1,"Runway Markings":2}},"styles":{"line.runway.centerline.runway.markings":{"name":"Runway Markings","layer":"Runways","object_type":"Line","paint":{"stroke":"#FEFEFE","stroke-opacity":1.0,"stroke-width":1.5},"feature_count":2},"point.airport.reference.point.labels":{"name":"Labels","layer":"Reference points","object_type":"Point","paint":{"marker-color":"#808080","marker-size":"small"},"feature_count":1}},"features":[{"type":"Feature","id":"LFNJ-runway-18-36-5297","properties":{"name":"LFNJ RWY 18/36","layer":"Runways","category":"Runway Markings","object_type":"Line","style_id":"line.runway.centerline.runway.markings","airport":"LFNJ","geometry_role":"runway_centerline","vsmr_group_ids":[]},"geometry":{"type":"LineString","coordinates":[[5.736432778,44.520049722],[5.735668889,44.512005833]]}},{"type":"Feature","id":"LFNJ-runway-10-28-5298","properties":{"name":"LFNJ RWY 10/28","layer":"Runways","category":"Runway Markings","object_type":"Line","style_id":"line.runway.centerline.runway.markings","airport":"LFNJ","geometry_role":"runway_centerline","vsmr_group_ids":[]},"geometry":{"type":"LineString","coordinates":[[5.733741944,44.518174722],[5.741749722,44.516824722]]}},{"type":"Feature","id":"LFNJ-airport-reference","properties":{"name":"LFNJ","layer":"Reference points","category":"Labels","object_type":"Point","style_id":"point.airport.reference.point.labels","airport":"LFNJ","geometry_role":"airport_reference_point","text-field":"LFNJ","vsmr_group_ids":[]},"geometry":{"type":"Point","coordinates":[5.736110833,44.517777778]}}]}
