{"type":"FeatureCollection","name":"LFNL AVISO","bbox":[3.779810833,43.799021944,3.783885833,43.800907778],"metadata":{"schema":"vSMR AVISO","schema_version":2,"airport":"LFNL","coordinate_reference_system":"WGS84","coordinate_order":"longitude, latitude","default_color_palette":"night","color_palettes":["night","day"],"background_colors":{"night":"#434A4F","day":"#434A4F"},"feature_count":3,"style_count":2,"layer_counts":{"Reference points":1,"Runways":2},"category_counts":{"Labels":1,"Runway Markings":2}},"styles":{"line.runway.centerline.runway.markings":{"name":"Runway Markings","layer":"Runways","object_type":"Line","paint":{"stroke":"#FEFEFE","stroke-opacity":1.0,"stroke-width":1.5},"feature_count":2},"point.airport.reference.point.labels":{"name":"Labels","layer":"Reference points","object_type":"Point","paint":{"marker-color":"#808080","marker-size":"small"},"feature_count":1}},"features":[{"type":"Feature","id":"LFNL-runway-12R-30L-5295","properties":{"name":"LFNL RWY 12R/30L","layer":"Runways","category":"Runway Markings","object_type":"Line","style_id":"line.runway.centerline.runway.markings","airport":"LFNL","geometry_role":"runway_centerline","vsmr_group_ids":[]},"geometry":{"type":"LineString","coordinates":[[3.779810833,43.800507778],[3.783438889,43.799021944]]}},{"type":"Feature","id":"LFNL-runway-12L-30R-5296","properties":{"name":"LFNL RWY 12L/30R","layer":"Runways","category":"Runway Markings","object_type":"Line","style_id":"line.runway.centerline.runway.markings","airport":"LFNL","geometry_role":"runway_centerline","vsmr_group_ids":[]},"geometry":{"type":"LineString","coordinates":[[3.780246944,43.800907778],[3.783885833,43.799399722]]}},{"type":"Feature","id":"LFNL-airport-reference","properties":{"name":"LFNL","layer":"Reference points","category":"Labels","object_type":"Point","style_id":"point.airport.reference.point.labels","airport":"LFNL","geometry_role":"airport_reference_point","text-field":"LFNL","vsmr_group_ids":[]},"geometry":{"type":"Point","coordinates":[3.781666944,43.800277778]}}]}
