{"type":"FeatureCollection","name":"LFNN AVISO","bbox":[3.048638889,43.1935,3.054721944,43.194610833],"metadata":{"schema":"vSMR AVISO","schema_version":2,"airport":"LFNN","coordinate_reference_system":"WGS84","coordinate_order":"longitude, latitude","default_color_palette":"night","color_palettes":["night","day"],"feature_count":2,"style_count":2,"layer_counts":{"Reference points":1,"Runways":1},"category_counts":{"Labels":1,"Runway Markings":1}},"styles":{"line.runway.centerline.runway.markings":{"name":"Runway Markings","layer":"Runways","object_type":"Line","paint":{"stroke":"#FEFEFE","stroke-opacity":1.0,"stroke-width":1.5},"feature_count":1},"point.airport.reference.point.labels":{"name":"Labels","layer":"Reference points","object_type":"Point","paint":{"marker-color":"#808080","marker-size":"small"},"feature_count":1}},"features":[{"type":"Feature","id":"LFNN-runway-10-28-5294","properties":{"name":"LFNN RWY 10/28","layer":"Runways","category":"Runway Markings","object_type":"Line","style_id":"line.runway.centerline.runway.markings","airport":"LFNN","geometry_role":"runway_centerline","vsmr_group_ids":[[]]},"geometry":{"type":"LineString","coordinates":[[3.048638889,43.194610833],[3.054721944,43.1935]]}},{"type":"Feature","id":"LFNN-airport-reference","properties":{"name":"LFNN","layer":"Reference points","category":"Labels","object_type":"Point","style_id":"point.airport.reference.point.labels","airport":"LFNN","geometry_role":"airport_reference_point","text-field":"LFNN","vsmr_group_ids":[[]]},"geometry":{"type":"Point","coordinates":[3.051666944,43.194166944]}}]}
