{"type":"FeatureCollection","name":"LFNU AVISO","bbox":[4.393485833,44.078730833,4.394327778,44.086791944],"metadata":{"schema":"vSMR AVISO","schema_version":2,"airport":"LFNU","coordinate_reference_system":"WGS84","coordinate_order":"longitude, latitude","default_color_palette":"night","color_palettes":["night","day"],"feature_count":2,"style_count":2,"layer_counts":{"Reference points":1,"Runways":1},"category_counts":{"Labels":1,"Runway Markings":1}},"styles":{"line.runway.centerline.runway.markings":{"name":"Runway Markings","layer":"Runways","object_type":"Line","paint":{"stroke":"#FEFEFE","stroke-opacity":1.0,"stroke-width":1.5},"feature_count":1},"point.airport.reference.point.labels":{"name":"Labels","layer":"Reference points","object_type":"Point","paint":{"marker-color":"#808080","marker-size":"small"},"feature_count":1}},"features":[{"type":"Feature","id":"LFNU-runway-17-35-5283","properties":{"name":"LFNU RWY 17/35","layer":"Runways","category":"Runway Markings","object_type":"Line","style_id":"line.runway.centerline.runway.markings","airport":"LFNU","geometry_role":"runway_centerline","vsmr_group_ids":[[]]},"geometry":{"type":"LineString","coordinates":[[4.393485833,44.086791944],[4.394327778,44.078730833]]}},{"type":"Feature","id":"LFNU-airport-reference","properties":{"name":"LFNU","layer":"Reference points","category":"Labels","object_type":"Point","style_id":"point.airport.reference.point.labels","airport":"LFNU","geometry_role":"airport_reference_point","text-field":"LFNU","vsmr_group_ids":[[]]},"geometry":{"type":"Point","coordinates":[4.393888889,44.083610833]}}]}
