{"type":"FeatureCollection","name":"LFNV AVISO","bbox":[4.905199722,44.332407778,4.908549722,44.339030833],"metadata":{"schema":"vSMR AVISO","schema_version":2,"airport":"LFNV","coordinate_reference_system":"WGS84","coordinate_order":"longitude, latitude","default_color_palette":"night","color_palettes":["night","day"],"feature_count":2,"style_count":2,"layer_counts":{"Reference points":1,"Runways":1},"category_counts":{"Labels":1,"Runway Markings":1}},"styles":{"line.runway.centerline.runway.markings":{"name":"Runway Markings","layer":"Runways","object_type":"Line","paint":{"stroke":"#FEFEFE","stroke-opacity":1.0,"stroke-width":1.5},"feature_count":1},"point.airport.reference.point.labels":{"name":"Labels","layer":"Reference points","object_type":"Point","paint":{"marker-color":"#808080","marker-size":"small"},"feature_count":1}},"features":[{"type":"Feature","id":"LFNV-runway-02-20-5282","properties":{"name":"LFNV RWY 02/20","layer":"Runways","category":"Runway Markings","object_type":"Line","style_id":"line.runway.centerline.runway.markings","airport":"LFNV","geometry_role":"runway_centerline","vsmr_group_ids":[]},"geometry":{"type":"LineString","coordinates":[[4.905199722,44.332407778],[4.908549722,44.339030833]]}},{"type":"Feature","id":"LFNV-airport-reference","properties":{"name":"LFNV","layer":"Reference points","category":"Labels","object_type":"Point","style_id":"point.airport.reference.point.labels","airport":"LFNV","geometry_role":"airport_reference_point","text-field":"LFNV","vsmr_group_ids":[]},"geometry":{"type":"Point","coordinates":[4.906943889,44.335832778]}}]}
