{"type":"FeatureCollection","name":"LFNZ AVISO","bbox":[4.894443889,43.766199722,4.894705833,43.775196944],"metadata":{"schema":"vSMR AVISO","schema_version":2,"airport":"LFNZ","coordinate_reference_system":"WGS84","coordinate_order":"longitude, latitude","default_color_palette":"night","color_palettes":["night","day"],"background_colors":{"night":"#434A4F","day":"#434A4F"},"feature_count":2,"style_count":2,"layer_counts":{"Reference points":1,"Runways":1},"category_counts":{"Labels":1,"Runway Markings":1}},"styles":{"line.runway.centerline.runway.markings":{"name":"Runway Markings","layer":"Runways","object_type":"Line","paint":{"stroke":"#FEFEFE","stroke-opacity":1.0,"stroke-width":1.5},"feature_count":1},"point.airport.reference.point.labels":{"name":"Labels","layer":"Reference points","object_type":"Point","paint":{"marker-color":"#808080","marker-size":"small"},"feature_count":1}},"features":[{"type":"Feature","id":"LFNZ-runway-18-36-5279","properties":{"name":"LFNZ RWY 18/36","layer":"Runways","category":"Runway Markings","object_type":"Line","style_id":"line.runway.centerline.runway.markings","airport":"LFNZ","geometry_role":"runway_centerline","vsmr_group_ids":[]},"geometry":{"type":"LineString","coordinates":[[4.89445,43.775196944],[4.894705833,43.766199722]]}},{"type":"Feature","id":"LFNZ-airport-reference","properties":{"name":"LFNZ","layer":"Reference points","category":"Labels","object_type":"Point","style_id":"point.airport.reference.point.labels","airport":"LFNZ","geometry_role":"airport_reference_point","text-field":"LFNZ","vsmr_group_ids":[]},"geometry":{"type":"Point","coordinates":[4.894443889,43.770832778]}}]}
