{"type":"FeatureCollection","name":"LFOD AVISO","bbox":[-0.124585833,47.256360833,-0.107352778,47.257391944],"metadata":{"schema":"vSMR AVISO","schema_version":2,"airport":"LFOD","coordinate_reference_system":"WGS84","coordinate_order":"longitude, latitude","feature_count":2,"style_count":2,"layer_counts":{"Reference points":1,"Runways":1},"category_counts":{"Labels":1,"Runway Markings":1}},"styles":{"line.runway.centerline.runway.markings":{"name":"Runway Markings","layer":"Runways","object_type":"Line","paint":{"stroke":"#FEFEFE","stroke-opacity":1.0,"stroke-width":1.5},"feature_count":1},"point.airport.reference.point.labels":{"name":"Labels","layer":"Reference points","object_type":"Point","paint":{"marker-color":"#808080","marker-size":"small"},"feature_count":1}},"features":[{"type":"Feature","id":"LFOD-runway-10-28-5272","properties":{"name":"LFOD RWY 10/28","layer":"Runways","category":"Runway Markings","object_type":"Line","style_id":"line.runway.centerline.runway.markings","airport":"LFOD","geometry_role":"runway_centerline","vsmr_group_ids":[[]]},"geometry":{"type":"LineString","coordinates":[[-0.124585833,47.257391944],[-0.107352778,47.256360833]]}},{"type":"Feature","id":"LFOD-airport-reference","properties":{"name":"LFOD","layer":"Reference points","category":"Labels","object_type":"Point","style_id":"point.airport.reference.point.labels","airport":"LFOD","geometry_role":"airport_reference_point","text-field":"LFOD","vsmr_group_ids":[[]]},"geometry":{"type":"Point","coordinates":[-0.113610833,47.256666944]}}]}
