{"type":"FeatureCollection","name":"LFOF AVISO","bbox":[0.105488889,48.445938889,0.110557778,48.447671944],"metadata":{"schema":"vSMR AVISO","schema_version":2,"airport":"LFOF","coordinate_reference_system":"WGS84","coordinate_order":"longitude, latitude","default_color_palette":"night","color_palettes":["night","day"],"feature_count":3,"style_count":2,"layer_counts":{"Reference points":1,"Runways":2},"category_counts":{"Labels":1,"Runway Markings":2}},"styles":{"line.runway.centerline.runway.markings":{"name":"Runway Markings","layer":"Runways","object_type":"Line","paint":{"stroke":"#FEFEFE","stroke-opacity":1.0,"stroke-width":1.5},"feature_count":2},"point.airport.reference.point.labels":{"name":"Labels","layer":"Reference points","object_type":"Point","paint":{"marker-color":"#808080","marker-size":"small"},"feature_count":1}},"features":[{"type":"Feature","id":"LFOF-runway-07R-25L-5278","properties":{"name":"LFOF RWY 07R/25L","layer":"Runways","category":"Runway Markings","object_type":"Line","style_id":"line.runway.centerline.runway.markings","airport":"LFOF","geometry_role":"runway_centerline","vsmr_group_ids":[]},"geometry":{"type":"LineString","coordinates":[[0.105488889,48.445938889],[0.110191944,48.447107778]]}},{"type":"Feature","id":"LFOF-runway-07L-25R-5279","properties":{"name":"LFOF RWY 07L/25R","layer":"Runways","category":"Runway Markings","object_type":"Line","style_id":"line.runway.centerline.runway.markings","airport":"LFOF","geometry_role":"runway_centerline","vsmr_group_ids":[]},"geometry":{"type":"LineString","coordinates":[[0.105871944,48.446505833],[0.110557778,48.447671944]]}},{"type":"Feature","id":"LFOF-airport-reference","properties":{"name":"LFOF","layer":"Reference points","category":"Labels","object_type":"Point","style_id":"point.airport.reference.point.labels","airport":"LFOF","geometry_role":"airport_reference_point","text-field":"LFOF","vsmr_group_ids":[]},"geometry":{"type":"Point","coordinates":[0.108332778,48.446666944]}}]}
