{"type":"FeatureCollection","name":"LFOH AVISO","bbox":[0.077585833,49.526530833,0.099307778,49.541616944],"metadata":{"schema":"vSMR AVISO","schema_version":2,"geometry_mode":"shared","airport":"LFOH","coordinate_reference_system":"WGS84","coordinate_order":"longitude, latitude","default_color_palette":"dark","color_palettes":["dark","light"],"background_colors":{"dark":"#434A4F","light":"#434A4F"},"feature_count":25,"style_count":3,"layer_counts":{"Labels":24,"Runways":1},"category_counts":{"Gates":19,"Runway centerlines":1,"Taxiways":5},"runways":[{"ends":["04","22"],"headings":[43,223],"thresholds":[[0.077585833,49.526530833],[0.099307778,49.541616944]]}],"saved_active_runways":[],"saved_active_airport_modes":[],"geometry_source":"EuroScope sector pack","source_files":{"LFBB.sct":"fc92f16bc65e3a10b9aeb0cf4d1cae1add9856a4f4f2f653af5abaa0d98c77ed","LFBB.ese":"c7c252d4a274f6fd98bcefd2364b7bb9799385a6e602b62ccbe85cc32042ef62","LFBB.rwy":"d9387919da6406482f154f391ab2d20783610a60930f986e160686134ea8a7df","LFEE.sct":"10fcc997213ee24336ef8bd37f3a9423cb07bbdfb57b1494c61b8310b9641d8a","LFEE.ese":"3391dc3a47130a4a8c12ab895a6743c77668044183634bd45d425513ef5baa2f","LFFF.sct":"cb6698888ce3e8e8be34ea45922976a5fb3ebe1baef7814f040c91785f8641f2","LFFF.ese":"0c1e64c4a0524a6cdc30766699492d362f78011da36daeacfde4597a1761b64c","LFFF.rwy":"a12900bf1f18188caf2e598c44e55b2c0c6fb2c66cee43ff843cbe216617ae96","LFMM.sct":"fc0d266315a59cb027803be613657d9e9875a2a4b912535d08d1c7892a53b194","LFMM.ese":"6a319d7f7c1c2f7e457ae789f4aae2feafec03b24f5d3d95752e96922a971c9e","LFMM.rwy":"236563995d9b5be668ee3fc8d653cf8f33f20a511137652b197e5877b85d5693","LFRR.sct":"c5a55173543154d388eb65309d606b41ac5da09af59142e69878a4cde03add83","LFRR.ese":"e4542200e8322297f954327131cfe6e73da3ac264cf5610ff6871309cd6eeb40"},"airport_reference":[0.088055833,49.533888889]},"styles":{"label.gates":{"name":"Gates","layer":"Labels","object_type":"Label","paint":{"text-color":"#CCCCCC","text-font":"Arial","text-size":12,"text-halo-color":"#000000","text-halo-width":1,"text-anchor":"center","zoomLevel":9},"feature_count":19},"label.taxiways":{"name":"Taxiways","layer":"Labels","object_type":"Label","paint":{"text-color":"#CCCCCC","text-font":"Arial","text-size":12,"text-halo-color":"#000000","text-halo-width":1,"text-anchor":"center","zoomLevel":7},"feature_count":5},"runway.reference":{"name":"Runway centerlines","layer":"Runways","object_type":"Line","paint":{"stroke":"#CCCCCC","stroke-width":2,"stroke-opacity":1},"feature_count":1}},"vsmr_groups":[{"id":"stands-and-gates","name":"Stands & gates","visible":true,"accent":"#d4bd39"}],"features":[{"type":"Feature","id":"LFOH-73937bf71ea4b17fe0a4","properties":{"airport":"LFOH","name":"TWR","layer":"Labels","category":"Gates","object_type":"Label","style_id":"label.gates","source_group":"LFOH Gates","vsmr_group_ids":["stands-and-gates"],"geometry_role":"text_label","text-field":"TWR"},"geometry":{"type":"Point","coordinates":[0.094900556,49.533511944]}},{"type":"Feature","id":"LFOH-b09c56b9fa09db5d06b3","properties":{"airport":"LFOH","name":"ACB","layer":"Labels","category":"Gates","object_type":"Label","style_id":"label.gates","source_group":"LFOH Gates","vsmr_group_ids":["stands-and-gates"],"geometry_role":"text_label","text-field":"ACB"},"geometry":{"type":"Point","coordinates":[0.094973889,49.532479722]}},{"type":"Feature","id":"LFOH-38925a4fb6278e04e92f","properties":{"airport":"LFOH","name":"Terminal","layer":"Labels","category":"Gates","object_type":"Label","style_id":"label.gates","source_group":"LFOH Gates","vsmr_group_ids":["stands-and-gates"],"geometry_role":"text_label","text-field":"Terminal"},"geometry":{"type":"Point","coordinates":[0.092310556,49.531471111]}},{"type":"Feature","id":"LFOH-0ec7ff958cc1d08da795","properties":{"airport":"LFOH","name":"Hangars","layer":"Labels","category":"Gates","object_type":"Label","style_id":"label.gates","source_group":"LFOH Gates","vsmr_group_ids":["stands-and-gates"],"geometry_role":"text_label","text-field":"Hangars"},"geometry":{"type":"Point","coordinates":[0.091680556,49.5306475]}},{"type":"Feature","id":"LFOH-1571ca972d9eb4a00ad3","properties":{"airport":"LFOH","name":"H","layer":"Labels","category":"Gates","object_type":"Label","style_id":"label.gates","source_group":"LFOH Gates","vsmr_group_ids":["stands-and-gates"],"geometry_role":"text_label","text-field":"H"},"geometry":{"type":"Point","coordinates":[0.096891667,49.535931667]}},{"type":"Feature","id":"LFOH-b9ad84aa966de995c7f8","properties":{"airport":"LFOH","name":"Douanes","layer":"Labels","category":"Gates","object_type":"Label","style_id":"label.gates","source_group":"LFOH Gates","vsmr_group_ids":["stands-and-gates"],"geometry_role":"text_label","text-field":"Douanes"},"geometry":{"type":"Point","coordinates":[0.097023333,49.536156389]}},{"type":"Feature","id":"LFOH-af3a6560e7e3e890a92f","properties":{"airport":"LFOH","name":"H","layer":"Labels","category":"Gates","object_type":"Label","style_id":"label.gates","source_group":"LFOH Gates","vsmr_group_ids":["stands-and-gates"],"geometry_role":"text_label","text-field":"H"},"geometry":{"type":"Point","coordinates":[0.096454167,49.534944444]}},{"type":"Feature","id":"LFOH-e2c13c75c82b3c5d03a2","properties":{"airport":"LFOH","name":"Protection Civile","layer":"Labels","category":"Gates","object_type":"Label","style_id":"label.gates","source_group":"LFOH Gates","vsmr_group_ids":["stands-and-gates"],"geometry_role":"text_label","text-field":"Protection Civile"},"geometry":{"type":"Point","coordinates":[0.096475278,49.535111944]}},{"type":"Feature","id":"LFOH-93bb3a42210267fc6642","properties":{"airport":"LFOH","name":"D1","layer":"Labels","category":"Gates","object_type":"Label","style_id":"label.gates","source_group":"LFOH Gates","vsmr_group_ids":["stands-and-gates"],"geometry_role":"text_label","text-field":"D1"},"geometry":{"type":"Point","coordinates":[0.093472222,49.532713056]}},{"type":"Feature","id":"LFOH-c882f4c22ecc8b62711a","properties":{"airport":"LFOH","name":"D2","layer":"Labels","category":"Gates","object_type":"Label","style_id":"label.gates","source_group":"LFOH Gates","vsmr_group_ids":["stands-and-gates"],"geometry_role":"text_label","text-field":"D2"},"geometry":{"type":"Point","coordinates":[0.0936225,49.532546944]}},{"type":"Feature","id":"LFOH-865224a9534145ce213d","properties":{"airport":"LFOH","name":"D3","layer":"Labels","category":"Gates","object_type":"Label","style_id":"label.gates","source_group":"LFOH Gates","vsmr_group_ids":["stands-and-gates"],"geometry_role":"text_label","text-field":"D3"},"geometry":{"type":"Point","coordinates":[0.093755556,49.532391111]}},{"type":"Feature","id":"LFOH-93746f0cbdd33161f759","properties":{"airport":"LFOH","name":"C1","layer":"Labels","category":"Gates","object_type":"Label","style_id":"label.gates","source_group":"LFOH Gates","vsmr_group_ids":["stands-and-gates"],"geometry_role":"text_label","text-field":"C1"},"geometry":{"type":"Point","coordinates":[0.092615833,49.532397778]}},{"type":"Feature","id":"LFOH-8a51d498244985093a64","properties":{"airport":"LFOH","name":"C2","layer":"Labels","category":"Gates","object_type":"Label","style_id":"label.gates","source_group":"LFOH Gates","vsmr_group_ids":["stands-and-gates"],"geometry_role":"text_label","text-field":"C2"},"geometry":{"type":"Point","coordinates":[0.092765833,49.532243889]}},{"type":"Feature","id":"LFOH-d80d3ebf123322f0ac03","properties":{"airport":"LFOH","name":"C3","layer":"Labels","category":"Gates","object_type":"Label","style_id":"label.gates","source_group":"LFOH Gates","vsmr_group_ids":["stands-and-gates"],"geometry_role":"text_label","text-field":"C3"},"geometry":{"type":"Point","coordinates":[0.092905833,49.532091389]}},{"type":"Feature","id":"LFOH-6c110927d7c4814ce6e3","properties":{"airport":"LFOH","name":"B2","layer":"Labels","category":"Gates","object_type":"Label","style_id":"label.gates","source_group":"LFOH Gates","vsmr_group_ids":["stands-and-gates"],"geometry_role":"text_label","text-field":"B2"},"geometry":{"type":"Point","coordinates":[0.092479167,49.532568056]}},{"type":"Feature","id":"LFOH-77251c0289e2707cc461","properties":{"airport":"LFOH","name":"B1","layer":"Labels","category":"Gates","object_type":"Label","style_id":"label.gates","source_group":"LFOH Gates","vsmr_group_ids":["stands-and-gates"],"geometry_role":"text_label","text-field":"B1"},"geometry":{"type":"Point","coordinates":[0.092023889,49.532402222]}},{"type":"Feature","id":"LFOH-089a07721ee2348d86f4","properties":{"airport":"LFOH","name":"B","layer":"Labels","category":"Gates","object_type":"Label","style_id":"label.gates","source_group":"LFOH Gates","vsmr_group_ids":["stands-and-gates"],"geometry_role":"text_label","text-field":"B"},"geometry":{"type":"Point","coordinates":[0.091302222,49.531940833]}},{"type":"Feature","id":"LFOH-ace6c2687371110c3d29","properties":{"airport":"LFOH","name":"H","layer":"Labels","category":"Gates","object_type":"Label","style_id":"label.gates","source_group":"LFOH Gates","vsmr_group_ids":["stands-and-gates"],"geometry_role":"text_label","text-field":"H"},"geometry":{"type":"Point","coordinates":[0.091157222,49.531483056]}},{"type":"Feature","id":"LFOH-b29326fee5ff3d9c73ad","properties":{"airport":"LFOH","name":"A","layer":"Labels","category":"Gates","object_type":"Label","style_id":"label.gates","source_group":"LFOH Gates","vsmr_group_ids":["stands-and-gates"],"geometry_role":"text_label","text-field":"A"},"geometry":{"type":"Point","coordinates":[0.090673333,49.531846944]}},{"type":"Feature","id":"LFOH-82fe797eac790cef7ee1","properties":{"airport":"LFOH","name":"A","layer":"Labels","category":"Taxiways","object_type":"Label","style_id":"label.taxiways","source_group":"LFOH Taxiways","vsmr_group_ids":[],"geometry_role":"text_label","text-field":"A"},"geometry":{"type":"Point","coordinates":[0.089131389,49.532896944]}},{"type":"Feature","id":"LFOH-3f1e54d4d26302c82209","properties":{"airport":"LFOH","name":"A1","layer":"Labels","category":"Taxiways","object_type":"Label","style_id":"label.taxiways","source_group":"LFOH Taxiways","vsmr_group_ids":[],"geometry_role":"text_label","text-field":"A1"},"geometry":{"type":"Point","coordinates":[0.090951667,49.532491667]}},{"type":"Feature","id":"LFOH-d6e657166ace5f26d4cc","properties":{"airport":"LFOH","name":"B1","layer":"Labels","category":"Taxiways","object_type":"Label","style_id":"label.taxiways","source_group":"LFOH Taxiways","vsmr_group_ids":[],"geometry_role":"text_label","text-field":"B1"},"geometry":{"type":"Point","coordinates":[0.091344167,49.532567778]}},{"type":"Feature","id":"LFOH-a051c0e16fb67b38bc2e","properties":{"airport":"LFOH","name":"B2","layer":"Labels","category":"Taxiways","object_type":"Label","style_id":"label.taxiways","source_group":"LFOH Taxiways","vsmr_group_ids":[],"geometry_role":"text_label","text-field":"B2"},"geometry":{"type":"Point","coordinates":[0.093350833,49.532910833]}},{"type":"Feature","id":"LFOH-70f527ae5cc10bb64044","properties":{"airport":"LFOH","name":"B","layer":"Labels","category":"Taxiways","object_type":"Label","style_id":"label.taxiways","source_group":"LFOH Taxiways","vsmr_group_ids":[],"geometry_role":"text_label","text-field":"B"},"geometry":{"type":"Point","coordinates":[0.096674167,49.538819722]}},{"type":"Feature","id":"LFOH-8fa9138b4d164510ddd7","properties":{"airport":"LFOH","name":"04/22","layer":"Runways","category":"Runway centerlines","object_type":"Line","style_id":"runway.reference","source_group":"LFOH Runways","vsmr_group_ids":[],"geometry_role":"runway_centerline"},"geometry":{"type":"LineString","coordinates":[[0.077585833,49.526530833],[0.099307778,49.541616944]]}}]}
