{"type":"FeatureCollection","name":"LFOJ AVISO","bbox":[1.641666667,47.819444444,1.883333333,48.101944444],"metadata":{"schema":"vSMR AVISO","schema_version":2,"airport":"LFOJ","coordinate_reference_system":"WGS84","coordinate_order":"longitude, latitude","default_color_palette":"night","color_palettes":["night","day"],"feature_count":11,"style_count":6,"layer_counts":{"Ground linework":4,"Labels":5,"Reference points":1,"Runways":1},"category_counts":{"Apron Surface":1,"Labels":6,"Runway Concrete":1,"Runway Markings":1,"Taxiway":2}},"styles":{"label.text.label.labels":{"name":"Labels","layer":"Labels","object_type":"Label","paint":{"text-anchor":"center","text-color":"#CCCCCC","text-halo-color":"#000000","text-halo-width":1,"text-size":12,"zoomLevel":0},"feature_count":5},"line.linework.apron.surface":{"name":"Apron Surface","layer":"Ground linework","object_type":"Line","paint":{"stroke":"#808080","stroke-opacity":1.0,"stroke-width":1.5},"feature_count":1},"line.linework.runway.concrete":{"name":"Runway Concrete","layer":"Ground linework","object_type":"Line","paint":{"stroke":"#111318","stroke-opacity":1.0,"stroke-width":1.5},"feature_count":1},"line.linework.taxiway":{"name":"Taxiway","layer":"Ground linework","object_type":"Line","paint":{"stroke":"#4E5A69","stroke-opacity":1.0,"stroke-width":1.5},"feature_count":2},"line.runway.centerline.runway.markings":{"name":"Runway Markings","layer":"Runways","object_type":"Line","paint":{"stroke":"#FEFEFE","stroke-opacity":1.0,"stroke-width":1.5},"feature_count":1},"point.airport.reference.point.labels":{"name":"Labels","layer":"Reference points","object_type":"Point","paint":{"marker-color":"#808080","marker-size":"small"},"feature_count":1}},"features":[{"type":"Feature","id":"LFOJ-runway-07-25-5208","properties":{"name":"LFOJ RWY 07/25","layer":"Runways","category":"Runway Markings","object_type":"Line","style_id":"line.runway.centerline.runway.markings","airport":"LFOJ","geometry_role":"runway_centerline","vsmr_group_ids":[[]]},"geometry":{"type":"LineString","coordinates":[[1.745560833,47.983910833],[1.775688889,47.991543889]]}},{"type":"Feature","id":"lfoj.line.linework.taxiway.54577","properties":{"name":"LFOJ Groundlayout Orleans Bricy","layer":"Ground linework","category":"Taxiway","object_type":"Line","style_id":"line.linework.taxiway","airport":"LFOJ","geometry_role":"linework","vsmr_group_ids":[[]]},"geometry":{"type":"MultiLineString","coordinates":[[[1.746027778,47.983833333],[1.746166667,47.983555556]],[[1.745666667,47.983722222],[1.745805556,47.983472222]],[[1.746166667,47.983555556],[1.746722222,47.982555556]],[[1.745805556,47.983472222],[1.746472222,47.982194444]],[[1.746722222,47.982555556],[1.751222222,47.983694444]],[[1.746472222,47.982194444],[1.751361111,47.983444444]],[[1.751611111,47.983805556],[1.760388889,47.986055556]],[[1.752,47.983611111],[1.760722222,47.985833333]],[[1.76075,47.986138889],[1.76125,47.986277778]],[[1.760722222,47.985833333],[1.761583333,47.986055556]],[[1.761638889,47.986361111],[1.769694444,47.988444444]],[[1.761583333,47.986055556],[1.770027778,47.988222222]],[[1.770083333,47.988527778],[1.77525,47.989861111]],[[1.770027778,47.988222222],[1.775388889,47.989611111]],[[1.77525,47.989861111],[1.775388889,47.989611111]],[[1.764388889,47.994666667],[1.764722222,47.994555556]],[[1.764111111,47.994472222],[1.764527778,47.994305556]],[[1.764722222,47.994555556],[1.769611111,47.992861111]],[[1.764527778,47.994305556],[1.769333333,47.992666667]],[[1.745472222,47.984111111],[1.745333333,47.984388889]],[[1.745861111,47.984194444],[1.745722222,47.984472222]],[[1.745333333,47.984388889],[1.744944444,47.985222222]],[[1.745722222,47.984472222],[1.745388889,47.985166667]],[[1.744944444,47.985222222],[1.746444444,47.986888889]],[[1.745388889,47.985166667],[1.746722222,47.986666667]],[[1.746444444,47.986888889],[1.747666667,47.987166667]],[[1.746722222,47.986666667],[1.747638889,47.986861111]],[[1.747666667,47.987166667],[1.750277778,47.986416667]],[[1.747638889,47.986861111],[1.749944444,47.986194444]],[[1.750277778,47.986416667],[1.750638889,47.985722222]],[[1.749944444,47.986194444],[1.75025,47.985611111]],[[1.750638889,47.985722222],[1.75075,47.985444444]],[[1.75025,47.985611111],[1.750388889,47.985361111]],[[1.750944444,47.985083333],[1.751083333,47.984805556]],[[1.750583333,47.984972222],[1.750694444,47.984722222]],[[1.751083333,47.984805556],[1.751611111,47.983805556]],[[1.750694444,47.984722222],[1.751222222,47.983694444]],[[1.751833333,47.983388889],[1.752666667,47.98175]],[[1.751361111,47.983444444],[1.752138889,47.981888889]],[[1.769694444,47.988444444],[1.769194444,47.989388889]],[[1.770083333,47.988527778],[1.769583333,47.989472222]],[[1.769194444,47.989388889],[1.769083333,47.989638889]],[[1.769583333,47.989472222],[1.769444444,47.98975]],[[1.768916667,47.990027778],[1.768833333,47.990333333]],[[1.769305556,47.990138889],[1.769222222,47.990388889]],[[1.768833333,47.990333333],[1.768555556,47.991222222]],[[1.769222222,47.990388889],[1.768972222,47.991222222]],[[1.768555556,47.991222222],[1.769111111,47.9925]],[[1.768972222,47.991222222],[1.769472222,47.992361111]],[[1.769111111,47.9925],[1.769333333,47.992666667]],[[1.769472222,47.992361111],[1.769805556,47.992611111]],[[1.769611111,47.992861111],[1.769888889,47.993083333]],[[1.769805556,47.992611111],[1.770138889,47.992833333]],[[1.769888889,47.993083333],[1.771555556,47.993527778]],[[1.770138889,47.992833333],[1.771611111,47.99325]],[[1.771555556,47.993527778],[1.773777778,47.993305556]],[[1.771611111,47.99325],[1.773611111,47.993055556]],[[1.773777778,47.993305556],[1.774777778,47.992777778]],[[1.773611111,47.993055556],[1.774444444,47.992611111]],[[1.774777778,47.992777778],[1.775305556,47.991944444]],[[1.774444444,47.992611111],[1.774944444,47.991861111]],[[1.775305556,47.991944444],[1.775472222,47.991694444]],[[1.774944444,47.991861111],[1.775083333,47.991611111]],[[1.75975,47.987722222],[1.759611111,47.987972222]],[[1.760111111,47.987805556],[1.76,47.988083333]],[[1.759611111,47.987972222],[1.759333333,47.9885]],[[1.76,47.988083333],[1.759722222,47.988583333]],[[1.759333333,47.9885],[1.759722222,47.988583333]]]}},{"type":"Feature","id":"lfoj.line.linework.runway.concrete.54645","properties":{"name":"LFOJ Groundlayout Orleans Bricy","layer":"Ground linework","category":"Runway Concrete","object_type":"Line","style_id":"line.linework.runway.concrete","airport":"LFOJ","geometry_role":"linework","vsmr_group_ids":[[]]},"geometry":{"type":"MultiLineString","coordinates":[[[1.775805556,47.991361111],[1.775527778,47.991277778]],[[1.775583333,47.991722222],[1.775472222,47.991694444]],[[1.775805556,47.991361111],[1.775583333,47.991722222]],[[1.7755,47.991277778],[1.769444444,47.98975]],[[1.775083333,47.991611111],[1.769305556,47.990138889]],[[1.769083333,47.989638889],[1.760138889,47.987388889]],[[1.768916667,47.990027778],[1.760111111,47.987805556]],[[1.760138889,47.987388889],[1.750944444,47.985083333]],[[1.75975,47.987722222],[1.75075,47.985444444]],[[1.750583333,47.984972222],[1.746027778,47.983833333]],[[1.750388889,47.985361111],[1.745861111,47.984194444]],[[1.745666667,47.983722222],[1.745666667,47.983722222]],[[1.745472222,47.984111111],[1.745444444,47.984111111]],[[1.745666667,47.983722222],[1.745444444,47.984111111]],[[1.765638889,47.995555556],[1.764388889,47.994666667]],[[1.764861111,47.996055556],[1.763388889,47.994972222]],[[1.765638889,47.995555556],[1.764861111,47.996055556]],[[1.764111111,47.994472222],[1.756472222,47.989]],[[1.763388889,47.994972222],[1.755694444,47.989472222]],[[1.756472222,47.989],[1.755694444,47.989472222]]]}},{"type":"Feature","id":"lfoj.line.linework.taxiway.54665","properties":{"name":"LFOJ Groundlayout Orleans Bricy","layer":"Ground linework","category":"Taxiway","object_type":"Line","style_id":"line.linework.taxiway","airport":"LFOJ","geometry_role":"linework","vsmr_group_ids":[[]]},"geometry":{"type":"MultiLineString","coordinates":[[[1.752,47.983611111],[1.758166667,47.98175]],[[1.751833333,47.983388889],[1.758166667,47.981444444]],[[1.758166667,47.98175],[1.768777778,47.984416667]],[[1.758166667,47.981444444],[1.768916667,47.984138889]],[[1.768777778,47.984416667],[1.768916667,47.984138889]],[[1.750111111,47.9825],[1.752138889,47.981888889]],[[1.749972222,47.98225],[1.752416667,47.981527778]],[[1.750111111,47.9825],[1.749972222,47.98225]],[[1.752666667,47.98175],[1.758555556,47.98]],[[1.752416667,47.981527778],[1.758555556,47.979694444]],[[1.758555556,47.98],[1.770666667,47.983]],[[1.758555556,47.979694444],[1.77075,47.982722222]],[[1.770666667,47.983],[1.774777778,47.983444444]],[[1.77075,47.982722222],[1.774972222,47.983194444]],[[1.774777778,47.983444444],[1.775972222,47.984416667]],[[1.774972222,47.983194444],[1.776277778,47.98425]],[[1.775972222,47.984416667],[1.776277778,47.98425]],[[1.760388889,47.986055556],[1.759972222,47.986833333]],[[1.76075,47.986138889],[1.760388889,47.986861111]],[[1.759972222,47.986833333],[1.760111111,47.987194444]],[[1.760388889,47.986861111],[1.760444444,47.987]],[[1.760111111,47.987194444],[1.76075,47.987361111]],[[1.760444444,47.987],[1.760722222,47.987055556]],[[1.76075,47.987361111],[1.761194444,47.987166667]],[[1.760722222,47.987055556],[1.760861111,47.987]],[[1.761194444,47.987166667],[1.761638889,47.986361111]],[[1.760861111,47.987],[1.76125,47.986277778]]]}},{"type":"Feature","id":"lfoj.line.linework.apron.surface.54692","properties":{"name":"LFOJ Groundlayout Orleans Bricy","layer":"Ground linework","category":"Apron Surface","object_type":"Line","style_id":"line.linework.apron.surface","airport":"LFOJ","geometry_role":"linework","vsmr_group_ids":[[]]},"geometry":{"type":"MultiLineString","coordinates":[[[1.775666667,47.991416667],[1.776055556,47.987055556]],[[1.776055556,47.987055556],[1.776472222,47.986583333]],[[1.776472222,47.986583333],[1.776833333,47.98675]],[[1.776833333,47.98675],[1.777027778,47.987277778]],[[1.777027778,47.987277778],[1.7785,47.98725]],[[1.7785,47.98725],[1.778666667,47.986777778]],[[1.778666667,47.986777778],[1.779888889,47.986694444]],[[1.779888889,47.986694444],[1.779888889,47.985527778]],[[1.779888889,47.985527778],[1.778805556,47.985527778]],[[1.778805556,47.985527778],[1.778944444,47.98425]],[[1.778944444,47.98425],[1.775888889,47.984138889]],[[1.775888889,47.984138889],[1.775472222,47.984638889]],[[1.775472222,47.984638889],[1.774666667,47.98475]],[[1.774666667,47.98475],[1.768972222,47.9835]],[[1.768972222,47.9835],[1.768944444,47.983583333]],[[1.768944444,47.983583333],[1.768333333,47.983444444]],[[1.768333333,47.983444444],[1.768194444,47.983694444]],[[1.768194444,47.983694444],[1.768805556,47.983833333]],[[1.768805556,47.983833333],[1.768444444,47.984638889]],[[1.768444444,47.984638889],[1.767833333,47.9845]],[[1.767833333,47.9845],[1.767722222,47.98475]],[[1.767722222,47.98475],[1.768305556,47.984888889]],[[1.768305556,47.984888889],[1.768055556,47.985444444]],[[1.768055556,47.985444444],[1.768444444,47.9855]],[[1.768444444,47.9855],[1.768611111,47.985111111]],[[1.768611111,47.985111111],[1.769055556,47.98525]],[[1.769055556,47.98525],[1.768888889,47.985638889]],[[1.768888889,47.985638889],[1.769277778,47.985722222]],[[1.769277778,47.985722222],[1.769444444,47.985333333]],[[1.769444444,47.985333333],[1.769888889,47.985444444]],[[1.769888889,47.985444444],[1.769694444,47.985833333]],[[1.769694444,47.985833333],[1.770083333,47.985916667]],[[1.770083333,47.985916667],[1.770277778,47.985555556]],[[1.770277778,47.985555556],[1.770694444,47.985666667]],[[1.770694444,47.985666667],[1.7705,47.986027778]],[[1.7705,47.986027778],[1.770861111,47.986111111]],[[1.770861111,47.986111111],[1.771055556,47.98575]],[[1.771055556,47.98575],[1.771444444,47.985861111]],[[1.771444444,47.985861111],[1.77125,47.986222222]],[[1.77125,47.986222222],[1.771611111,47.986305556]],[[1.771611111,47.986305556],[1.771833333,47.985944444]],[[1.771833333,47.985944444],[1.77225,47.986055556]],[[1.77225,47.986055556],[1.772055556,47.986416667]],[[1.772055556,47.986416667],[1.772444444,47.9865]],[[1.772444444,47.9865],[1.772638889,47.986166667]],[[1.772638889,47.986166667],[1.773,47.986277778]],[[1.773,47.986277778],[1.772833333,47.986611111]],[[1.772833333,47.986611111],[1.773194444,47.986694444]],[[1.773194444,47.986694444],[1.773361111,47.986361111]],[[1.773361111,47.986361111],[1.773722222,47.986444444]],[[1.773722222,47.986444444],[1.773555556,47.986777778]],[[1.773555556,47.986777778],[1.773916667,47.986861111]],[[1.773916667,47.986861111],[1.774083333,47.986555556]],[[1.774083333,47.986555556],[1.775305556,47.986861111]],[[1.775305556,47.986861111],[1.774972222,47.991222222]],[[1.775666667,47.991416667],[1.774972222,47.991222222]],[[1.772888889,47.983111111],[1.773277778,47.981361111]],[[1.773277778,47.981361111],[1.774777778,47.981527778]],[[1.774777778,47.981527778],[1.774638889,47.982416667]],[[1.774638889,47.982416667],[1.774805556,47.982611111]],[[1.774805556,47.982611111],[1.77525,47.982666667]],[[1.77525,47.982666667],[1.775083333,47.983555556]],[[1.775083333,47.983555556],[1.774583333,47.983277778]],[[1.772888889,47.983111111],[1.774583333,47.983277778]],[[1.775166667,47.991972222],[1.775638889,47.992083333]],[[1.775638889,47.992083333],[1.775194444,47.99275]],[[1.775194444,47.99275],[1.774555556,47.99275]],[[1.775166667,47.991972222],[1.774555556,47.99275]],[[1.745888889,47.9835],[1.7455,47.983194444]],[[1.7455,47.983194444],[1.745722222,47.982694444]],[[1.745722222,47.982694444],[1.746277778,47.982694444]],[[1.745888889,47.9835],[1.746277778,47.982694444]],[[1.745472222,47.984333333],[1.744944444,47.984361111]],[[1.744944444,47.984361111],[1.74475,47.98475]],[[1.74475,47.98475],[1.745222222,47.985277778]],[[1.745472222,47.984333333],[1.745222222,47.985277778]]]}},{"type":"Feature","id":"LFOJ-airport-reference","properties":{"name":"LFOJ","layer":"Reference points","category":"Labels","object_type":"Point","style_id":"point.airport.reference.point.labels","airport":"LFOJ","geometry_role":"airport_reference_point","text-field":"LFOJ","vsmr_group_ids":[[]]},"geometry":{"type":"Point","coordinates":[1.760555833,47.987777778]}},{"type":"Feature","id":"LFOJ-text-lfff-27799","properties":{"name":"N","layer":"Labels","category":"Labels","object_type":"Label","style_id":"label.text.label.labels","airport":"LFOJ","geometry_role":"text_label","text-field":"N","vsmr_group_ids":[[]]},"geometry":{"type":"Point","coordinates":[1.883333333,48.101944444]}},{"type":"Feature","id":"LFOJ-text-lfff-27800","properties":{"name":"SE","layer":"Labels","category":"Labels","object_type":"Label","style_id":"label.text.label.labels","airport":"LFOJ","geometry_role":"text_label","text-field":"SE","vsmr_group_ids":[[]]},"geometry":{"type":"Point","coordinates":[1.847222222,47.902777778]}},{"type":"Feature","id":"LFOJ-text-lfff-27801","properties":{"name":"S","layer":"Labels","category":"Labels","object_type":"Label","style_id":"label.text.label.labels","airport":"LFOJ","geometry_role":"text_label","text-field":"S","vsmr_group_ids":[[]]},"geometry":{"type":"Point","coordinates":[1.641666667,47.819444444]}},{"type":"Feature","id":"LFOJ-text-lfff-27802","properties":{"name":"NW","layer":"Labels","category":"Labels","object_type":"Label","style_id":"label.text.label.labels","airport":"LFOJ","geometry_role":"text_label","text-field":"NW","vsmr_group_ids":[[]]},"geometry":{"type":"Point","coordinates":[1.6875,48.047222222]}},{"type":"Feature","id":"LFOJ-text-lfff-27803","properties":{"name":"E","layer":"Labels","category":"Labels","object_type":"Label","style_id":"label.text.label.labels","airport":"LFOJ","geometry_role":"text_label","text-field":"E","vsmr_group_ids":[[]]},"geometry":{"type":"Point","coordinates":[1.704166667,47.95]}}]}
