{"type":"FeatureCollection","name":"LFOK AVISO","bbox":[3.99917,48.6708,4.28611,48.9119],"metadata":{"schema":"vSMR AVISO","schema_version":2,"airport":"LFOK","coordinate_reference_system":"WGS84","coordinate_order":"longitude, latitude","feature_count":43,"style_count":6,"layer_counts":{"Ground linework":4,"Labels":37,"Reference points":1,"Runways":1},"category_counts":{"Apron Surface":1,"Labels":38,"Runway Concrete":1,"Runway Markings":1,"Taxiway":2}},"styles":{"label.text.label.labels":{"name":"Labels","layer":"Labels","object_type":"Label","paint":{"text-anchor":"center","text-color":"#CCCCCC","text-halo-color":"#000000","text-halo-width":1,"text-size":12},"feature_count":37},"line.linework.apron.surface":{"name":"Apron Surface","layer":"Ground linework","object_type":"Line","paint":{"stroke":"#808080","stroke-opacity":1.0,"stroke-width":1.5},"feature_count":1},"line.linework.runway.concrete":{"name":"Runway Concrete","layer":"Ground linework","object_type":"Line","paint":{"stroke":"#111318","stroke-opacity":1.0,"stroke-width":1.5},"feature_count":1},"line.linework.taxiway":{"name":"Taxiway","layer":"Ground linework","object_type":"Line","paint":{"stroke":"#4E5A69","stroke-opacity":1.0,"stroke-width":1.5},"feature_count":2},"line.runway.centerline.runway.markings":{"name":"Runway Markings","layer":"Runways","object_type":"Line","paint":{"stroke":"#FEFEFE","stroke-opacity":1.0,"stroke-width":1.5},"feature_count":1},"point.airport.reference.point.labels":{"name":"Labels","layer":"Reference points","object_type":"Point","paint":{"marker-color":"#808080","marker-size":"small"},"feature_count":1}},"features":[{"type":"Feature","id":"LFOK-runway-10-28-5209","properties":{"name":"LFOK RWY 10/28","layer":"Runways","category":"Runway Markings","object_type":"Line","style_id":"line.runway.centerline.runway.markings","airport":"LFOK","geometry_role":"runway_centerline","vsmr_group_ids":[[]]},"geometry":{"type":"LineString","coordinates":[[4.159882778,48.779391944],[4.20845,48.773021944]]}},{"type":"Feature","id":"lfok.line.linework.taxiway.54769","properties":{"name":"LFOK Groundlayout Chalons Vatry","layer":"Ground linework","category":"Taxiway","object_type":"Line","style_id":"line.linework.taxiway","airport":"LFOK","geometry_role":"linework","vsmr_group_ids":[[]]},"geometry":{"type":"MultiLineString","coordinates":[[[4.189,48.778166667],[4.189444444,48.778111111]],[[4.188916667,48.777916667],[4.189388889,48.777861111]],[[4.189,48.778166667],[4.188916667,48.777916667]],[[4.189444444,48.778111111],[4.189611111,48.778083333]],[[4.189388889,48.777861111],[4.189527778,48.777833333]],[[4.190027778,48.778055556],[4.190277778,48.778]],[[4.189916667,48.777777778],[4.190222222,48.77775]],[[4.190277778,48.778],[4.190666667,48.777972222]],[[4.190222222,48.77775],[4.190583333,48.777694444]],[[4.190666667,48.777972222],[4.191027778,48.777916667]],[[4.190583333,48.777694444],[4.190944444,48.777666667]],[[4.191027778,48.777916667],[4.191444444,48.777861111]],[[4.190944444,48.777638889],[4.191361111,48.777611111]],[[4.191444444,48.777861111],[4.191361111,48.777611111]],[[4.190194444,48.778444444],[4.190027778,48.778055556]],[[4.189805556,48.7785],[4.189611111,48.778083333]],[[4.190194444,48.778444444],[4.189805556,48.7785]]]}},{"type":"Feature","id":"lfok.line.linework.runway.concrete.54786","properties":{"name":"LFOK Groundlayout Chalons Vatry","layer":"Ground linework","category":"Runway Concrete","object_type":"Line","style_id":"line.linework.runway.concrete","airport":"LFOK","geometry_role":"linework","vsmr_group_ids":[[]]},"geometry":{"type":"MultiLineString","coordinates":[[[4.209861111,48.772638889],[4.199527778,48.774]],[[4.209972222,48.773027778],[4.200083333,48.774333333]],[[4.209861111,48.772638889],[4.209972222,48.773027778]],[[4.199527778,48.774],[4.197166667,48.774305556]],[[4.199583333,48.774388889],[4.1975,48.774666667]],[[4.197166667,48.774305556],[4.195527778,48.774527778]],[[4.197083333,48.774722222],[4.195444444,48.774944444]],[[4.195111111,48.774583333],[4.186194444,48.77575]],[[4.195444444,48.774944444],[4.187111111,48.776027778]],[[4.186111111,48.77575],[4.176833333,48.776972222]],[[4.186305556,48.776138889],[4.177138889,48.777333333]],[[4.176833333,48.776972222],[4.158361111,48.779388889]],[[4.17675,48.777388889],[4.158472222,48.779777778]],[[4.158361111,48.779388889],[4.158472222,48.779777778]]]}},{"type":"Feature","id":"lfok.line.linework.taxiway.54800","properties":{"name":"LFOK Groundlayout Chalons Vatry","layer":"Ground linework","category":"Taxiway","object_type":"Line","style_id":"line.linework.taxiway","airport":"LFOK","geometry_role":"linework","vsmr_group_ids":[[]]},"geometry":{"type":"MultiLineString","coordinates":[[[4.17675,48.777388889],[4.176833333,48.777666667]],[[4.177138889,48.777333333],[4.177222222,48.777611111]],[[4.176833333,48.777666667],[4.176833333,48.777722222]],[[4.177222222,48.777611111],[4.17725,48.777666667]],[[4.176833333,48.777722222],[4.177083333,48.778527778]],[[4.17725,48.777666667],[4.177444444,48.778305556]],[[4.200388889,48.775472222],[4.200944444,48.774888889]],[[4.200138889,48.77525],[4.200416667,48.774944444]],[[4.200944444,48.774888889],[4.200416667,48.774555556]],[[4.200416667,48.774944444],[4.200111111,48.774722222]],[[4.200416667,48.774555556],[4.200333333,48.7745]],[[4.200111111,48.774722222],[4.200055556,48.774694444]],[[4.200333333,48.7745],[4.200083333,48.774333333]],[[4.200055556,48.774694444],[4.199583333,48.774388889]],[[4.197083333,48.774722222],[4.197166667,48.775]],[[4.1975,48.774666667],[4.197583333,48.774944444]],[[4.197166667,48.775],[4.197194444,48.775055556]],[[4.197583333,48.774944444],[4.197611111,48.775]],[[4.197194444,48.775055556],[4.197388889,48.775638889]],[[4.197611111,48.775],[4.197777778,48.775583333]],[[4.186388889,48.776111111],[4.187361111,48.776388889]],[[4.187111111,48.776027778],[4.1875,48.776138889]],[[4.187361111,48.776388889],[4.187444444,48.776416667]],[[4.187527778,48.776138889],[4.187611111,48.776166667]],[[4.187444444,48.776416667],[4.188805556,48.776777778]],[[4.187611111,48.776166667],[4.1895,48.776694444]],[[4.189333333,48.777],[4.189527778,48.777833333]],[[4.189722222,48.776944444],[4.189916667,48.777777778]],[[4.195527778,48.774527778],[4.195444444,48.77425]],[[4.195111111,48.774583333],[4.195027778,48.774305556]],[[4.195444444,48.77425],[4.195416667,48.774194444]],[[4.195027778,48.774305556],[4.195027778,48.77425]],[[4.195416667,48.774194444],[4.195222222,48.773527778]],[[4.195027778,48.77425],[4.194777778,48.773472222]],[[4.195222222,48.773527778],[4.197,48.771888889]],[[4.194777778,48.773472222],[4.196666667,48.771722222]],[[4.177722222,48.778527778],[4.179833333,48.77825]],[[4.177444444,48.778305556],[4.179833333,48.777972222]],[[4.180416667,48.778166667],[4.18225,48.777916667]],[[4.179833333,48.777972222],[4.182361111,48.777638889]],[[4.182638889,48.777861111],[4.189333333,48.777]],[[4.182361111,48.777638889],[4.188805556,48.776777778]],[[4.189722222,48.776944444],[4.197444444,48.775916667]],[[4.1895,48.776694444],[4.197388889,48.775638889]],[[4.197861111,48.775861111],[4.200388889,48.775472222]],[[4.197777778,48.775583333],[4.200138889,48.77525]],[[4.197444444,48.775916667],[4.197944444,48.777722222]],[[4.197861111,48.775861111],[4.198361111,48.777666667]],[[4.179833333,48.77825],[4.181027778,48.77875]],[[4.180416667,48.778166667],[4.181111111,48.778444444]],[[4.181027778,48.77875],[4.182833333,48.778527778]],[[4.181111111,48.778444444],[4.182333333,48.778305556]],[[4.182833333,48.778527778],[4.182638889,48.777861111]],[[4.182333333,48.778305556],[4.18225,48.777916667]],[[4.197555556,48.771805556],[4.197083333,48.771583333]],[[4.197305556,48.772027778],[4.197,48.771888889]],[[4.197083333,48.771583333],[4.196416667,48.77125]],[[4.196666667,48.771722222],[4.196055556,48.771444444]],[[4.196416667,48.77125],[4.196138889,48.770833333]],[[4.196055556,48.771444444],[4.195666667,48.770805556]],[[4.196138889,48.770833333],[4.196361111,48.770583333]],[[4.195666667,48.770805556],[4.196138889,48.770305556]],[[4.196361111,48.770583333],[4.197222222,48.770555556]],[[4.196138889,48.770305556],[4.197361111,48.770305556]],[[4.197222222,48.770555556],[4.198805556,48.771305556]],[[4.197361111,48.770305556],[4.199138889,48.771138889]],[[4.198805556,48.771305556],[4.199138889,48.771722222]],[[4.199138889,48.771138889],[4.199611111,48.771722222]],[[4.199138889,48.771722222],[4.198861111,48.772027778]],[[4.199611111,48.771722222],[4.199083333,48.772305556]],[[4.198861111,48.772027778],[4.197944444,48.771972222]],[[4.199083333,48.772305556],[4.197805556,48.77225]],[[4.197944444,48.771972222],[4.197527778,48.771805556]],[[4.197805556,48.77225],[4.197305556,48.772027778]],[[4.177083333,48.778527778],[4.179888889,48.780222222]],[[4.177722222,48.778527778],[4.180388889,48.780138889]],[[4.179083333,48.780611111],[4.180361111,48.780416667]],[[4.178888889,48.780361111],[4.179888889,48.780222222]],[[4.180361111,48.780416667],[4.181361111,48.780305556]],[[4.180388889,48.780138889],[4.181416667,48.780027778]],[[4.181361111,48.780305556],[4.181944444,48.780472222]],[[4.181416667,48.780027778],[4.182305556,48.780305556]],[[4.181944444,48.780472222],[4.182055556,48.780944444]],[[4.182305556,48.780305556],[4.182472222,48.781055556]],[[4.182055556,48.780944444],[4.181444444,48.781277778]],[[4.182472222,48.781055556],[4.181638889,48.781527778]],[[4.181444444,48.781277778],[4.179388889,48.781527778]],[[4.181638889,48.781527778],[4.179361111,48.781805556]],[[4.179388889,48.781527778],[4.178666667,48.781361111]],[[4.179361111,48.781805556],[4.178305556,48.781555556]],[[4.178666667,48.781361111],[4.178555556,48.780944444]],[[4.178305556,48.781555556],[4.178083333,48.780861111]],[[4.178555556,48.780944444],[4.179083333,48.780611111]],[[4.178083333,48.780861111],[4.178888889,48.780361111]],[[4.197277778,48.778083333],[4.198222222,48.777972222]],[[4.197083333,48.777833333],[4.197944444,48.777722222]],[[4.19825,48.777972222],[4.199416667,48.777805556]],[[4.198361111,48.777666667],[4.199472222,48.7775]],[[4.199416667,48.777805556],[4.2,48.778027778]],[[4.199472222,48.7775],[4.200388889,48.777861111]],[[4.2,48.778027778],[4.200111111,48.778416667]],[[4.200388889,48.777861111],[4.200527778,48.7785]],[[4.200111111,48.778416667],[4.199638889,48.778694444]],[[4.200527778,48.7785],[4.199833333,48.778944444]],[[4.199638889,48.778694444],[4.197388889,48.778972222]],[[4.199833333,48.778944444],[4.197333333,48.77925]],[[4.197388889,48.778972222],[4.196916667,48.778833333]],[[4.197333333,48.77925],[4.196583333,48.779027778]],[[4.196916667,48.778833333],[4.196777778,48.778444444]],[[4.196583333,48.779027778],[4.196333333,48.778361111]],[[4.196777778,48.778444444],[4.197277778,48.778083333]],[[4.196333333,48.778361111],[4.197083333,48.777833333]]]}},{"type":"Feature","id":"lfok.line.linework.apron.surface.54912","properties":{"name":"LFOK Groundlayout Chalons Vatry","layer":"Ground linework","category":"Apron Surface","object_type":"Line","style_id":"line.linework.apron.surface","airport":"LFOK","geometry_role":"linework","vsmr_group_ids":[[]]},"geometry":{"type":"MultiLineString","coordinates":[[[4.179416667,48.780416667],[4.1795,48.780611111]],[[4.1795,48.780611111],[4.179722222,48.78075]],[[4.179722222,48.78075],[4.18,48.780777778]],[[4.18,48.780777778],[4.180305556,48.780777778]],[[4.180305556,48.780777778],[4.180638889,48.780694444]],[[4.180638889,48.780694444],[4.180888889,48.780583333]],[[4.180888889,48.780583333],[4.180972222,48.780416667]],[[4.180972222,48.780416667],[4.180916667,48.78025]],[[4.179416667,48.780416667],[4.180916667,48.78025]],[[4.183111111,48.778944444],[4.182805556,48.777944444]],[[4.182805556,48.777944444],[4.182972222,48.777666667]],[[4.182972222,48.777666667],[4.182,48.777777778]],[[4.182,48.777777778],[4.182305556,48.778055556]],[[4.182305556,48.778055556],[4.182388889,48.778333333]],[[4.182388889,48.778333333],[4.180888889,48.7785]],[[4.180888889,48.7785],[4.181083333,48.779194444]],[[4.183111111,48.778944444],[4.181083333,48.779194444]],[[4.189111111,48.779027778],[4.188888889,48.778138889]],[[4.188888889,48.778138889],[4.188361111,48.777944444]],[[4.188361111,48.777944444],[4.188777778,48.777888889]],[[4.188777778,48.777888889],[4.189194444,48.777833333]],[[4.189194444,48.777833333],[4.189361111,48.777694444]],[[4.189361111,48.777694444],[4.189444444,48.777527778]],[[4.189444444,48.777527778],[4.189333333,48.777138889]],[[4.189333333,48.777138889],[4.189138889,48.777027778]],[[4.189138889,48.777027778],[4.188944444,48.776972222]],[[4.188944444,48.776972222],[4.188861111,48.776805556]],[[4.188861111,48.776805556],[4.189944444,48.776666667]],[[4.189944444,48.776666667],[4.189944444,48.776833333]],[[4.189944444,48.776833333],[4.189805556,48.776944444]],[[4.189805556,48.776944444],[4.189694444,48.777111111]],[[4.189694444,48.777111111],[4.189805556,48.7775]],[[4.189805556,48.7775],[4.19,48.777611111]],[[4.19,48.777611111],[4.190277778,48.777666667]],[[4.190277778,48.777666667],[4.192,48.7775]],[[4.192,48.7775],[4.192305556,48.778666667]],[[4.189111111,48.779027778],[4.192305556,48.778666667]],[[4.197888889,48.771472222],[4.197138889,48.771138889]],[[4.197138889,48.771138889],[4.196666667,48.771527778]],[[4.196666667,48.771527778],[4.197388889,48.771916667]],[[4.197888889,48.771472222],[4.197388889,48.771916667]],[[4.197333333,48.777861111],[4.199166667,48.777611111]],[[4.199166667,48.777611111],[4.198888889,48.777888889]],[[4.198888889,48.777888889],[4.198888889,48.778138889]],[[4.198888889,48.778138889],[4.197861111,48.778277778]],[[4.197861111,48.778277778],[4.197694444,48.778027778]],[[4.197333333,48.777861111],[4.197694444,48.778027778]]]}},{"type":"Feature","id":"LFOK-airport-reference","properties":{"name":"LFOK","layer":"Reference points","category":"Labels","object_type":"Point","style_id":"point.airport.reference.point.labels","airport":"LFOK","geometry_role":"airport_reference_point","text-field":"LFOK","vsmr_group_ids":[[]]},"geometry":{"type":"Point","coordinates":[4.206110833,48.773332778]}},{"type":"Feature","id":"LFOK-text-lfff-27805","properties":{"name":"Terminal","layer":"Labels","category":"Labels","object_type":"Label","style_id":"label.text.label.labels","airport":"LFOK","geometry_role":"text_label","text-field":"Terminal","vsmr_group_ids":[[]]},"geometry":{"type":"Point","coordinates":[4.188311667,48.780445]}},{"type":"Feature","id":"LFOK-text-lfff-27806","properties":{"name":"TWR","layer":"Labels","category":"Labels","object_type":"Label","style_id":"label.text.label.labels","airport":"LFOK","geometry_role":"text_label","text-field":"TWR","vsmr_group_ids":[[]]},"geometry":{"type":"Point","coordinates":[4.1913275,48.780521111]}},{"type":"Feature","id":"LFOK-text-lfff-27807","properties":{"name":"SSLIA","layer":"Labels","category":"Labels","object_type":"Label","style_id":"label.text.label.labels","airport":"LFOK","geometry_role":"text_label","text-field":"SSLIA","vsmr_group_ids":[[]]},"geometry":{"type":"Point","coordinates":[4.190789167,48.779778056]}},{"type":"Feature","id":"LFOK-text-lfff-27808","properties":{"name":"Terminaux Fret","layer":"Labels","category":"Labels","object_type":"Label","style_id":"label.text.label.labels","airport":"LFOK","geometry_role":"text_label","text-field":"Terminaux Fret","vsmr_group_ids":[[]]},"geometry":{"type":"Point","coordinates":[4.194114444,48.779708333]}},{"type":"Feature","id":"LFOK-text-lfff-27809","properties":{"name":"Jet A1","layer":"Labels","category":"Labels","object_type":"Label","style_id":"label.text.label.labels","airport":"LFOK","geometry_role":"text_label","text-field":"Jet A1","vsmr_group_ids":[[]]},"geometry":{"type":"Point","coordinates":[4.198358056,48.777888333]}},{"type":"Feature","id":"LFOK-text-lfff-27810","properties":{"name":"Aire Isolement","layer":"Labels","category":"Labels","object_type":"Label","style_id":"label.text.label.labels","airport":"LFOK","geometry_role":"text_label","text-field":"Aire Isolement","vsmr_group_ids":[[]]},"geometry":{"type":"Point","coordinates":[4.180741944,48.780368333]}},{"type":"Feature","id":"LFOK-text-lfff-27811","properties":{"name":"W5","layer":"Labels","category":"Labels","object_type":"Label","style_id":"label.text.label.labels","airport":"LFOK","geometry_role":"text_label","text-field":"W5","vsmr_group_ids":[[]]},"geometry":{"type":"Point","coordinates":[4.186856389,48.780244444]}},{"type":"Feature","id":"LFOK-text-lfff-27812","properties":{"name":"W2","layer":"Labels","category":"Labels","object_type":"Label","style_id":"label.text.label.labels","airport":"LFOK","geometry_role":"text_label","text-field":"W2","vsmr_group_ids":[[]]},"geometry":{"type":"Point","coordinates":[4.187306389,48.780198056]}},{"type":"Feature","id":"LFOK-text-lfff-27813","properties":{"name":"W4","layer":"Labels","category":"Labels","object_type":"Label","style_id":"label.text.label.labels","airport":"LFOK","geometry_role":"text_label","text-field":"W4","vsmr_group_ids":[[]]},"geometry":{"type":"Point","coordinates":[4.187874167,48.780083611]}},{"type":"Feature","id":"LFOK-text-lfff-27814","properties":{"name":"W3","layer":"Labels","category":"Labels","object_type":"Label","style_id":"label.text.label.labels","airport":"LFOK","geometry_role":"text_label","text-field":"W3","vsmr_group_ids":[[]]},"geometry":{"type":"Point","coordinates":[4.188700278,48.779989167]}},{"type":"Feature","id":"LFOK-text-lfff-27815","properties":{"name":"W1","layer":"Labels","category":"Labels","object_type":"Label","style_id":"label.text.label.labels","airport":"LFOK","geometry_role":"text_label","text-field":"W1","vsmr_group_ids":[[]]},"geometry":{"type":"Point","coordinates":[4.189657222,48.779888056]}},{"type":"Feature","id":"LFOK-text-lfff-27816","properties":{"name":"E1","layer":"Labels","category":"Labels","object_type":"Label","style_id":"label.text.label.labels","airport":"LFOK","geometry_role":"text_label","text-field":"E1","vsmr_group_ids":[[]]},"geometry":{"type":"Point","coordinates":[4.192301389,48.77947]}},{"type":"Feature","id":"LFOK-text-lfff-27817","properties":{"name":"E2","layer":"Labels","category":"Labels","object_type":"Label","style_id":"label.text.label.labels","airport":"LFOK","geometry_role":"text_label","text-field":"E2","vsmr_group_ids":[[]]},"geometry":{"type":"Point","coordinates":[4.193081389,48.779378611]}},{"type":"Feature","id":"LFOK-text-lfff-27818","properties":{"name":"E3","layer":"Labels","category":"Labels","object_type":"Label","style_id":"label.text.label.labels","airport":"LFOK","geometry_role":"text_label","text-field":"E3","vsmr_group_ids":[[]]},"geometry":{"type":"Point","coordinates":[4.193531667,48.779358333]}},{"type":"Feature","id":"LFOK-text-lfff-27819","properties":{"name":"E4","layer":"Labels","category":"Labels","object_type":"Label","style_id":"label.text.label.labels","airport":"LFOK","geometry_role":"text_label","text-field":"E4","vsmr_group_ids":[[]]},"geometry":{"type":"Point","coordinates":[4.193848056,48.779323889]}},{"type":"Feature","id":"LFOK-text-lfff-27820","properties":{"name":"E5","layer":"Labels","category":"Labels","object_type":"Label","style_id":"label.text.label.labels","airport":"LFOK","geometry_role":"text_label","text-field":"E5","vsmr_group_ids":[[]]},"geometry":{"type":"Point","coordinates":[4.194451944,48.779206944]}},{"type":"Feature","id":"LFOK-text-lfff-27821","properties":{"name":"E6","layer":"Labels","category":"Labels","object_type":"Label","style_id":"label.text.label.labels","airport":"LFOK","geometry_role":"text_label","text-field":"E6","vsmr_group_ids":[[]]},"geometry":{"type":"Point","coordinates":[4.195268611,48.779089167]}},{"type":"Feature","id":"LFOK-text-lfff-27822","properties":{"name":"E7","layer":"Labels","category":"Labels","object_type":"Label","style_id":"label.text.label.labels","airport":"LFOK","geometry_role":"text_label","text-field":"E7","vsmr_group_ids":[[]]},"geometry":{"type":"Point","coordinates":[4.196063333,48.778981111]}},{"type":"Feature","id":"LFOK-text-lfff-27823","properties":{"name":"E8","layer":"Labels","category":"Labels","object_type":"Label","style_id":"label.text.label.labels","airport":"LFOK","geometry_role":"text_label","text-field":"E8","vsmr_group_ids":[[]]},"geometry":{"type":"Point","coordinates":[4.197058611,48.778854722]}},{"type":"Feature","id":"LFOK-text-lfff-27824","properties":{"name":"E9","layer":"Labels","category":"Labels","object_type":"Label","style_id":"label.text.label.labels","airport":"LFOK","geometry_role":"text_label","text-field":"E9","vsmr_group_ids":[[]]},"geometry":{"type":"Point","coordinates":[4.197701111,48.778786944]}},{"type":"Feature","id":"LFOK-text-lfff-27826","properties":{"name":"S","layer":"Labels","category":"Labels","object_type":"Label","style_id":"label.text.label.labels","airport":"LFOK","geometry_role":"text_label","text-field":"S","vsmr_group_ids":[[]]},"geometry":{"type":"Point","coordinates":[4.17333,48.6708]}},{"type":"Feature","id":"LFOK-text-lfff-27827","properties":{"name":"WA","layer":"Labels","category":"Labels","object_type":"Label","style_id":"label.text.label.labels","airport":"LFOK","geometry_role":"text_label","text-field":"WA","vsmr_group_ids":[[]]},"geometry":{"type":"Point","coordinates":[4.04333,48.7506]}},{"type":"Feature","id":"LFOK-text-lfff-27828","properties":{"name":"N","layer":"Labels","category":"Labels","object_type":"Label","style_id":"label.text.label.labels","airport":"LFOK","geometry_role":"text_label","text-field":"N","vsmr_group_ids":[[]]},"geometry":{"type":"Point","coordinates":[4.28611,48.9119]}},{"type":"Feature","id":"LFOK-text-lfff-27829","properties":{"name":"W","layer":"Labels","category":"Labels","object_type":"Label","style_id":"label.text.label.labels","airport":"LFOK","geometry_role":"text_label","text-field":"W","vsmr_group_ids":[[]]},"geometry":{"type":"Point","coordinates":[3.99917,48.7531]}},{"type":"Feature","id":"LFOK-text-lfff-27830","properties":{"name":"SW","layer":"Labels","category":"Labels","object_type":"Label","style_id":"label.text.label.labels","airport":"LFOK","geometry_role":"text_label","text-field":"SW","vsmr_group_ids":[[]]},"geometry":{"type":"Point","coordinates":[4.19222,48.73475]}},{"type":"Feature","id":"LFOK-text-lfff-27831","properties":{"name":"N1","layer":"Labels","category":"Labels","object_type":"Label","style_id":"label.text.label.labels","airport":"LFOK","geometry_role":"text_label","text-field":"N1","vsmr_group_ids":[[]]},"geometry":{"type":"Point","coordinates":[4.22417,48.8239]}},{"type":"Feature","id":"LFOK-text-lfff-27833","properties":{"name":"A2","layer":"Labels","category":"Labels","object_type":"Label","style_id":"label.text.label.labels","airport":"LFOK","geometry_role":"text_label","text-field":"A2","vsmr_group_ids":[[]]},"geometry":{"type":"Point","coordinates":[4.175071667,48.778233333]}},{"type":"Feature","id":"LFOK-text-lfff-27834","properties":{"name":"B1","layer":"Labels","category":"Labels","object_type":"Label","style_id":"label.text.label.labels","airport":"LFOK","geometry_role":"text_label","text-field":"B1","vsmr_group_ids":[[]]},"geometry":{"type":"Point","coordinates":[4.178783889,48.779941667]}},{"type":"Feature","id":"LFOK-text-lfff-27835","properties":{"name":"B2","layer":"Labels","category":"Labels","object_type":"Label","style_id":"label.text.label.labels","airport":"LFOK","geometry_role":"text_label","text-field":"B2","vsmr_group_ids":[[]]},"geometry":{"type":"Point","coordinates":[4.181006667,48.779220833]}},{"type":"Feature","id":"LFOK-text-lfff-27836","properties":{"name":"T2","layer":"Labels","category":"Labels","object_type":"Label","style_id":"label.text.label.labels","airport":"LFOK","geometry_role":"text_label","text-field":"T2","vsmr_group_ids":[[]]},"geometry":{"type":"Point","coordinates":[4.183995556,48.778490278]}},{"type":"Feature","id":"LFOK-text-lfff-27837","properties":{"name":"B3","layer":"Labels","category":"Labels","object_type":"Label","style_id":"label.text.label.labels","airport":"LFOK","geometry_role":"text_label","text-field":"B3","vsmr_group_ids":[[]]},"geometry":{"type":"Point","coordinates":[4.188157222,48.778303611]}},{"type":"Feature","id":"LFOK-text-lfff-27838","properties":{"name":"B4","layer":"Labels","category":"Labels","object_type":"Label","style_id":"label.text.label.labels","airport":"LFOK","geometry_role":"text_label","text-field":"B4","vsmr_group_ids":[[]]},"geometry":{"type":"Point","coordinates":[4.191194722,48.777914167]}},{"type":"Feature","id":"LFOK-text-lfff-27839","properties":{"name":"A3","layer":"Labels","category":"Labels","object_type":"Label","style_id":"label.text.label.labels","airport":"LFOK","geometry_role":"text_label","text-field":"A3","vsmr_group_ids":[[]]},"geometry":{"type":"Point","coordinates":[4.188374167,48.776963056]}},{"type":"Feature","id":"LFOK-text-lfff-27840","properties":{"name":"T3","layer":"Labels","category":"Labels","object_type":"Label","style_id":"label.text.label.labels","airport":"LFOK","geometry_role":"text_label","text-field":"T3","vsmr_group_ids":[[]]},"geometry":{"type":"Point","coordinates":[4.19844,48.776719167]}},{"type":"Feature","id":"LFOK-text-lfff-27841","properties":{"name":"A4","layer":"Labels","category":"Labels","object_type":"Label","style_id":"label.text.label.labels","airport":"LFOK","geometry_role":"text_label","text-field":"A4","vsmr_group_ids":[[]]},"geometry":{"type":"Point","coordinates":[4.205449722,48.774385278]}},{"type":"Feature","id":"LFOK-text-lfff-27842","properties":{"name":"A5","layer":"Labels","category":"Labels","object_type":"Label","style_id":"label.text.label.labels","airport":"LFOK","geometry_role":"text_label","text-field":"A5","vsmr_group_ids":[[]]},"geometry":{"type":"Point","coordinates":[4.209393611,48.773743056]}},{"type":"Feature","id":"LFOK-text-lfff-27843","properties":{"name":"T4","layer":"Labels","category":"Labels","object_type":"Label","style_id":"label.text.label.labels","airport":"LFOK","geometry_role":"text_label","text-field":"T4","vsmr_group_ids":[[]]},"geometry":{"type":"Point","coordinates":[4.208490278,48.775268889]}}]}
