{"type":"FeatureCollection","name":"LFON AVISO","bbox":[1.361388889,48.705832778,1.361388889,48.705832778],"metadata":{"schema":"vSMR AVISO","schema_version":2,"airport":"LFON","coordinate_reference_system":"WGS84","coordinate_order":"longitude, latitude","default_color_palette":"night","color_palettes":["night","day"],"feature_count":1,"style_count":1,"layer_counts":{"Reference points":1},"category_counts":{"Labels":1}},"styles":{"point.airport.reference.point.labels":{"name":"Labels","layer":"Reference points","object_type":"Point","paint":{"marker-color":"#808080","marker-size":"small"},"feature_count":1}},"features":[{"type":"Feature","id":"LFON-airport-reference","properties":{"name":"LFON","layer":"Reference points","category":"Labels","object_type":"Point","style_id":"point.airport.reference.point.labels","airport":"LFON","geometry_role":"airport_reference_point","text-field":"LFON","vsmr_group_ids":[]},"geometry":{"type":"Point","coordinates":[1.361388889,48.705832778]}}]}
