{"type":"FeatureCollection","name":"LFOQ AVISO","bbox":[1.199277778,47.668944444,1.216722222,47.682861111],"metadata":{"schema":"vSMR AVISO","schema_version":2,"geometry_mode":"shared","airport":"LFOQ","coordinate_reference_system":"WGS84","coordinate_order":"longitude, latitude","default_color_palette":"dark","color_palettes":["dark","light"],"background_colors":{"dark":"#434A4F","light":"#434A4F"},"feature_count":8,"style_count":3,"layer_counts":{"Guidance lines":2,"Runways":6},"category_counts":{"Grass runways":1,"Runway centerlines":6,"Runways":1},"runways":[{"ends":["12R","30L"],"headings":[120,300],"thresholds":[[1.200671944,47.680477778],[1.20785,47.677521944]]},{"ends":["12L","30R"],"headings":[121,301],"thresholds":[[1.201916944,47.680810833],[1.210052778,47.6775]]},{"ends":["12","30"],"headings":[121,301],"thresholds":[[1.201977778,47.681405833],[1.215591944,47.675775]]},{"ends":["02R","20L"],"headings":[22,202],"thresholds":[[1.205052778,47.670327778],[1.209396944,47.677302778]]},{"ends":["02L","20R"],"headings":[21,201],"thresholds":[[1.204338889,47.670532778],[1.208546944,47.677605833]]},{"ends":["02","20"],"headings":[21,201],"thresholds":[[1.2027,47.670902778],[1.203966944,47.673002778]]}],"saved_active_runways":[],"saved_active_airport_modes":[],"geometry_source":"EuroScope sector pack","source_files":{"LFBB.sct":"fc92f16bc65e3a10b9aeb0cf4d1cae1add9856a4f4f2f653af5abaa0d98c77ed","LFBB.ese":"c7c252d4a274f6fd98bcefd2364b7bb9799385a6e602b62ccbe85cc32042ef62","LFBB.rwy":"d9387919da6406482f154f391ab2d20783610a60930f986e160686134ea8a7df","LFEE.sct":"10fcc997213ee24336ef8bd37f3a9423cb07bbdfb57b1494c61b8310b9641d8a","LFEE.ese":"3391dc3a47130a4a8c12ab895a6743c77668044183634bd45d425513ef5baa2f","LFFF.sct":"cb6698888ce3e8e8be34ea45922976a5fb3ebe1baef7814f040c91785f8641f2","LFFF.ese":"0c1e64c4a0524a6cdc30766699492d362f78011da36daeacfde4597a1761b64c","LFFF.rwy":"a12900bf1f18188caf2e598c44e55b2c0c6fb2c66cee43ff843cbe216617ae96","LFMM.sct":"fc0d266315a59cb027803be613657d9e9875a2a4b912535d08d1c7892a53b194","LFMM.ese":"6a319d7f7c1c2f7e457ae789f4aae2feafec03b24f5d3d95752e96922a971c9e","LFMM.rwy":"236563995d9b5be668ee3fc8d653cf8f33f20a511137652b197e5877b85d5693","LFRR.sct":"c5a55173543154d388eb65309d606b41ac5da09af59142e69878a4cde03add83","LFRR.ese":"e4542200e8322297f954327131cfe6e73da3ac264cf5610ff6871309cd6eeb40"},"airport_reference":[1.205832778,47.679721944]},"styles":{"line.runwayconcrete.555555":{"name":"Runways","layer":"Guidance lines","object_type":"Line","paint":{"stroke":"#111318","stroke-opacity":1,"stroke-width":1,"palette-overrides":{"light":{"stroke":"#555555"}}},"feature_count":1},"line.runwaygrass.008000":{"name":"Grass runways","layer":"Guidance lines","object_type":"Line","paint":{"stroke":"#859A77","stroke-opacity":1,"stroke-width":1,"palette-overrides":{"light":{"stroke":"#008000"}}},"feature_count":1},"runway.reference":{"name":"Runway centerlines","layer":"Runways","object_type":"Line","paint":{"stroke":"#CCCCCC","stroke-width":2,"stroke-opacity":1},"feature_count":6}},"vsmr_groups":[],"features":[{"type":"Feature","id":"LFOQ-f828ad4a4d4f1002be0c","properties":{"airport":"LFOQ","name":"LFOQ Groundlayout Blois","layer":"Guidance lines","category":"Runways","object_type":"Line","style_id":"line.runwayconcrete.555555","source_group":"LFOQ Groundlayout Blois","vsmr_group_ids":[],"geometry_role":"linework"},"geometry":{"type":"MultiLineString","coordinates":[[[1.201611111,47.670555556],[1.205916667,47.677861111]],[[1.205777778,47.66925],[1.210083333,47.676527778]],[[1.201611111,47.670555556],[1.205777778,47.66925]],[[1.205916667,47.677861111],[1.210083333,47.676527778]]]}},{"type":"Feature","id":"LFOQ-14abbb2298ac0ab397e4","properties":{"airport":"LFOQ","name":"LFOQ Groundlayout Blois","layer":"Guidance lines","category":"Grass runways","object_type":"Line","style_id":"line.runwaygrass.008000","source_group":"LFOQ Groundlayout Blois","vsmr_group_ids":[],"geometry_role":"linework"},"geometry":{"type":"MultiLineString","coordinates":[[[1.202611111,47.67025],[1.206805556,47.677444444]],[[1.206777778,47.668944444],[1.211,47.676138889]],[[1.202611111,47.67025],[1.206777778,47.668944444]],[[1.206805556,47.677444444],[1.211,47.676138889]],[[1.203111111,47.682861111],[1.216722222,47.67725]],[[1.200888889,47.679944444],[1.2145,47.674333333]],[[1.203111111,47.682861111],[1.200888889,47.679944444]],[[1.203138889,47.68225],[1.211222222,47.678833333]],[[1.200861111,47.679361111],[1.208972222,47.675944444]],[[1.203138889,47.68225],[1.200861111,47.679361111]],[[1.211222222,47.678833333],[1.208972222,47.675944444]],[[1.201527778,47.682055556],[1.210611111,47.67825]],[[1.199277778,47.679138889],[1.208388889,47.675361111]],[[1.201527778,47.682055556],[1.199277778,47.679138889]],[[1.210611111,47.67825],[1.208388889,47.675361111]]]}},{"type":"Feature","id":"LFOQ-0b146f83a143a38a0006","properties":{"airport":"LFOQ","name":"12R/30L","layer":"Runways","category":"Runway centerlines","object_type":"Line","style_id":"runway.reference","source_group":"LFOQ Runways","vsmr_group_ids":[],"geometry_role":"runway_centerline"},"geometry":{"type":"LineString","coordinates":[[1.200671944,47.680477778],[1.20785,47.677521944]]}},{"type":"Feature","id":"LFOQ-54a3da753234895e263b","properties":{"airport":"LFOQ","name":"12L/30R","layer":"Runways","category":"Runway centerlines","object_type":"Line","style_id":"runway.reference","source_group":"LFOQ Runways","vsmr_group_ids":[],"geometry_role":"runway_centerline"},"geometry":{"type":"LineString","coordinates":[[1.201916944,47.680810833],[1.210052778,47.6775]]}},{"type":"Feature","id":"LFOQ-3c907285d76d54f83401","properties":{"airport":"LFOQ","name":"12/30","layer":"Runways","category":"Runway centerlines","object_type":"Line","style_id":"runway.reference","source_group":"LFOQ Runways","vsmr_group_ids":[],"geometry_role":"runway_centerline"},"geometry":{"type":"LineString","coordinates":[[1.201977778,47.681405833],[1.215591944,47.675775]]}},{"type":"Feature","id":"LFOQ-b35bb1d0b44f46688a0d","properties":{"airport":"LFOQ","name":"02R/20L","layer":"Runways","category":"Runway centerlines","object_type":"Line","style_id":"runway.reference","source_group":"LFOQ Runways","vsmr_group_ids":[],"geometry_role":"runway_centerline"},"geometry":{"type":"LineString","coordinates":[[1.205052778,47.670327778],[1.209396944,47.677302778]]}},{"type":"Feature","id":"LFOQ-080ca6849af851493ff5","properties":{"airport":"LFOQ","name":"02L/20R","layer":"Runways","category":"Runway centerlines","object_type":"Line","style_id":"runway.reference","source_group":"LFOQ Runways","vsmr_group_ids":[],"geometry_role":"runway_centerline"},"geometry":{"type":"LineString","coordinates":[[1.204338889,47.670532778],[1.208546944,47.677605833]]}},{"type":"Feature","id":"LFOQ-8cb71c1c8271a82a1192","properties":{"airport":"LFOQ","name":"02/20","layer":"Runways","category":"Runway centerlines","object_type":"Line","style_id":"runway.reference","source_group":"LFOQ Runways","vsmr_group_ids":[],"geometry_role":"runway_centerline"},"geometry":{"type":"LineString","coordinates":[[1.2027,47.670902778],[1.203966944,47.673002778]]}}]}
