{"type":"FeatureCollection","name":"LFOR AVISO","bbox":[1.523888889,48.458888889,1.523888889,48.458888889],"metadata":{"schema":"vSMR AVISO","schema_version":2,"airport":"LFOR","coordinate_reference_system":"WGS84","coordinate_order":"longitude, latitude","feature_count":1,"style_count":1,"layer_counts":{"Reference points":1},"category_counts":{"Labels":1}},"styles":{"point.airport.reference.point.labels":{"name":"Labels","layer":"Reference points","object_type":"Point","paint":{"marker-color":"#808080","marker-size":"small"},"feature_count":1}},"features":[{"type":"Feature","id":"LFOR-airport-reference","properties":{"name":"LFOR","layer":"Reference points","category":"Labels","object_type":"Point","style_id":"point.airport.reference.point.labels","airport":"LFOR","geometry_role":"airport_reference_point","text-field":"LFOR","vsmr_group_ids":[[]]},"geometry":{"type":"Point","coordinates":[1.523888889,48.458888889]}}]}
