{"type":"FeatureCollection","name":"LFOS AVISO","bbox":[0.655555833,49.835277778,0.655555833,49.835277778],"metadata":{"schema":"vSMR AVISO","schema_version":2,"airport":"LFOS","coordinate_reference_system":"WGS84","coordinate_order":"longitude, latitude","default_color_palette":"night","color_palettes":["night","day"],"background_colors":{"night":"#434A4F","day":"#434A4F"},"feature_count":1,"style_count":1,"layer_counts":{"Reference points":1},"category_counts":{"Labels":1}},"styles":{"point.airport.reference.point.labels":{"name":"Labels","layer":"Reference points","object_type":"Point","paint":{"marker-color":"#808080","marker-size":"small"},"feature_count":1}},"features":[{"type":"Feature","id":"LFOS-airport-reference","properties":{"name":"LFOS","layer":"Reference points","category":"Labels","object_type":"Point","style_id":"point.airport.reference.point.labels","airport":"LFOS","geometry_role":"airport_reference_point","text-field":"LFOS","vsmr_group_ids":[]},"geometry":{"type":"Point","coordinates":[0.655555833,49.835277778]}}]}
