{"type":"FeatureCollection","name":"LFOT AVISO","bbox":[0.445555556,47.263333333,0.899722222,47.590277778],"metadata":{"schema":"vSMR AVISO","schema_version":2,"airport":"LFOT","coordinate_reference_system":"WGS84","coordinate_order":"longitude, latitude","default_color_palette":"night","color_palettes":["night","day"],"background_colors":{"night":"#434A4F","day":"#434A4F"},"feature_count":13,"style_count":6,"layer_counts":{"Ground linework":4,"Labels":7,"Reference points":1,"Runways":1},"category_counts":{"Labels":8,"Landmark3":1,"Runway Concrete":1,"Runway Markings":1,"Taxiway Border":2}},"styles":{"label.text.label.labels":{"name":"Labels","layer":"Labels","object_type":"Label","paint":{"text-anchor":"center","text-color":"#CCCCCC","text-halo-color":"#000000","text-halo-width":1,"text-size":12,"zoomLevel":0},"feature_count":7},"line.linework.landmark3":{"name":"Landmark3","layer":"Ground linework","object_type":"Line","paint":{"stroke":"#7E7E7E","stroke-opacity":1.0,"stroke-width":1.5},"feature_count":1},"line.linework.runway.concrete":{"name":"Runway Concrete","layer":"Ground linework","object_type":"Line","paint":{"stroke":"#111318","stroke-opacity":1.0,"stroke-width":1.5},"feature_count":1},"line.linework.taxiway.border":{"name":"Taxiway Border","layer":"Ground linework","object_type":"Line","paint":{"stroke":"#0000FF","stroke-opacity":1.0,"stroke-width":1.5},"feature_count":2},"line.runway.centerline.runway.markings":{"name":"Runway Markings","layer":"Runways","object_type":"Line","paint":{"stroke":"#FEFEFE","stroke-opacity":1.0,"stroke-width":1.5},"feature_count":1},"point.airport.reference.point.labels":{"name":"Labels","layer":"Reference points","object_type":"Point","paint":{"marker-color":"#808080","marker-size":"small"},"feature_count":1}},"features":[{"type":"Feature","id":"LFOT-runway-02-20-4879","properties":{"name":"LFOT RWY 02/20","layer":"Runways","category":"Runway Markings","object_type":"Line","style_id":"line.runway.centerline.runway.markings","airport":"LFOT","geometry_role":"runway_centerline","vsmr_group_ids":[]},"geometry":{"type":"LineString","coordinates":[[0.723410833,47.421788889],[0.7318,47.442652778]]}},{"type":"Feature","id":"lfot.line.linework.taxiway.border.55001","properties":{"name":"LFOT Groundlayout Tours Val de Loire","layer":"Ground linework","category":"Taxiway Border","object_type":"Line","style_id":"line.linework.taxiway.border","airport":"LFOT","geometry_role":"linework","vsmr_group_ids":[]},"geometry":{"type":"MultiLineString","coordinates":[[[0.723138889,47.421916667],[0.72275,47.422]],[[0.72325,47.422166667],[0.722861111,47.42225]],[[0.72275,47.422],[0.720583333,47.422388889]],[[0.722861111,47.42225],[0.720833333,47.422638889]],[[0.720583333,47.422388889],[0.720194444,47.422777778]],[[0.720833333,47.422638889],[0.720638889,47.422833333]],[[0.720194444,47.422777778],[0.721055556,47.424861111]],[[0.720638889,47.422833333],[0.7215,47.424916667]],[[0.721166667,47.425138889],[0.722277778,47.427888889]],[[0.7215,47.424916667],[0.722694444,47.427861111]],[[0.722444444,47.428277778],[0.722583333,47.428611111]],[[0.722694444,47.427861111],[0.722972222,47.428527778]],[[0.722694444,47.428861111],[0.723722222,47.431361111]],[[0.723083333,47.428777778],[0.724166667,47.431416667]],[[0.723833333,47.431611111],[0.724194444,47.4325]],[[0.724166667,47.431416667],[0.724527778,47.432305556]],[[0.724194444,47.4325],[0.725666667,47.436111111]],[[0.724638889,47.432555556],[0.726,47.435916667]],[[0.725666667,47.436111111],[0.728472222,47.442916667]],[[0.726111111,47.436166667],[0.728805556,47.442722222]],[[0.728472222,47.442916667],[0.72925,47.443138889]],[[0.728805556,47.442722222],[0.72925,47.442833333]],[[0.72925,47.443138889],[0.731111111,47.442722222]],[[0.72925,47.442833333],[0.731,47.442472222]],[[0.731111111,47.442722222],[0.7315,47.442638889]],[[0.731,47.442472222],[0.731388889,47.442388889]],[[0.724638889,47.432555556],[0.726833333,47.432083333]],[[0.724527778,47.432305556],[0.726722222,47.431833333]],[[0.726833333,47.432083333],[0.727222222,47.432]],[[0.726722222,47.431833333],[0.727111111,47.43175]],[[0.726111111,47.436166667],[0.728277778,47.435694444]],[[0.726,47.435916667],[0.728166667,47.435444444]],[[0.728277778,47.435694444],[0.728666667,47.435611111]],[[0.728166667,47.435444444],[0.728555556,47.435361111]]]}},{"type":"Feature","id":"lfot.line.linework.runway.concrete.55035","properties":{"name":"LFOT Groundlayout Tours Val de Loire","layer":"Ground linework","category":"Runway Concrete","object_type":"Line","style_id":"line.linework.runway.concrete","airport":"LFOT","geometry_role":"linework","vsmr_group_ids":[]},"geometry":{"type":"MultiLineString","coordinates":[[[0.731916667,47.440222222],[0.726694444,47.427222222]],[[0.731166667,47.440361111],[0.725916667,47.427361111]],[[0.731916667,47.440222222],[0.731166667,47.440361111]],[[0.726694444,47.427222222],[0.725916667,47.427361111]],[[0.7325,47.443611111],[0.732027778,47.442388889]],[[0.731944444,47.443722222],[0.7315,47.442638889]],[[0.7325,47.443611111],[0.731944444,47.443722222]],[[0.732027778,47.442388889],[0.729194444,47.435361111]],[[0.731388889,47.442388889],[0.728666667,47.435611111]],[[0.729194444,47.435361111],[0.727722222,47.431777778]],[[0.728555556,47.435361111],[0.727222222,47.432]],[[0.727722222,47.431777778],[0.723777778,47.421944444]],[[0.727111111,47.43175],[0.72325,47.422166667]],[[0.723777778,47.421944444],[0.722666667,47.419194444]],[[0.723138889,47.421916667],[0.722083333,47.419305556]],[[0.722666667,47.419194444],[0.722083333,47.419305556]]]}},{"type":"Feature","id":"lfot.line.linework.taxiway.border.55051","properties":{"name":"LFOT Groundlayout Tours Val de Loire","layer":"Ground linework","category":"Taxiway Border","object_type":"Line","style_id":"line.linework.taxiway.border","airport":"LFOT","geometry_role":"linework","vsmr_group_ids":[]},"geometry":{"type":"MultiLineString","coordinates":[[[0.722277778,47.427888889],[0.721555556,47.428861111]],[[0.722444444,47.428277778],[0.722138889,47.428694444]],[[0.721555556,47.428861111],[0.721083333,47.429555556]],[[0.721888889,47.429027778],[0.721305556,47.429805556]],[[0.721083333,47.429555556],[0.718944444,47.429555556]],[[0.721305556,47.429805556],[0.719194444,47.429833333]],[[0.718944444,47.429555556],[0.717861111,47.431083333]],[[0.719194444,47.429833333],[0.718416667,47.430944444]],[[0.717861111,47.431083333],[0.719805556,47.431722222]],[[0.718416667,47.430944444],[0.719972222,47.431472222]],[[0.719805556,47.431722222],[0.719972222,47.431472222]],[[0.724222222,47.42825],[0.722972222,47.428527778]],[[0.724361111,47.4285],[0.723083333,47.428777778]],[[0.724222222,47.42825],[0.724361111,47.4285]],[[0.722583333,47.428611111],[0.722138889,47.428694444]],[[0.722694444,47.428861111],[0.721888889,47.429027778]],[[0.723722222,47.431361111],[0.723083333,47.4315]],[[0.723833333,47.431611111],[0.723388889,47.431722222]],[[0.723083333,47.4315],[0.719722222,47.436444444]],[[0.723388889,47.431722222],[0.720083333,47.436555556]],[[0.719722222,47.436444444],[0.720083333,47.436555556]],[[0.721055556,47.424861111],[0.720305556,47.425027778]],[[0.721166667,47.425138889],[0.720416667,47.425277778]],[[0.720305556,47.425027778],[0.720416667,47.425277778]]]}},{"type":"Feature","id":"lfot.line.linework.landmark3.55075","properties":{"name":"LFOT Groundlayout Tours Val de Loire","layer":"Ground linework","category":"Landmark3","object_type":"Line","style_id":"line.linework.landmark3","airport":"LFOT","geometry_role":"linework","vsmr_group_ids":[]},"geometry":{"type":"MultiLineString","coordinates":[[[0.720555556,47.436888889],[0.725916667,47.436222222]],[[0.725916667,47.436222222],[0.726138889,47.43675]],[[0.726138889,47.43675],[0.721305556,47.437388889]],[[0.721305556,47.437388889],[0.72125,47.437194444]],[[0.72125,47.437194444],[0.720444444,47.437111111]],[[0.720444444,47.437111111],[0.718444444,47.436416667]],[[0.718444444,47.436416667],[0.719222222,47.435277778]],[[0.719222222,47.435277778],[0.717833333,47.434861111]],[[0.717833333,47.434861111],[0.717388889,47.435472222]],[[0.717388889,47.435472222],[0.717,47.435361111]],[[0.717,47.435361111],[0.716722222,47.435722222]],[[0.716722222,47.435722222],[0.716361111,47.435611111]],[[0.716361111,47.435611111],[0.716638889,47.435222222]],[[0.716638889,47.435222222],[0.716083333,47.435055556]],[[0.716083333,47.435055556],[0.717777778,47.432666667]],[[0.717777778,47.432666667],[0.718722222,47.432972222]],[[0.718722222,47.432972222],[0.721166667,47.429444444]],[[0.721166667,47.429444444],[0.721888889,47.429722222]],[[0.721888889,47.429722222],[0.720472222,47.431888889]],[[0.720472222,47.431888889],[0.721472222,47.432194444]],[[0.721472222,47.432194444],[0.725222222,47.426638889]],[[0.725222222,47.426638889],[0.7255,47.427388889]],[[0.7255,47.427388889],[0.719527778,47.436083333]],[[0.719527778,47.436083333],[0.719916667,47.436277778]],[[0.719916667,47.436277778],[0.720333333,47.436805556]],[[0.720555556,47.436888889],[0.720333333,47.436805556]],[[0.718694444,47.424777778],[0.720194444,47.424444444]],[[0.720194444,47.424444444],[0.720777778,47.42575]],[[0.720777778,47.42575],[0.71975,47.42625]],[[0.71975,47.42625],[0.719944444,47.42675]],[[0.719944444,47.42675],[0.719555556,47.426833333]],[[0.718694444,47.424777778],[0.719555556,47.426833333]],[[0.720694444,47.431361111],[0.721888889,47.43175]],[[0.721888889,47.43175],[0.722083333,47.4315]],[[0.722083333,47.4315],[0.720833333,47.431111111]],[[0.720694444,47.431361111],[0.720833333,47.431111111]]]}},{"type":"Feature","id":"LFOT-airport-reference","properties":{"name":"LFOT","layer":"Reference points","category":"Labels","object_type":"Point","style_id":"point.airport.reference.point.labels","airport":"LFOT","geometry_role":"airport_reference_point","text-field":"LFOT","vsmr_group_ids":[]},"geometry":{"type":"Point","coordinates":[0.723055833,47.431943889]}},{"type":"Feature","id":"LFOT-text-lfff-27878","properties":{"name":"SW","layer":"Labels","category":"Labels","object_type":"Label","style_id":"label.text.label.labels","airport":"LFOT","geometry_role":"text_label","text-field":"SW","vsmr_group_ids":[]},"geometry":{"type":"Point","coordinates":[0.445555556,47.263333333]}},{"type":"Feature","id":"LFOT-text-lfff-27879","properties":{"name":"N","layer":"Labels","category":"Labels","object_type":"Label","style_id":"label.text.label.labels","airport":"LFOT","geometry_role":"text_label","text-field":"N","vsmr_group_ids":[]},"geometry":{"type":"Point","coordinates":[0.67,47.570833333]}},{"type":"Feature","id":"LFOT-text-lfff-27880","properties":{"name":"NE","layer":"Labels","category":"Labels","object_type":"Label","style_id":"label.text.label.labels","airport":"LFOT","geometry_role":"text_label","text-field":"NE","vsmr_group_ids":[]},"geometry":{"type":"Point","coordinates":[0.899722222,47.590277778]}},{"type":"Feature","id":"LFOT-text-lfff-27881","properties":{"name":"S1","layer":"Labels","category":"Labels","object_type":"Label","style_id":"label.text.label.labels","airport":"LFOT","geometry_role":"text_label","text-field":"S1","vsmr_group_ids":[]},"geometry":{"type":"Point","coordinates":[0.693333333,47.329722222]}},{"type":"Feature","id":"LFOT-text-lfff-27882","properties":{"name":"S","layer":"Labels","category":"Labels","object_type":"Label","style_id":"label.text.label.labels","airport":"LFOT","geometry_role":"text_label","text-field":"S","vsmr_group_ids":[]},"geometry":{"type":"Point","coordinates":[0.784722222,47.281944444]}},{"type":"Feature","id":"LFOT-text-lfff-27883","properties":{"name":"W","layer":"Labels","category":"Labels","object_type":"Label","style_id":"label.text.label.labels","airport":"LFOT","geometry_role":"text_label","text-field":"W","vsmr_group_ids":[]},"geometry":{"type":"Point","coordinates":[0.638611111,47.440277778]}},{"type":"Feature","id":"LFOT-text-lfff-27884","properties":{"name":"E","layer":"Labels","category":"Labels","object_type":"Label","style_id":"label.text.label.labels","airport":"LFOT","geometry_role":"text_label","text-field":"E","vsmr_group_ids":[]},"geometry":{"type":"Point","coordinates":[0.836666667,47.424444444]}}]}
