{"type":"FeatureCollection","name":"LFOX AVISO","bbox":[2.067535833,48.375835556,2.082361667,48.38373],"metadata":{"schema":"vSMR AVISO","schema_version":2,"geometry_mode":"shared","airport":"LFOX","coordinate_reference_system":"WGS84","coordinate_order":"longitude, latitude","default_color_palette":"dark","color_palettes":["dark","light"],"background_colors":{"dark":"#434A4F","light":"#434A4F"},"feature_count":24,"style_count":3,"layer_counts":{"Labels":22,"Runways":2},"category_counts":{"Gates":7,"Runway centerlines":2,"Taxiways":15},"runways":[{"ends":["06L","24R"],"headings":[56,236],"thresholds":[[2.068768889,48.378805833],[2.078568889,48.383099722]]},{"ends":["06","24"],"headings":[56,236],"thresholds":[[2.072596944,48.379007778],[2.080507778,48.382474722]]}],"saved_active_runways":[],"saved_active_airport_modes":[],"geometry_source":"EuroScope sector pack","source_files":{"LFBB.sct":"fc92f16bc65e3a10b9aeb0cf4d1cae1add9856a4f4f2f653af5abaa0d98c77ed","LFBB.ese":"c7c252d4a274f6fd98bcefd2364b7bb9799385a6e602b62ccbe85cc32042ef62","LFBB.rwy":"d9387919da6406482f154f391ab2d20783610a60930f986e160686134ea8a7df","LFEE.sct":"10fcc997213ee24336ef8bd37f3a9423cb07bbdfb57b1494c61b8310b9641d8a","LFEE.ese":"3391dc3a47130a4a8c12ab895a6743c77668044183634bd45d425513ef5baa2f","LFFF.sct":"cb6698888ce3e8e8be34ea45922976a5fb3ebe1baef7814f040c91785f8641f2","LFFF.ese":"0c1e64c4a0524a6cdc30766699492d362f78011da36daeacfde4597a1761b64c","LFFF.rwy":"a12900bf1f18188caf2e598c44e55b2c0c6fb2c66cee43ff843cbe216617ae96","LFMM.sct":"fc0d266315a59cb027803be613657d9e9875a2a4b912535d08d1c7892a53b194","LFMM.ese":"6a319d7f7c1c2f7e457ae789f4aae2feafec03b24f5d3d95752e96922a971c9e","LFMM.rwy":"236563995d9b5be668ee3fc8d653cf8f33f20a511137652b197e5877b85d5693","LFRR.sct":"c5a55173543154d388eb65309d606b41ac5da09af59142e69878a4cde03add83","LFRR.ese":"e4542200e8322297f954327131cfe6e73da3ac264cf5610ff6871309cd6eeb40"},"airport_reference":[2.073888889,48.381110833]},"styles":{"label.gates":{"name":"Gates","layer":"Labels","object_type":"Label","paint":{"text-color":"#CCCCCC","text-font":"Arial","text-size":12,"text-halo-color":"#000000","text-halo-width":1,"text-anchor":"center","zoomLevel":9},"feature_count":7},"label.taxiways":{"name":"Taxiways","layer":"Labels","object_type":"Label","paint":{"text-color":"#CCCCCC","text-font":"Arial","text-size":12,"text-halo-color":"#000000","text-halo-width":1,"text-anchor":"center","zoomLevel":7},"feature_count":15},"runway.reference":{"name":"Runway centerlines","layer":"Runways","object_type":"Line","paint":{"stroke":"#CCCCCC","stroke-width":2,"stroke-opacity":1},"feature_count":2}},"vsmr_groups":[{"id":"stands-and-gates","name":"Stands & gates","visible":true,"accent":"#d4bd39"}],"features":[{"type":"Feature","id":"LFOX-9f377bb0bc5a5021a970","properties":{"airport":"LFOX","name":"Aire attente","layer":"Labels","category":"Gates","object_type":"Label","style_id":"label.gates","source_group":"LFOX Gates","vsmr_group_ids":["stands-and-gates"],"geometry_role":"text_label","text-field":"Aire attente"},"geometry":{"type":"Point","coordinates":[2.080948611,48.381851667]}},{"type":"Feature","id":"LFOX-9743b2cd38b43ed15d02","properties":{"airport":"LFOX","name":"AVT","layer":"Labels","category":"Gates","object_type":"Label","style_id":"label.gates","source_group":"LFOX Gates","vsmr_group_ids":["stands-and-gates"],"geometry_role":"text_label","text-field":"AVT"},"geometry":{"type":"Point","coordinates":[2.079855833,48.380598611]}},{"type":"Feature","id":"LFOX-c5978f92e26d08cb3bdb","properties":{"airport":"LFOX","name":"TWR","layer":"Labels","category":"Gates","object_type":"Label","style_id":"label.gates","source_group":"LFOX Gates","vsmr_group_ids":["stands-and-gates"],"geometry_role":"text_label","text-field":"TWR"},"geometry":{"type":"Point","coordinates":[2.080490278,48.380817778]}},{"type":"Feature","id":"LFOX-114d51c5be9d1984f73e","properties":{"airport":"LFOX","name":"Axe de Translation helicoptere","layer":"Labels","category":"Gates","object_type":"Label","style_id":"label.gates","source_group":"LFOX Gates","vsmr_group_ids":["stands-and-gates"],"geometry_role":"text_label","text-field":"Axe de Translation helicoptere"},"geometry":{"type":"Point","coordinates":[2.078081111,48.381056944]}},{"type":"Feature","id":"LFOX-7e067b5fecc3fc586af7","properties":{"airport":"LFOX","name":"Aire attente","layer":"Labels","category":"Gates","object_type":"Label","style_id":"label.gates","source_group":"LFOX Gates","vsmr_group_ids":["stands-and-gates"],"geometry_role":"text_label","text-field":"Aire attente"},"geometry":{"type":"Point","coordinates":[2.073754444,48.378638889]}},{"type":"Feature","id":"LFOX-61160150c96e3f85cb89","properties":{"airport":"LFOX","name":"Parking","layer":"Labels","category":"Gates","object_type":"Label","style_id":"label.gates","source_group":"LFOX Gates","vsmr_group_ids":["stands-and-gates"],"geometry_role":"text_label","text-field":"Parking"},"geometry":{"type":"Point","coordinates":[2.0786325,48.379952778]}},{"type":"Feature","id":"LFOX-34f1ff065600684d3e57","properties":{"airport":"LFOX","name":"Zone Militaire","layer":"Labels","category":"Gates","object_type":"Label","style_id":"label.gates","source_group":"LFOX Gates","vsmr_group_ids":["stands-and-gates"],"geometry_role":"text_label","text-field":"Zone Militaire"},"geometry":{"type":"Point","coordinates":[2.074125833,48.375835556]}},{"type":"Feature","id":"LFOX-53b47533d6222c80ea4f","properties":{"airport":"LFOX","name":"G1","layer":"Labels","category":"Taxiways","object_type":"Label","style_id":"label.taxiways","source_group":"LFOX Taxiways","vsmr_group_ids":[],"geometry_role":"text_label","text-field":"G1"},"geometry":{"type":"Point","coordinates":[2.067535833,48.377898611]}},{"type":"Feature","id":"LFOX-2f0971baa052462a5bb4","properties":{"airport":"LFOX","name":"G2","layer":"Labels","category":"Taxiways","object_type":"Label","style_id":"label.taxiways","source_group":"LFOX Taxiways","vsmr_group_ids":[],"geometry_role":"text_label","text-field":"G2"},"geometry":{"type":"Point","coordinates":[2.070028333,48.379004722]}},{"type":"Feature","id":"LFOX-ef340d743d05e896d556","properties":{"airport":"LFOX","name":"G3","layer":"Labels","category":"Taxiways","object_type":"Label","style_id":"label.taxiways","source_group":"LFOX Taxiways","vsmr_group_ids":[],"geometry_role":"text_label","text-field":"G3"},"geometry":{"type":"Point","coordinates":[2.072592778,48.380117778]}},{"type":"Feature","id":"LFOX-e2615f135799b2a878ce","properties":{"airport":"LFOX","name":"G4","layer":"Labels","category":"Taxiways","object_type":"Label","style_id":"label.taxiways","source_group":"LFOX Taxiways","vsmr_group_ids":[],"geometry_role":"text_label","text-field":"G4"},"geometry":{"type":"Point","coordinates":[2.074057778,48.380755]}},{"type":"Feature","id":"LFOX-f8d318fa2c58da0a1fab","properties":{"airport":"LFOX","name":"G5","layer":"Labels","category":"Taxiways","object_type":"Label","style_id":"label.taxiways","source_group":"LFOX Taxiways","vsmr_group_ids":[],"geometry_role":"text_label","text-field":"G5"},"geometry":{"type":"Point","coordinates":[2.075678889,48.381465278]}},{"type":"Feature","id":"LFOX-63deaa5b1791689eba21","properties":{"airport":"LFOX","name":"G6","layer":"Labels","category":"Taxiways","object_type":"Label","style_id":"label.taxiways","source_group":"LFOX Taxiways","vsmr_group_ids":[],"geometry_role":"text_label","text-field":"G6"},"geometry":{"type":"Point","coordinates":[2.078398333,48.382660278]}},{"type":"Feature","id":"LFOX-dc3d7c123c7583fbeab5","properties":{"airport":"LFOX","name":"G7","layer":"Labels","category":"Taxiways","object_type":"Label","style_id":"label.taxiways","source_group":"LFOX Taxiways","vsmr_group_ids":[],"geometry_role":"text_label","text-field":"G7"},"geometry":{"type":"Point","coordinates":[2.080798333,48.38373]}},{"type":"Feature","id":"LFOX-2806efd0e0de3cf5261e","properties":{"airport":"LFOX","name":"G","layer":"Labels","category":"Taxiways","object_type":"Label","style_id":"label.taxiways","source_group":"LFOX Taxiways","vsmr_group_ids":[],"geometry_role":"text_label","text-field":"G"},"geometry":{"type":"Point","coordinates":[2.073913333,48.380129444]}},{"type":"Feature","id":"LFOX-be4f2c0b752ef0585a8a","properties":{"airport":"LFOX","name":"W","layer":"Labels","category":"Taxiways","object_type":"Label","style_id":"label.taxiways","source_group":"LFOX Taxiways","vsmr_group_ids":[],"geometry_role":"text_label","text-field":"W"},"geometry":{"type":"Point","coordinates":[2.071004444,48.377760556]}},{"type":"Feature","id":"LFOX-f4d45fc29c7e66ab32ae","properties":{"airport":"LFOX","name":"A","layer":"Labels","category":"Taxiways","object_type":"Label","style_id":"label.taxiways","source_group":"LFOX Taxiways","vsmr_group_ids":[],"geometry_role":"text_label","text-field":"A"},"geometry":{"type":"Point","coordinates":[2.0726725,48.378760556]}},{"type":"Feature","id":"LFOX-24b9566df102f29144fe","properties":{"airport":"LFOX","name":"D","layer":"Labels","category":"Taxiways","object_type":"Label","style_id":"label.taxiways","source_group":"LFOX Taxiways","vsmr_group_ids":[],"geometry_role":"text_label","text-field":"D"},"geometry":{"type":"Point","coordinates":[2.0755975,48.379386944]}},{"type":"Feature","id":"LFOX-89ea580ba96b0c2e7838","properties":{"airport":"LFOX","name":"B","layer":"Labels","category":"Taxiways","object_type":"Label","style_id":"label.taxiways","source_group":"LFOX Taxiways","vsmr_group_ids":[],"geometry_role":"text_label","text-field":"B"},"geometry":{"type":"Point","coordinates":[2.08083,48.382316667]}},{"type":"Feature","id":"LFOX-75a0a73f97d7141765e3","properties":{"airport":"LFOX","name":"E","layer":"Labels","category":"Taxiways","object_type":"Label","style_id":"label.taxiways","source_group":"LFOX Taxiways","vsmr_group_ids":[],"geometry_role":"text_label","text-field":"E"},"geometry":{"type":"Point","coordinates":[2.081811667,48.382949167]}},{"type":"Feature","id":"LFOX-18241ea9b8fe80c94937","properties":{"airport":"LFOX","name":"S","layer":"Labels","category":"Taxiways","object_type":"Label","style_id":"label.taxiways","source_group":"LFOX Taxiways","vsmr_group_ids":[],"geometry_role":"text_label","text-field":"S"},"geometry":{"type":"Point","coordinates":[2.082361667,48.380028889]}},{"type":"Feature","id":"LFOX-5adc18df7efb532db2fa","properties":{"airport":"LFOX","name":"T","layer":"Labels","category":"Taxiways","object_type":"Label","style_id":"label.taxiways","source_group":"LFOX Taxiways","vsmr_group_ids":[],"geometry_role":"text_label","text-field":"T"},"geometry":{"type":"Point","coordinates":[2.079375556,48.381442222]}},{"type":"Feature","id":"LFOX-2ddfcc298847b0ce3610","properties":{"airport":"LFOX","name":"06L/24R","layer":"Runways","category":"Runway centerlines","object_type":"Line","style_id":"runway.reference","source_group":"LFOX Runways","vsmr_group_ids":[],"geometry_role":"runway_centerline"},"geometry":{"type":"LineString","coordinates":[[2.068768889,48.378805833],[2.078568889,48.383099722]]}},{"type":"Feature","id":"LFOX-ebd5ba7c1d935d19bc63","properties":{"airport":"LFOX","name":"06/24","layer":"Runways","category":"Runway centerlines","object_type":"Line","style_id":"runway.reference","source_group":"LFOX Runways","vsmr_group_ids":[],"geometry_role":"runway_centerline"},"geometry":{"type":"LineString","coordinates":[[2.072596944,48.379007778],[2.080507778,48.382474722]]}}]}
