{"type":"FeatureCollection","name":"LFPE AVISO","bbox":[2.827638889,48.921333333,2.844472222,48.933472222],"metadata":{"schema":"vSMR AVISO","schema_version":2,"geometry_mode":"shared","airport":"LFPE","coordinate_reference_system":"WGS84","coordinate_order":"longitude, latitude","default_color_palette":"dark","color_palettes":["dark","light"],"background_colors":{"dark":"#434A4F","light":"#434A4F"},"feature_count":1,"style_count":1,"layer_counts":{"Guidance lines":1},"category_counts":{"Grass runways":1},"runways":[],"saved_active_runways":[],"saved_active_airport_modes":[],"geometry_source":"EuroScope sector pack","source_files":{"LFBB.sct":"fc92f16bc65e3a10b9aeb0cf4d1cae1add9856a4f4f2f653af5abaa0d98c77ed","LFBB.ese":"c7c252d4a274f6fd98bcefd2364b7bb9799385a6e602b62ccbe85cc32042ef62","LFBB.rwy":"d9387919da6406482f154f391ab2d20783610a60930f986e160686134ea8a7df","LFEE.sct":"10fcc997213ee24336ef8bd37f3a9423cb07bbdfb57b1494c61b8310b9641d8a","LFEE.ese":"3391dc3a47130a4a8c12ab895a6743c77668044183634bd45d425513ef5baa2f","LFFF.sct":"cb6698888ce3e8e8be34ea45922976a5fb3ebe1baef7814f040c91785f8641f2","LFFF.ese":"0c1e64c4a0524a6cdc30766699492d362f78011da36daeacfde4597a1761b64c","LFFF.rwy":"a12900bf1f18188caf2e598c44e55b2c0c6fb2c66cee43ff843cbe216617ae96","LFMM.sct":"fc0d266315a59cb027803be613657d9e9875a2a4b912535d08d1c7892a53b194","LFMM.ese":"6a319d7f7c1c2f7e457ae789f4aae2feafec03b24f5d3d95752e96922a971c9e","LFMM.rwy":"236563995d9b5be668ee3fc8d653cf8f33f20a511137652b197e5877b85d5693","LFRR.sct":"c5a55173543154d388eb65309d606b41ac5da09af59142e69878a4cde03add83","LFRR.ese":"e4542200e8322297f954327131cfe6e73da3ac264cf5610ff6871309cd6eeb40"},"airport_reference":[2.833888889,48.926943889]},"styles":{"line.runwaygrass.008000":{"name":"Grass runways","layer":"Guidance lines","object_type":"Line","paint":{"stroke":"#859A77","stroke-opacity":1,"stroke-width":1,"palette-overrides":{"light":{"stroke":"#008000"}}},"feature_count":1}},"vsmr_groups":[],"features":[{"type":"Feature","id":"LFPE-15ce7759bcf59b8c12c2","properties":{"airport":"LFPE","name":"LFPE Groundlayout Meaux","layer":"Guidance lines","category":"Grass runways","object_type":"Line","style_id":"line.runwaygrass.008000","source_group":"LFPE Groundlayout Meaux","vsmr_group_ids":[],"geometry_role":"linework"},"geometry":{"type":"MultiLineString","coordinates":[[[2.827638889,48.929666667],[2.842138889,48.933472222]],[[2.829166667,48.926527778],[2.843666667,48.930333333]],[[2.827638889,48.929666667],[2.829166667,48.926527778]],[[2.842138889,48.933472222],[2.843666667,48.930333333]],[[2.829222222,48.927972222],[2.842944444,48.931555556]],[[2.830777778,48.924833333],[2.844472222,48.928444444]],[[2.829222222,48.927972222],[2.830777778,48.924833333]],[[2.842944444,48.931555556],[2.844472222,48.928444444]],[[2.836388889,48.932472222],[2.840972222,48.924888889]],[[2.832222222,48.931111111],[2.836833333,48.923527778]],[[2.836388889,48.932472222],[2.832222222,48.931111111]],[[2.840972222,48.924888889],[2.836833333,48.923527778]],[[2.834388889,48.930277778],[2.838972222,48.922666667]],[[2.830222222,48.928916667],[2.834833333,48.921333333]],[[2.834388889,48.930277778],[2.830222222,48.928916667]],[[2.838972222,48.922666667],[2.834833333,48.921333333]]]}}]}
