{"type":"FeatureCollection","name":"LFPH AVISO","bbox":[2.606110833,48.896666944,2.606110833,48.896666944],"metadata":{"schema":"vSMR AVISO","schema_version":2,"airport":"LFPH","coordinate_reference_system":"WGS84","coordinate_order":"longitude, latitude","feature_count":1,"style_count":1,"layer_counts":{"Reference points":1},"category_counts":{"Labels":1}},"styles":{"point.airport.reference.point.labels":{"name":"Labels","layer":"Reference points","object_type":"Point","paint":{"marker-color":"#808080","marker-size":"small"},"feature_count":1}},"features":[{"type":"Feature","id":"LFPH-airport-reference","properties":{"name":"LFPH","layer":"Reference points","category":"Labels","object_type":"Point","style_id":"point.airport.reference.point.labels","airport":"LFPH","geometry_role":"airport_reference_point","text-field":"LFPH","vsmr_group_ids":[[]]},"geometry":{"type":"Point","coordinates":[2.606110833,48.896666944]}}]}
