{"type":"FeatureCollection","name":"LFPI AVISO","bbox":[2.272777778,48.833332778,2.272777778,48.833332778],"metadata":{"schema":"vSMR AVISO","schema_version":2,"airport":"LFPI","coordinate_reference_system":"WGS84","coordinate_order":"longitude, latitude","default_color_palette":"night","color_palettes":["night","day"],"feature_count":1,"style_count":1,"layer_counts":{"Reference points":1},"category_counts":{"Labels":1}},"styles":{"point.airport.reference.point.labels":{"name":"Labels","layer":"Reference points","object_type":"Point","paint":{"marker-color":"#808080","marker-size":"small"},"feature_count":1}},"features":[{"type":"Feature","id":"LFPI-airport-reference","properties":{"name":"LFPI","layer":"Reference points","category":"Labels","object_type":"Point","style_id":"point.airport.reference.point.labels","airport":"LFPI","geometry_role":"airport_reference_point","text-field":"LFPI","vsmr_group_ids":[[]]},"geometry":{"type":"Point","coordinates":[2.272777778,48.833332778]}}]}
