{"type":"FeatureCollection","name":"LFPM AVISO","bbox":[2.663285833,48.602507778,2.688388889,48.617582778],"metadata":{"schema":"vSMR AVISO","schema_version":2,"geometry_mode":"shared","airport":"LFPM","coordinate_reference_system":"WGS84","coordinate_order":"longitude, latitude","default_color_palette":"dark","color_palettes":["dark","light"],"background_colors":{"dark":"#434A4F","light":"#434A4F"},"feature_count":32,"style_count":3,"layer_counts":{"Labels":30,"Runways":2},"category_counts":{"Gates":11,"Runway centerlines":2,"Taxiways":19},"runways":[{"ends":["10","28"],"headings":[103,283],"thresholds":[[2.663285833,48.606477778],[2.688205833,48.602507778]]},{"ends":["01","19"],"headings":[12,192],"thresholds":[[2.671077778,48.606163889],[2.674974722,48.617582778]]}],"saved_active_runways":[],"saved_active_airport_modes":[],"geometry_source":"EuroScope sector pack","source_files":{"LFBB.sct":"fc92f16bc65e3a10b9aeb0cf4d1cae1add9856a4f4f2f653af5abaa0d98c77ed","LFBB.ese":"c7c252d4a274f6fd98bcefd2364b7bb9799385a6e602b62ccbe85cc32042ef62","LFBB.rwy":"d9387919da6406482f154f391ab2d20783610a60930f986e160686134ea8a7df","LFEE.sct":"10fcc997213ee24336ef8bd37f3a9423cb07bbdfb57b1494c61b8310b9641d8a","LFEE.ese":"3391dc3a47130a4a8c12ab895a6743c77668044183634bd45d425513ef5baa2f","LFFF.sct":"cb6698888ce3e8e8be34ea45922976a5fb3ebe1baef7814f040c91785f8641f2","LFFF.ese":"0c1e64c4a0524a6cdc30766699492d362f78011da36daeacfde4597a1761b64c","LFFF.rwy":"a12900bf1f18188caf2e598c44e55b2c0c6fb2c66cee43ff843cbe216617ae96","LFMM.sct":"fc0d266315a59cb027803be613657d9e9875a2a4b912535d08d1c7892a53b194","LFMM.ese":"6a319d7f7c1c2f7e457ae789f4aae2feafec03b24f5d3d95752e96922a971c9e","LFMM.rwy":"236563995d9b5be668ee3fc8d653cf8f33f20a511137652b197e5877b85d5693","LFRR.sct":"c5a55173543154d388eb65309d606b41ac5da09af59142e69878a4cde03add83","LFRR.ese":"e4542200e8322297f954327131cfe6e73da3ac264cf5610ff6871309cd6eeb40"},"airport_reference":[2.670832778,48.605277778]},"styles":{"label.gates":{"name":"Gates","layer":"Labels","object_type":"Label","paint":{"text-color":"#CCCCCC","text-font":"Arial","text-size":12,"text-halo-color":"#000000","text-halo-width":1,"text-anchor":"center","zoomLevel":9},"feature_count":11},"label.taxiways":{"name":"Taxiways","layer":"Labels","object_type":"Label","paint":{"text-color":"#CCCCCC","text-font":"Arial","text-size":12,"text-halo-color":"#000000","text-halo-width":1,"text-anchor":"center","zoomLevel":7},"feature_count":19},"runway.reference":{"name":"Runway centerlines","layer":"Runways","object_type":"Line","paint":{"stroke":"#CCCCCC","stroke-width":2,"stroke-opacity":1},"feature_count":2}},"vsmr_groups":[{"id":"stands-and-gates","name":"Stands & gates","visible":true,"accent":"#d4bd39"}],"features":[{"type":"Feature","id":"LFPM-1eb12824be1da4d69ffb","properties":{"airport":"LFPM","name":"1","layer":"Labels","category":"Gates","object_type":"Label","style_id":"label.gates","source_group":"LFPM Gates","vsmr_group_ids":["stands-and-gates"],"geometry_role":"text_label","text-field":"1"},"geometry":{"type":"Point","coordinates":[2.666055556,48.611083333]}},{"type":"Feature","id":"LFPM-556e8ab07dd4a1e1fdce","properties":{"airport":"LFPM","name":"2","layer":"Labels","category":"Gates","object_type":"Label","style_id":"label.gates","source_group":"LFPM Gates","vsmr_group_ids":["stands-and-gates"],"geometry_role":"text_label","text-field":"2"},"geometry":{"type":"Point","coordinates":[2.666194444,48.611361111]}},{"type":"Feature","id":"LFPM-ef8dfaebc23f6cc2d458","properties":{"airport":"LFPM","name":"3","layer":"Labels","category":"Gates","object_type":"Label","style_id":"label.gates","source_group":"LFPM Gates","vsmr_group_ids":["stands-and-gates"],"geometry_role":"text_label","text-field":"3"},"geometry":{"type":"Point","coordinates":[2.666277778,48.611666667]}},{"type":"Feature","id":"LFPM-441363eb932c39dff226","properties":{"airport":"LFPM","name":"4","layer":"Labels","category":"Gates","object_type":"Label","style_id":"label.gates","source_group":"LFPM Gates","vsmr_group_ids":["stands-and-gates"],"geometry_role":"text_label","text-field":"4"},"geometry":{"type":"Point","coordinates":[2.666444444,48.612111111]}},{"type":"Feature","id":"LFPM-16d049a166a891521e82","properties":{"airport":"LFPM","name":"5","layer":"Labels","category":"Gates","object_type":"Label","style_id":"label.gates","source_group":"LFPM Gates","vsmr_group_ids":["stands-and-gates"],"geometry_role":"text_label","text-field":"5"},"geometry":{"type":"Point","coordinates":[2.666527778,48.612305556]}},{"type":"Feature","id":"LFPM-87ae2e7e899cf647d82a","properties":{"airport":"LFPM","name":"6","layer":"Labels","category":"Gates","object_type":"Label","style_id":"label.gates","source_group":"LFPM Gates","vsmr_group_ids":["stands-and-gates"],"geometry_role":"text_label","text-field":"6"},"geometry":{"type":"Point","coordinates":[2.666583333,48.6125]}},{"type":"Feature","id":"LFPM-80da8f4d09a276243472","properties":{"airport":"LFPM","name":"7","layer":"Labels","category":"Gates","object_type":"Label","style_id":"label.gates","source_group":"LFPM Gates","vsmr_group_ids":["stands-and-gates"],"geometry_role":"text_label","text-field":"7"},"geometry":{"type":"Point","coordinates":[2.666972222,48.613361111]}},{"type":"Feature","id":"LFPM-19973761e04ca5ad1e9d","properties":{"airport":"LFPM","name":"8","layer":"Labels","category":"Gates","object_type":"Label","style_id":"label.gates","source_group":"LFPM Gates","vsmr_group_ids":["stands-and-gates"],"geometry_role":"text_label","text-field":"8"},"geometry":{"type":"Point","coordinates":[2.667222222,48.614055556]}},{"type":"Feature","id":"LFPM-2778e93527e35973a3cf","properties":{"airport":"LFPM","name":"9","layer":"Labels","category":"Gates","object_type":"Label","style_id":"label.gates","source_group":"LFPM Gates","vsmr_group_ids":["stands-and-gates"],"geometry_role":"text_label","text-field":"9"},"geometry":{"type":"Point","coordinates":[2.667694444,48.615083333]}},{"type":"Feature","id":"LFPM-5bed39c134cf22f9922e","properties":{"airport":"LFPM","name":"10","layer":"Labels","category":"Gates","object_type":"Label","style_id":"label.gates","source_group":"LFPM Gates","vsmr_group_ids":["stands-and-gates"],"geometry_role":"text_label","text-field":"10"},"geometry":{"type":"Point","coordinates":[2.667833333,48.615444444]}},{"type":"Feature","id":"LFPM-89b279730d0017f45209","properties":{"airport":"LFPM","name":"11","layer":"Labels","category":"Gates","object_type":"Label","style_id":"label.gates","source_group":"LFPM Gates","vsmr_group_ids":["stands-and-gates"],"geometry_role":"text_label","text-field":"11"},"geometry":{"type":"Point","coordinates":[2.668,48.615833333]}},{"type":"Feature","id":"LFPM-e1005a4001213a835416","properties":{"airport":"LFPM","name":"Z","layer":"Labels","category":"Taxiways","object_type":"Label","style_id":"label.taxiways","source_group":"LFPM Taxiways","vsmr_group_ids":[],"geometry_role":"text_label","text-field":"Z"},"geometry":{"type":"Point","coordinates":[2.677694444,48.608277778]}},{"type":"Feature","id":"LFPM-5dfc0f010cfdfcfe17ff","properties":{"airport":"LFPM","name":"W","layer":"Labels","category":"Taxiways","object_type":"Label","style_id":"label.taxiways","source_group":"LFPM Taxiways","vsmr_group_ids":[],"geometry_role":"text_label","text-field":"W"},"geometry":{"type":"Point","coordinates":[2.665888889,48.606305556]}},{"type":"Feature","id":"LFPM-962ad702a3ad27b52c10","properties":{"airport":"LFPM","name":"W","layer":"Labels","category":"Taxiways","object_type":"Label","style_id":"label.taxiways","source_group":"LFPM Taxiways","vsmr_group_ids":[],"geometry_role":"text_label","text-field":"W"},"geometry":{"type":"Point","coordinates":[2.666361111,48.607611111]}},{"type":"Feature","id":"LFPM-2f944539b1d495039167","properties":{"airport":"LFPM","name":"W","layer":"Labels","category":"Taxiways","object_type":"Label","style_id":"label.taxiways","source_group":"LFPM Taxiways","vsmr_group_ids":[],"geometry_role":"text_label","text-field":"W"},"geometry":{"type":"Point","coordinates":[2.667083333,48.609666667]}},{"type":"Feature","id":"LFPM-123f91db9198898d9a7b","properties":{"airport":"LFPM","name":"Z","layer":"Labels","category":"Taxiways","object_type":"Label","style_id":"label.taxiways","source_group":"LFPM Taxiways","vsmr_group_ids":[],"geometry_role":"text_label","text-field":"Z"},"geometry":{"type":"Point","coordinates":[2.687972222,48.602805556]}},{"type":"Feature","id":"LFPM-5084b72c6c3075b63688","properties":{"airport":"LFPM","name":"Z","layer":"Labels","category":"Taxiways","object_type":"Label","style_id":"label.taxiways","source_group":"LFPM Taxiways","vsmr_group_ids":[],"geometry_role":"text_label","text-field":"Z"},"geometry":{"type":"Point","coordinates":[2.688388889,48.604027778]}},{"type":"Feature","id":"LFPM-8b2d8b13b48d802af42e","properties":{"airport":"LFPM","name":"Z","layer":"Labels","category":"Taxiways","object_type":"Label","style_id":"label.taxiways","source_group":"LFPM Taxiways","vsmr_group_ids":[],"geometry_role":"text_label","text-field":"Z"},"geometry":{"type":"Point","coordinates":[2.68475,48.606666667]}},{"type":"Feature","id":"LFPM-cc5fae6b0c34ccb1aaad","properties":{"airport":"LFPM","name":"Z","layer":"Labels","category":"Taxiways","object_type":"Label","style_id":"label.taxiways","source_group":"LFPM Taxiways","vsmr_group_ids":[],"geometry_role":"text_label","text-field":"Z"},"geometry":{"type":"Point","coordinates":[2.680666667,48.608666667]}},{"type":"Feature","id":"LFPM-65f6c8a937558975c58a","properties":{"airport":"LFPM","name":"T","layer":"Labels","category":"Taxiways","object_type":"Label","style_id":"label.taxiways","source_group":"LFPM Taxiways","vsmr_group_ids":[],"geometry_role":"text_label","text-field":"T"},"geometry":{"type":"Point","coordinates":[2.674472222,48.606361111]}},{"type":"Feature","id":"LFPM-ec0c3bf5a175f21d0232","properties":{"airport":"LFPM","name":"T","layer":"Labels","category":"Taxiways","object_type":"Label","style_id":"label.taxiways","source_group":"LFPM Taxiways","vsmr_group_ids":[],"geometry_role":"text_label","text-field":"T"},"geometry":{"type":"Point","coordinates":[2.674027778,48.605]}},{"type":"Feature","id":"LFPM-06166331ddc3dbfd87cc","properties":{"airport":"LFPM","name":"C","layer":"Labels","category":"Taxiways","object_type":"Label","style_id":"label.taxiways","source_group":"LFPM Taxiways","vsmr_group_ids":[],"geometry_role":"text_label","text-field":"C"},"geometry":{"type":"Point","coordinates":[2.673444444,48.607694444]}},{"type":"Feature","id":"LFPM-b48da636a014599d7cb9","properties":{"airport":"LFPM","name":"C","layer":"Labels","category":"Taxiways","object_type":"Label","style_id":"label.taxiways","source_group":"LFPM Taxiways","vsmr_group_ids":[],"geometry_role":"text_label","text-field":"C"},"geometry":{"type":"Point","coordinates":[2.671722222,48.607944444]}},{"type":"Feature","id":"LFPM-052b2b087336caaaa6bb","properties":{"airport":"LFPM","name":"D","layer":"Labels","category":"Taxiways","object_type":"Label","style_id":"label.taxiways","source_group":"LFPM Taxiways","vsmr_group_ids":[],"geometry_role":"text_label","text-field":"D"},"geometry":{"type":"Point","coordinates":[2.671138889,48.608027778]}},{"type":"Feature","id":"LFPM-02c9ff89809653e48164","properties":{"airport":"LFPM","name":"D","layer":"Labels","category":"Taxiways","object_type":"Label","style_id":"label.taxiways","source_group":"LFPM Taxiways","vsmr_group_ids":[],"geometry_role":"text_label","text-field":"D"},"geometry":{"type":"Point","coordinates":[2.668777778,48.608361111]}},{"type":"Feature","id":"LFPM-478db6cf8b79a382c841","properties":{"airport":"LFPM","name":"J","layer":"Labels","category":"Taxiways","object_type":"Label","style_id":"label.taxiways","source_group":"LFPM Taxiways","vsmr_group_ids":[],"geometry_role":"text_label","text-field":"J"},"geometry":{"type":"Point","coordinates":[2.669833333,48.612694444]}},{"type":"Feature","id":"LFPM-30b707f0a4b82493da90","properties":{"airport":"LFPM","name":"J","layer":"Labels","category":"Taxiways","object_type":"Label","style_id":"label.taxiways","source_group":"LFPM Taxiways","vsmr_group_ids":[],"geometry_role":"text_label","text-field":"J"},"geometry":{"type":"Point","coordinates":[2.672,48.612833333]}},{"type":"Feature","id":"LFPM-a8d5324b4a63122f5c7d","properties":{"airport":"LFPM","name":"J","layer":"Labels","category":"Taxiways","object_type":"Label","style_id":"label.taxiways","source_group":"LFPM Taxiways","vsmr_group_ids":[],"geometry_role":"text_label","text-field":"J"},"geometry":{"type":"Point","coordinates":[2.672805556,48.612888889]}},{"type":"Feature","id":"LFPM-c8d36483b6b21def75f6","properties":{"airport":"LFPM","name":"J","layer":"Labels","category":"Taxiways","object_type":"Label","style_id":"label.taxiways","source_group":"LFPM Taxiways","vsmr_group_ids":[],"geometry_role":"text_label","text-field":"J"},"geometry":{"type":"Point","coordinates":[2.673444444,48.612944444]}},{"type":"Feature","id":"LFPM-af02a53557e798c7712d","properties":{"airport":"LFPM","name":"J","layer":"Labels","category":"Taxiways","object_type":"Label","style_id":"label.taxiways","source_group":"LFPM Taxiways","vsmr_group_ids":[],"geometry_role":"text_label","text-field":"J"},"geometry":{"type":"Point","coordinates":[2.675194444,48.613055556]}},{"type":"Feature","id":"LFPM-570e7ef5823540b41d9a","properties":{"airport":"LFPM","name":"10/28","layer":"Runways","category":"Runway centerlines","object_type":"Line","style_id":"runway.reference","source_group":"LFPM Runways","vsmr_group_ids":[],"geometry_role":"runway_centerline"},"geometry":{"type":"LineString","coordinates":[[2.663285833,48.606477778],[2.688205833,48.602507778]]}},{"type":"Feature","id":"LFPM-18702eaea8c226f5dc78","properties":{"airport":"LFPM","name":"01/19","layer":"Runways","category":"Runway centerlines","object_type":"Line","style_id":"runway.reference","source_group":"LFPM Runways","vsmr_group_ids":[],"geometry_role":"runway_centerline"},"geometry":{"type":"LineString","coordinates":[[2.671077778,48.606163889],[2.674974722,48.617582778]]}}]}
