{"type":"FeatureCollection","name":"LFPV AVISO","bbox":[2.1875,48.762083333,2.214277778,48.776138889],"metadata":{"schema":"vSMR AVISO","schema_version":2,"airport":"LFPV","coordinate_reference_system":"WGS84","coordinate_order":"longitude, latitude","default_color_palette":"night","color_palettes":["night","day"],"background_colors":{"night":"#434A4F","day":"#434A4F"},"feature_count":6,"style_count":5,"layer_counts":{"Ground linework":4,"Reference points":1,"Runways":1},"category_counts":{"Apron Surface":1,"Labels":1,"Runway Concrete":1,"Runway Markings":1,"Taxiway":2}},"styles":{"line.linework.apron.surface":{"name":"Apron Surface","layer":"Ground linework","object_type":"Line","paint":{"stroke":"#808080","stroke-opacity":1.0,"stroke-width":1.5},"feature_count":1},"line.linework.runway.concrete":{"name":"Runway Concrete","layer":"Ground linework","object_type":"Line","paint":{"stroke":"#111318","stroke-opacity":1.0,"stroke-width":1.5},"feature_count":1},"line.linework.taxiway":{"name":"Taxiway","layer":"Ground linework","object_type":"Line","paint":{"stroke":"#4E5A69","stroke-opacity":1.0,"stroke-width":1.5},"feature_count":2},"line.runway.centerline.runway.markings":{"name":"Runway Markings","layer":"Runways","object_type":"Line","paint":{"stroke":"#FEFEFE","stroke-opacity":1.0,"stroke-width":1.5},"feature_count":1},"point.airport.reference.point.labels":{"name":"Labels","layer":"Reference points","object_type":"Point","paint":{"marker-color":"#808080","marker-size":"small"},"feature_count":1}},"features":[{"type":"Feature","id":"LFPV-runway-09-27-6725","properties":{"name":"LFPV RWY 09/27","layer":"Runways","category":"Runway Markings","object_type":"Line","style_id":"line.runway.centerline.runway.markings","airport":"LFPV","geometry_role":"runway_centerline","vsmr_group_ids":[]},"geometry":{"type":"LineString","coordinates":[[2.189274722,48.774127778],[2.213932778,48.774605833]]}},{"type":"Feature","id":"lfpv.line.linework.taxiway.60312","properties":{"name":"LFPV Groundlayout Villacoublay Velizy A.B","layer":"Ground linework","category":"Taxiway","object_type":"Line","style_id":"line.linework.taxiway","airport":"LFPV","geometry_role":"linework","vsmr_group_ids":[]},"geometry":{"type":"MultiLineString","coordinates":[[[2.195083333,48.77575],[2.208527778,48.776027778]],[[2.195305556,48.775472222],[2.208527778,48.77575]],[[2.208527778,48.776027778],[2.208527778,48.77575]]]}},{"type":"Feature","id":"lfpv.line.linework.runway.concrete.60315","properties":{"name":"LFPV Groundlayout Villacoublay Velizy A.B","layer":"Ground linework","category":"Runway Concrete","object_type":"Line","style_id":"line.linework.runway.concrete","airport":"LFPV","geometry_role":"linework","vsmr_group_ids":[]},"geometry":{"type":"MultiLineString","coordinates":[[[2.213916667,48.774416667],[2.213527778,48.774388889]],[[2.213916667,48.774805556],[2.21375,48.774805556]],[[2.213916667,48.774416667],[2.213916667,48.774805556]],[[2.213083333,48.774388889],[2.208583333,48.774305556]],[[2.213305556,48.774805556],[2.208777778,48.774694444]],[[2.208583333,48.774305556],[2.194305556,48.774027778]],[[2.208361111,48.774694444],[2.194277778,48.774416667]],[[2.193805556,48.774027778],[2.19325,48.774]],[[2.193777778,48.774416667],[2.193055556,48.774388889]],[[2.192861111,48.774],[2.189861111,48.773944444]],[[2.193055556,48.774388889],[2.189638889,48.774333333]],[[2.189444444,48.773916667],[2.187527778,48.773888889]],[[2.189638889,48.774333333],[2.1875,48.774305556]],[[2.187527778,48.773888889],[2.1875,48.774305556]],[[2.206583333,48.774638889],[2.196222222,48.774416667]],[[2.206555556,48.775194444],[2.196194444,48.774944444]],[[2.206583333,48.774638889],[2.206555556,48.775194444]],[[2.196222222,48.774416667],[2.196194444,48.774944444]]]}},{"type":"Feature","id":"lfpv.line.linework.taxiway.60333","properties":{"name":"LFPV Groundlayout Villacoublay Velizy A.B","layer":"Ground linework","category":"Taxiway","object_type":"Line","style_id":"line.linework.taxiway","airport":"LFPV","geometry_role":"linework","vsmr_group_ids":[]},"geometry":{"type":"MultiLineString","coordinates":[[[2.199166667,48.769027778],[2.198694444,48.769472222]],[[2.199388889,48.769305556],[2.199055556,48.769611111]],[[2.198694444,48.769472222],[2.195694444,48.772305556]],[[2.199055556,48.769611111],[2.195972222,48.772527778]],[[2.195416667,48.772583333],[2.194222222,48.773611111]],[[2.195972222,48.772527778],[2.194555556,48.773777778]],[[2.194222222,48.773611111],[2.194166667,48.773666667]],[[2.194555556,48.773777778],[2.1945,48.773833333]],[[2.194166667,48.773666667],[2.193805556,48.774027778]],[[2.1945,48.773833333],[2.194305556,48.774027778]],[[2.189861111,48.773944444],[2.189861111,48.773666667]],[[2.189444444,48.773916667],[2.189444444,48.773666667]],[[2.189861111,48.773666667],[2.189861111,48.773583333]],[[2.189444444,48.773666667],[2.189444444,48.773583333]],[[2.189861111,48.773583333],[2.189861111,48.773361111]],[[2.189444444,48.773583333],[2.189444444,48.773194444]],[[2.189861111,48.773361111],[2.192833333,48.772611111]],[[2.189444444,48.773194444],[2.193,48.772277778]],[[2.19325,48.772555556],[2.195416667,48.772583333]],[[2.193,48.772277778],[2.195694444,48.772305556]],[[2.192833333,48.772611111],[2.192833333,48.773666667]],[[2.19325,48.772555556],[2.19325,48.773666667]],[[2.192833333,48.773666667],[2.192833333,48.773722222]],[[2.19325,48.773666667],[2.19325,48.773722222]],[[2.192833333,48.773722222],[2.192861111,48.774]],[[2.19325,48.773722222],[2.19325,48.774]],[[2.193777778,48.774416667],[2.194111111,48.774777778]],[[2.194277778,48.774416667],[2.194472222,48.774611111]],[[2.194111111,48.774777778],[2.194166667,48.774833333]],[[2.194472222,48.774611111],[2.194527778,48.774666667]],[[2.194166667,48.774833333],[2.195083333,48.77575]],[[2.194527778,48.774666667],[2.195305556,48.775472222]],[[2.208361111,48.774694444],[2.208333333,48.774972222]],[[2.208777778,48.774694444],[2.20875,48.774972222]],[[2.208333333,48.774972222],[2.208333333,48.775027778]],[[2.20875,48.774972222],[2.20875,48.775055556]],[[2.208333333,48.775027778],[2.20825,48.776055556]],[[2.20875,48.775055556],[2.208666667,48.775805556]],[[2.20825,48.776055556],[2.213777778,48.776138889]],[[2.208666667,48.775805556],[2.213555556,48.775861111]],[[2.213777778,48.776138889],[2.214277778,48.775722222]],[[2.213555556,48.775861111],[2.213805556,48.775666667]],[[2.214277778,48.775722222],[2.213916667,48.775083333]],[[2.213805556,48.775666667],[2.213527778,48.775166667]],[[2.213916667,48.775083333],[2.213861111,48.775027778]],[[2.213527778,48.775166667],[2.213472222,48.775111111]],[[2.213861111,48.775027778],[2.21375,48.774805556]],[[2.213472222,48.775111111],[2.213305556,48.774805556]],[[2.213527778,48.774388889],[2.213333333,48.774083333]],[[2.213083333,48.774388889],[2.212944444,48.774166667]],[[2.213333333,48.774083333],[2.213305556,48.774027778]],[[2.212944444,48.774166667],[2.212916667,48.774111111]],[[2.213305556,48.774027778],[2.212333333,48.772138889]],[[2.212916667,48.774111111],[2.211972222,48.772305556]],[[2.212333333,48.772138889],[2.211722222,48.771833333]],[[2.211972222,48.772305556],[2.211583333,48.772111111]],[[2.211722222,48.771833333],[2.209,48.771805556]],[[2.211583333,48.772111111],[2.208805556,48.772055556]],[[2.209,48.771805556],[2.205527778,48.769583333]],[[2.208805556,48.772055556],[2.205222222,48.769777778]],[[2.205527778,48.769583333],[2.205305556,48.769444444]],[[2.205222222,48.769777778],[2.204694444,48.769416667]],[[2.204888889,48.769138889],[2.203666667,48.768222222]],[[2.204333333,48.769138889],[2.203305556,48.768361111]],[[2.203666667,48.768222222],[2.202972222,48.767083333]],[[2.203305556,48.768361111],[2.202694444,48.767361111]],[[2.202972222,48.767083333],[2.2065,48.763638889]],[[2.202777778,48.766777778],[2.206055556,48.763583333]],[[2.2065,48.763638889],[2.206388889,48.763111111]],[[2.206055556,48.763583333],[2.206,48.763222222]],[[2.206388889,48.763111111],[2.206027778,48.762833333]],[[2.206,48.763222222],[2.20575,48.763027778]],[[2.206027778,48.762833333],[2.204361111,48.762083333]],[[2.20575,48.763027778],[2.204138889,48.762305556]],[[2.204361111,48.762083333],[2.204138889,48.762305556]],[[2.2025,48.767055556],[2.201861111,48.767722222]],[[2.202694444,48.767361111],[2.20225,48.767805556]],[[2.201861111,48.767722222],[2.200583333,48.769055556]],[[2.201972222,48.768111111],[2.201055556,48.769055556]],[[2.203361111,48.769111111],[2.202694444,48.768638889]],[[2.202777778,48.769111111],[2.202333333,48.768777778]],[[2.202694444,48.768638889],[2.20225,48.767805556]],[[2.202333333,48.768777778],[2.201972222,48.768111111]],[[2.202777778,48.766777778],[2.202111111,48.765805556]],[[2.2025,48.767055556],[2.20175,48.765916667]],[[2.202111111,48.765805556],[2.20175,48.765916667]],[[2.199388889,48.769305556],[2.200694444,48.769333333]],[[2.199166667,48.769027778],[2.200583333,48.769055556]],[[2.200694444,48.769333333],[2.20325,48.769388889]],[[2.201055556,48.769055556],[2.202777778,48.769111111]],[[2.20325,48.769388889],[2.204694444,48.769416667]],[[2.203361111,48.769111111],[2.204333333,48.769138889]],[[2.205305556,48.769444444],[2.206305556,48.769444444]],[[2.204888889,48.769138889],[2.206305556,48.769194444]],[[2.206305556,48.769444444],[2.206305556,48.769194444]]]}},{"type":"Feature","id":"lfpv.line.linework.apron.surface.60428","properties":{"name":"LFPV Groundlayout Villacoublay Velizy A.B","layer":"Ground linework","category":"Apron Surface","object_type":"Line","style_id":"line.linework.apron.surface","airport":"LFPV","geometry_role":"linework","vsmr_group_ids":[]},"geometry":{"type":"MultiLineString","coordinates":[[[2.211777778,48.772166667],[2.210722222,48.771555556]],[[2.210722222,48.771555556],[2.209222222,48.771638889]],[[2.209222222,48.771638889],[2.208333333,48.771083333]],[[2.208333333,48.771083333],[2.207944444,48.771361111]],[[2.207944444,48.771361111],[2.207694444,48.771166667]],[[2.207694444,48.771166667],[2.208055556,48.770916667]],[[2.208055556,48.770916667],[2.207055556,48.77025]],[[2.207055556,48.77025],[2.206666667,48.770527778]],[[2.206666667,48.770527778],[2.206416667,48.770333333]],[[2.206416667,48.770333333],[2.206805556,48.770083333]],[[2.206805556,48.770083333],[2.205944444,48.769527778]],[[2.205944444,48.769527778],[2.205972222,48.769194444]],[[2.205972222,48.769194444],[2.207638889,48.769222222]],[[2.207638889,48.769222222],[2.212333333,48.772166667]],[[2.211777778,48.772166667],[2.212333333,48.772166667]],[[2.203694444,48.766916667],[2.2045,48.766111111]],[[2.2045,48.766111111],[2.204027778,48.765944444]],[[2.204027778,48.765944444],[2.204305556,48.765611111]],[[2.204305556,48.765611111],[2.204805556,48.765805556]],[[2.204805556,48.765805556],[2.2055,48.765055556]],[[2.2055,48.765055556],[2.205055556,48.764861111]],[[2.205055556,48.764861111],[2.20525,48.764555556]],[[2.20525,48.764555556],[2.205777778,48.76475]],[[2.205777778,48.76475],[2.206555556,48.764]],[[2.206555556,48.764],[2.206027778,48.763805556]],[[2.206027778,48.763805556],[2.206277778,48.763527778]],[[2.206277778,48.763527778],[2.208055556,48.764166667]],[[2.208055556,48.764166667],[2.205083333,48.767361111]],[[2.205083333,48.767361111],[2.204916667,48.767527778]],[[2.204916667,48.767527778],[2.204694444,48.767583333]],[[2.204694444,48.767583333],[2.204527778,48.767555556]],[[2.204527778,48.767555556],[2.204222222,48.767583333]],[[2.204222222,48.767583333],[2.203972222,48.767861111]],[[2.203972222,48.767861111],[2.20375,48.768444444]],[[2.20375,48.768444444],[2.202777778,48.767111111]],[[2.202777778,48.767111111],[2.203166667,48.766694444]],[[2.203694444,48.766916667],[2.203166667,48.766694444]],[[2.194,48.774138889],[2.195,48.773361111]],[[2.195,48.773361111],[2.195888889,48.774222222]],[[2.194,48.774138889],[2.195888889,48.774222222]],[[2.192888889,48.773638889],[2.194,48.774277778]],[[2.194,48.774277778],[2.194444444,48.77475]],[[2.194444444,48.77475],[2.192833333,48.77475]],[[2.192888889,48.773638889],[2.192833333,48.77475]]]}},{"type":"Feature","id":"LFPV-airport-reference","properties":{"name":"LFPV","layer":"Reference points","category":"Labels","object_type":"Point","style_id":"point.airport.reference.point.labels","airport":"LFPV","geometry_role":"airport_reference_point","text-field":"LFPV","vsmr_group_ids":[]},"geometry":{"type":"Point","coordinates":[2.191388889,48.774166944]}}]}
