{"type":"FeatureCollection","name":"LFPX AVISO","bbox":[1.972397778,48.838495,1.987350556,48.8451075],"metadata":{"schema":"vSMR AVISO","schema_version":2,"geometry_mode":"shared","airport":"LFPX","coordinate_reference_system":"WGS84","coordinate_order":"longitude, latitude","default_color_palette":"dark","color_palettes":["dark","light"],"background_colors":{"dark":"#434A4F","light":"#434A4F"},"feature_count":65,"style_count":9,"layer_counts":{"Airfield surfaces":14,"Buildings and structures":18,"Guidance lines":1,"Labels":26,"Terrain":6},"category_counts":{"Buildings":18,"Gras Surface 2":2,"Gras Surface 3":3,"Grass":1,"Grass runways":2,"Hard Surface 3":10,"Hard Surface 4":2,"Runway Border":1,"Taxiways":26},"runways":[],"saved_active_runways":[],"saved_active_airport_modes":[],"geometry_source":"vaccfr/France-Ground-Layouts","source_files":{"LFBB.sct":"fc92f16bc65e3a10b9aeb0cf4d1cae1add9856a4f4f2f653af5abaa0d98c77ed","LFBB.ese":"c7c252d4a274f6fd98bcefd2364b7bb9799385a6e602b62ccbe85cc32042ef62","LFBB.rwy":"d9387919da6406482f154f391ab2d20783610a60930f986e160686134ea8a7df","LFEE.sct":"10fcc997213ee24336ef8bd37f3a9423cb07bbdfb57b1494c61b8310b9641d8a","LFEE.ese":"3391dc3a47130a4a8c12ab895a6743c77668044183634bd45d425513ef5baa2f","LFFF.sct":"cb6698888ce3e8e8be34ea45922976a5fb3ebe1baef7814f040c91785f8641f2","LFFF.ese":"0c1e64c4a0524a6cdc30766699492d362f78011da36daeacfde4597a1761b64c","LFFF.rwy":"a12900bf1f18188caf2e598c44e55b2c0c6fb2c66cee43ff843cbe216617ae96","LFMM.sct":"fc0d266315a59cb027803be613657d9e9875a2a4b912535d08d1c7892a53b194","LFMM.ese":"6a319d7f7c1c2f7e457ae789f4aae2feafec03b24f5d3d95752e96922a971c9e","LFMM.rwy":"236563995d9b5be668ee3fc8d653cf8f33f20a511137652b197e5877b85d5693","LFRR.sct":"c5a55173543154d388eb65309d606b41ac5da09af59142e69878a4cde03add83","LFRR.ese":"e4542200e8322297f954327131cfe6e73da3ac264cf5610ff6871309cd6eeb40"},"airport_reference":[1.980277778,48.842221944],"geometry_source_url":"https://github.com/vaccfr/France-Ground-Layouts","geometry_source_revision":"da539a889b213e66eb254f893fa087c263f65332","geometry_source_files":{"GNG/LFFF/LFPX/LFPX AVISO.txt":"53a44825c791bda279cbd4d614c648bc2465b82b73618de37653cd0e30abf0da","GNG/LFFF/LFPX/LFPX Groundlayout AVISO.txt":"8e5ed4d97d7fb29f161ca9d407b0bbf77446531b25642b9311eeca987ff10988","GNG/LFFF/LFPX/LFPX Taxiways.txt":"a5709fc0c9917b7377c8de82fec0824809a5d15915efccd40d5622e4bfc1ea26"},"geometry_license":"GPL-3.0"},"styles":{"polygon.grassurface.00512f":{"name":"Grass","layer":"Terrain","object_type":"Area","paint":{"fill":"#010D19","fill-opacity":1,"palette-overrides":{"light":{"fill":"#00512F"}}},"feature_count":1},"polygon.grassurface3.727e67":{"name":"Gras Surface 3","layer":"Terrain","object_type":"Area","paint":{"fill":"#727E67","fill-opacity":1,"palette-overrides":{"light":{"fill":"#727E67"}}},"feature_count":3},"polygon.grassurface2.339933":{"name":"Gras Surface 2","layer":"Terrain","object_type":"Area","paint":{"fill":"#339933","fill-opacity":1,"palette-overrides":{"light":{"fill":"#339933"}}},"feature_count":2},"polygon.hardsurface4.969393":{"name":"Hard Surface 4","layer":"Airfield surfaces","object_type":"Area","paint":{"fill":"#152841","fill-opacity":1,"palette-overrides":{"light":{"fill":"#969393"}}},"feature_count":2},"polygon.hardsurface3.8a807f":{"name":"Hard Surface 3","layer":"Airfield surfaces","object_type":"Area","paint":{"fill":"#222D3C","fill-opacity":1,"palette-overrides":{"light":{"fill":"#8A807F"}}},"feature_count":10},"polygon.runwaygrass.008000":{"name":"Grass runways","layer":"Airfield surfaces","object_type":"Area","paint":{"fill":"#859A77","fill-opacity":1,"palette-overrides":{"light":{"fill":"#008000"}}},"feature_count":2},"polygon.building.394446":{"name":"Buildings","layer":"Buildings and structures","object_type":"Area","paint":{"fill":"#475570","fill-opacity":1,"palette-overrides":{"light":{"fill":"#394446"}}},"feature_count":18},"line.runwayborder.808080":{"name":"Runway Border","layer":"Guidance lines","object_type":"Line","paint":{"stroke":"#808080","stroke-opacity":1,"stroke-width":1,"palette-overrides":{"light":{"stroke":"#808080"}}},"feature_count":1},"label.taxiways":{"name":"Taxiways","layer":"Labels","object_type":"Label","paint":{"text-color":"#CCCCCC","text-font":"Arial","text-size":12,"text-halo-color":"#000000","text-halo-width":1,"text-anchor":"center","zoomLevel":7},"feature_count":26}},"vsmr_groups":[],"features":[{"type":"Feature","id":"LFPX-307bc8f5e3db0a63df7e","properties":{"airport":"LFPX","name":"LFPX AVISO","layer":"Terrain","category":"Grass","object_type":"Area","style_id":"polygon.grassurface.00512f","source_group":"LFPX AVISO","vsmr_group_ids":[],"geometry_role":"filled_region"},"geometry":{"type":"Polygon","coordinates":[[[1.980468333,48.843107778],[1.975305,48.8439625],[1.973125833,48.843886667],[1.972397778,48.84256],[1.977770833,48.841673611],[1.975498333,48.840504167],[1.975356389,48.840085833],[1.975422778,48.840081111],[1.975415833,48.840006389],[1.975509444,48.839879722],[1.976420278,48.839909444],[1.977937222,48.839805],[1.979120278,48.839487778],[1.979848056,48.839320833],[1.98111,48.839030833],[1.981580833,48.838944722],[1.984278333,48.838495],[1.984326389,48.838514722],[1.984910556,48.839566667],[1.98599,48.841395],[1.987350556,48.844412222],[1.984381389,48.8451075],[1.980468333,48.843107778]]]}},{"type":"Feature","id":"LFPX-a8d6287df458c27bedfb","properties":{"airport":"LFPX","name":"LFPX AVISO","layer":"Terrain","category":"Gras Surface 3","object_type":"Area","style_id":"polygon.grassurface3.727e67","source_group":"LFPX AVISO","vsmr_group_ids":[],"geometry_role":"filled_region"},"geometry":{"type":"Polygon","coordinates":[[[1.978696389,48.840002222],[1.979244444,48.839765],[1.984228333,48.838834167],[1.984374444,48.839153333],[1.983846389,48.839258333],[1.984135833,48.839906111],[1.981698889,48.840400833],[1.981635833,48.840246389],[1.9814725,48.8402725],[1.981266667,48.840313889],[1.980753889,48.840418056],[1.980654167,48.840449722],[1.980573889,48.840486667],[1.980481944,48.840542778],[1.980415833,48.8405875],[1.9803325,48.840656111],[1.980395556,48.8404175],[1.980334722,48.840254167],[1.980536111,48.840201667],[1.980564167,48.840233056],[1.9805925,48.840246944],[1.980655556,48.840261944],[1.980778333,48.840272222],[1.980850556,48.840263889],[1.9808775,48.840258333],[1.980820278,48.840213611],[1.980788889,48.840189167],[1.980748889,48.840158611],[1.981133056,48.840084444],[1.981175833,48.8402],[1.981364444,48.840158333],[1.981435278,48.8401375],[1.981498611,48.840117222],[1.981581944,48.84009],[1.981643889,48.840063889],[1.981699722,48.840044167],[1.981732778,48.840026667],[1.981739444,48.840015833],[1.981725278,48.840008056],[1.981671389,48.840005833],[1.981570556,48.840014722],[1.981395,48.839737222],[1.979893889,48.840029444],[1.979426667,48.840091667],[1.979083056,48.840078889],[1.978783611,48.840043333],[1.978696389,48.840002222]]]}},{"type":"Feature","id":"LFPX-035c4ec33edfbc1e139f","properties":{"airport":"LFPX","name":"LFPX AVISO","layer":"Terrain","category":"Gras Surface 3","object_type":"Area","style_id":"polygon.grassurface3.727e67","source_group":"LFPX AVISO","vsmr_group_ids":[],"geometry_role":"filled_region"},"geometry":{"type":"Polygon","coordinates":[[[1.981579444,48.840013611],[1.981461944,48.840035556],[1.980536389,48.840206667],[1.980338611,48.840259444],[1.979853056,48.8399925],[1.981418056,48.839715],[1.981579444,48.840013611]]]}},{"type":"Feature","id":"LFPX-aabc593ba0e974b2f0b6","properties":{"airport":"LFPX","name":"LFPX AVISO","layer":"Terrain","category":"Gras Surface 3","object_type":"Area","style_id":"polygon.grassurface3.727e67","source_group":"LFPX AVISO","vsmr_group_ids":[],"geometry_role":"filled_region"},"geometry":{"type":"Polygon","coordinates":[[[1.980755,48.8413075],[1.980803889,48.841296667],[1.980842778,48.841269722],[1.980866944,48.841227222],[1.980872778,48.841185278],[1.980817222,48.841051667],[1.9844425,48.840356667],[1.984656111,48.840358611],[1.984795278,48.840468611],[1.984886111,48.840508333],[1.985233611,48.840653056],[1.983928611,48.840975278],[1.981468889,48.841355556],[1.980821944,48.841321389],[1.980755,48.8413075]]]}},{"type":"Feature","id":"LFPX-e63fbbff63bb3dc6f7f8","properties":{"airport":"LFPX","name":"LFPX AVISO","layer":"Terrain","category":"Gras Surface 2","object_type":"Area","style_id":"polygon.grassurface2.339933","source_group":"LFPX AVISO","vsmr_group_ids":[],"geometry_role":"filled_region"},"geometry":{"type":"Polygon","coordinates":[[[1.976312222,48.8425875],[1.976245556,48.842306944],[1.976232222,48.842177222],[1.978040278,48.84189],[1.978315278,48.841595278],[1.978478611,48.841683056],[1.978415,48.841758056],[1.978381389,48.841841111],[1.978530278,48.8418275],[1.978686389,48.841795278],[1.979728611,48.841634444],[1.979836111,48.841603889],[1.979935833,48.841556944],[1.979080278,48.841128333],[1.978971111,48.841162222],[1.978824444,48.841208333],[1.978476389,48.841008889],[1.978569722,48.840948056],[1.978603056,48.840880278],[1.977296944,48.840209722],[1.977139444,48.840331667],[1.976415278,48.839938056],[1.976853333,48.839998056],[1.977574167,48.839961389],[1.977998611,48.839948333],[1.978731944,48.839998611],[1.979277222,48.840012778],[1.979448889,48.840412222],[1.9793275,48.840451667],[1.979273056,48.840478333],[1.979231111,48.840505278],[1.9793175,48.840571667],[1.979420556,48.840613889],[1.97926,48.840743889],[1.979254444,48.840759444],[1.979604167,48.8409275],[1.979778333,48.840791111],[1.979804167,48.840760278],[1.979827778,48.840702778],[1.979851389,48.840640278],[1.979840556,48.840528889],[1.979823333,48.840448611],[1.979778611,48.840362222],[1.980340833,48.840651667],[1.9803025,48.840716667],[1.980278333,48.840788889],[1.980265556,48.8408575],[1.980275278,48.840942222],[1.980288889,48.8410075],[1.980325556,48.841098611],[1.980390278,48.841178333],[1.980478056,48.841231667],[1.980629722,48.841286389],[1.980826667,48.8413125],[1.981128056,48.841326944],[1.981503333,48.841317778],[1.982164167,48.841228889],[1.983885,48.8409425],[1.984410833,48.840811667],[1.98488,48.840677222],[1.984953889,48.840661944],[1.985136111,48.840651667],[1.985232222,48.840650833],[1.985322778,48.840685],[1.985478889,48.840827222],[1.985644444,48.841046389],[1.985160556,48.841126944],[1.985076667,48.841008056],[1.983208611,48.841321389],[1.983188611,48.841455],[1.983601667,48.842306111],[1.983524722,48.84238],[1.983476111,48.842555278],[1.983484722,48.842723611],[1.983515,48.842931944],[1.985778611,48.844080278],[1.985297778,48.844500833],[1.984907778,48.844321944],[1.985004444,48.844255278],[1.984996389,48.844197222],[1.984959722,48.84415],[1.982895556,48.843088333],[1.982831667,48.843251111],[1.982298056,48.8429775],[1.982358889,48.842971944],[1.982481944,48.842931944],[1.982560833,48.842905],[1.981875,48.84256],[1.982582222,48.842454722],[1.983095556,48.842715],[1.983073056,48.842585],[1.983068889,48.842475556],[1.983073611,48.842390556],[1.982855,48.841509444],[1.98281,48.841386389],[1.981042222,48.841686667],[1.981105,48.841822222],[1.980586111,48.841904167],[1.980360833,48.841780556],[1.978346111,48.842113333],[1.978528333,48.842239167],[1.977982778,48.842325556],[1.977981667,48.842242222],[1.978000556,48.842168333],[1.976755278,48.842371111],[1.976832778,48.842524722],[1.976312222,48.8425875]]]}},{"type":"Feature","id":"LFPX-676ba95d12b747fc1001","properties":{"airport":"LFPX","name":"LFPX AVISO","layer":"Terrain","category":"Gras Surface 2","object_type":"Area","style_id":"polygon.grassurface2.339933","source_group":"LFPX AVISO","vsmr_group_ids":[],"geometry_role":"filled_region"},"geometry":{"type":"Polygon","coordinates":[[[1.979273056,48.840013056],[1.979538056,48.8400075],[1.979642778,48.840005278],[1.979746667,48.840001111],[1.979865833,48.840005278],[1.979923889,48.840016111],[1.980011389,48.840041944],[1.980123056,48.840083611],[1.980215,48.840126389],[1.980328611,48.840215],[1.980371667,48.840275278],[1.980405,48.840337222],[1.980425833,48.840403889],[1.980420278,48.840490833],[1.980393889,48.840563611],[1.980337222,48.840651667],[1.979797778,48.840376944],[1.979722778,48.840369444],[1.979625833,48.840373056],[1.979444167,48.840413333],[1.979273056,48.840013056]]]}},{"type":"Feature","id":"LFPX-a6a45842eeebef5be027","properties":{"airport":"LFPX","name":"LFPX AVISO","layer":"Airfield surfaces","category":"Hard Surface 4","object_type":"Area","style_id":"polygon.hardsurface4.969393","source_group":"LFPX AVISO","vsmr_group_ids":[],"geometry_role":"filled_region"},"geometry":{"type":"Polygon","coordinates":[[[1.979804167,48.840763611],[1.979778889,48.840794444],[1.979604167,48.84093],[1.979245278,48.840755556],[1.979450278,48.840588056],[1.979804167,48.840763611]]]}},{"type":"Feature","id":"LFPX-983c2fb36d576c2329dd","properties":{"airport":"LFPX","name":"LFPX AVISO","layer":"Airfield surfaces","category":"Hard Surface 4","object_type":"Area","style_id":"polygon.hardsurface4.969393","source_group":"LFPX AVISO","vsmr_group_ids":[],"geometry_role":"filled_region"},"geometry":{"type":"Polygon","coordinates":[[[1.981281944,48.840310556],[1.981337222,48.840426389],[1.981128889,48.8404675],[1.981100556,48.840405833],[1.980949444,48.840435556],[1.980925278,48.840381389],[1.981281944,48.840310556]]]}},{"type":"Feature","id":"LFPX-fe177faf8ece5bc0fd98","properties":{"airport":"LFPX","name":"LFPX AVISO","layer":"Airfield surfaces","category":"Hard Surface 3","object_type":"Area","style_id":"polygon.hardsurface3.8a807f","source_group":"LFPX AVISO","vsmr_group_ids":[],"geometry_role":"filled_region"},"geometry":{"type":"Polygon","coordinates":[[[1.979575,48.839702222],[1.9796075,48.839785833],[1.979344167,48.839836944],[1.979309722,48.839752778],[1.979575,48.839702222]]]}},{"type":"Feature","id":"LFPX-57e47f5a12af04c7bfcd","properties":{"airport":"LFPX","name":"LFPX AVISO","layer":"Airfield surfaces","category":"Hard Surface 3","object_type":"Area","style_id":"polygon.hardsurface3.8a807f","source_group":"LFPX AVISO","vsmr_group_ids":[],"geometry_role":"filled_region"},"geometry":{"type":"Polygon","coordinates":[[[1.979913056,48.839639444],[1.979942222,48.839695278],[1.979733333,48.839737222],[1.979705833,48.839678333],[1.979913056,48.839639444]]]}},{"type":"Feature","id":"LFPX-ecfff83553abaa617d51","properties":{"airport":"LFPX","name":"LFPX AVISO","layer":"Airfield surfaces","category":"Hard Surface 3","object_type":"Area","style_id":"polygon.hardsurface3.8a807f","source_group":"LFPX AVISO","vsmr_group_ids":[],"geometry_role":"filled_region"},"geometry":{"type":"Polygon","coordinates":[[[1.980648333,48.839501944],[1.9806775,48.839573333],[1.980431667,48.839615556],[1.980391667,48.839550556],[1.980648333,48.839501944]]]}},{"type":"Feature","id":"LFPX-8c34249ef589a6f06ce9","properties":{"airport":"LFPX","name":"LFPX AVISO","layer":"Airfield surfaces","category":"Hard Surface 3","object_type":"Area","style_id":"polygon.hardsurface3.8a807f","source_group":"LFPX AVISO","vsmr_group_ids":[],"geometry_role":"filled_region"},"geometry":{"type":"Polygon","coordinates":[[[1.981315278,48.839376389],[1.981341667,48.839454167],[1.981031667,48.839514722],[1.980985833,48.839440556],[1.981315278,48.839376389]]]}},{"type":"Feature","id":"LFPX-1f5ca6bb12d92cbf895c","properties":{"airport":"LFPX","name":"LFPX AVISO","layer":"Airfield surfaces","category":"Hard Surface 3","object_type":"Area","style_id":"polygon.hardsurface3.8a807f","source_group":"LFPX AVISO","vsmr_group_ids":[],"geometry_role":"filled_region"},"geometry":{"type":"Polygon","coordinates":[[[1.984219167,48.838811111],[1.984290278,48.838960278],[1.984222222,48.838977222],[1.984231389,48.838997778],[1.984178611,48.839010556],[1.984188333,48.839036667],[1.9836025,48.839149444],[1.983552222,48.839129167],[1.983181667,48.839203889],[1.9831425,48.839115],[1.981416667,48.839438333],[1.981383889,48.839358333],[1.984219167,48.838811111]]]}},{"type":"Feature","id":"LFPX-25803731644b9241c5db","properties":{"airport":"LFPX","name":"LFPX AVISO","layer":"Airfield surfaces","category":"Hard Surface 3","object_type":"Area","style_id":"polygon.hardsurface3.8a807f","source_group":"LFPX AVISO","vsmr_group_ids":[],"geometry_role":"filled_region"},"geometry":{"type":"Polygon","coordinates":[[[1.981225833,48.840188056],[1.981282222,48.840311111],[1.980906667,48.840388056],[1.980848333,48.840263333],[1.981225833,48.840188056]]]}},{"type":"Feature","id":"LFPX-1e2cbd45113375528dad","properties":{"airport":"LFPX","name":"LFPX AVISO","layer":"Airfield surfaces","category":"Hard Surface 3","object_type":"Area","style_id":"polygon.hardsurface3.8a807f","source_group":"LFPX AVISO","vsmr_group_ids":[],"geometry_role":"filled_region"},"geometry":{"type":"Polygon","coordinates":[[[1.981914167,48.840851111],[1.982004722,48.841037778],[1.981598333,48.841113611],[1.981519722,48.840929167],[1.981914167,48.840851111]]]}},{"type":"Feature","id":"LFPX-e2dbf3e971b7fa52e554","properties":{"airport":"LFPX","name":"LFPX AVISO","layer":"Airfield surfaces","category":"Hard Surface 3","object_type":"Area","style_id":"polygon.hardsurface3.8a807f","source_group":"LFPX AVISO","vsmr_group_ids":[],"geometry_role":"filled_region"},"geometry":{"type":"Polygon","coordinates":[[[1.983358056,48.840561111],[1.983446389,48.840764444],[1.982793611,48.840890278],[1.982729444,48.840750833],[1.982228611,48.840848056],[1.982201944,48.840786111],[1.983358056,48.840561111]]]}},{"type":"Feature","id":"LFPX-ece34012f67c693f22b0","properties":{"airport":"LFPX","name":"LFPX AVISO","layer":"Airfield surfaces","category":"Hard Surface 3","object_type":"Area","style_id":"polygon.hardsurface3.8a807f","source_group":"LFPX AVISO","vsmr_group_ids":[],"geometry_role":"filled_region"},"geometry":{"type":"Polygon","coordinates":[[[1.983873056,48.840465278],[1.983895,48.840519444],[1.983646944,48.840566667],[1.983624722,48.840513889],[1.983873056,48.840465278]]]}},{"type":"Feature","id":"LFPX-1710db95192b95cc38cc","properties":{"airport":"LFPX","name":"LFPX AVISO","layer":"Airfield surfaces","category":"Hard Surface 3","object_type":"Area","style_id":"polygon.hardsurface3.8a807f","source_group":"LFPX AVISO","vsmr_group_ids":[],"geometry_role":"filled_region"},"geometry":{"type":"Polygon","coordinates":[[[1.984445278,48.840354722],[1.984578333,48.840360278],[1.984653611,48.840594444],[1.984191111,48.840687222],[1.984075278,48.840425],[1.984445278,48.840354722]]]}},{"type":"Feature","id":"LFPX-93673243f4fd690beeb4","properties":{"airport":"LFPX","name":"LFPX AVISO","layer":"Airfield surfaces","category":"Grass runways","object_type":"Area","style_id":"polygon.runwaygrass.008000","source_group":"LFPX AVISO","vsmr_group_ids":[],"geometry_role":"filled_region"},"geometry":{"type":"Polygon","coordinates":[[[1.976246667,48.842583333],[1.985665556,48.841033611],[1.985985278,48.841923056],[1.976576667,48.843474167],[1.976246667,48.842583333]]]}},{"type":"Feature","id":"LFPX-f76bf4d467a734bde675","properties":{"airport":"LFPX","name":"LFPX AVISO","layer":"Airfield surfaces","category":"Grass runways","object_type":"Area","style_id":"polygon.runwaygrass.008000","source_group":"LFPX AVISO","vsmr_group_ids":[],"geometry_role":"filled_region"},"geometry":{"type":"Polygon","coordinates":[[[1.975894444,48.840367222],[1.976416944,48.839925556],[1.985312222,48.844493611],[1.984784722,48.844936111],[1.975894444,48.840367222]]]}},{"type":"Feature","id":"LFPX-d6587c18cd5750f501a2","properties":{"airport":"LFPX","name":"LFPX AVISO","layer":"Buildings and structures","category":"Buildings","object_type":"Area","style_id":"polygon.building.394446","source_group":"LFPX AVISO","vsmr_group_ids":[],"geometry_role":"filled_region"},"geometry":{"type":"Polygon","coordinates":[[[1.979486667,48.839505],[1.979576944,48.839704722],[1.979310556,48.839757222],[1.979216944,48.839554444],[1.979486667,48.839505]]]}},{"type":"Feature","id":"LFPX-1dd1aea271f30d11dd02","properties":{"airport":"LFPX","name":"LFPX AVISO","layer":"Buildings and structures","category":"Buildings","object_type":"Area","style_id":"polygon.building.394446","source_group":"LFPX AVISO","vsmr_group_ids":[],"geometry_role":"filled_region"},"geometry":{"type":"Polygon","coordinates":[[[1.979853333,48.8394625],[1.979933333,48.839638889],[1.97968,48.839688889],[1.979603333,48.839512778],[1.979853333,48.8394625]]]}},{"type":"Feature","id":"LFPX-a5180dd730c18190077d","properties":{"airport":"LFPX","name":"LFPX AVISO","layer":"Buildings and structures","category":"Buildings","object_type":"Area","style_id":"polygon.building.394446","source_group":"LFPX AVISO","vsmr_group_ids":[],"geometry_role":"filled_region"},"geometry":{"type":"Polygon","coordinates":[[[1.980544444,48.839239167],[1.980656389,48.8395025],[1.980393056,48.839553056],[1.980281111,48.839288333],[1.980544444,48.839239167]]]}},{"type":"Feature","id":"LFPX-2d1246e22dc73fa3e8e6","properties":{"airport":"LFPX","name":"LFPX AVISO","layer":"Buildings and structures","category":"Buildings","object_type":"Area","style_id":"polygon.building.394446","source_group":"LFPX AVISO","vsmr_group_ids":[],"geometry_role":"filled_region"},"geometry":{"type":"Polygon","coordinates":[[[1.981200833,48.839108611],[1.981320556,48.839378611],[1.980982222,48.839441944],[1.980868056,48.839172778],[1.981200833,48.839108611]]]}},{"type":"Feature","id":"LFPX-f5f369a007b16b6df294","properties":{"airport":"LFPX","name":"LFPX AVISO","layer":"Buildings and structures","category":"Buildings","object_type":"Area","style_id":"polygon.building.394446","source_group":"LFPX AVISO","vsmr_group_ids":[],"geometry_role":"filled_region"},"geometry":{"type":"Polygon","coordinates":[[[1.981520278,48.839230556],[1.981560833,48.839325833],[1.981416944,48.839354167],[1.981375833,48.839261111],[1.981520278,48.839230556]]]}},{"type":"Feature","id":"LFPX-e613a55e8f21a488d18d","properties":{"airport":"LFPX","name":"LFPX AVISO","layer":"Buildings and structures","category":"Buildings","object_type":"Area","style_id":"polygon.building.394446","source_group":"LFPX AVISO","vsmr_group_ids":[],"geometry_role":"filled_region"},"geometry":{"type":"Polygon","coordinates":[[[1.982072778,48.838935556],[1.982189722,48.839204167],[1.981655833,48.839307222],[1.981538333,48.839039444],[1.982072778,48.838935556]]]}},{"type":"Feature","id":"LFPX-832117af44d8b20cc61f","properties":{"airport":"LFPX","name":"LFPX AVISO","layer":"Buildings and structures","category":"Buildings","object_type":"Area","style_id":"polygon.building.394446","source_group":"LFPX AVISO","vsmr_group_ids":[],"geometry_role":"filled_region"},"geometry":{"type":"Polygon","coordinates":[[[1.982821389,48.838894722],[1.9828975,48.839073333],[1.982504444,48.839149444],[1.982424444,48.838969444],[1.982821389,48.838894722]]]}},{"type":"Feature","id":"LFPX-7426132bd8d27632e125","properties":{"airport":"LFPX","name":"LFPX AVISO","layer":"Buildings and structures","category":"Buildings","object_type":"Area","style_id":"polygon.building.394446","source_group":"LFPX AVISO","vsmr_group_ids":[],"geometry_role":"filled_region"},"geometry":{"type":"Polygon","coordinates":[[[1.983504722,48.838753611],[1.983588333,48.838946944],[1.983186111,48.839026389],[1.983180278,48.839013611],[1.983101667,48.839028611],[1.983018611,48.838848056],[1.983504722,48.838753611]]]}},{"type":"Feature","id":"LFPX-32d4a6c3f52b9fc48ca8","properties":{"airport":"LFPX","name":"LFPX AVISO","layer":"Buildings and structures","category":"Buildings","object_type":"Area","style_id":"polygon.building.394446","source_group":"LFPX AVISO","vsmr_group_ids":[],"geometry_role":"filled_region"},"geometry":{"type":"Polygon","coordinates":[[[1.98423,48.838630556],[1.984301389,48.838796944],[1.983768889,48.838901389],[1.9836975,48.838734722],[1.98423,48.838630556]]]}},{"type":"Feature","id":"LFPX-8c1d7714a7a4ac0605ab","properties":{"airport":"LFPX","name":"LFPX AVISO","layer":"Buildings and structures","category":"Buildings","object_type":"Area","style_id":"polygon.building.394446","source_group":"LFPX AVISO","vsmr_group_ids":[],"geometry_role":"filled_region"},"geometry":{"type":"Polygon","coordinates":[[[1.984438611,48.838961111],[1.984502778,48.839097222],[1.984354167,48.839126111],[1.984292222,48.838986111],[1.984438611,48.838961111]]]}},{"type":"Feature","id":"LFPX-40477379291fb1b7d4c0","properties":{"airport":"LFPX","name":"LFPX AVISO","layer":"Buildings and structures","category":"Buildings","object_type":"Area","style_id":"polygon.building.394446","source_group":"LFPX AVISO","vsmr_group_ids":[],"geometry_role":"filled_region"},"geometry":{"type":"Polygon","coordinates":[[[1.984310278,48.839824722],[1.984104722,48.839863333],[1.983834167,48.839258611],[1.984038889,48.839215556],[1.984310278,48.839824722]]]}},{"type":"Feature","id":"LFPX-ed1b73a65aafc2a80dd1","properties":{"airport":"LFPX","name":"LFPX AVISO","layer":"Buildings and structures","category":"Buildings","object_type":"Area","style_id":"polygon.building.394446","source_group":"LFPX AVISO","vsmr_group_ids":[],"geometry_role":"filled_region"},"geometry":{"type":"Polygon","coordinates":[[[1.980559167,48.840921667],[1.980658889,48.840899444],[1.980692778,48.840990833],[1.980596944,48.841010278],[1.980559167,48.840921667]]]}},{"type":"Feature","id":"LFPX-3bd1d07e073a6e2f9cff","properties":{"airport":"LFPX","name":"LFPX AVISO","layer":"Buildings and structures","category":"Buildings","object_type":"Area","style_id":"polygon.building.394446","source_group":"LFPX AVISO","vsmr_group_ids":[],"geometry_role":"filled_region"},"geometry":{"type":"Polygon","coordinates":[[[1.980716667,48.841047222],[1.980860278,48.841021111],[1.980883056,48.841079444],[1.980844167,48.841086389],[1.98085,48.841099444],[1.980744167,48.841119167],[1.980716667,48.841047222]]]}},{"type":"Feature","id":"LFPX-2d98c894e4295f566f61","properties":{"airport":"LFPX","name":"LFPX AVISO","layer":"Buildings and structures","category":"Buildings","object_type":"Area","style_id":"polygon.building.394446","source_group":"LFPX AVISO","vsmr_group_ids":[],"geometry_role":"filled_region"},"geometry":{"type":"Polygon","coordinates":[[[1.981444167,48.840749167],[1.981839444,48.840672778],[1.981923056,48.840856389],[1.981520556,48.840931667],[1.981444167,48.840749167]]]}},{"type":"Feature","id":"LFPX-0bb16e1dc85b4121aae2","properties":{"airport":"LFPX","name":"LFPX AVISO","layer":"Buildings and structures","category":"Buildings","object_type":"Area","style_id":"polygon.building.394446","source_group":"LFPX AVISO","vsmr_group_ids":[],"geometry_role":"filled_region"},"geometry":{"type":"Polygon","coordinates":[[[1.982584167,48.840527778],[1.982663889,48.840706111],[1.982223611,48.840794167],[1.982143889,48.840614722],[1.982584167,48.840527778]]]}},{"type":"Feature","id":"LFPX-e88537e24fbaa77c99eb","properties":{"airport":"LFPX","name":"LFPX AVISO","layer":"Buildings and structures","category":"Buildings","object_type":"Area","style_id":"polygon.building.394446","source_group":"LFPX AVISO","vsmr_group_ids":[],"geometry_role":"filled_region"},"geometry":{"type":"Polygon","coordinates":[[[1.983441667,48.840363333],[1.983516111,48.840538889],[1.982699167,48.8407],[1.982623889,48.840523333],[1.983441667,48.840363333]]]}},{"type":"Feature","id":"LFPX-621358897160deeee147","properties":{"airport":"LFPX","name":"LFPX AVISO","layer":"Buildings and structures","category":"Buildings","object_type":"Area","style_id":"polygon.building.394446","source_group":"LFPX AVISO","vsmr_group_ids":[],"geometry_role":"filled_region"},"geometry":{"type":"Polygon","coordinates":[[[1.983798889,48.840293889],[1.983852222,48.840410556],[1.983963333,48.840390833],[1.983989444,48.840450556],[1.983624444,48.840518611],[1.983544722,48.840344167],[1.983798889,48.840293889]]]}},{"type":"Feature","id":"LFPX-afa63b2402c9d0088925","properties":{"airport":"LFPX","name":"LFPX AVISO","layer":"Buildings and structures","category":"Buildings","object_type":"Area","style_id":"polygon.building.394446","source_group":"LFPX AVISO","vsmr_group_ids":[],"geometry_role":"filled_region"},"geometry":{"type":"Polygon","coordinates":[[[1.984371111,48.8401825],[1.984416667,48.840285278],[1.984483611,48.840273333],[1.984521389,48.840363889],[1.984467222,48.840374167],[1.984460278,48.840358333],[1.984068056,48.840435],[1.983989444,48.840258889],[1.984371111,48.8401825]]]}},{"type":"Feature","id":"LFPX-9b4d8d0c81300692592b","properties":{"airport":"LFPX","name":"LFPX Groundlayout AVISO","layer":"Guidance lines","category":"Runway Border","object_type":"Line","style_id":"line.runwayborder.808080","source_group":"LFPX Groundlayout AVISO","vsmr_group_ids":[],"geometry_role":"linework"},"geometry":{"type":"MultiLineString","coordinates":[[[1.9769775,48.840756944],[1.977073889,48.840787222],[1.977008611,48.8407325]],[[1.977101667,48.840650833],[1.977203611,48.840684167],[1.9771325,48.840626944]],[[1.97723,48.8405475],[1.977329722,48.8405775],[1.9772625,48.840522222]],[[1.983808611,48.841449722],[1.983712778,48.841481111],[1.983819167,48.84148]],[[1.983891389,48.841668333],[1.983790556,48.841700556],[1.983904722,48.841698611]],[[1.983974722,48.841885],[1.983878889,48.841917222],[1.983984167,48.841916111]],[[1.984056667,48.842103611],[1.9839625,48.842135278],[1.984067778,48.842134444]],[[1.983962778,48.844304722],[1.983860556,48.8442725],[1.983931667,48.844328333]],[[1.984091111,48.844199722],[1.9839875,48.844168611],[1.984056667,48.844224444]],[[1.984214722,48.844091944],[1.984113611,48.844062222],[1.984181111,48.844116944]]]}},{"type":"Feature","id":"LFPX-5e9416f727507579062e","properties":{"airport":"LFPX","name":"05","layer":"Labels","category":"Taxiways","object_type":"Label","style_id":"label.taxiways","source_group":"LFPX Taxiways","vsmr_group_ids":[],"geometry_role":"text_label","text-field":"05"},"geometry":{"type":"Point","coordinates":[1.976575556,48.840392778]}},{"type":"Feature","id":"LFPX-e61992bfb4be5920e014","properties":{"airport":"LFPX","name":"23","layer":"Labels","category":"Taxiways","object_type":"Label","style_id":"label.taxiways","source_group":"LFPX Taxiways","vsmr_group_ids":[],"geometry_role":"text_label","text-field":"23"},"geometry":{"type":"Point","coordinates":[1.984781944,48.8446025]}},{"type":"Feature","id":"LFPX-1d41422f71e3acfffa85","properties":{"airport":"LFPX","name":"10","layer":"Labels","category":"Taxiways","object_type":"Label","style_id":"label.taxiways","source_group":"LFPX Taxiways","vsmr_group_ids":[],"geometry_role":"text_label","text-field":"10"},"geometry":{"type":"Point","coordinates":[1.976831667,48.842961944]}},{"type":"Feature","id":"LFPX-4d80fa0a943425a3e33f","properties":{"airport":"LFPX","name":"28","layer":"Labels","category":"Taxiways","object_type":"Label","style_id":"label.taxiways","source_group":"LFPX Taxiways","vsmr_group_ids":[],"geometry_role":"text_label","text-field":"28"},"geometry":{"type":"Point","coordinates":[1.985375,48.8415825]}},{"type":"Feature","id":"LFPX-b0792d06be4fee71e2b6","properties":{"airport":"LFPX","name":"A1","layer":"Labels","category":"Taxiways","object_type":"Label","style_id":"label.taxiways","source_group":"LFPX Taxiways","vsmr_group_ids":[],"geometry_role":"text_label","text-field":"A1"},"geometry":{"type":"Point","coordinates":[1.976952778,48.840104167]}},{"type":"Feature","id":"LFPX-be3c7da36b79230da056","properties":{"airport":"LFPX","name":"A","layer":"Labels","category":"Taxiways","object_type":"Label","style_id":"label.taxiways","source_group":"LFPX Taxiways","vsmr_group_ids":[],"geometry_role":"text_label","text-field":"A"},"geometry":{"type":"Point","coordinates":[1.978084722,48.840555]}},{"type":"Feature","id":"LFPX-cc8d7bb7f5dcda293163","properties":{"airport":"LFPX","name":"A2","layer":"Labels","category":"Taxiways","object_type":"Label","style_id":"label.taxiways","source_group":"LFPX Taxiways","vsmr_group_ids":[],"geometry_role":"text_label","text-field":"A2"},"geometry":{"type":"Point","coordinates":[1.978826111,48.841086944]}},{"type":"Feature","id":"LFPX-dc529c80aa311806f006","properties":{"airport":"LFPX","name":"A","layer":"Labels","category":"Taxiways","object_type":"Label","style_id":"label.taxiways","source_group":"LFPX Taxiways","vsmr_group_ids":[],"geometry_role":"text_label","text-field":"A"},"geometry":{"type":"Point","coordinates":[1.979648056,48.841357222]}},{"type":"Feature","id":"LFPX-ae7427ea663cc081187a","properties":{"airport":"LFPX","name":"A3","layer":"Labels","category":"Taxiways","object_type":"Label","style_id":"label.taxiways","source_group":"LFPX Taxiways","vsmr_group_ids":[],"geometry_role":"text_label","text-field":"A3"},"geometry":{"type":"Point","coordinates":[1.980052222,48.841717778]}},{"type":"Feature","id":"LFPX-71d0d22707688c98d2f5","properties":{"airport":"LFPX","name":"B3","layer":"Labels","category":"Taxiways","object_type":"Label","style_id":"label.taxiways","source_group":"LFPX Taxiways","vsmr_group_ids":[],"geometry_role":"text_label","text-field":"B3"},"geometry":{"type":"Point","coordinates":[1.9807125,48.841798889]}},{"type":"Feature","id":"LFPX-2b99d4d51fafa690b495","properties":{"airport":"LFPX","name":"B","layer":"Labels","category":"Taxiways","object_type":"Label","style_id":"label.taxiways","source_group":"LFPX Taxiways","vsmr_group_ids":[],"geometry_role":"text_label","text-field":"B"},"geometry":{"type":"Point","coordinates":[1.981871389,48.841474444]}},{"type":"Feature","id":"LFPX-ead0d24111d94b7008d0","properties":{"airport":"LFPX","name":"B4","layer":"Labels","category":"Taxiways","object_type":"Label","style_id":"label.taxiways","source_group":"LFPX Taxiways","vsmr_group_ids":[],"geometry_role":"text_label","text-field":"B4"},"geometry":{"type":"Point","coordinates":[1.982976389,48.841420278]}},{"type":"Feature","id":"LFPX-37f54197e37b65f37194","properties":{"airport":"LFPX","name":"B","layer":"Labels","category":"Taxiways","object_type":"Label","style_id":"label.taxiways","source_group":"LFPX Taxiways","vsmr_group_ids":[],"geometry_role":"text_label","text-field":"B"},"geometry":{"type":"Point","coordinates":[1.984094722,48.841113889]}},{"type":"Feature","id":"LFPX-26558e770b0e0311097a","properties":{"airport":"LFPX","name":"B5","layer":"Labels","category":"Taxiways","object_type":"Label","style_id":"label.taxiways","source_group":"LFPX Taxiways","vsmr_group_ids":[],"geometry_role":"text_label","text-field":"B5"},"geometry":{"type":"Point","coordinates":[1.985361389,48.841041667]}},{"type":"Feature","id":"LFPX-461dd16d0358c13ccc4b","properties":{"airport":"LFPX","name":"N2","layer":"Labels","category":"Taxiways","object_type":"Label","style_id":"label.taxiways","source_group":"LFPX Taxiways","vsmr_group_ids":[],"geometry_role":"text_label","text-field":"N2"},"geometry":{"type":"Point","coordinates":[1.983205556,48.842511111]}},{"type":"Feature","id":"LFPX-05fde36e00a88fd3fa4e","properties":{"airport":"LFPX","name":"N1","layer":"Labels","category":"Taxiways","object_type":"Label","style_id":"label.taxiways","source_group":"LFPX Taxiways","vsmr_group_ids":[],"geometry_role":"text_label","text-field":"N1"},"geometry":{"type":"Point","coordinates":[1.982289167,48.842619167]}},{"type":"Feature","id":"LFPX-a94f1e7b57e0c2769e59","properties":{"airport":"LFPX","name":"A4","layer":"Labels","category":"Taxiways","object_type":"Label","style_id":"label.taxiways","source_group":"LFPX Taxiways","vsmr_group_ids":[],"geometry_role":"text_label","text-field":"A4"},"geometry":{"type":"Point","coordinates":[1.9826125,48.84307]}},{"type":"Feature","id":"LFPX-37619ce5c9d36bfb4f75","properties":{"airport":"LFPX","name":"A","layer":"Labels","category":"Taxiways","object_type":"Label","style_id":"label.taxiways","source_group":"LFPX Taxiways","vsmr_group_ids":[],"geometry_role":"text_label","text-field":"A"},"geometry":{"type":"Point","coordinates":[1.984054444,48.843628889]}},{"type":"Feature","id":"LFPX-4edfae09578d1e8b6370","properties":{"airport":"LFPX","name":"A5","layer":"Labels","category":"Taxiways","object_type":"Label","style_id":"label.taxiways","source_group":"LFPX Taxiways","vsmr_group_ids":[],"geometry_role":"text_label","text-field":"A5"},"geometry":{"type":"Point","coordinates":[1.985159444,48.844376944]}},{"type":"Feature","id":"LFPX-ae9f9065c267332cfe71","properties":{"airport":"LFPX","name":"S1","layer":"Labels","category":"Taxiways","object_type":"Label","style_id":"label.taxiways","source_group":"LFPX Taxiways","vsmr_group_ids":[],"geometry_role":"text_label","text-field":"S1"},"geometry":{"type":"Point","coordinates":[1.978731667,48.841952222]}},{"type":"Feature","id":"LFPX-389a7dfe6df0efff12c7","properties":{"airport":"LFPX","name":"S2","layer":"Labels","category":"Taxiways","object_type":"Label","style_id":"label.taxiways","source_group":"LFPX Taxiways","vsmr_group_ids":[],"geometry_role":"text_label","text-field":"S2"},"geometry":{"type":"Point","coordinates":[1.9783275,48.841708889]}},{"type":"Feature","id":"LFPX-64ff2d4474229e847f0a","properties":{"airport":"LFPX","name":"B2","layer":"Labels","category":"Taxiways","object_type":"Label","style_id":"label.taxiways","source_group":"LFPX Taxiways","vsmr_group_ids":[],"geometry_role":"text_label","text-field":"B2"},"geometry":{"type":"Point","coordinates":[1.978219722,48.842222778]}},{"type":"Feature","id":"LFPX-952518b0e3ba56cf7828","properties":{"airport":"LFPX","name":"B","layer":"Labels","category":"Taxiways","object_type":"Label","style_id":"label.taxiways","source_group":"LFPX Taxiways","vsmr_group_ids":[],"geometry_role":"text_label","text-field":"B"},"geometry":{"type":"Point","coordinates":[1.9772225,48.842240556]}},{"type":"Feature","id":"LFPX-d45abc25eb71293af13c","properties":{"airport":"LFPX","name":"B1","layer":"Labels","category":"Taxiways","object_type":"Label","style_id":"label.taxiways","source_group":"LFPX Taxiways","vsmr_group_ids":[],"geometry_role":"text_label","text-field":"B1"},"geometry":{"type":"Point","coordinates":[1.976467778,48.842502222]}},{"type":"Feature","id":"LFPX-537cf871ae3e9aabeec5","properties":{"airport":"LFPX","name":"T","layer":"Labels","category":"Taxiways","object_type":"Label","style_id":"label.taxiways","source_group":"LFPX Taxiways","vsmr_group_ids":[],"geometry_role":"text_label","text-field":"T"},"geometry":{"type":"Point","coordinates":[1.980085,48.840615278]}},{"type":"Feature","id":"LFPX-ae074b42de4c98da00e6","properties":{"airport":"LFPX","name":"AVT","layer":"Labels","category":"Taxiways","object_type":"Label","style_id":"label.taxiways","source_group":"LFPX Taxiways","vsmr_group_ids":[],"geometry_role":"text_label","text-field":"AVT"},"geometry":{"type":"Point","coordinates":[1.981074167,48.840278333]}}]}
