{"type":"FeatureCollection","name":"LFPY AVISO","bbox":[1.94917,48.4667,2.61667,48.6992],"metadata":{"schema":"vSMR AVISO","schema_version":2,"airport":"LFPY","coordinate_reference_system":"WGS84","coordinate_order":"longitude, latitude","default_color_palette":"night","color_palettes":["night","day"],"background_colors":{"night":"#434A4F","day":"#434A4F"},"feature_count":10,"style_count":2,"layer_counts":{"Labels":9,"Reference points":1},"category_counts":{"Labels":10}},"styles":{"label.text.label.labels":{"name":"Labels","layer":"Labels","object_type":"Label","paint":{"text-anchor":"center","text-color":"#CCCCCC","text-halo-color":"#000000","text-halo-width":1,"text-size":12,"zoomLevel":0},"feature_count":9},"point.airport.reference.point.labels":{"name":"Labels","layer":"Reference points","object_type":"Point","paint":{"marker-color":"#808080","marker-size":"small"},"feature_count":1}},"features":[{"type":"Feature","id":"LFPY-airport-reference","properties":{"name":"LFPY","layer":"Reference points","category":"Labels","object_type":"Point","style_id":"point.airport.reference.point.labels","airport":"LFPY","geometry_role":"airport_reference_point","text-field":"LFPY","vsmr_group_ids":[]},"geometry":{"type":"Point","coordinates":[2.332221944,48.596110833]}},{"type":"Feature","id":"LFPY-text-lfff-29571","properties":{"name":"SB","layer":"Labels","category":"Labels","object_type":"Label","style_id":"label.text.label.labels","airport":"LFPY","geometry_role":"text_label","text-field":"SB","vsmr_group_ids":[]},"geometry":{"type":"Point","coordinates":[2.51667,48.4781]}},{"type":"Feature","id":"LFPY-text-lfff-29572","properties":{"name":"B","layer":"Labels","category":"Labels","object_type":"Label","style_id":"label.text.label.labels","airport":"LFPY","geometry_role":"text_label","text-field":"B","vsmr_group_ids":[]},"geometry":{"type":"Point","coordinates":[2.46667,48.5736]}},{"type":"Feature","id":"LFPY-text-lfff-29573","properties":{"name":"R","layer":"Labels","category":"Labels","object_type":"Label","style_id":"label.text.label.labels","airport":"LFPY","geometry_role":"text_label","text-field":"R","vsmr_group_ids":[]},"geometry":{"type":"Point","coordinates":[1.94917,48.4667]}},{"type":"Feature","id":"LFPY-text-lfff-29574","properties":{"name":"BCR","layer":"Labels","category":"Labels","object_type":"Label","style_id":"label.text.label.labels","airport":"LFPY","geometry_role":"text_label","text-field":"BCR","vsmr_group_ids":[]},"geometry":{"type":"Point","coordinates":[2.61667,48.6992]}},{"type":"Feature","id":"LFPY-text-lfff-29575","properties":{"name":"W","layer":"Labels","category":"Labels","object_type":"Label","style_id":"label.text.label.labels","airport":"LFPY","geometry_role":"text_label","text-field":"W","vsmr_group_ids":[]},"geometry":{"type":"Point","coordinates":[2.21667,48.5856]}},{"type":"Feature","id":"LFPY-text-lfff-29576","properties":{"name":"N","layer":"Labels","category":"Labels","object_type":"Label","style_id":"label.text.label.labels","airport":"LFPY","geometry_role":"text_label","text-field":"N","vsmr_group_ids":[]},"geometry":{"type":"Point","coordinates":[2.29583,48.6208]}},{"type":"Feature","id":"LFPY-text-lfff-29577","properties":{"name":"EA","layer":"Labels","category":"Labels","object_type":"Label","style_id":"label.text.label.labels","airport":"LFPY","geometry_role":"text_label","text-field":"EA","vsmr_group_ids":[]},"geometry":{"type":"Point","coordinates":[2.46917,48.6267]}},{"type":"Feature","id":"LFPY-text-lfff-29578","properties":{"name":"E","layer":"Labels","category":"Labels","object_type":"Label","style_id":"label.text.label.labels","airport":"LFPY","geometry_role":"text_label","text-field":"E","vsmr_group_ids":[]},"geometry":{"type":"Point","coordinates":[2.53889,48.6625]}},{"type":"Feature","id":"LFPY-text-lfff-29579","properties":{"name":"SA","layer":"Labels","category":"Labels","object_type":"Label","style_id":"label.text.label.labels","airport":"LFPY","geometry_role":"text_label","text-field":"SA","vsmr_group_ids":[]},"geometry":{"type":"Point","coordinates":[2.32139,48.5683]}}]}
