{"type":"FeatureCollection","name":"LFQA AVISO","bbox":[4.151972222,49.205361111,4.163333333,49.211666667],"metadata":{"schema":"vSMR AVISO","schema_version":2,"airport":"LFQA","coordinate_reference_system":"WGS84","coordinate_order":"longitude, latitude","default_color_palette":"night","color_palettes":["night","day"],"background_colors":{"night":"#434A4F","day":"#434A4F"},"feature_count":5,"style_count":4,"layer_counts":{"Ground linework":2,"Reference points":1,"Runways":2},"category_counts":{"Labels":1,"Runway Concrete":1,"Runway Grass":1,"Runway Markings":2}},"styles":{"line.linework.runway.concrete":{"name":"Runway Concrete","layer":"Ground linework","object_type":"Line","paint":{"stroke":"#111318","stroke-opacity":1.0,"stroke-width":1.5},"feature_count":1},"line.linework.runway.grass":{"name":"Runway Grass","layer":"Ground linework","object_type":"Line","paint":{"stroke":"#008000","stroke-opacity":1.0,"stroke-width":1.5},"feature_count":1},"line.runway.centerline.runway.markings":{"name":"Runway Markings","layer":"Runways","object_type":"Line","paint":{"stroke":"#FEFEFE","stroke-opacity":1.0,"stroke-width":1.5},"feature_count":2},"point.airport.reference.point.labels":{"name":"Labels","layer":"Reference points","object_type":"Point","paint":{"marker-color":"#808080","marker-size":"small"},"feature_count":1}},"features":[{"type":"Feature","id":"LFQA-runway-07R-25L-6766","properties":{"name":"LFQA RWY 07R/25L","layer":"Runways","category":"Runway Markings","object_type":"Line","style_id":"line.runway.centerline.runway.markings","airport":"LFQA","geometry_role":"runway_centerline","vsmr_group_ids":[]},"geometry":{"type":"LineString","coordinates":[[4.152271944,49.206902778],[4.161793889,49.209635833]]}},{"type":"Feature","id":"LFQA-runway-07-25-6767","properties":{"name":"LFQA RWY 07/25","layer":"Runways","category":"Runway Markings","object_type":"Line","style_id":"line.runway.centerline.runway.markings","airport":"LFQA","geometry_role":"runway_centerline","vsmr_group_ids":[]},"geometry":{"type":"LineString","coordinates":[[4.152266944,49.207446944],[4.160207778,49.209730833]]}},{"type":"Feature","id":"lfqa.line.linework.runway.concrete.60482","properties":{"name":"LFQA Groundlayout Reims Prunay","layer":"Ground linework","category":"Runway Concrete","object_type":"Line","style_id":"line.linework.runway.concrete","airport":"LFQA","geometry_role":"linework","vsmr_group_ids":[]},"geometry":{"type":"MultiLineString","coordinates":[[[4.152083333,49.209055556],[4.161277778,49.211666667]],[[4.153722222,49.205944444],[4.162916667,49.208555556]],[[4.152083333,49.209055556],[4.153722222,49.205944444]],[[4.161277778,49.211666667],[4.162916667,49.208555556]]]}},{"type":"Feature","id":"lfqa.line.linework.runway.grass.60486","properties":{"name":"LFQA Groundlayout Reims Prunay","layer":"Ground linework","category":"Runway Grass","object_type":"Line","style_id":"line.linework.runway.grass","airport":"LFQA","geometry_role":"linework","vsmr_group_ids":[]},"geometry":{"type":"MultiLineString","coordinates":[[[4.151972222,49.208444444],[4.161666667,49.21125]],[[4.153638889,49.205361111],[4.163333333,49.208138889]],[[4.151972222,49.208444444],[4.153638889,49.205361111]],[[4.161666667,49.21125],[4.163333333,49.208138889]]]}},{"type":"Feature","id":"LFQA-airport-reference","properties":{"name":"LFQA","layer":"Reference points","category":"Labels","object_type":"Point","style_id":"point.airport.reference.point.labels","airport":"LFQA","geometry_role":"airport_reference_point","text-field":"LFQA","vsmr_group_ids":[]},"geometry":{"type":"Point","coordinates":[4.156666944,49.208610833]}}]}
