{"type":"FeatureCollection","name":"LFQB AVISO","bbox":[4.007694444,48.315583333,4.019861111,48.329694444],"metadata":{"schema":"vSMR AVISO","schema_version":2,"airport":"LFQB","coordinate_reference_system":"WGS84","coordinate_order":"longitude, latitude","feature_count":6,"style_count":4,"layer_counts":{"Ground linework":2,"Reference points":1,"Runways":3},"category_counts":{"Labels":1,"Runway Concrete":1,"Runway Grass":1,"Runway Markings":3}},"styles":{"line.linework.runway.concrete":{"name":"Runway Concrete","layer":"Ground linework","object_type":"Line","paint":{"stroke":"#111318","stroke-opacity":1.0,"stroke-width":1.5},"feature_count":1},"line.linework.runway.grass":{"name":"Runway Grass","layer":"Ground linework","object_type":"Line","paint":{"stroke":"#008000","stroke-opacity":1.0,"stroke-width":1.5},"feature_count":1},"line.runway.centerline.runway.markings":{"name":"Runway Markings","layer":"Runways","object_type":"Line","paint":{"stroke":"#FEFEFE","stroke-opacity":1.0,"stroke-width":1.5},"feature_count":3},"point.airport.reference.point.labels":{"name":"Labels","layer":"Reference points","object_type":"Point","paint":{"marker-color":"#808080","marker-size":"small"},"feature_count":1}},"features":[{"type":"Feature","id":"LFQB-runway-17R-35L-5244","properties":{"name":"LFQB RWY 17R/35L","layer":"Runways","category":"Runway Markings","object_type":"Line","style_id":"line.runway.centerline.runway.markings","airport":"LFQB","geometry_role":"runway_centerline","vsmr_group_ids":[[]]},"geometry":{"type":"LineString","coordinates":[[4.012332778,48.325580833],[4.013652778,48.317538889]]}},{"type":"Feature","id":"LFQB-runway-17-35-5245","properties":{"name":"LFQB RWY 17/35","layer":"Runways","category":"Runway Markings","object_type":"Line","style_id":"line.runway.centerline.runway.markings","airport":"LFQB","geometry_role":"runway_centerline","vsmr_group_ids":[[]]},"geometry":{"type":"LineString","coordinates":[[4.015327778,48.329491944],[4.017585833,48.315752778]]}},{"type":"Feature","id":"LFQB-runway-05-23-5246","properties":{"name":"LFQB RWY 05/23","layer":"Runways","category":"Runway Markings","object_type":"Line","style_id":"line.runway.centerline.runway.markings","airport":"LFQB","geometry_role":"runway_centerline","vsmr_group_ids":[[]]},"geometry":{"type":"LineString","coordinates":[[4.008738889,48.317463889],[4.015618889,48.321075]]}},{"type":"Feature","id":"lfqb.line.linework.runway.concrete.60491","properties":{"name":"LFQB Groundlayout Troyes Barberey","layer":"Ground linework","category":"Runway Concrete","object_type":"Line","style_id":"line.linework.runway.concrete","airport":"LFQB","geometry_role":"linework","vsmr_group_ids":[[]]},"geometry":{"type":"MultiLineString","coordinates":[[[4.014861111,48.324805556],[4.016166667,48.316694444]],[[4.010333333,48.324416667],[4.011638889,48.316305556]],[[4.014861111,48.324805556],[4.010333333,48.324416667]],[[4.016166667,48.316694444],[4.011638889,48.316305556]]]}},{"type":"Feature","id":"lfqb.line.linework.runway.grass.60495","properties":{"name":"LFQB Groundlayout Troyes Barberey","layer":"Ground linework","category":"Runway Grass","object_type":"Line","style_id":"line.linework.runway.grass","airport":"LFQB","geometry_role":"linework","vsmr_group_ids":[[]]},"geometry":{"type":"MultiLineString","coordinates":[[[4.007694444,48.318944444],[4.014583333,48.322555556]],[[4.010305556,48.31625],[4.017222222,48.319833333]],[[4.007694444,48.318944444],[4.010305556,48.31625]],[[4.014583333,48.322555556],[4.017222222,48.319833333]],[[4.017555556,48.329694444],[4.019861111,48.316]],[[4.013055556,48.329305556],[4.015333333,48.315583333]],[[4.017555556,48.329694444],[4.013055556,48.329305556]],[[4.019861111,48.316],[4.015333333,48.315583333]]]}},{"type":"Feature","id":"LFQB-airport-reference","properties":{"name":"LFQB","layer":"Reference points","category":"Labels","object_type":"Point","style_id":"point.airport.reference.point.labels","airport":"LFQB","geometry_role":"airport_reference_point","text-field":"LFQB","vsmr_group_ids":[[]]},"geometry":{"type":"Point","coordinates":[4.016666944,48.321666944]}}]}
