{"type":"FeatureCollection","name":"LFQD AVISO","bbox":[2.802777778,50.323888889,2.802777778,50.323888889],"metadata":{"schema":"vSMR AVISO","schema_version":2,"airport":"LFQD","coordinate_reference_system":"WGS84","coordinate_order":"longitude, latitude","default_color_palette":"night","color_palettes":["night","day"],"feature_count":1,"style_count":1,"layer_counts":{"Reference points":1},"category_counts":{"Labels":1}},"styles":{"point.airport.reference.point.labels":{"name":"Labels","layer":"Reference points","object_type":"Point","paint":{"marker-color":"#808080","marker-size":"small"},"feature_count":1}},"features":[{"type":"Feature","id":"LFQD-airport-reference","properties":{"name":"LFQD","layer":"Reference points","category":"Labels","object_type":"Point","style_id":"point.airport.reference.point.labels","airport":"LFQD","geometry_role":"airport_reference_point","text-field":"LFQD","vsmr_group_ids":[]},"geometry":{"type":"Point","coordinates":[2.802777778,50.323888889]}}]}
