{"type":"FeatureCollection","name":"LFQE AVISO","bbox":[5.666194444,49.215972222,5.676110833,49.231916667],"metadata":{"schema":"vSMR AVISO","schema_version":2,"airport":"LFQE","coordinate_reference_system":"WGS84","coordinate_order":"longitude, latitude","default_color_palette":"night","color_palettes":["night","day"],"feature_count":4,"style_count":4,"layer_counts":{"Ground linework":2,"Reference points":1,"Runways":1},"category_counts":{"Labels":1,"Runway Concrete":1,"Runway Grass":1,"Runway Markings":1}},"styles":{"line.linework.runway.concrete":{"name":"Runway Concrete","layer":"Ground linework","object_type":"Line","paint":{"stroke":"#111318","stroke-opacity":1.0,"stroke-width":1.5},"feature_count":1},"line.linework.runway.grass":{"name":"Runway Grass","layer":"Ground linework","object_type":"Line","paint":{"stroke":"#008000","stroke-opacity":1.0,"stroke-width":1.5},"feature_count":1},"line.runway.centerline.runway.markings":{"name":"Runway Markings","layer":"Runways","object_type":"Line","paint":{"stroke":"#FEFEFE","stroke-opacity":1.0,"stroke-width":1.5},"feature_count":1},"point.airport.reference.point.labels":{"name":"Labels","layer":"Reference points","object_type":"Point","paint":{"marker-color":"#808080","marker-size":"small"},"feature_count":1}},"features":[{"type":"Feature","id":"LFQE-runway-01-19-6768","properties":{"name":"LFQE RWY 01/19","layer":"Runways","category":"Runway Markings","object_type":"Line","style_id":"line.runway.centerline.runway.markings","airport":"LFQE","geometry_role":"runway_centerline","vsmr_group_ids":[[]]},"geometry":{"type":"LineString","coordinates":[[5.668355833,49.216425],[5.673893889,49.231468889]]}},{"type":"Feature","id":"lfqe.line.linework.runway.concrete.40785","properties":{"name":"LFQE Groundlayout Etain","layer":"Ground linework","category":"Runway Concrete","object_type":"Line","style_id":"line.linework.runway.concrete","airport":"LFQE","geometry_role":"linework","vsmr_group_ids":[[]]},"geometry":{"type":"MultiLineString","coordinates":[[[5.666194444,49.216833333],[5.671694444,49.231916667]],[[5.670583333,49.215972222],[5.676083333,49.231083333]],[[5.666194444,49.216833333],[5.670583333,49.215972222]],[[5.671694444,49.231916667],[5.676083333,49.231083333]]]}},{"type":"Feature","id":"lfqe.line.linework.runway.grass.40789","properties":{"name":"LFQE Groundlayout Etain","layer":"Ground linework","category":"Runway Grass","object_type":"Line","style_id":"line.linework.runway.grass","airport":"LFQE","geometry_role":"linework","vsmr_group_ids":[[]]},"geometry":{"type":"MultiLineString","coordinates":[[[5.676083333,49.231083333],[5.670583333,49.215972222]],[[5.671694444,49.231916667],[5.666194444,49.216833333]],[[5.676083333,49.231083333],[5.671694444,49.231916667]],[[5.670583333,49.215972222],[5.666194444,49.216833333]]]}},{"type":"Feature","id":"LFQE-airport-reference","properties":{"name":"LFQE","layer":"Reference points","category":"Labels","object_type":"Point","style_id":"point.airport.reference.point.labels","airport":"LFQE","geometry_role":"airport_reference_point","text-field":"LFQE","vsmr_group_ids":[[]]},"geometry":{"type":"Point","coordinates":[5.676110833,49.229166944]}}]}
