{"type":"FeatureCollection","name":"LFQF AVISO","bbox":[4.261110833,46.971084722,4.264894444,46.972210833],"metadata":{"schema":"vSMR AVISO","schema_version":2,"airport":"LFQF","coordinate_reference_system":"WGS84","coordinate_order":"longitude, latitude","default_color_palette":"night","color_palettes":["night","day"],"feature_count":4,"style_count":2,"layer_counts":{"Labels":3,"Reference points":1},"category_counts":{"Labels":4}},"styles":{"label.text.label.labels":{"name":"Labels","layer":"Labels","object_type":"Label","paint":{"text-anchor":"center","text-color":"#CCCCCC","text-halo-color":"#000000","text-halo-width":1,"text-size":12,"zoomLevel":8},"feature_count":3},"point.airport.reference.point.labels":{"name":"Labels","layer":"Reference points","object_type":"Point","paint":{"marker-color":"#808080","marker-size":"small"},"feature_count":1}},"features":[{"type":"Feature","id":"LFQF-airport-reference","properties":{"name":"LFQF","layer":"Reference points","category":"Labels","object_type":"Point","style_id":"point.airport.reference.point.labels","airport":"LFQF","geometry_role":"airport_reference_point","text-field":"LFQF","vsmr_group_ids":[]},"geometry":{"type":"Point","coordinates":[4.261110833,46.971110833]}},{"type":"Feature","id":"LFQF-text-lfff-29608","properties":{"name":"ACB","layer":"Labels","category":"Labels","object_type":"Label","style_id":"label.text.label.labels","airport":"LFQF","geometry_role":"text_label","text-field":"ACB","vsmr_group_ids":[]},"geometry":{"type":"Point","coordinates":[4.264043056,46.972210833]}},{"type":"Feature","id":"LFQF-text-lfff-29609","properties":{"name":"Hangars","layer":"Labels","category":"Labels","object_type":"Label","style_id":"label.text.label.labels","airport":"LFQF","geometry_role":"text_label","text-field":"Hangars","vsmr_group_ids":[]},"geometry":{"type":"Point","coordinates":[4.264894444,46.971921944]}},{"type":"Feature","id":"LFQF-text-lfff-29610","properties":{"name":"H","layer":"Labels","category":"Labels","object_type":"Label","style_id":"label.text.label.labels","airport":"LFQF","geometry_role":"text_label","text-field":"H","vsmr_group_ids":[]},"geometry":{"type":"Point","coordinates":[4.264086667,46.971084722]}}]}
