{"type":"FeatureCollection","name":"LFQI AVISO","bbox":[2.865,50.1058,3.41722,50.3153],"metadata":{"schema":"vSMR AVISO","schema_version":2,"airport":"LFQI","coordinate_reference_system":"WGS84","coordinate_order":"longitude, latitude","feature_count":7,"style_count":1,"layer_counts":{"Labels":7},"category_counts":{"Labels":7}},"styles":{"label.text.label.labels":{"name":"Labels","layer":"Labels","object_type":"Label","paint":{"text-anchor":"center","text-color":"#CCCCCC","text-halo-color":"#000000","text-halo-width":1,"text-size":12},"feature_count":7}},"features":[{"type":"Feature","id":"LFQI-text-lfff-29612","properties":{"name":"SW","layer":"Labels","category":"Labels","object_type":"Label","style_id":"label.text.label.labels","airport":"LFQI","geometry_role":"text_label","text-field":"SW","vsmr_group_ids":[[]]},"geometry":{"type":"Point","coordinates":[2.87111,50.1058]}},{"type":"Feature","id":"LFQI-text-lfff-29613","properties":{"name":"NW","layer":"Labels","category":"Labels","object_type":"Label","style_id":"label.text.label.labels","airport":"LFQI","geometry_role":"text_label","text-field":"NW","vsmr_group_ids":[[]]},"geometry":{"type":"Point","coordinates":[2.89861,50.3153]}},{"type":"Feature","id":"LFQI-text-lfff-29614","properties":{"name":"W","layer":"Labels","category":"Labels","object_type":"Label","style_id":"label.text.label.labels","airport":"LFQI","geometry_role":"text_label","text-field":"W","vsmr_group_ids":[[]]},"geometry":{"type":"Point","coordinates":[2.865,50.2053]}},{"type":"Feature","id":"LFQI-text-lfff-29615","properties":{"name":"S","layer":"Labels","category":"Labels","object_type":"Label","style_id":"label.text.label.labels","airport":"LFQI","geometry_role":"text_label","text-field":"S","vsmr_group_ids":[[]]},"geometry":{"type":"Point","coordinates":[3.12725,50.1442]}},{"type":"Feature","id":"LFQI-text-lfff-29616","properties":{"name":"E","layer":"Labels","category":"Labels","object_type":"Label","style_id":"label.text.label.labels","airport":"LFQI","geometry_role":"text_label","text-field":"E","vsmr_group_ids":[[]]},"geometry":{"type":"Point","coordinates":[3.39583,50.1922]}},{"type":"Feature","id":"LFQI-text-lfff-29617","properties":{"name":"SE","layer":"Labels","category":"Labels","object_type":"Label","style_id":"label.text.label.labels","airport":"LFQI","geometry_role":"text_label","text-field":"SE","vsmr_group_ids":[[]]},"geometry":{"type":"Point","coordinates":[3.41667,50.1203]}},{"type":"Feature","id":"LFQI-text-lfff-29618","properties":{"name":"NE","layer":"Labels","category":"Labels","object_type":"Label","style_id":"label.text.label.labels","airport":"LFQI","geometry_role":"text_label","text-field":"NE","vsmr_group_ids":[[]]},"geometry":{"type":"Point","coordinates":[3.41722,50.2567]}}]}
