{"type":"FeatureCollection","name":"LFQL AVISO","bbox":[2.819721944,50.466388889,2.819721944,50.466388889],"metadata":{"schema":"vSMR AVISO","schema_version":2,"airport":"LFQL","coordinate_reference_system":"WGS84","coordinate_order":"longitude, latitude","default_color_palette":"night","color_palettes":["night","day"],"background_colors":{"night":"#434A4F","day":"#434A4F"},"feature_count":1,"style_count":1,"layer_counts":{"Reference points":1},"category_counts":{"Labels":1}},"styles":{"point.airport.reference.point.labels":{"name":"Labels","layer":"Reference points","object_type":"Point","paint":{"marker-color":"#808080","marker-size":"small"},"feature_count":1}},"features":[{"type":"Feature","id":"LFQL-airport-reference","properties":{"name":"LFQL","layer":"Reference points","category":"Labels","object_type":"Point","style_id":"point.airport.reference.point.labels","airport":"LFQL","geometry_role":"airport_reference_point","text-field":"LFQL","vsmr_group_ids":[]},"geometry":{"type":"Point","coordinates":[2.819721944,50.466388889]}}]}
