{"type":"FeatureCollection","name":"LFQM AVISO","bbox":[6.077916667,47.203222222,6.0915,47.211555556],"metadata":{"schema":"vSMR AVISO","schema_version":2,"airport":"LFQM","coordinate_reference_system":"WGS84","coordinate_order":"longitude, latitude","default_color_palette":"night","color_palettes":["night","day"],"feature_count":3,"style_count":3,"layer_counts":{"Ground linework":1,"Reference points":1,"Runways":1},"category_counts":{"Labels":1,"Runway Concrete":1,"Runway Markings":1}},"styles":{"line.linework.runway.concrete":{"name":"Runway Concrete","layer":"Ground linework","object_type":"Line","paint":{"stroke":"#111318","stroke-opacity":1.0,"stroke-width":1.5},"feature_count":1},"line.runway.centerline.runway.markings":{"name":"Runway Markings","layer":"Runways","object_type":"Line","paint":{"stroke":"#FEFEFE","stroke-opacity":1.0,"stroke-width":1.5},"feature_count":1},"point.airport.reference.point.labels":{"name":"Labels","layer":"Reference points","object_type":"Point","paint":{"marker-color":"#808080","marker-size":"small"},"feature_count":1}},"features":[{"type":"Feature","id":"LFQM-runway-05-23-6754","properties":{"name":"LFQM RWY 05/23","layer":"Runways","category":"Runway Markings","object_type":"Line","style_id":"line.runway.centerline.runway.markings","airport":"LFQM","geometry_role":"runway_centerline","vsmr_group_ids":[]},"geometry":{"type":"LineString","coordinates":[[6.079246944,47.204643889],[6.090221944,47.210225]]}},{"type":"Feature","id":"lfqm.line.linework.runway.concrete.40794","properties":{"name":"LFQM Groundlayout Bezancon","layer":"Ground linework","category":"Runway Concrete","object_type":"Line","style_id":"line.linework.runway.concrete","airport":"LFQM","geometry_role":"linework","vsmr_group_ids":[]},"geometry":{"type":"MultiLineString","coordinates":[[[6.077916667,47.205972222],[6.088916667,47.211555556]],[[6.0805,47.203222222],[6.0915,47.208833333]],[[6.077916667,47.205972222],[6.0805,47.203222222]],[[6.088916667,47.211555556],[6.0915,47.208833333]]]}},{"type":"Feature","id":"LFQM-airport-reference","properties":{"name":"LFQM","layer":"Reference points","category":"Labels","object_type":"Point","style_id":"point.airport.reference.point.labels","airport":"LFQM","geometry_role":"airport_reference_point","text-field":"LFQM","vsmr_group_ids":[]},"geometry":{"type":"Point","coordinates":[6.080555833,47.205277778]}}]}
