{"type":"FeatureCollection","name":"LFQN AVISO","bbox":[2.234443889,50.728610833,2.234443889,50.728610833],"metadata":{"schema":"vSMR AVISO","schema_version":2,"airport":"LFQN","coordinate_reference_system":"WGS84","coordinate_order":"longitude, latitude","feature_count":1,"style_count":1,"layer_counts":{"Reference points":1},"category_counts":{"Labels":1}},"styles":{"point.airport.reference.point.labels":{"name":"Labels","layer":"Reference points","object_type":"Point","paint":{"marker-color":"#808080","marker-size":"small"},"feature_count":1}},"features":[{"type":"Feature","id":"LFQN-airport-reference","properties":{"name":"LFQN","layer":"Reference points","category":"Labels","object_type":"Point","style_id":"point.airport.reference.point.labels","airport":"LFQN","geometry_role":"airport_reference_point","text-field":"LFQN","vsmr_group_ids":[[]]},"geometry":{"type":"Point","coordinates":[2.234443889,50.728610833]}}]}
