{"type":"FeatureCollection","name":"LFQP AVISO","bbox":[7.198166667,48.76425,7.214222222,48.772944444],"metadata":{"schema":"vSMR AVISO","schema_version":2,"airport":"LFQP","coordinate_reference_system":"WGS84","coordinate_order":"longitude, latitude","default_color_palette":"night","color_palettes":["night","day"],"feature_count":3,"style_count":3,"layer_counts":{"Ground linework":1,"Reference points":1,"Runways":1},"category_counts":{"Labels":1,"Runway Concrete":1,"Runway Markings":1}},"styles":{"line.linework.runway.concrete":{"name":"Runway Concrete","layer":"Ground linework","object_type":"Line","paint":{"stroke":"#111318","stroke-opacity":1.0,"stroke-width":1.5},"feature_count":1},"line.runway.centerline.runway.markings":{"name":"Runway Markings","layer":"Runways","object_type":"Line","paint":{"stroke":"#FEFEFE","stroke-opacity":1.0,"stroke-width":1.5},"feature_count":1},"point.airport.reference.point.labels":{"name":"Labels","layer":"Reference points","object_type":"Point","paint":{"marker-color":"#808080","marker-size":"small"},"feature_count":1}},"features":[{"type":"Feature","id":"LFQP-runway-06-24-6769","properties":{"name":"LFQP RWY 06/24","layer":"Runways","category":"Runway Markings","object_type":"Line","style_id":"line.runway.centerline.runway.markings","airport":"LFQP","geometry_role":"runway_centerline","vsmr_group_ids":[]},"geometry":{"type":"LineString","coordinates":[[7.199335833,48.765691944],[7.213113889,48.771541944]]}},{"type":"Feature","id":"lfqp.line.linework.runway.concrete.40799","properties":{"name":"LFQP Groundlayout Phalsbourg","layer":"Ground linework","category":"Runway Concrete","object_type":"Line","style_id":"line.linework.runway.concrete","airport":"LFQP","geometry_role":"linework","vsmr_group_ids":[]},"geometry":{"type":"MultiLineString","coordinates":[[[7.198166667,48.767138889],[7.211972222,48.772944444]],[[7.200416667,48.76425],[7.214222222,48.770055556]],[[7.198166667,48.767138889],[7.200416667,48.76425]],[[7.211972222,48.772944444],[7.214222222,48.770055556]]]}},{"type":"Feature","id":"LFQP-airport-reference","properties":{"name":"LFQP","layer":"Reference points","category":"Labels","object_type":"Point","style_id":"point.airport.reference.point.labels","airport":"LFQP","geometry_role":"airport_reference_point","text-field":"LFQP","vsmr_group_ids":[]},"geometry":{"type":"Point","coordinates":[7.205,48.768055833]}}]}
