{"type":"FeatureCollection","name":"LFQT AVISO","bbox":[2.6295,50.607666667,2.657888889,50.630027778],"metadata":{"schema":"vSMR AVISO","schema_version":2,"geometry_mode":"shared","airport":"LFQT","coordinate_reference_system":"WGS84","coordinate_order":"longitude, latitude","default_color_palette":"dark","color_palettes":["dark","light"],"background_colors":{"dark":"#434A4F","light":"#434A4F"},"feature_count":26,"style_count":6,"layer_counts":{"Guidance lines":3,"Labels":21,"Runways":2},"category_counts":{"Gates":4,"Landmark 3":1,"Runway centerlines":2,"Runways":1,"Taxiway Border":1,"Taxiways":17},"runways":[{"ends":["04R","22L"],"headings":[36,216],"thresholds":[[2.647960833,50.620905833],[2.656499722,50.627991944]]},{"ends":["04","22"],"headings":[36,216],"thresholds":[[2.634855833,50.612252778],[2.650155833,50.624952778]]}],"saved_active_runways":[],"saved_active_airport_modes":[],"geometry_source":"EuroScope sector pack","source_files":{"LFBB.sct":"fc92f16bc65e3a10b9aeb0cf4d1cae1add9856a4f4f2f653af5abaa0d98c77ed","LFBB.ese":"c7c252d4a274f6fd98bcefd2364b7bb9799385a6e602b62ccbe85cc32042ef62","LFBB.rwy":"d9387919da6406482f154f391ab2d20783610a60930f986e160686134ea8a7df","LFEE.sct":"10fcc997213ee24336ef8bd37f3a9423cb07bbdfb57b1494c61b8310b9641d8a","LFEE.ese":"3391dc3a47130a4a8c12ab895a6743c77668044183634bd45d425513ef5baa2f","LFFF.sct":"cb6698888ce3e8e8be34ea45922976a5fb3ebe1baef7814f040c91785f8641f2","LFFF.ese":"0c1e64c4a0524a6cdc30766699492d362f78011da36daeacfde4597a1761b64c","LFFF.rwy":"a12900bf1f18188caf2e598c44e55b2c0c6fb2c66cee43ff843cbe216617ae96","LFMM.sct":"fc0d266315a59cb027803be613657d9e9875a2a4b912535d08d1c7892a53b194","LFMM.ese":"6a319d7f7c1c2f7e457ae789f4aae2feafec03b24f5d3d95752e96922a971c9e","LFMM.rwy":"236563995d9b5be668ee3fc8d653cf8f33f20a511137652b197e5877b85d5693","LFRR.sct":"c5a55173543154d388eb65309d606b41ac5da09af59142e69878a4cde03add83","LFRR.ese":"e4542200e8322297f954327131cfe6e73da3ac264cf5610ff6871309cd6eeb40"},"airport_reference":[2.64,50.616666944]},"styles":{"line.taxiwayborder.0000ff":{"name":"Taxiway Border","layer":"Guidance lines","object_type":"Line","paint":{"stroke":"#0000FF","stroke-opacity":1,"stroke-width":1,"palette-overrides":{"light":{"stroke":"#0000FF"}}},"feature_count":1},"line.runwayconcrete.555555":{"name":"Runways","layer":"Guidance lines","object_type":"Line","paint":{"stroke":"#111318","stroke-opacity":1,"stroke-width":1,"palette-overrides":{"light":{"stroke":"#555555"}}},"feature_count":1},"line.landmark3.b4424b":{"name":"Landmark 3","layer":"Guidance lines","object_type":"Line","paint":{"stroke":"#B4424B","stroke-opacity":1,"stroke-width":1,"palette-overrides":{"light":{"stroke":"#B4424B"}}},"feature_count":1},"label.gates":{"name":"Gates","layer":"Labels","object_type":"Label","paint":{"text-color":"#CCCCCC","text-font":"Arial","text-size":12,"text-halo-color":"#000000","text-halo-width":1,"text-anchor":"center","zoomLevel":9},"feature_count":4},"label.taxiways":{"name":"Taxiways","layer":"Labels","object_type":"Label","paint":{"text-color":"#CCCCCC","text-font":"Arial","text-size":12,"text-halo-color":"#000000","text-halo-width":1,"text-anchor":"center","zoomLevel":7},"feature_count":17},"runway.reference":{"name":"Runway centerlines","layer":"Runways","object_type":"Line","paint":{"stroke":"#CCCCCC","stroke-width":2,"stroke-opacity":1},"feature_count":2}},"vsmr_groups":[{"id":"stands-and-gates","name":"Stands & gates","visible":true,"accent":"#d4bd39"}],"features":[{"type":"Feature","id":"LFQT-bbc2bc1b3de402390e75","properties":{"airport":"LFQT","name":"LFQT Groundlayout Merville Calone","layer":"Guidance lines","category":"Taxiway Border","object_type":"Line","style_id":"line.taxiwayborder.0000ff","source_group":"LFQT Groundlayout Merville Calone","vsmr_group_ids":[],"geometry_role":"linework"},"geometry":{"type":"MultiLineString","coordinates":[[[2.647166667,50.625722222],[2.646888889,50.625861111]],[[2.647416667,50.625944444],[2.647138889,50.626083333]],[[2.635111111,50.611916667],[2.630027778,50.607666667]],[[2.634611111,50.612166667],[2.6295,50.607916667]],[[2.635111111,50.611916667],[2.634611111,50.612166667]],[[2.630027778,50.607666667],[2.6295,50.607916667]],[[2.650111111,50.62525],[2.654555556,50.629]],[[2.650638889,50.625],[2.655055556,50.62875]],[[2.650111111,50.62525],[2.650638889,50.625]],[[2.654555556,50.629],[2.655055556,50.62875]],[[2.634638889,50.611777778],[2.636805556,50.611388889]],[[2.634527778,50.6115],[2.636694444,50.611138889]],[[2.634638889,50.611777778],[2.634527778,50.6115]],[[2.636805556,50.611388889],[2.636694444,50.611138889]],[[2.637555556,50.617472222],[2.636416667,50.618305556]],[[2.637888889,50.617638889],[2.636722222,50.6185]],[[2.637555556,50.617472222],[2.637888889,50.617638889]],[[2.636416667,50.618305556],[2.636722222,50.6185]],[[2.640694444,50.616888889],[2.641944444,50.616]],[[2.640388889,50.616722222],[2.641361111,50.616027778]],[[2.640694444,50.616888889],[2.640388889,50.616722222]],[[2.641944444,50.616],[2.64075,50.615305556]],[[2.641361111,50.616027778],[2.640472222,50.615527778]],[[2.64075,50.615305556],[2.640472222,50.615527778]],[[2.643666667,50.6195],[2.64175,50.620916667]],[[2.643972222,50.619666667],[2.642083333,50.621083333]],[[2.643666667,50.6195],[2.643972222,50.619666667]],[[2.64175,50.620916667],[2.642083333,50.621083333]],[[2.657555556,50.628083333],[2.657888889,50.626722222]],[[2.657138889,50.628055556],[2.657472222,50.626666667]],[[2.657555556,50.628083333],[2.657138889,50.628055556]],[[2.657888889,50.626722222],[2.657472222,50.626666667]],[[2.634694444,50.612138889],[2.634333333,50.612277778]],[[2.634944444,50.612361111],[2.634583333,50.6125]],[[2.634333333,50.612277778],[2.633,50.612861111]],[[2.634583333,50.6125],[2.633333333,50.613055556]],[[2.633,50.612861111],[2.632527778,50.613444444]],[[2.633333333,50.613055556],[2.633027778,50.613416667]],[[2.632527778,50.613444444],[2.637555556,50.617666667]],[[2.633027778,50.613416667],[2.637722222,50.617361111]],[[2.637555556,50.617666667],[2.646361111,50.625055556]],[[2.638,50.617583333],[2.646833333,50.625]],[[2.646638889,50.625277778],[2.647166667,50.625722222]],[[2.646833333,50.625],[2.647638889,50.625666667]],[[2.647416667,50.625944444],[2.64775,50.626222222]],[[2.647638889,50.625666667],[2.647972222,50.625944444]],[[2.64775,50.626222222],[2.652277778,50.630027778]],[[2.648222222,50.626166667],[2.652361111,50.629666667]],[[2.652277778,50.630027778],[2.656194444,50.628111111]],[[2.652361111,50.629666667],[2.655916667,50.627888889]],[[2.656194444,50.628111111],[2.656527778,50.627944444]],[[2.655916667,50.627888889],[2.656277778,50.627722222]],[[2.651833333,50.624138889],[2.6515,50.624305556]],[[2.652083333,50.624361111],[2.65175,50.624527778]],[[2.6515,50.624305556],[2.650666667,50.624694444]],[[2.65175,50.624527778],[2.650916667,50.624916667]],[[2.650666667,50.624694444],[2.650305556,50.624861111]],[[2.650916667,50.624916667],[2.650583333,50.625055556]],[[2.649972222,50.625],[2.649638889,50.625166667]],[[2.65025,50.625222222],[2.649888889,50.625388889]],[[2.649638889,50.625166667],[2.647972222,50.625944444]],[[2.649888889,50.625388889],[2.648222222,50.626166667]],[[2.646361111,50.625055556],[2.645805556,50.625361111]],[[2.646638889,50.625277778],[2.646388889,50.625416667]],[[2.639388889,50.616111111],[2.639083333,50.616333333]],[[2.639666667,50.616333333],[2.639416667,50.616527778]],[[2.639083333,50.616333333],[2.637722222,50.617361111]],[[2.639416667,50.616527778],[2.638,50.617583333]],[[2.647555556,50.626444444],[2.647305556,50.626222222]],[[2.647222222,50.626583333],[2.646972222,50.626388889]],[[2.647555556,50.626444444],[2.647222222,50.626583333]],[[2.647305556,50.626222222],[2.647138889,50.626083333]],[[2.646972222,50.626388889],[2.646666667,50.626138889]],[[2.646888889,50.625861111],[2.64675,50.62575]],[[2.646666667,50.626138889],[2.646416667,50.625916667]],[[2.64675,50.62575],[2.646416667,50.625916667]],[[2.646472222,50.625472222],[2.646388889,50.625416667]],[[2.646138889,50.625638889],[2.645805556,50.625361111]],[[2.646472222,50.625472222],[2.646138889,50.625638889]]]}},{"type":"Feature","id":"LFQT-836e4e77981e3aba46df","properties":{"airport":"LFQT","name":"LFQT Groundlayout Merville Calone","layer":"Guidance lines","category":"Runways","object_type":"Line","style_id":"line.runwayconcrete.555555","source_group":"LFQT Groundlayout Merville Calone","vsmr_group_ids":[],"geometry_role":"linework"},"geometry":{"type":"MultiLineString","coordinates":[[[2.657472222,50.627555556],[2.657305556,50.627416667]],[[2.656555556,50.627972222],[2.656527778,50.627944444]],[[2.657472222,50.627555556],[2.656555556,50.627972222]],[[2.657277778,50.627416667],[2.652861111,50.623805556]],[[2.656277778,50.627722222],[2.652083333,50.624361111]],[[2.652861111,50.623805556],[2.648722222,50.620472222]],[[2.651833333,50.624138889],[2.647861111,50.620916667]],[[2.648722222,50.620472222],[2.647861111,50.620916667]],[[2.650611111,50.625111111],[2.650583333,50.625055556]],[[2.650277778,50.62525],[2.65025,50.625222222]],[[2.650611111,50.625111111],[2.650277778,50.62525]],[[2.650305556,50.624861111],[2.639833333,50.616027778]],[[2.649972222,50.625],[2.639666667,50.616333333]],[[2.639833333,50.616027778],[2.635166667,50.612083333]],[[2.639388889,50.616111111],[2.634944444,50.612361111]],[[2.635166667,50.612111111],[2.634972222,50.611916667]],[[2.634694444,50.612138889],[2.634638889,50.612055556]],[[2.634972222,50.611916667],[2.634638889,50.612055556]]]}},{"type":"Feature","id":"LFQT-b76643c5a64878a80837","properties":{"airport":"LFQT","name":"LFQT Groundlayout Merville Calone","layer":"Guidance lines","category":"Landmark 3","object_type":"Line","style_id":"line.landmark3.b4424b","source_group":"LFQT Groundlayout Merville Calone","vsmr_group_ids":[],"geometry_role":"linework"},"geometry":{"type":"MultiLineString","coordinates":[[[2.654444444,50.628916667],[2.654944444,50.629333333],[2.657527778,50.628166667],[2.657472222,50.627472222]],[[2.654444444,50.628916667],[2.657472222,50.627472222]],[[2.645,50.625277778],[2.645666667,50.624972222],[2.647694444,50.626638889],[2.647027778,50.626944444]],[[2.645,50.625277778],[2.647027778,50.626944444]]]}},{"type":"Feature","id":"LFQT-0f2383bf8d63c70add0e","properties":{"airport":"LFQT","name":"1","layer":"Labels","category":"Gates","object_type":"Label","style_id":"label.gates","source_group":"LFQT Gates","vsmr_group_ids":["stands-and-gates"],"geometry_role":"text_label","text-field":"1"},"geometry":{"type":"Point","coordinates":[2.646777778,50.626472222]}},{"type":"Feature","id":"LFQT-25e0acb31b2fd39b884e","properties":{"airport":"LFQT","name":"2","layer":"Labels","category":"Gates","object_type":"Label","style_id":"label.gates","source_group":"LFQT Gates","vsmr_group_ids":["stands-and-gates"],"geometry_role":"text_label","text-field":"2"},"geometry":{"type":"Point","coordinates":[2.647,50.626694444]}},{"type":"Feature","id":"LFQT-33fb12548a8572da93c2","properties":{"airport":"LFQT","name":"3","layer":"Labels","category":"Gates","object_type":"Label","style_id":"label.gates","source_group":"LFQT Gates","vsmr_group_ids":["stands-and-gates"],"geometry_role":"text_label","text-field":"3"},"geometry":{"type":"Point","coordinates":[2.646277778,50.625972222]}},{"type":"Feature","id":"LFQT-e1d95f0e0f7cb1d74112","properties":{"airport":"LFQT","name":"4","layer":"Labels","category":"Gates","object_type":"Label","style_id":"label.gates","source_group":"LFQT Gates","vsmr_group_ids":["stands-and-gates"],"geometry_role":"text_label","text-field":"4"},"geometry":{"type":"Point","coordinates":[2.645944444,50.625722222]}},{"type":"Feature","id":"LFQT-932b37f60711d7b075f5","properties":{"airport":"LFQT","name":"B1","layer":"Labels","category":"Taxiways","object_type":"Label","style_id":"label.taxiways","source_group":"LFQT Taxiways","vsmr_group_ids":[],"geometry_role":"text_label","text-field":"B1"},"geometry":{"type":"Point","coordinates":[2.634722222,50.612277778]}},{"type":"Feature","id":"LFQT-96eb83da597118e03b1d","properties":{"airport":"LFQT","name":"B1","layer":"Labels","category":"Taxiways","object_type":"Label","style_id":"label.taxiways","source_group":"LFQT Taxiways","vsmr_group_ids":[],"geometry_role":"text_label","text-field":"B1"},"geometry":{"type":"Point","coordinates":[2.633805556,50.612666667]}},{"type":"Feature","id":"LFQT-40fa60c1ca221cf7f57d","properties":{"airport":"LFQT","name":"B1","layer":"Labels","category":"Taxiways","object_type":"Label","style_id":"label.taxiways","source_group":"LFQT Taxiways","vsmr_group_ids":[],"geometry_role":"text_label","text-field":"B1"},"geometry":{"type":"Point","coordinates":[2.632972222,50.613194444]}},{"type":"Feature","id":"LFQT-c8bd99c2ab527adf4b3d","properties":{"airport":"LFQT","name":"B5","layer":"Labels","category":"Taxiways","object_type":"Label","style_id":"label.taxiways","source_group":"LFQT Taxiways","vsmr_group_ids":[],"geometry_role":"text_label","text-field":"B5"},"geometry":{"type":"Point","coordinates":[2.63525,50.6155]}},{"type":"Feature","id":"LFQT-ce99894fe7a86ac10458","properties":{"airport":"LFQT","name":"B5","layer":"Labels","category":"Taxiways","object_type":"Label","style_id":"label.taxiways","source_group":"LFQT Taxiways","vsmr_group_ids":[],"geometry_role":"text_label","text-field":"B5"},"geometry":{"type":"Point","coordinates":[2.642194444,50.621333333]}},{"type":"Feature","id":"LFQT-5b8703096234eb058752","properties":{"airport":"LFQT","name":"B5","layer":"Labels","category":"Taxiways","object_type":"Label","style_id":"label.taxiways","source_group":"LFQT Taxiways","vsmr_group_ids":[],"geometry_role":"text_label","text-field":"B5"},"geometry":{"type":"Point","coordinates":[2.647055556,50.625416667]}},{"type":"Feature","id":"LFQT-daed3fecdc2379eecce8","properties":{"airport":"LFQT","name":"B5","layer":"Labels","category":"Taxiways","object_type":"Label","style_id":"label.taxiways","source_group":"LFQT Taxiways","vsmr_group_ids":[],"geometry_role":"text_label","text-field":"B5"},"geometry":{"type":"Point","coordinates":[2.647694444,50.625944444]}},{"type":"Feature","id":"LFQT-c7a6116a949dfbc0c465","properties":{"airport":"LFQT","name":"B5","layer":"Labels","category":"Taxiways","object_type":"Label","style_id":"label.taxiways","source_group":"LFQT Taxiways","vsmr_group_ids":[],"geometry_role":"text_label","text-field":"B5"},"geometry":{"type":"Point","coordinates":[2.650111111,50.628]}},{"type":"Feature","id":"LFQT-2ede1ed5ced6dae3c94d","properties":{"airport":"LFQT","name":"B4","layer":"Labels","category":"Taxiways","object_type":"Label","style_id":"label.taxiways","source_group":"LFQT Taxiways","vsmr_group_ids":[],"geometry_role":"text_label","text-field":"B4"},"geometry":{"type":"Point","coordinates":[2.654194444,50.628916667]}},{"type":"Feature","id":"LFQT-3659c716c9cea4e1f08d","properties":{"airport":"LFQT","name":"B4","layer":"Labels","category":"Taxiways","object_type":"Label","style_id":"label.taxiways","source_group":"LFQT Taxiways","vsmr_group_ids":[],"geometry_role":"text_label","text-field":"B4"},"geometry":{"type":"Point","coordinates":[2.656444444,50.627805556]}},{"type":"Feature","id":"LFQT-a131293b301fdf391313","properties":{"airport":"LFQT","name":"B3","layer":"Labels","category":"Taxiways","object_type":"Label","style_id":"label.taxiways","source_group":"LFQT Taxiways","vsmr_group_ids":[],"geometry_role":"text_label","text-field":"B3"},"geometry":{"type":"Point","coordinates":[2.652027778,50.624222222]}},{"type":"Feature","id":"LFQT-91684e30a16f8e41b339","properties":{"airport":"LFQT","name":"B3","layer":"Labels","category":"Taxiways","object_type":"Label","style_id":"label.taxiways","source_group":"LFQT Taxiways","vsmr_group_ids":[],"geometry_role":"text_label","text-field":"B3"},"geometry":{"type":"Point","coordinates":[2.651194444,50.624611111]}},{"type":"Feature","id":"LFQT-915b8ff7acfeadad7c35","properties":{"airport":"LFQT","name":"B3","layer":"Labels","category":"Taxiways","object_type":"Label","style_id":"label.taxiways","source_group":"LFQT Taxiways","vsmr_group_ids":[],"geometry_role":"text_label","text-field":"B3"},"geometry":{"type":"Point","coordinates":[2.650527778,50.624916667]}},{"type":"Feature","id":"LFQT-ee5139d8c31aa8bf2fbb","properties":{"airport":"LFQT","name":"B3","layer":"Labels","category":"Taxiways","object_type":"Label","style_id":"label.taxiways","source_group":"LFQT Taxiways","vsmr_group_ids":[],"geometry_role":"text_label","text-field":"B3"},"geometry":{"type":"Point","coordinates":[2.650027778,50.625166667]}},{"type":"Feature","id":"LFQT-12231c46a69051c59dec","properties":{"airport":"LFQT","name":"B3","layer":"Labels","category":"Taxiways","object_type":"Label","style_id":"label.taxiways","source_group":"LFQT Taxiways","vsmr_group_ids":[],"geometry_role":"text_label","text-field":"B3"},"geometry":{"type":"Point","coordinates":[2.648833333,50.625722222]}},{"type":"Feature","id":"LFQT-32566575fcf9e1f41a15","properties":{"airport":"LFQT","name":"B2","layer":"Labels","category":"Taxiways","object_type":"Label","style_id":"label.taxiways","source_group":"LFQT Taxiways","vsmr_group_ids":[],"geometry_role":"text_label","text-field":"B2"},"geometry":{"type":"Point","coordinates":[2.639472222,50.616277778]}},{"type":"Feature","id":"LFQT-2c076546c608dffce21c","properties":{"airport":"LFQT","name":"B2","layer":"Labels","category":"Taxiways","object_type":"Label","style_id":"label.taxiways","source_group":"LFQT Taxiways","vsmr_group_ids":[],"geometry_role":"text_label","text-field":"B2"},"geometry":{"type":"Point","coordinates":[2.638472222,50.617]}},{"type":"Feature","id":"LFQT-789654831a519951aee5","properties":{"airport":"LFQT","name":"04R/22L","layer":"Runways","category":"Runway centerlines","object_type":"Line","style_id":"runway.reference","source_group":"LFQT Runways","vsmr_group_ids":[],"geometry_role":"runway_centerline"},"geometry":{"type":"LineString","coordinates":[[2.647960833,50.620905833],[2.656499722,50.627991944]]}},{"type":"Feature","id":"LFQT-ffeee38ab79dda894ca0","properties":{"airport":"LFQT","name":"04/22","layer":"Runways","category":"Runway centerlines","object_type":"Line","style_id":"runway.reference","source_group":"LFQT Runways","vsmr_group_ids":[],"geometry_role":"runway_centerline"},"geometry":{"type":"LineString","coordinates":[[2.634855833,50.612252778],[2.650155833,50.624952778]]}}]}
