{"type":"FeatureCollection","name":"LFQX AVISO","bbox":[4.819443889,48.113888889,4.819443889,48.113888889],"metadata":{"schema":"vSMR AVISO","schema_version":2,"airport":"LFQX","coordinate_reference_system":"WGS84","coordinate_order":"longitude, latitude","default_color_palette":"night","color_palettes":["night","day"],"feature_count":1,"style_count":1,"layer_counts":{"Reference points":1},"category_counts":{"Labels":1}},"styles":{"point.airport.reference.point.labels":{"name":"Labels","layer":"Reference points","object_type":"Point","paint":{"marker-color":"#808080","marker-size":"small"},"feature_count":1}},"features":[{"type":"Feature","id":"LFQX-airport-reference","properties":{"name":"LFQX","layer":"Reference points","category":"Labels","object_type":"Point","style_id":"point.airport.reference.point.labels","airport":"LFQX","geometry_role":"airport_reference_point","text-field":"LFQX","vsmr_group_ids":[]},"geometry":{"type":"Point","coordinates":[4.819443889,48.113888889]}}]}
