{"type":"FeatureCollection","name":"LFRD AVISO","bbox":[-2.319166667,48.521944444,-1.973055556,48.687777778],"metadata":{"schema":"vSMR AVISO","schema_version":2,"airport":"LFRD","coordinate_reference_system":"WGS84","coordinate_order":"longitude, latitude","default_color_palette":"night","color_palettes":["night","day"],"feature_count":63,"style_count":14,"layer_counts":{"Airfield surfaces":34,"Ground linework":3,"Labels":23,"Reference points":1,"Runways":2},"category_counts":{"Ao Rapproach5":1,"Building":13,"Gras Surface":1,"Hard Surface1":6,"Hard Surface2":7,"Labels":24,"Runway Border":3,"Runway Concrete":1,"Runway Grass":3,"Runway Markings":2,"Taxiway":1,"Terrain1":1}},"styles":{"area.filled.region.building":{"name":"Building","layer":"Airfield surfaces","object_type":"Area","paint":{"fill":"#394446","fill-opacity":1.0,"stroke":"#394446","stroke-opacity":1.0,"stroke-width":0.5},"feature_count":13},"area.filled.region.gras.surface":{"name":"Gras Surface","layer":"Airfield surfaces","object_type":"Area","paint":{"fill":"#00512F","fill-opacity":1.0,"stroke":"#00512F","stroke-opacity":1.0,"stroke-width":0.5},"feature_count":1},"area.filled.region.hard.surface1":{"name":"Hard Surface1","layer":"Airfield surfaces","object_type":"Area","paint":{"fill":"#969393","fill-opacity":1.0,"stroke":"#969393","stroke-opacity":1.0,"stroke-width":0.5},"feature_count":6},"area.filled.region.hard.surface2":{"name":"Hard Surface2","layer":"Airfield surfaces","object_type":"Area","paint":{"fill":"#595E5B","fill-opacity":1.0,"stroke":"#595E5B","stroke-opacity":1.0,"stroke-width":0.5},"feature_count":7},"area.filled.region.runway.border":{"name":"Runway Border","layer":"Airfield surfaces","object_type":"Area","paint":{"fill":"#808080","fill-opacity":1.0,"stroke":"#808080","stroke-opacity":1.0,"stroke-width":0.5},"feature_count":2},"area.filled.region.runway.concrete":{"name":"Runway Concrete","layer":"Airfield surfaces","object_type":"Area","paint":{"fill":"#111318","fill-opacity":1.0,"stroke":"#111318","stroke-opacity":1.0,"stroke-width":0.5},"feature_count":1},"area.filled.region.runway.grass":{"name":"Runway Grass","layer":"Airfield surfaces","object_type":"Area","paint":{"fill":"#008000","fill-opacity":1.0,"stroke":"#008000","stroke-opacity":1.0,"stroke-width":0.5},"feature_count":3},"area.filled.region.terrain1":{"name":"Terrain1","layer":"Airfield surfaces","object_type":"Area","paint":{"fill":"#574242","fill-opacity":1.0,"stroke":"#574242","stroke-opacity":1.0,"stroke-width":0.5},"feature_count":1},"label.text.label.labels":{"name":"Labels","layer":"Labels","object_type":"Label","paint":{"text-anchor":"center","text-color":"#CCCCCC","text-halo-color":"#000000","text-halo-width":1,"text-size":12,"zoomLevel":7},"feature_count":23},"line.linework.ao.rapproach5":{"name":"Ao Rapproach5","layer":"Ground linework","object_type":"Line","paint":{"stroke":"#7E7E7E","stroke-opacity":1.0,"stroke-width":1.5},"feature_count":1},"line.linework.runway.border":{"name":"Runway Border","layer":"Ground linework","object_type":"Line","paint":{"stroke":"#808080","stroke-opacity":1.0,"stroke-width":1.5},"feature_count":1},"line.linework.taxiway":{"name":"Taxiway","layer":"Ground linework","object_type":"Line","paint":{"stroke":"#4E5A69","stroke-opacity":1.0,"stroke-width":1.5},"feature_count":1},"line.runway.centerline.runway.markings":{"name":"Runway Markings","layer":"Runways","object_type":"Line","paint":{"stroke":"#FEFEFE","stroke-opacity":1.0,"stroke-width":1.5},"feature_count":2},"point.airport.reference.point.labels":{"name":"Labels","layer":"Reference points","object_type":"Point","paint":{"marker-color":"#808080","marker-size":"small"},"feature_count":1}},"features":[{"type":"Feature","id":"lfrd.area.filled.region.gras.surface.40063","properties":{"name":"LFRD AVISO","layer":"Airfield surfaces","category":"Gras Surface","object_type":"Area","style_id":"area.filled.region.gras.surface","airport":"LFRD","geometry_role":"filled_region","vsmr_group_ids":[[]]},"geometry":{"type":"Polygon","coordinates":[[[-2.074430833,48.5780875],[-2.074309444,48.579190556],[-2.074018333,48.580027778],[-2.073685278,48.580863333],[-2.073206944,48.581609722],[-2.072351111,48.582589167],[-2.071550833,48.583394167],[-2.070753333,48.584371944],[-2.070174444,48.585109167],[-2.069798889,48.58579],[-2.069533333,48.586488056],[-2.070083611,48.586535],[-2.071993056,48.587915556],[-2.071888333,48.588116389],[-2.072203333,48.588439722],[-2.075263056,48.591885278],[-2.076626944,48.591845278],[-2.076827778,48.592623889],[-2.0772025,48.592588611],[-2.078884444,48.599078611],[-2.078993611,48.599218056],[-2.079166667,48.599329167],[-2.0795225,48.599459167],[-2.079903889,48.5995675],[-2.080479167,48.599663889],[-2.080832222,48.599732778],[-2.081093889,48.599826389],[-2.081231111,48.599906667],[-2.0809525,48.600081667],[-2.081783056,48.601172222],[-2.083159167,48.60138],[-2.083345278,48.601064722],[-2.085217778,48.599519722],[-2.087130556,48.599306389],[-2.086491389,48.597586667],[-2.086469444,48.597333056],[-2.086618611,48.597096111],[-2.086855556,48.596914167],[-2.087188333,48.596808333],[-2.087408056,48.596623056],[-2.087783056,48.595896111],[-2.087904444,48.5958],[-2.088067222,48.595818056],[-2.089331389,48.596717778],[-2.089473611,48.5967225],[-2.091111111,48.594120278],[-2.091637222,48.592688889],[-2.091666111,48.592494167],[-2.090911389,48.590159167],[-2.090983611,48.590015556],[-2.091187222,48.589862778],[-2.091316389,48.589710556],[-2.091322222,48.589544444],[-2.091188056,48.589378056],[-2.090939167,48.589265556],[-2.090686111,48.58919],[-2.090434167,48.589183333],[-2.090203889,48.589168889],[-2.090087778,48.589113889],[-2.085102778,48.5851075],[-2.084426944,48.584644444],[-2.084026389,48.584480833],[-2.081970556,48.584127778],[-2.081285278,48.584071111],[-2.080948333,48.584099444],[-2.080889722,48.583940278],[-2.080130833,48.580995],[-2.079981667,48.580559722],[-2.079652778,48.579805],[-2.079330833,48.579258333],[-2.079291944,48.579175833],[-2.079295,48.579101944],[-2.079452778,48.578634444],[-2.079455,48.578550833],[-2.079368889,48.578411111],[-2.079346667,48.5783375],[-2.079399167,48.578206111],[-2.079611667,48.577930278],[-2.079666111,48.577788889],[-2.079663889,48.577671111],[-2.078939167,48.576158889],[-2.078874167,48.576089444],[-2.077152222,48.575583333],[-2.076463889,48.575468889],[-2.075972222,48.5754375],[-2.075479722,48.575455],[-2.074865833,48.575551944],[-2.074398889,48.575666667],[-2.073918056,48.575813611],[-2.074273333,48.577020556],[-2.074430833,48.5780875]]]}},{"type":"Feature","id":"lfrd.area.filled.region.terrain1.40154","properties":{"name":"LFRD AVISO","layer":"Airfield surfaces","category":"Terrain1","object_type":"Area","style_id":"area.filled.region.terrain1","airport":"LFRD","geometry_role":"filled_region","vsmr_group_ids":[[]]},"geometry":{"type":"Polygon","coordinates":[[[-2.070139722,48.586363611],[-2.070573889,48.585519722],[-2.070742778,48.585456389],[-2.070873333,48.585433333],[-2.0710125,48.585433611],[-2.079589722,48.588105],[-2.081529444,48.59545],[-2.082313333,48.595403611],[-2.080490278,48.588373333],[-2.084810278,48.589712778],[-2.085241667,48.589842222],[-2.08788,48.590690833],[-2.086751667,48.591072778],[-2.086659444,48.591081111],[-2.086571667,48.591072778],[-2.086500556,48.591031389],[-2.085241389,48.589841944],[-2.084885556,48.589738333],[-2.084982778,48.589793889],[-2.085100556,48.589901944],[-2.086458611,48.591199167],[-2.086402222,48.591310833],[-2.0850925,48.594767778],[-2.085025278,48.594872222],[-2.0849575,48.594929444],[-2.084818056,48.594999444],[-2.084655833,48.595061944],[-2.085152222,48.595250278],[-2.086636389,48.591708889],[-2.086669167,48.591585278],[-2.088616389,48.590909167],[-2.089030278,48.590294722],[-2.090392778,48.589936111],[-2.090465556,48.589900278],[-2.090532222,48.589846111],[-2.090568333,48.589776111],[-2.09058,48.589701944],[-2.090555278,48.589625833],[-2.090494167,48.589567778],[-2.090405833,48.589525833],[-2.090297778,48.589515833],[-2.090186389,48.589531944],[-2.088571667,48.590097222],[-2.080242778,48.587505278],[-2.079676111,48.585179167],[-2.079805556,48.585108333],[-2.079988333,48.585010556],[-2.080189722,48.584937778],[-2.080397222,48.584881667],[-2.080745833,48.584844167],[-2.080669722,48.584583611],[-2.080471111,48.584530278],[-2.080201667,48.584421667],[-2.07981,48.584232222],[-2.079452222,48.584044722],[-2.079366389,48.583966111],[-2.078586111,48.581030833],[-2.078610833,48.580953056],[-2.078657222,48.580885556],[-2.078710833,48.580820833],[-2.078761389,48.580753889],[-2.078774167,48.580699444],[-2.078683889,48.580327778],[-2.078396389,48.580357222],[-2.0779025,48.578536944],[-2.077205278,48.578613333],[-2.077206667,48.578631111],[-2.077159167,48.578674167],[-2.077111944,48.578729167],[-2.077094167,48.578785],[-2.07709,48.578843889],[-2.077113611,48.578895556],[-2.077155,48.578946389],[-2.077299444,48.579063056],[-2.0773275,48.579104722],[-2.077671944,48.580444444],[-2.077382222,48.580477778],[-2.077439444,48.580821111],[-2.0774825,48.580865556],[-2.077555278,48.580903611],[-2.077683056,48.580963889],[-2.077761389,48.581038611],[-2.0793625,48.587216667],[-2.070669722,48.584526667],[-2.070151389,48.585169444],[-2.069630833,48.586268056],[-2.070139722,48.586363611]]]}},{"type":"Feature","id":"lfrd.area.filled.region.hard.surface2.40241","properties":{"name":"LFRD AVISO","layer":"Airfield surfaces","category":"Hard Surface2","object_type":"Area","style_id":"area.filled.region.hard.surface2","airport":"LFRD","geometry_role":"filled_region","vsmr_group_ids":[[]]},"geometry":{"type":"Polygon","coordinates":[[[-2.090408056,48.589935],[-2.090127778,48.5895525],[-2.089242222,48.589858889],[-2.089927222,48.590078889],[-2.090408056,48.589935]]]}},{"type":"Feature","id":"lfrd.area.filled.region.hard.surface2.40246","properties":{"name":"LFRD AVISO","layer":"Airfield surfaces","category":"Hard Surface2","object_type":"Area","style_id":"area.filled.region.hard.surface2","airport":"LFRD","geometry_role":"filled_region","vsmr_group_ids":[[]]},"geometry":{"type":"Polygon","coordinates":[[[-2.086188333,48.592203611],[-2.085641944,48.593726389],[-2.085215556,48.594689722],[-2.085168889,48.594817222],[-2.085078056,48.594896944],[-2.084926944,48.594992222],[-2.084727778,48.595049722],[-2.084624722,48.595061389],[-2.083941389,48.595066944],[-2.083944167,48.59523],[-2.084829722,48.595228056],[-2.0849,48.595246111],[-2.084933611,48.595296667],[-2.084935833,48.595358333],[-2.0848275,48.595988056],[-2.085529722,48.596154167],[-2.086770833,48.593598333],[-2.086478333,48.5935225],[-2.087132778,48.591769444],[-2.086562222,48.591674444],[-2.086593611,48.591583056],[-2.086659444,48.591504444],[-2.086743889,48.591433056],[-2.086836389,48.591373611],[-2.086947222,48.591323056],[-2.087135278,48.591255556],[-2.087314722,48.591196389],[-2.087408611,48.591176667],[-2.087498056,48.591173889],[-2.087591944,48.591179444],[-2.087690278,48.591196389],[-2.087762778,48.591230278],[-2.088861389,48.592211111],[-2.088711389,48.5922875],[-2.088964444,48.592496389],[-2.08946,48.592242222],[-2.089218056,48.592037222],[-2.089061389,48.592111944],[-2.088124167,48.591242778],[-2.088092222,48.591204444],[-2.088080833,48.591152778],[-2.088081111,48.591115833],[-2.088108333,48.591063056],[-2.087598611,48.590913056],[-2.086778056,48.591192222],[-2.086729167,48.591211667],[-2.086540833,48.591329167],[-2.086505556,48.591379722],[-2.086188333,48.592203611]]]}},{"type":"Feature","id":"lfrd.area.filled.region.hard.surface2.40295","properties":{"name":"LFRD AVISO","layer":"Airfield surfaces","category":"Hard Surface2","object_type":"Area","style_id":"area.filled.region.hard.surface2","airport":"LFRD","geometry_role":"filled_region","vsmr_group_ids":[[]]},"geometry":{"type":"Polygon","coordinates":[[[-2.072764167,48.586566944],[-2.071447222,48.586143333],[-2.071063333,48.586679167],[-2.072692222,48.587216667],[-2.073087778,48.586652222],[-2.072833611,48.586576111],[-2.072764167,48.586566944]]]}},{"type":"Feature","id":"lfrd.area.filled.region.hard.surface2.40302","properties":{"name":"LFRD AVISO","layer":"Airfield surfaces","category":"Hard Surface2","object_type":"Area","style_id":"area.filled.region.hard.surface2","airport":"LFRD","geometry_role":"filled_region","vsmr_group_ids":[[]]},"geometry":{"type":"Polygon","coordinates":[[[-2.074597222,48.587161944],[-2.074484167,48.587208889],[-2.074311111,48.587285278],[-2.074081667,48.587368611],[-2.073710278,48.5874925],[-2.073660833,48.587505],[-2.073849722,48.587561389],[-2.074103611,48.587478056],[-2.074297222,48.587408611],[-2.074541944,48.587294167],[-2.074700278,48.587211389],[-2.074801667,48.5871575],[-2.074715,48.587098333],[-2.074597222,48.587161944]]]}},{"type":"Feature","id":"lfrd.area.filled.region.hard.surface2.40316","properties":{"name":"LFRD AVISO","layer":"Airfield surfaces","category":"Hard Surface2","object_type":"Area","style_id":"area.filled.region.hard.surface2","airport":"LFRD","geometry_role":"filled_region","vsmr_group_ids":[[]]},"geometry":{"type":"Polygon","coordinates":[[[-2.075752222,48.587766389],[-2.075752222,48.587817778],[-2.07573,48.587853056],[-2.075667778,48.5878725],[-2.075594444,48.587876944],[-2.074561944,48.587559444],[-2.0744175,48.587773056],[-2.075603333,48.588131111],[-2.075739167,48.588106944],[-2.075771389,48.588106389],[-2.07579,48.588121111],[-2.075799167,48.588173889],[-2.075955278,48.588154167],[-2.075756389,48.58746],[-2.075683333,48.587463889],[-2.075752222,48.587766389]]]}},{"type":"Feature","id":"lfrd.area.filled.region.hard.surface2.40332","properties":{"name":"LFRD AVISO","layer":"Airfield surfaces","category":"Hard Surface2","object_type":"Area","style_id":"area.filled.region.hard.surface2","airport":"LFRD","geometry_role":"filled_region","vsmr_group_ids":[[]]},"geometry":{"type":"Polygon","coordinates":[[[-2.076669444,48.589219444],[-2.077039722,48.590686944],[-2.077030556,48.590717778],[-2.077,48.590734167],[-2.076323333,48.590789722],[-2.076375,48.591045556],[-2.077069167,48.590974167],[-2.077108056,48.590983056],[-2.077141111,48.591010278],[-2.077206944,48.591259167],[-2.077184444,48.591285833],[-2.07714,48.591302222],[-2.077086389,48.591303611],[-2.077025833,48.591326111],[-2.076978889,48.59136],[-2.076954167,48.591406111],[-2.076963333,48.591454722],[-2.076983333,48.591509444],[-2.076974444,48.5915525],[-2.076938611,48.591577778],[-2.076884722,48.591583889],[-2.076871389,48.591531944],[-2.076523056,48.591562778],[-2.076556944,48.591731944],[-2.076896111,48.591706667],[-2.076891667,48.591651944],[-2.076961111,48.591647222],[-2.077021389,48.591623333],[-2.077075,48.591586111],[-2.077088611,48.591526944],[-2.077070556,48.591461944],[-2.077068333,48.591402778],[-2.077101944,48.591374722],[-2.077153333,48.591367222],[-2.077195556,48.591366944],[-2.077246944,48.591400833],[-2.077497222,48.592327778],[-2.078516944,48.592191667],[-2.078363611,48.5916475],[-2.0778425,48.589692778],[-2.077698889,48.589098611],[-2.076669444,48.589219444]]]}},{"type":"Feature","id":"lfrd.area.filled.region.hard.surface2.40374","properties":{"name":"LFRD AVISO","layer":"Airfield surfaces","category":"Hard Surface2","object_type":"Area","style_id":"area.filled.region.hard.surface2","airport":"LFRD","geometry_role":"filled_region","vsmr_group_ids":[[]]},"geometry":{"type":"Polygon","coordinates":[[[-2.07031,48.586512778],[-2.0704,48.586555833],[-2.070483889,48.586433056],[-2.070810833,48.586534167],[-2.0708925,48.586408889],[-2.070369167,48.586256111],[-2.070304444,48.586229722],[-2.070256667,48.586186944],[-2.070123611,48.586341111],[-2.07031,48.586512778]]]}},{"type":"Feature","id":"lfrd.area.filled.region.hard.surface1.40384","properties":{"name":"LFRD AVISO","layer":"Airfield surfaces","category":"Hard Surface1","object_type":"Area","style_id":"area.filled.region.hard.surface1","airport":"LFRD","geometry_role":"filled_region","vsmr_group_ids":[[]]},"geometry":{"type":"Polygon","coordinates":[[[-2.072981667,48.58649],[-2.072948056,48.586534722],[-2.072885833,48.586560556],[-2.072809722,48.586573889],[-2.073082778,48.586665833],[-2.073285278,48.586360278],[-2.073114722,48.586304722],[-2.072981667,48.58649]]]}},{"type":"Feature","id":"lfrd.area.filled.region.hard.surface1.40392","properties":{"name":"LFRD AVISO","layer":"Airfield surfaces","category":"Hard Surface1","object_type":"Area","style_id":"area.filled.region.hard.surface1","airport":"LFRD","geometry_role":"filled_region","vsmr_group_ids":[[]]},"geometry":{"type":"Polygon","coordinates":[[[-2.074710278,48.587099167],[-2.074794722,48.587161667],[-2.075074167,48.586990278],[-2.074991389,48.586932222],[-2.074710278,48.587099167]]]}},{"type":"Feature","id":"lfrd.area.filled.region.hard.surface1.40397","properties":{"name":"LFRD AVISO","layer":"Airfield surfaces","category":"Hard Surface1","object_type":"Area","style_id":"area.filled.region.hard.surface1","airport":"LFRD","geometry_role":"filled_region","vsmr_group_ids":[[]]},"geometry":{"type":"Polygon","coordinates":[[[-2.075684167,48.587473611],[-2.075761389,48.587464444],[-2.075665,48.587100278],[-2.075586944,48.587108333],[-2.075684167,48.587473611]]]}},{"type":"Feature","id":"lfrd.area.filled.region.hard.surface1.40402","properties":{"name":"LFRD AVISO","layer":"Airfield surfaces","category":"Hard Surface1","object_type":"Area","style_id":"area.filled.region.hard.surface1","airport":"LFRD","geometry_role":"filled_region","vsmr_group_ids":[[]]},"geometry":{"type":"Polygon","coordinates":[[[-2.077690833,48.589098333],[-2.077841389,48.589694444],[-2.077826111,48.589603056],[-2.077836944,48.589539167],[-2.077856667,48.589488333],[-2.077906944,48.589413056],[-2.078002778,48.589330556],[-2.078141667,48.589245556],[-2.078206944,48.589218056],[-2.078261111,48.5892025],[-2.078221389,48.589044444],[-2.077690833,48.589098333]]]}},{"type":"Feature","id":"lfrd.area.filled.region.hard.surface1.40414","properties":{"name":"LFRD AVISO","layer":"Airfield surfaces","category":"Hard Surface1","object_type":"Area","style_id":"area.filled.region.hard.surface1","airport":"LFRD","geometry_role":"filled_region","vsmr_group_ids":[[]]},"geometry":{"type":"Polygon","coordinates":[[[-2.079030833,48.592126389],[-2.078980278,48.591955833],[-2.078912222,48.591953889],[-2.07883,48.591946389],[-2.078724722,48.591914444],[-2.078625278,48.5918675],[-2.07852,48.591816667],[-2.078443056,48.591761944],[-2.078391944,48.591713056],[-2.078360833,48.591643611],[-2.078508611,48.592195278],[-2.079030833,48.592126389]]]}},{"type":"Feature","id":"lfrd.area.filled.region.hard.surface1.40426","properties":{"name":"LFRD AVISO","layer":"Airfield surfaces","category":"Hard Surface1","object_type":"Area","style_id":"area.filled.region.hard.surface1","airport":"LFRD","geometry_role":"filled_region","vsmr_group_ids":[[]]},"geometry":{"type":"Polygon","coordinates":[[[-2.070816389,48.585179444],[-2.070865556,48.585120556],[-2.070917778,48.585086111],[-2.0709925,48.585055556],[-2.071056111,48.585040833],[-2.071121667,48.5850375],[-2.071198889,48.585045556],[-2.071267778,48.584941111],[-2.071188889,48.584930833],[-2.071091111,48.584931667],[-2.070984167,48.584945833],[-2.070893889,48.58497],[-2.070806944,48.585013889],[-2.070738889,48.585066111],[-2.070678611,48.585138333],[-2.070593056,48.585298056],[-2.070022778,48.586339722],[-2.070165278,48.586376389],[-2.070731944,48.585335],[-2.070816389,48.585179444]]]}},{"type":"Feature","id":"lfrd.area.filled.region.runway.grass.40446","properties":{"name":"LFRD AVISO","layer":"Airfield surfaces","category":"Runway Grass","object_type":"Area","style_id":"area.filled.region.runway.grass","airport":"LFRD","geometry_role":"filled_region","vsmr_group_ids":[[]]},"geometry":{"type":"Polygon","coordinates":[[[-2.083421667,48.589448889],[-2.083387222,48.589413056],[-2.083293611,48.589393611],[-2.083200278,48.589410278],[-2.083131389,48.589462222],[-2.083116667,48.589553056],[-2.0835525,48.591209444],[-2.083587222,48.5912975],[-2.083690833,48.591356389],[-2.083818889,48.591353333],[-2.083907222,48.591307778],[-2.083936667,48.591216944],[-2.083446389,48.589510556],[-2.083421667,48.589448889]]]}},{"type":"Feature","id":"lfrd.area.filled.region.runway.grass.40460","properties":{"name":"LFRD AVISO","layer":"Airfield surfaces","category":"Runway Grass","object_type":"Area","style_id":"area.filled.region.runway.grass","airport":"LFRD","geometry_role":"filled_region","vsmr_group_ids":[[]]},"geometry":{"type":"Polygon","coordinates":[[[-2.077507778,48.588982222],[-2.077509167,48.588909722],[-2.077535556,48.588864444],[-2.077605,48.588837222],[-2.077798056,48.588809722],[-2.077661111,48.587909444],[-2.075956389,48.588124722],[-2.076184444,48.588989167],[-2.077273611,48.588872222],[-2.077334722,48.588886389],[-2.077381667,48.588919444],[-2.077415,48.588985278],[-2.077445833,48.589127778],[-2.077531667,48.589118333],[-2.077507778,48.588982222]]]}},{"type":"Feature","id":"lfrd.area.filled.region.runway.grass.40475","properties":{"name":"LFRD AVISO","layer":"Airfield surfaces","category":"Runway Grass","object_type":"Area","style_id":"area.filled.region.runway.grass","airport":"LFRD","geometry_role":"filled_region","vsmr_group_ids":[[]]},"geometry":{"type":"Polygon","coordinates":[[[-2.074363889,48.587415833],[-2.074379444,48.587475556],[-2.074402778,48.5875275],[-2.074435556,48.587570833],[-2.074472222,48.587614444],[-2.074503889,48.587646389],[-2.074561667,48.587559444],[-2.0745225,48.58751],[-2.074502778,48.587455556],[-2.0744925,48.587412222],[-2.074484722,48.587356944],[-2.074484722,48.587320833],[-2.07436,48.587379444],[-2.074363889,48.587415833]]]}},{"type":"Feature","id":"lfrd.area.filled.region.runway.concrete.40489","properties":{"name":"LFRD AVISO","layer":"Airfield surfaces","category":"Runway Concrete","object_type":"Area","style_id":"area.filled.region.runway.concrete","airport":"LFRD","geometry_role":"filled_region","vsmr_group_ids":[[]]},"geometry":{"type":"Polygon","coordinates":[[[-2.082323611,48.595453056],[-2.082385278,48.595355833],[-2.082506111,48.595270833],[-2.082636111,48.595239722],[-2.083951667,48.595232778],[-2.083947222,48.595065],[-2.082341389,48.5950625],[-2.082235,48.595056389],[-2.082181389,48.595038611],[-2.082155,48.594994722],[-2.080314722,48.588009167],[-2.087718889,48.590321111],[-2.0877925,48.590383333],[-2.087848056,48.590476389],[-2.087884444,48.590573056],[-2.087898611,48.590666389],[-2.087887222,48.590731389],[-2.087850556,48.590781944],[-2.087795,48.590833056],[-2.087709167,48.590871667],[-2.087582222,48.590914722],[-2.0881075,48.591071389],[-2.088151111,48.590986389],[-2.088193333,48.590946667],[-2.088252222,48.59091],[-2.088427778,48.590859444],[-2.088614444,48.590916389],[-2.089039722,48.5902975],[-2.089218056,48.590342222],[-2.089938889,48.590075278],[-2.089255556,48.589853333],[-2.088469167,48.590118333],[-2.080191111,48.587541667],[-2.077826667,48.578578333],[-2.077236111,48.578643611],[-2.077180278,48.578674444],[-2.077139722,48.578720278],[-2.0771225,48.578780833],[-2.077116389,48.578838889],[-2.077144722,48.578896389],[-2.077188056,48.578953611],[-2.077249722,48.578995556],[-2.077322778,48.5790375],[-2.077353889,48.579067222],[-2.079537222,48.587348611],[-2.071328889,48.584786944],[-2.071078889,48.585153889],[-2.07304,48.585755278],[-2.073145556,48.585810278],[-2.073239722,48.585901111],[-2.073264722,48.586005556],[-2.073236667,48.586122778],[-2.073106111,48.586314167],[-2.073280833,48.586370278],[-2.07338,48.586218889],[-2.073491389,48.586149444],[-2.073670278,48.586092778],[-2.073865833,48.58607],[-2.074088056,48.586084444],[-2.075292222,48.586459444],[-2.075372778,48.586515833],[-2.075416667,48.586586389],[-2.075438611,48.5866175],[-2.075418056,48.586640278],[-2.074984444,48.586934722],[-2.075068056,48.586994444],[-2.075475833,48.58673],[-2.075585833,48.587110833],[-2.075667222,48.587102778],[-2.075573611,48.586744167],[-2.075561389,48.586680278],[-2.075575556,48.586626111],[-2.075613889,48.5865875],[-2.075660833,48.586578333],[-2.079663333,48.587820833],[-2.079826667,48.5884525],[-2.079817222,48.588541667],[-2.079791944,48.588623889],[-2.079661389,48.588753889],[-2.079509722,48.588856944],[-2.079424444,48.588889722],[-2.079293889,48.588910556],[-2.0782025,48.589044722],[-2.078248889,48.589208889],[-2.079357222,48.589075556],[-2.079628333,48.589097222],[-2.079914167,48.589180278],[-2.080061667,48.589323611],[-2.080594167,48.591345556],[-2.0805575,48.5915125],[-2.080483611,48.591633056],[-2.080352778,48.591714444],[-2.080187778,48.5917925],[-2.079998611,48.591846944],[-2.078968889,48.591953889],[-2.079018056,48.592130556],[-2.080156389,48.592005556],[-2.0804725,48.5920325],[-2.080633056,48.592077222],[-2.080745833,48.592126389],[-2.080816667,48.592205],[-2.082143889,48.597265278],[-2.082139444,48.597371944],[-2.082092222,48.597469167],[-2.082021944,48.597561667],[-2.081966944,48.597648889],[-2.081950556,48.597751389],[-2.081980278,48.597850556],[-2.082059722,48.597931389],[-2.082181389,48.598011667],[-2.082358889,48.598081667],[-2.082953889,48.598019167],[-2.082309722,48.5955625],[-2.082323611,48.595453056]]]}},{"type":"Feature","id":"lfrd.area.filled.region.building.40603","properties":{"name":"LFRD AVISO","layer":"Airfield surfaces","category":"Building","object_type":"Area","style_id":"area.filled.region.building","airport":"LFRD","geometry_role":"filled_region","vsmr_group_ids":[[]]},"geometry":{"type":"Polygon","coordinates":[[[-2.0866625,48.595504722],[-2.086687222,48.595458333],[-2.087025,48.595535],[-2.087398333,48.594806389],[-2.087266944,48.594779167],[-2.087119167,48.595048889],[-2.086909444,48.595005278],[-2.087081389,48.594670833],[-2.087225833,48.594706389],[-2.087378889,48.594415833],[-2.087039444,48.594333611],[-2.087184167,48.594058333],[-2.0876375,48.59416],[-2.087878056,48.593673611],[-2.0873675,48.593556667],[-2.087325556,48.593659722],[-2.086767222,48.593531667],[-2.085667778,48.595803333],[-2.086342778,48.595955278],[-2.086571944,48.595485556],[-2.0866625,48.595504722]]]}},{"type":"Feature","id":"lfrd.area.filled.region.building.40624","properties":{"name":"LFRD AVISO","layer":"Airfield surfaces","category":"Building","object_type":"Area","style_id":"area.filled.region.building","airport":"LFRD","geometry_role":"filled_region","vsmr_group_ids":[[]]},"geometry":{"type":"Polygon","coordinates":[[[-2.089460278,48.592222778],[-2.088936389,48.592472222],[-2.089182778,48.592705556],[-2.089566667,48.592853333],[-2.089790278,48.592745],[-2.0896975,48.592452222],[-2.089460278,48.592222778]]]}},{"type":"Feature","id":"lfrd.area.filled.region.building.40631","properties":{"name":"LFRD AVISO","layer":"Airfield surfaces","category":"Building","object_type":"Area","style_id":"area.filled.region.building","airport":"LFRD","geometry_role":"filled_region","vsmr_group_ids":[[]]},"geometry":{"type":"Polygon","coordinates":[[[-2.076203333,48.591594444],[-2.076243889,48.591762778],[-2.0765825,48.591727778],[-2.076542222,48.591559722],[-2.076203333,48.591594444]]]}},{"type":"Feature","id":"lfrd.area.filled.region.building.40636","properties":{"name":"LFRD AVISO","layer":"Airfield surfaces","category":"Building","object_type":"Area","style_id":"area.filled.region.building","airport":"LFRD","geometry_role":"filled_region","vsmr_group_ids":[[]]},"geometry":{"type":"Polygon","coordinates":[[[-2.076036111,48.590810833],[-2.076106944,48.591078333],[-2.076418611,48.591048611],[-2.0763475,48.590772778],[-2.076036111,48.590810833]]]}},{"type":"Feature","id":"lfrd.area.filled.region.building.40641","properties":{"name":"LFRD AVISO","layer":"Airfield surfaces","category":"Building","object_type":"Area","style_id":"area.filled.region.building","airport":"LFRD","geometry_role":"filled_region","vsmr_group_ids":[[]]},"geometry":{"type":"Polygon","coordinates":[[[-2.075568056,48.589554167],[-2.075683611,48.589965833],[-2.076111667,48.589915833],[-2.076008889,48.5894975],[-2.075568056,48.589554167]]]}},{"type":"Feature","id":"lfrd.area.filled.region.building.40646","properties":{"name":"LFRD AVISO","layer":"Airfield surfaces","category":"Building","object_type":"Area","style_id":"area.filled.region.building","airport":"LFRD","geometry_role":"filled_region","vsmr_group_ids":[[]]},"geometry":{"type":"Polygon","coordinates":[[[-2.075720833,48.588998889],[-2.075779167,48.589231667],[-2.075916111,48.5892175],[-2.075853889,48.588982222],[-2.075720833,48.588998889]]]}},{"type":"Feature","id":"lfrd.area.filled.region.building.40651","properties":{"name":"LFRD AVISO","layer":"Airfield surfaces","category":"Building","object_type":"Area","style_id":"area.filled.region.building","airport":"LFRD","geometry_role":"filled_region","vsmr_group_ids":[[]]},"geometry":{"type":"Polygon","coordinates":[[[-2.075337222,48.588498889],[-2.075409167,48.588731111],[-2.075776944,48.588688611],[-2.075715278,48.5884475],[-2.075337222,48.588498889]]]}},{"type":"Feature","id":"lfrd.area.filled.region.building.40656","properties":{"name":"LFRD AVISO","layer":"Airfield surfaces","category":"Building","object_type":"Area","style_id":"area.filled.region.building","airport":"LFRD","geometry_role":"filled_region","vsmr_group_ids":[[]]},"geometry":{"type":"Polygon","coordinates":[[[-2.074417222,48.587733333],[-2.074328889,48.587874444],[-2.074993056,48.588082778],[-2.075024722,48.588042778],[-2.075538056,48.588210556],[-2.075613333,48.588111944],[-2.074417222,48.587733333]]]}},{"type":"Feature","id":"lfrd.area.filled.region.building.40663","properties":{"name":"LFRD AVISO","layer":"Airfield surfaces","category":"Building","object_type":"Area","style_id":"area.filled.region.building","airport":"LFRD","geometry_role":"filled_region","vsmr_group_ids":[[]]},"geometry":{"type":"Polygon","coordinates":[[[-2.073493611,48.587579722],[-2.073583056,48.587610278],[-2.073563333,48.587653889],[-2.073758611,48.587713056],[-2.0738575,48.587564167],[-2.073569722,48.587479167],[-2.073493611,48.587579722]]]}},{"type":"Feature","id":"lfrd.area.filled.region.building.40670","properties":{"name":"LFRD AVISO","layer":"Airfield surfaces","category":"Building","object_type":"Area","style_id":"area.filled.region.building","airport":"LFRD","geometry_role":"filled_region","vsmr_group_ids":[[]]},"geometry":{"type":"Polygon","coordinates":[[[-2.071832778,48.586912222],[-2.071914167,48.5867925],[-2.071194444,48.586568056],[-2.070968333,48.586900278],[-2.071674444,48.58711],[-2.071592778,48.587244722],[-2.072061944,48.587390278],[-2.072307778,48.587059444],[-2.071832778,48.586912222]]]}},{"type":"Feature","id":"lfrd.area.filled.region.building.40679","properties":{"name":"LFRD AVISO","layer":"Airfield surfaces","category":"Building","object_type":"Area","style_id":"area.filled.region.building","airport":"LFRD","geometry_role":"filled_region","vsmr_group_ids":[[]]},"geometry":{"type":"Polygon","coordinates":[[[-2.070495,48.586424722],[-2.070418333,48.586533056],[-2.070716944,48.586622222],[-2.070799722,48.586509722],[-2.070495,48.586424722]]]}},{"type":"Feature","id":"lfrd.area.filled.region.building.40684","properties":{"name":"LFRD AVISO","layer":"Airfield surfaces","category":"Building","object_type":"Area","style_id":"area.filled.region.building","airport":"LFRD","geometry_role":"filled_region","vsmr_group_ids":[[]]},"geometry":{"type":"Polygon","coordinates":[[[-2.069653056,48.586344167],[-2.069649722,48.586424444],[-2.069940556,48.586435278],[-2.069943889,48.586350556],[-2.069653056,48.586344167]]]}},{"type":"Feature","id":"lfrd.area.filled.region.building.40689","properties":{"name":"LFRD AVISO","layer":"Airfield surfaces","category":"Building","object_type":"Area","style_id":"area.filled.region.building","airport":"LFRD","geometry_role":"filled_region","vsmr_group_ids":[[]]},"geometry":{"type":"Polygon","coordinates":[[[-2.085595,48.595891389],[-2.085488333,48.596111944],[-2.085843611,48.596186944],[-2.085825278,48.596215278],[-2.086078611,48.596273889],[-2.086054167,48.596318333],[-2.0862775,48.596366944],[-2.086351111,48.5962375],[-2.086571389,48.596285833],[-2.086528611,48.596389167],[-2.086903333,48.596469722],[-2.087039722,48.596214722],[-2.085595,48.595891389]]]}},{"type":"Feature","id":"lfrd.area.filled.region.runway.border.40702","properties":{"name":"LFRD AVISO","layer":"Airfield surfaces","category":"Runway Border","object_type":"Area","style_id":"area.filled.region.runway.border","airport":"LFRD","geometry_role":"filled_region","vsmr_group_ids":[[]]},"geometry":{"type":"Polygon","coordinates":[[[-2.070623056,48.584726389],[-2.0709825,48.584986389],[-2.071001389,48.584973056],[-2.070641944,48.584714722],[-2.070623056,48.584726389]]]}},{"type":"Feature","id":"lfrd.area.filled.region.runway.border.40707","properties":{"name":"LFRD AVISO","layer":"Airfield surfaces","category":"Runway Border","object_type":"Area","style_id":"area.filled.region.runway.border","airport":"LFRD","geometry_role":"filled_region","vsmr_group_ids":[[]]},"geometry":{"type":"Polygon","coordinates":[[[-2.070544167,48.58483],[-2.070545556,48.584849444],[-2.071075278,48.584866944],[-2.071076667,48.5848475],[-2.070544167,48.58483]]]}},{"type":"Feature","id":"LFRD-runway-17-35-5219","properties":{"name":"LFRD RWY 17/35","layer":"Runways","category":"Runway Markings","object_type":"Line","style_id":"line.runway.centerline.runway.markings","airport":"LFRD","geometry_role":"runway_centerline","vsmr_group_ids":[[]]},"geometry":{"type":"LineString","coordinates":[[-2.082682778,48.598060833],[-2.077555833,48.578627778]]}},{"type":"Feature","id":"LFRD-runway-12-30-5220","properties":{"name":"LFRD RWY 12/30","layer":"Runways","category":"Runway Markings","object_type":"Line","style_id":"line.runway.centerline.runway.markings","airport":"LFRD","geometry_role":"runway_centerline","vsmr_group_ids":[[]]},"geometry":{"type":"LineString","coordinates":[[-2.088946944,48.590499722],[-2.073013889,48.585546944]]}},{"type":"Feature","id":"lfrd.line.linework.taxiway.28134","properties":{"name":"LFRD Groundlayout AVISO","layer":"Ground linework","category":"Taxiway","object_type":"Line","style_id":"line.linework.taxiway","airport":"LFRD","geometry_role":"linework","vsmr_group_ids":[[]]},"geometry":{"type":"MultiLineString","coordinates":[[[-2.076831944,48.589618611],[-2.077169444,48.589269167]],[[-2.076974167,48.590139167],[-2.077304167,48.589796667]],[[-2.077085278,48.590565556],[-2.077513333,48.590393889]],[[-2.077263056,48.591236111],[-2.077585833,48.590893056]],[[-2.085455278,48.594789444],[-2.086018889,48.594911667]],[[-2.085663333,48.5942175],[-2.086299167,48.594348611]],[[-2.085776111,48.593913056],[-2.086453889,48.594045833]],[[-2.085913889,48.593574722],[-2.086618611,48.59373]]]}},{"type":"Feature","id":"lfrd.line.linework.runway.border.28142","properties":{"name":"LFRD Groundlayout AVISO","layer":"Ground linework","category":"Runway Border","object_type":"Line","style_id":"line.linework.runway.border","airport":"LFRD","geometry_role":"linework","vsmr_group_ids":[[]]},"geometry":{"type":"MultiLineString","coordinates":[[[-2.072873889,48.5857025],[-2.0731225,48.585347778]],[[-2.072583056,48.585378056],[-2.072700278,48.585433056]],[[-2.072700278,48.585433056],[-2.072562222,48.585407778]],[[-2.072565556,48.585391667],[-2.072339444,48.585320833]],[[-2.071844167,48.585147778],[-2.071955,48.585198611]],[[-2.071955,48.585198611],[-2.071824722,48.585179167]],[[-2.071828889,48.585163333],[-2.071588333,48.585091389]]]}},{"type":"Feature","id":"lfrd.line.linework.ao.rapproach5.28149","properties":{"name":"LFRD Groundlayout AVISO","layer":"Ground linework","category":"Ao Rapproach5","object_type":"Line","style_id":"line.linework.ao.rapproach5","airport":"LFRD","geometry_role":"linework","vsmr_group_ids":[[]]},"geometry":{"type":"MultiLineString","coordinates":[[[-2.088380278,48.59148],[-2.088160833,48.591586111]],[[-2.086949722,48.591320278],[-2.0868275,48.591174722]],[[-2.086536944,48.591695833],[-2.086394167,48.591670278]]]}},{"type":"Feature","id":"LFRD-airport-reference","properties":{"name":"LFRD","layer":"Reference points","category":"Labels","object_type":"Point","style_id":"point.airport.reference.point.labels","airport":"LFRD","geometry_role":"airport_reference_point","text-field":"LFRD","vsmr_group_ids":[[]]},"geometry":{"type":"Point","coordinates":[-2.08,48.587777778]}},{"type":"Feature","id":"LFRD-text-lfrr-15994","properties":{"name":"TWR","layer":"Labels","category":"Labels","object_type":"Label","style_id":"label.text.label.labels","airport":"LFRD","geometry_role":"text_label","text-field":"TWR","vsmr_group_ids":[[]]},"geometry":{"type":"Point","coordinates":[-2.075654722,48.589503056]}},{"type":"Feature","id":"LFRD-text-lfrr-15995","properties":{"name":"P-2","layer":"Labels","category":"Labels","object_type":"Label","style_id":"label.text.label.labels","airport":"LFRD","geometry_role":"text_label","text-field":"P-2","vsmr_group_ids":[[]]},"geometry":{"type":"Point","coordinates":[-2.077019444,48.588527222]}},{"type":"Feature","id":"LFRD-text-lfrr-15996","properties":{"name":"Terminal","layer":"Labels","category":"Labels","object_type":"Label","style_id":"label.text.label.labels","airport":"LFRD","geometry_role":"text_label","text-field":"Terminal","vsmr_group_ids":[[]]},"geometry":{"type":"Point","coordinates":[-2.0758275,48.591008056]}},{"type":"Feature","id":"LFRD-text-lfrr-15997","properties":{"name":"P-S","layer":"Labels","category":"Labels","object_type":"Label","style_id":"label.text.label.labels","airport":"LFRD","geometry_role":"text_label","text-field":"P-S","vsmr_group_ids":[[]]},"geometry":{"type":"Point","coordinates":[-2.085286944,48.593886389]}},{"type":"Feature","id":"LFRD-text-lfrr-15998","properties":{"name":"Sabena","layer":"Labels","category":"Labels","object_type":"Label","style_id":"label.text.label.labels","airport":"LFRD","geometry_role":"text_label","text-field":"Sabena","vsmr_group_ids":[[]]},"geometry":{"type":"Point","coordinates":[-2.087497778,48.594248889]}},{"type":"Feature","id":"LFRD-text-lfrr-16000","properties":{"name":"ND","layer":"Labels","category":"Labels","object_type":"Label","style_id":"label.text.label.labels","airport":"LFRD","geometry_role":"text_label","text-field":"ND","vsmr_group_ids":[[]]},"geometry":{"type":"Point","coordinates":[-2.072222222,48.676944444]}},{"type":"Feature","id":"LFRD-text-lfrr-16003","properties":{"name":"ED","layer":"Labels","category":"Labels","object_type":"Label","style_id":"label.text.label.labels","airport":"LFRD","geometry_role":"text_label","text-field":"ED","vsmr_group_ids":[[]]},"geometry":{"type":"Point","coordinates":[-1.973055556,48.536944444]}},{"type":"Feature","id":"LFRD-text-lfrr-16004","properties":{"name":"SWD","layer":"Labels","category":"Labels","object_type":"Label","style_id":"label.text.label.labels","airport":"LFRD","geometry_role":"text_label","text-field":"SWD","vsmr_group_ids":[[]]},"geometry":{"type":"Point","coordinates":[-2.232777778,48.521944444]}},{"type":"Feature","id":"LFRD-text-lfrr-16005","properties":{"name":"WJD","layer":"Labels","category":"Labels","object_type":"Label","style_id":"label.text.label.labels","airport":"LFRD","geometry_role":"text_label","text-field":"WJD","vsmr_group_ids":[[]]},"geometry":{"type":"Point","coordinates":[-2.214722222,48.5725]}},{"type":"Feature","id":"LFRD-text-lfrr-16006","properties":{"name":"NWD","layer":"Labels","category":"Labels","object_type":"Label","style_id":"label.text.label.labels","airport":"LFRD","geometry_role":"text_label","text-field":"NWD","vsmr_group_ids":[[]]},"geometry":{"type":"Point","coordinates":[-2.319166667,48.687777778]}},{"type":"Feature","id":"LFRD-text-lfrr-16007","properties":{"name":"LPD","layer":"Labels","category":"Labels","object_type":"Label","style_id":"label.text.label.labels","airport":"LFRD","geometry_role":"text_label","text-field":"LPD","vsmr_group_ids":[[]]},"geometry":{"type":"Point","coordinates":[-2.012777778,48.6]}},{"type":"Feature","id":"LFRD-text-lfrr-16009","properties":{"name":"A","layer":"Labels","category":"Labels","object_type":"Label","style_id":"label.text.label.labels","airport":"LFRD","geometry_role":"text_label","text-field":"A","vsmr_group_ids":[[]]},"geometry":{"type":"Point","coordinates":[-2.072989722,48.586285556]}},{"type":"Feature","id":"LFRD-text-lfrr-16010","properties":{"name":"B","layer":"Labels","category":"Labels","object_type":"Label","style_id":"label.text.label.labels","airport":"LFRD","geometry_role":"text_label","text-field":"B","vsmr_group_ids":[[]]},"geometry":{"type":"Point","coordinates":[-2.074890278,48.586899722]}},{"type":"Feature","id":"LFRD-text-lfrr-16011","properties":{"name":"D","layer":"Labels","category":"Labels","object_type":"Label","style_id":"label.text.label.labels","airport":"LFRD","geometry_role":"text_label","text-field":"D","vsmr_group_ids":[[]]},"geometry":{"type":"Point","coordinates":[-2.0702525,48.585595833]}},{"type":"Feature","id":"LFRD-text-lfrr-16012","properties":{"name":"G","layer":"Labels","category":"Labels","object_type":"Label","style_id":"label.text.label.labels","airport":"LFRD","geometry_role":"text_label","text-field":"G","vsmr_group_ids":[[]]},"geometry":{"type":"Point","coordinates":[-2.083926667,48.595327778]}},{"type":"Feature","id":"LFRD-text-lfrr-16013","properties":{"name":"S1","layer":"Labels","category":"Labels","object_type":"Label","style_id":"label.text.label.labels","airport":"LFRD","geometry_role":"text_label","text-field":"S1","vsmr_group_ids":[[]]},"geometry":{"type":"Point","coordinates":[-2.086291667,48.591694722]}},{"type":"Feature","id":"LFRD-text-lfrr-16014","properties":{"name":"E1","layer":"Labels","category":"Labels","object_type":"Label","style_id":"label.text.label.labels","airport":"LFRD","geometry_role":"text_label","text-field":"E1","vsmr_group_ids":[[]]},"geometry":{"type":"Point","coordinates":[-2.086766944,48.591130556]}},{"type":"Feature","id":"LFRD-text-lfrr-16015","properties":{"name":"E2","layer":"Labels","category":"Labels","object_type":"Label","style_id":"label.text.label.labels","airport":"LFRD","geometry_role":"text_label","text-field":"E2","vsmr_group_ids":[[]]},"geometry":{"type":"Point","coordinates":[-2.088110278,48.591605556]}},{"type":"Feature","id":"LFRD-text-lfrr-16016","properties":{"name":"E","layer":"Labels","category":"Labels","object_type":"Label","style_id":"label.text.label.labels","airport":"LFRD","geometry_role":"text_label","text-field":"E","vsmr_group_ids":[[]]},"geometry":{"type":"Point","coordinates":[-2.087498889,48.590878056]}},{"type":"Feature","id":"LFRD-text-lfrr-16017","properties":{"name":"F","layer":"Labels","category":"Labels","object_type":"Label","style_id":"label.text.label.labels","airport":"LFRD","geometry_role":"text_label","text-field":"F","vsmr_group_ids":[[]]},"geometry":{"type":"Point","coordinates":[-2.089226944,48.589808889]}},{"type":"Feature","id":"LFRD-text-lfrr-16018","properties":{"name":"H","layer":"Labels","category":"Labels","object_type":"Label","style_id":"label.text.label.labels","airport":"LFRD","geometry_role":"text_label","text-field":"H","vsmr_group_ids":[[]]},"geometry":{"type":"Point","coordinates":[-2.079318889,48.592287778]}},{"type":"Feature","id":"LFRD-text-lfrr-16019","properties":{"name":"J","layer":"Labels","category":"Labels","object_type":"Label","style_id":"label.text.label.labels","airport":"LFRD","geometry_role":"text_label","text-field":"J","vsmr_group_ids":[[]]},"geometry":{"type":"Point","coordinates":[-2.078331389,48.588846389]}},{"type":"Feature","id":"LFRD-text-lfrr-16020","properties":{"name":"C","layer":"Labels","category":"Labels","object_type":"Label","style_id":"label.text.label.labels","airport":"LFRD","geometry_role":"text_label","text-field":"C","vsmr_group_ids":[[]]},"geometry":{"type":"Point","coordinates":[-2.075849722,48.587107222]}}]}
