{"type":"FeatureCollection","name":"LFRE AVISO","bbox":[-2.352896944,47.286388889,-2.339138889,47.292194444],"metadata":{"schema":"vSMR AVISO","schema_version":2,"airport":"LFRE","coordinate_reference_system":"WGS84","coordinate_order":"longitude, latitude","feature_count":3,"style_count":3,"layer_counts":{"Ground linework":1,"Reference points":1,"Runways":1},"category_counts":{"Labels":1,"Runway Concrete":1,"Runway Markings":1}},"styles":{"line.linework.runway.concrete":{"name":"Runway Concrete","layer":"Ground linework","object_type":"Line","paint":{"stroke":"#111318","stroke-opacity":1.0,"stroke-width":1.5},"feature_count":1},"line.runway.centerline.runway.markings":{"name":"Runway Markings","layer":"Runways","object_type":"Line","paint":{"stroke":"#FEFEFE","stroke-opacity":1.0,"stroke-width":1.5},"feature_count":1},"point.airport.reference.point.labels":{"name":"Labels","layer":"Reference points","object_type":"Point","paint":{"marker-color":"#808080","marker-size":"small"},"feature_count":1}},"features":[{"type":"Feature","id":"LFRE-runway-11-29-5221","properties":{"name":"LFRE RWY 11/29","layer":"Runways","category":"Runway Markings","object_type":"Line","style_id":"line.runway.centerline.runway.markings","airport":"LFRE","geometry_role":"runway_centerline","vsmr_group_ids":[[]]},"geometry":{"type":"LineString","coordinates":[[-2.352896944,47.289546944],[-2.340863889,47.2871]]}},{"type":"Feature","id":"lfre.line.linework.runway.concrete.28153","properties":{"name":"LFRE Groundlayout La Baule","layer":"Ground linework","category":"Runway Concrete","object_type":"Line","style_id":"line.linework.runway.concrete","airport":"LFRE","geometry_role":"linework","vsmr_group_ids":[[]]},"geometry":{"type":"MultiLineString","coordinates":[[[-2.351055556,47.292194444],[-2.339138889,47.289611111]],[[-2.352361111,47.289],[-2.340444444,47.286388889]],[[-2.351055556,47.292194444],[-2.352361111,47.289]],[[-2.339138889,47.289611111],[-2.340444444,47.286388889]]]}},{"type":"Feature","id":"LFRE-airport-reference","properties":{"name":"LFRE","layer":"Reference points","category":"Labels","object_type":"Point","style_id":"point.airport.reference.point.labels","airport":"LFRE","geometry_role":"airport_reference_point","text-field":"LFRE","vsmr_group_ids":[[]]},"geometry":{"type":"Point","coordinates":[-2.346943889,47.288332778]}}]}
