{"type":"FeatureCollection","name":"LFRG AVISO","bbox":[0.144224722,49.359662778,0.164805833,49.368680833],"metadata":{"schema":"vSMR AVISO","schema_version":2,"geometry_mode":"shared","airport":"LFRG","coordinate_reference_system":"WGS84","coordinate_order":"longitude, latitude","default_color_palette":"dark","color_palettes":["dark","light"],"background_colors":{"dark":"#434A4F","light":"#434A4F"},"feature_count":32,"style_count":3,"layer_counts":{"Labels":31,"Runways":1},"category_counts":{"Gates":29,"Runway centerlines":1,"Taxiways":2},"runways":[{"ends":["12","30"],"headings":[117,297],"thresholds":[[0.144224722,49.368680833],[0.164805833,49.361782778]]}],"saved_active_runways":[],"saved_active_airport_modes":[],"geometry_source":"EuroScope sector pack","source_files":{"LFBB.sct":"fc92f16bc65e3a10b9aeb0cf4d1cae1add9856a4f4f2f653af5abaa0d98c77ed","LFBB.ese":"c7c252d4a274f6fd98bcefd2364b7bb9799385a6e602b62ccbe85cc32042ef62","LFBB.rwy":"d9387919da6406482f154f391ab2d20783610a60930f986e160686134ea8a7df","LFEE.sct":"10fcc997213ee24336ef8bd37f3a9423cb07bbdfb57b1494c61b8310b9641d8a","LFEE.ese":"3391dc3a47130a4a8c12ab895a6743c77668044183634bd45d425513ef5baa2f","LFFF.sct":"cb6698888ce3e8e8be34ea45922976a5fb3ebe1baef7814f040c91785f8641f2","LFFF.ese":"0c1e64c4a0524a6cdc30766699492d362f78011da36daeacfde4597a1761b64c","LFFF.rwy":"a12900bf1f18188caf2e598c44e55b2c0c6fb2c66cee43ff843cbe216617ae96","LFMM.sct":"fc0d266315a59cb027803be613657d9e9875a2a4b912535d08d1c7892a53b194","LFMM.ese":"6a319d7f7c1c2f7e457ae789f4aae2feafec03b24f5d3d95752e96922a971c9e","LFMM.rwy":"236563995d9b5be668ee3fc8d653cf8f33f20a511137652b197e5877b85d5693","LFRR.sct":"c5a55173543154d388eb65309d606b41ac5da09af59142e69878a4cde03add83","LFRR.ese":"e4542200e8322297f954327131cfe6e73da3ac264cf5610ff6871309cd6eeb40"},"airport_reference":[0.159999722,49.363332778]},"styles":{"label.gates":{"name":"Gates","layer":"Labels","object_type":"Label","paint":{"text-color":"#CCCCCC","text-font":"Arial","text-size":12,"text-halo-color":"#000000","text-halo-width":1,"text-anchor":"center","zoomLevel":9},"feature_count":29},"label.taxiways":{"name":"Taxiways","layer":"Labels","object_type":"Label","paint":{"text-color":"#CCCCCC","text-font":"Arial","text-size":12,"text-halo-color":"#000000","text-halo-width":1,"text-anchor":"center","zoomLevel":7},"feature_count":2},"runway.reference":{"name":"Runway centerlines","layer":"Runways","object_type":"Line","paint":{"stroke":"#CCCCCC","stroke-width":2,"stroke-opacity":1},"feature_count":1}},"vsmr_groups":[{"id":"stands-and-gates","name":"Stands & gates","visible":true,"accent":"#d4bd39"}],"features":[{"type":"Feature","id":"LFRG-cb96a63122287cc12eab","properties":{"airport":"LFRG","name":"TWR","layer":"Labels","category":"Gates","object_type":"Label","style_id":"label.gates","source_group":"LFRG Gates","vsmr_group_ids":["stands-and-gates"],"geometry_role":"text_label","text-field":"TWR"},"geometry":{"type":"Point","coordinates":[0.159993056,49.359662778]}},{"type":"Feature","id":"LFRG-99a8e04c13dd6da6997c","properties":{"airport":"LFRG","name":"H2","layer":"Labels","category":"Gates","object_type":"Label","style_id":"label.gates","source_group":"LFRG Gates","vsmr_group_ids":["stands-and-gates"],"geometry_role":"text_label","text-field":"H2"},"geometry":{"type":"Point","coordinates":[0.161511389,49.361077778]}},{"type":"Feature","id":"LFRG-3558bc0d9717f7b3cc76","properties":{"airport":"LFRG","name":"H1","layer":"Labels","category":"Gates","object_type":"Label","style_id":"label.gates","source_group":"LFRG Gates","vsmr_group_ids":["stands-and-gates"],"geometry_role":"text_label","text-field":"H1"},"geometry":{"type":"Point","coordinates":[0.161416389,49.360862222]}},{"type":"Feature","id":"LFRG-4048567e502ddbf1e931","properties":{"airport":"LFRG","name":"D1","layer":"Labels","category":"Gates","object_type":"Label","style_id":"label.gates","source_group":"LFRG Gates","vsmr_group_ids":["stands-and-gates"],"geometry_role":"text_label","text-field":"D1"},"geometry":{"type":"Point","coordinates":[0.160923333,49.360657222]}},{"type":"Feature","id":"LFRG-fa4679739dd3a93977cb","properties":{"airport":"LFRG","name":"C3","layer":"Labels","category":"Gates","object_type":"Label","style_id":"label.gates","source_group":"LFRG Gates","vsmr_group_ids":["stands-and-gates"],"geometry_role":"text_label","text-field":"C3"},"geometry":{"type":"Point","coordinates":[0.160211111,49.361173056]}},{"type":"Feature","id":"LFRG-48409425e262906d815d","properties":{"airport":"LFRG","name":"C2","layer":"Labels","category":"Gates","object_type":"Label","style_id":"label.gates","source_group":"LFRG Gates","vsmr_group_ids":["stands-and-gates"],"geometry_role":"text_label","text-field":"C2"},"geometry":{"type":"Point","coordinates":[0.159577222,49.361429444]}},{"type":"Feature","id":"LFRG-a2e37068f28361765f35","properties":{"airport":"LFRG","name":"C1","layer":"Labels","category":"Gates","object_type":"Label","style_id":"label.gates","source_group":"LFRG Gates","vsmr_group_ids":["stands-and-gates"],"geometry_role":"text_label","text-field":"C1"},"geometry":{"type":"Point","coordinates":[0.159009167,49.361686111]}},{"type":"Feature","id":"LFRG-c9baf28614ca89b0b602","properties":{"airport":"LFRG","name":"B1","layer":"Labels","category":"Gates","object_type":"Label","style_id":"label.gates","source_group":"LFRG Gates","vsmr_group_ids":["stands-and-gates"],"geometry_role":"text_label","text-field":"B1"},"geometry":{"type":"Point","coordinates":[0.158301111,49.362107222]}},{"type":"Feature","id":"LFRG-dd502dc7b8fb0338a358","properties":{"airport":"LFRG","name":"B2","layer":"Labels","category":"Gates","object_type":"Label","style_id":"label.gates","source_group":"LFRG Gates","vsmr_group_ids":["stands-and-gates"],"geometry_role":"text_label","text-field":"B2"},"geometry":{"type":"Point","coordinates":[0.15812,49.361945278]}},{"type":"Feature","id":"LFRG-4c94fbb1f19f1314af86","properties":{"airport":"LFRG","name":"B3","layer":"Labels","category":"Gates","object_type":"Label","style_id":"label.gates","source_group":"LFRG Gates","vsmr_group_ids":["stands-and-gates"],"geometry_role":"text_label","text-field":"B3"},"geometry":{"type":"Point","coordinates":[0.15798,49.361777778]}},{"type":"Feature","id":"LFRG-708cf38cdb04b54b366b","properties":{"airport":"LFRG","name":"B4","layer":"Labels","category":"Gates","object_type":"Label","style_id":"label.gates","source_group":"LFRG Gates","vsmr_group_ids":["stands-and-gates"],"geometry_role":"text_label","text-field":"B4"},"geometry":{"type":"Point","coordinates":[0.157852222,49.361615833]}},{"type":"Feature","id":"LFRG-fe5e7fdf7893803210c8","properties":{"airport":"LFRG","name":"A1","layer":"Labels","category":"Gates","object_type":"Label","style_id":"label.gates","source_group":"LFRG Gates","vsmr_group_ids":["stands-and-gates"],"geometry_role":"text_label","text-field":"A1"},"geometry":{"type":"Point","coordinates":[0.157851944,49.362335556]}},{"type":"Feature","id":"LFRG-823d141fe0b218020c7f","properties":{"airport":"LFRG","name":"A2","layer":"Labels","category":"Gates","object_type":"Label","style_id":"label.gates","source_group":"LFRG Gates","vsmr_group_ids":["stands-and-gates"],"geometry_role":"text_label","text-field":"A2"},"geometry":{"type":"Point","coordinates":[0.157754722,49.362216389]}},{"type":"Feature","id":"LFRG-bfcc2883cb9d9b9d435e","properties":{"airport":"LFRG","name":"A3","layer":"Labels","category":"Gates","object_type":"Label","style_id":"label.gates","source_group":"LFRG Gates","vsmr_group_ids":["stands-and-gates"],"geometry_role":"text_label","text-field":"A3"},"geometry":{"type":"Point","coordinates":[0.157675556,49.3620925]}},{"type":"Feature","id":"LFRG-d0a1e4dbb01cb0a78489","properties":{"airport":"LFRG","name":"A4","layer":"Labels","category":"Gates","object_type":"Label","style_id":"label.gates","source_group":"LFRG Gates","vsmr_group_ids":["stands-and-gates"],"geometry_role":"text_label","text-field":"A4"},"geometry":{"type":"Point","coordinates":[0.157586111,49.361982778]}},{"type":"Feature","id":"LFRG-31938ab1e16df7b31f6b","properties":{"airport":"LFRG","name":"A5","layer":"Labels","category":"Gates","object_type":"Label","style_id":"label.gates","source_group":"LFRG Gates","vsmr_group_ids":["stands-and-gates"],"geometry_role":"text_label","text-field":"A5"},"geometry":{"type":"Point","coordinates":[0.157498333,49.361866667]}},{"type":"Feature","id":"LFRG-6c58c9a98389a3915bf9","properties":{"airport":"LFRG","name":"E1","layer":"Labels","category":"Gates","object_type":"Label","style_id":"label.gates","source_group":"LFRG Gates","vsmr_group_ids":["stands-and-gates"],"geometry_role":"text_label","text-field":"E1"},"geometry":{"type":"Point","coordinates":[0.157392222,49.362531389]}},{"type":"Feature","id":"LFRG-398ed95b00774717ac96","properties":{"airport":"LFRG","name":"E2","layer":"Labels","category":"Gates","object_type":"Label","style_id":"label.gates","source_group":"LFRG Gates","vsmr_group_ids":["stands-and-gates"],"geometry_role":"text_label","text-field":"E2"},"geometry":{"type":"Point","coordinates":[0.157333056,49.362414167]}},{"type":"Feature","id":"LFRG-1b0b19bd4a9b0187146a","properties":{"airport":"LFRG","name":"E3","layer":"Labels","category":"Gates","object_type":"Label","style_id":"label.gates","source_group":"LFRG Gates","vsmr_group_ids":["stands-and-gates"],"geometry_role":"text_label","text-field":"E3"},"geometry":{"type":"Point","coordinates":[0.157211667,49.3622925]}},{"type":"Feature","id":"LFRG-9569fe8b7bdc39381034","properties":{"airport":"LFRG","name":"E4","layer":"Labels","category":"Gates","object_type":"Label","style_id":"label.gates","source_group":"LFRG Gates","vsmr_group_ids":["stands-and-gates"],"geometry_role":"text_label","text-field":"E4"},"geometry":{"type":"Point","coordinates":[0.157118889,49.362179722]}},{"type":"Feature","id":"LFRG-8b83901afba568f2e979","properties":{"airport":"LFRG","name":"Fuel","layer":"Labels","category":"Gates","object_type":"Label","style_id":"label.gates","source_group":"LFRG Gates","vsmr_group_ids":["stands-and-gates"],"geometry_role":"text_label","text-field":"Fuel"},"geometry":{"type":"Point","coordinates":[0.159877778,49.359968333]}},{"type":"Feature","id":"LFRG-badcbe75112a9463d967","properties":{"airport":"LFRG","name":"Hangar","layer":"Labels","category":"Gates","object_type":"Label","style_id":"label.gates","source_group":"LFRG Gates","vsmr_group_ids":["stands-and-gates"],"geometry_role":"text_label","text-field":"Hangar"},"geometry":{"type":"Point","coordinates":[0.159818611,49.360076111]}},{"type":"Feature","id":"LFRG-fe1f2b535b07c0b38531","properties":{"airport":"LFRG","name":"Livraison Bagage","layer":"Labels","category":"Gates","object_type":"Label","style_id":"label.gates","source_group":"LFRG Gates","vsmr_group_ids":["stands-and-gates"],"geometry_role":"text_label","text-field":"Livraison Bagage"},"geometry":{"type":"Point","coordinates":[0.159495833,49.360365833]}},{"type":"Feature","id":"LFRG-43ecf5e9718ee225f548","properties":{"airport":"LFRG","name":"Terminal","layer":"Labels","category":"Gates","object_type":"Label","style_id":"label.gates","source_group":"LFRG Gates","vsmr_group_ids":["stands-and-gates"],"geometry_role":"text_label","text-field":"Terminal"},"geometry":{"type":"Point","coordinates":[0.157839167,49.361286944]}},{"type":"Feature","id":"LFRG-77ac7347976f0036be01","properties":{"airport":"LFRG","name":"Parking Commercial","layer":"Labels","category":"Gates","object_type":"Label","style_id":"label.gates","source_group":"LFRG Gates","vsmr_group_ids":["stands-and-gates"],"geometry_role":"text_label","text-field":"Parking Commercial"},"geometry":{"type":"Point","coordinates":[0.160033611,49.361523611]}},{"type":"Feature","id":"LFRG-df9dd46f1be04ad51330","properties":{"airport":"LFRG","name":"Aviation Affaire","layer":"Labels","category":"Gates","object_type":"Label","style_id":"label.gates","source_group":"LFRG Gates","vsmr_group_ids":["stands-and-gates"],"geometry_role":"text_label","text-field":"Aviation Affaire"},"geometry":{"type":"Point","coordinates":[0.158433056,49.362195278]}},{"type":"Feature","id":"LFRG-f7e15b81cb34915a5ee1","properties":{"airport":"LFRG","name":"Aviation legere","layer":"Labels","category":"Gates","object_type":"Label","style_id":"label.gates","source_group":"LFRG Gates","vsmr_group_ids":["stands-and-gates"],"geometry_role":"text_label","text-field":"Aviation legere"},"geometry":{"type":"Point","coordinates":[0.157935278,49.362410556]}},{"type":"Feature","id":"LFRG-366047c0c67c67889eae","properties":{"airport":"LFRG","name":"P-ACB","layer":"Labels","category":"Gates","object_type":"Label","style_id":"label.gates","source_group":"LFRG Gates","vsmr_group_ids":["stands-and-gates"],"geometry_role":"text_label","text-field":"P-ACB"},"geometry":{"type":"Point","coordinates":[0.157489167,49.362581944]}},{"type":"Feature","id":"LFRG-1f41c9241725b7857701","properties":{"airport":"LFRG","name":"ACB","layer":"Labels","category":"Gates","object_type":"Label","style_id":"label.gates","source_group":"LFRG Gates","vsmr_group_ids":["stands-and-gates"],"geometry_role":"text_label","text-field":"ACB"},"geometry":{"type":"Point","coordinates":[0.155967222,49.362366944]}},{"type":"Feature","id":"LFRG-a1688e1218cc6a73b98f","properties":{"airport":"LFRG","name":"A","layer":"Labels","category":"Taxiways","object_type":"Label","style_id":"label.taxiways","source_group":"LFRG Taxiways","vsmr_group_ids":[],"geometry_role":"text_label","text-field":"A"},"geometry":{"type":"Point","coordinates":[0.155305,49.363999167]}},{"type":"Feature","id":"LFRG-bbe6a70761b1070b94f3","properties":{"airport":"LFRG","name":"B","layer":"Labels","category":"Taxiways","object_type":"Label","style_id":"label.taxiways","source_group":"LFRG Taxiways","vsmr_group_ids":[],"geometry_role":"text_label","text-field":"B"},"geometry":{"type":"Point","coordinates":[0.158761667,49.362492778]}},{"type":"Feature","id":"LFRG-97a46e9a0cd6f251cbe6","properties":{"airport":"LFRG","name":"12/30","layer":"Runways","category":"Runway centerlines","object_type":"Line","style_id":"runway.reference","source_group":"LFRG Runways","vsmr_group_ids":[],"geometry_role":"runway_centerline"},"geometry":{"type":"LineString","coordinates":[[0.144224722,49.368680833],[0.164805833,49.361782778]]}}]}
