{"type":"FeatureCollection","name":"LFRQ AVISO","bbox":[-4.358333333,47.869722222,-4.069166667,48.043055556],"metadata":{"schema":"vSMR AVISO","schema_version":2,"airport":"LFRQ","coordinate_reference_system":"WGS84","coordinate_order":"longitude, latitude","default_color_palette":"night","color_palettes":["night","day"],"background_colors":{"night":"#434A4F","day":"#434A4F"},"feature_count":45,"style_count":12,"layer_counts":{"Airfield surfaces":15,"Ground linework":2,"Labels":26,"Reference points":1,"Runways":1},"category_counts":{"Building":8,"Gras Surface":1,"Hard Surface1":2,"Hard Surface2":1,"Labels":27,"Runway Border":1,"Runway Concrete":1,"Runway Grass":1,"Runway Markings":1,"Taxiway":1,"Terrain1":1}},"styles":{"area.filled.region.building":{"name":"Building","layer":"Airfield surfaces","object_type":"Area","paint":{"fill":"#394446","fill-opacity":1.0,"stroke":"#394446","stroke-opacity":1.0,"stroke-width":0.5},"feature_count":8},"area.filled.region.gras.surface":{"name":"Gras Surface","layer":"Airfield surfaces","object_type":"Area","paint":{"fill":"#00512F","fill-opacity":1.0,"stroke":"#00512F","stroke-opacity":1.0,"stroke-width":0.5},"feature_count":1},"area.filled.region.hard.surface1":{"name":"Hard Surface1","layer":"Airfield surfaces","object_type":"Area","paint":{"fill":"#969393","fill-opacity":1.0,"stroke":"#969393","stroke-opacity":1.0,"stroke-width":0.5},"feature_count":2},"area.filled.region.hard.surface2":{"name":"Hard Surface2","layer":"Airfield surfaces","object_type":"Area","paint":{"fill":"#595E5B","fill-opacity":1.0,"stroke":"#595E5B","stroke-opacity":1.0,"stroke-width":0.5},"feature_count":1},"area.filled.region.runway.concrete":{"name":"Runway Concrete","layer":"Airfield surfaces","object_type":"Area","paint":{"fill":"#111318","fill-opacity":1.0,"stroke":"#111318","stroke-opacity":1.0,"stroke-width":0.5},"feature_count":1},"area.filled.region.runway.grass":{"name":"Runway Grass","layer":"Airfield surfaces","object_type":"Area","paint":{"fill":"#008000","fill-opacity":1.0,"stroke":"#008000","stroke-opacity":1.0,"stroke-width":0.5},"feature_count":1},"area.filled.region.terrain1":{"name":"Terrain1","layer":"Airfield surfaces","object_type":"Area","paint":{"fill":"#574242","fill-opacity":1.0,"stroke":"#574242","stroke-opacity":1.0,"stroke-width":0.5},"feature_count":1},"label.text.label.labels":{"name":"Labels","layer":"Labels","object_type":"Label","paint":{"text-anchor":"center","text-color":"#CCCCCC","text-halo-color":"#000000","text-halo-width":1,"text-size":12,"zoomLevel":10},"feature_count":26},"line.linework.runway.border":{"name":"Runway Border","layer":"Ground linework","object_type":"Line","paint":{"stroke":"#808080","stroke-opacity":1.0,"stroke-width":1.5},"feature_count":1},"line.linework.taxiway":{"name":"Taxiway","layer":"Ground linework","object_type":"Line","paint":{"stroke":"#4E5A69","stroke-opacity":1.0,"stroke-width":1.5},"feature_count":1},"line.runway.centerline.runway.markings":{"name":"Runway Markings","layer":"Runways","object_type":"Line","paint":{"stroke":"#FEFEFE","stroke-opacity":1.0,"stroke-width":1.5},"feature_count":1},"point.airport.reference.point.labels":{"name":"Labels","layer":"Reference points","object_type":"Point","paint":{"marker-color":"#808080","marker-size":"small"},"feature_count":1}},"features":[{"type":"Feature","id":"lfrq.area.filled.region.gras.surface.42603","properties":{"name":"LFRQ AVISO","layer":"Airfield surfaces","category":"Gras Surface","object_type":"Area","style_id":"area.filled.region.gras.surface","airport":"LFRQ","geometry_role":"filled_region","vsmr_group_ids":[]},"geometry":{"type":"Polygon","coordinates":[[[-4.187000833,47.975525],[-4.186926389,47.9752225],[-4.1868525,47.975126667],[-4.186708333,47.975061389],[-4.186503889,47.975023056],[-4.183739444,47.974880556],[-4.183594167,47.974817778],[-4.183501389,47.974695278],[-4.183266667,47.974481111],[-4.182906111,47.974334722],[-4.182459167,47.974229167],[-4.1768975,47.97394],[-4.176560833,47.973786667],[-4.176312778,47.97356],[-4.176168611,47.973330278],[-4.175859167,47.972853611],[-4.17529,47.972167222],[-4.1742425,47.971328889],[-4.174236667,47.97124],[-4.175014167,47.970777222],[-4.175599167,47.9707575],[-4.1760625,47.970811944],[-4.176486944,47.970759722],[-4.176965,47.970589167],[-4.177904167,47.970343056],[-4.178867778,47.970143333],[-4.179861944,47.970024444],[-4.180365833,47.969675833],[-4.180722222,47.9692475],[-4.181073889,47.968626667],[-4.181065833,47.968157778],[-4.1785925,47.965962222],[-4.177833611,47.965471389],[-4.177068333,47.965019444],[-4.175996111,47.964472778],[-4.174496111,47.963724444],[-4.172997222,47.962941667],[-4.172670278,47.962712778],[-4.172461944,47.962664167],[-4.1721775,47.962781944],[-4.171243056,47.963910278],[-4.170031389,47.965151944],[-4.168155556,47.966597778],[-4.166190278,47.968016944],[-4.164084722,47.969145556],[-4.161600278,47.970208611],[-4.159438889,47.971085],[-4.157871111,47.971366667],[-4.155915833,47.971427778],[-4.154455556,47.971378889],[-4.1528325,47.971765278],[-4.151797222,47.972474722],[-4.151113056,47.973385556],[-4.151093056,47.973879722],[-4.151851389,47.974443889],[-4.15313,47.974826111],[-4.154143611,47.975243333],[-4.155065278,47.975636111],[-4.1591725,47.975873889],[-4.164643611,47.976137222],[-4.183569167,47.976993889],[-4.184675278,47.977127222],[-4.185663889,47.977105556],[-4.185790278,47.977278056],[-4.186626111,47.977283611],[-4.187091944,47.976453056],[-4.187270278,47.976084444],[-4.187322778,47.975541389],[-4.187000833,47.975525]]]}},{"type":"Feature","id":"lfrq.area.filled.region.terrain1.42672","properties":{"name":"LFRQ AVISO","layer":"Airfield surfaces","category":"Terrain1","object_type":"Area","style_id":"area.filled.region.terrain1","airport":"LFRQ","geometry_role":"filled_region","vsmr_group_ids":[]},"geometry":{"type":"Polygon","coordinates":[[[-4.168591944,47.974748056],[-4.1685375,47.974703611],[-4.168516111,47.974655833],[-4.1685325,47.974611389],[-4.176348056,47.966414444],[-4.175853056,47.966193889],[-4.172745556,47.969453333],[-4.1727025,47.969485556],[-4.172646667,47.969504722],[-4.172584722,47.969520556],[-4.172536944,47.969520556],[-4.172479444,47.969513056],[-4.172500278,47.969722222],[-4.167957222,47.974483611],[-4.167891944,47.974542222],[-4.167744444,47.974625833],[-4.167666111,47.974663333],[-4.167574444,47.974688889],[-4.167485,47.974705556],[-4.16729,47.97474],[-4.168835278,47.9748425],[-4.168591944,47.974748056]]]}},{"type":"Feature","id":"lfrq.area.filled.region.hard.surface1.42694","properties":{"name":"LFRQ AVISO","layer":"Airfield surfaces","category":"Hard Surface1","object_type":"Area","style_id":"area.filled.region.hard.surface1","airport":"LFRQ","geometry_role":"filled_region","vsmr_group_ids":[]},"geometry":{"type":"Polygon","coordinates":[[[-4.1732875,47.973766389],[-4.173360278,47.973696111],[-4.173466111,47.973631944],[-4.173603611,47.973604167],[-4.173808333,47.9736125],[-4.174311944,47.973458056],[-4.174483056,47.973294444],[-4.174735,47.973435],[-4.174647222,47.973460278],[-4.174676111,47.973506389],[-4.174460833,47.973576111],[-4.174648611,47.973850833],[-4.175263889,47.973675833],[-4.175105833,47.973427222],[-4.175029444,47.9734425],[-4.174980278,47.973366389],[-4.174808611,47.973408333],[-4.174595278,47.973281944],[-4.174954722,47.973166389],[-4.174985,47.973147222],[-4.175026111,47.973131944],[-4.175056389,47.973095833],[-4.175011944,47.973036944],[-4.174949722,47.973034167],[-4.174644722,47.972617778],[-4.1747125,47.972431667],[-4.174515833,47.972383889],[-4.1745025,47.972307222],[-4.174577778,47.972170833],[-4.174539722,47.972141389],[-4.174700833,47.971966944],[-4.173997778,47.971361389],[-4.1739175,47.971435833],[-4.173600278,47.971294722],[-4.173674444,47.971221111],[-4.173389444,47.971094167],[-4.173228333,47.971251389],[-4.173286944,47.971280278],[-4.173306944,47.971295833],[-4.173325,47.971328889],[-4.173364444,47.971379722],[-4.173373611,47.971393889],[-4.1733725,47.971403889],[-4.173235278,47.971473333],[-4.172808333,47.971281111],[-4.1727725,47.971172778],[-4.172773889,47.971153333],[-4.172844722,47.971079722],[-4.172920278,47.971109722],[-4.173071111,47.970952778],[-4.172919444,47.9708775],[-4.1726725,47.971131111],[-4.172631389,47.971198889],[-4.172377222,47.971092222],[-4.172294722,47.971049444],[-4.172238333,47.970991389],[-4.172180556,47.970914722],[-4.172166111,47.970834722],[-4.172177222,47.970781944],[-4.173132778,47.969768056],[-4.172139722,47.969373889],[-4.172100833,47.969348056],[-4.172073889,47.969321389],[-4.172056667,47.969293056],[-4.17205,47.969259722],[-4.172052778,47.969226389],[-4.172065,47.969203056],[-4.172155,47.969110833],[-4.171899167,47.968997222],[-4.171510833,47.969400556],[-4.1717725,47.969507778],[-4.171807222,47.96947],[-4.171844167,47.9694425],[-4.171898611,47.969420833],[-4.171955278,47.969409444],[-4.172019167,47.969409167],[-4.172069722,47.969420278],[-4.1724125,47.969564167],[-4.172456389,47.969596111],[-4.172479722,47.96963],[-4.172490556,47.969671667],[-4.172481667,47.969712222],[-4.172463889,47.969748889],[-4.172434167,47.969786389],[-4.171251944,47.971035833],[-4.171746944,47.971231944],[-4.171793333,47.971208889],[-4.1718425,47.971186389],[-4.171902222,47.971169444],[-4.1719775,47.971157778],[-4.172053056,47.971154167],[-4.17213,47.971163056],[-4.172208333,47.971179167],[-4.172510278,47.971310278],[-4.17298,47.971519444],[-4.173044722,47.971558333],[-4.173089722,47.971600278],[-4.173125556,47.971645],[-4.173151111,47.9717],[-4.173150833,47.971766944],[-4.173100556,47.972295278],[-4.172966667,47.972329444],[-4.172966667,47.972422222],[-4.173081389,47.972450833],[-4.172963056,47.973818889],[-4.173262222,47.973831944],[-4.1732875,47.973766389]]]}},{"type":"Feature","id":"lfrq.area.filled.region.hard.surface1.42801","properties":{"name":"LFRQ AVISO","layer":"Airfield surfaces","category":"Hard Surface1","object_type":"Area","style_id":"area.filled.region.hard.surface1","airport":"LFRQ","geometry_role":"filled_region","vsmr_group_ids":[]},"geometry":{"type":"Polygon","coordinates":[[[-4.175663056,47.974276944],[-4.1756775,47.974235833],[-4.175694722,47.974201111],[-4.175725278,47.974173056],[-4.175763056,47.974153333],[-4.175813333,47.974136944],[-4.175920556,47.974114722],[-4.175939167,47.974107778],[-4.175947222,47.974091389],[-4.175946111,47.974076944],[-4.175851667,47.973853889],[-4.175960278,47.973831667],[-4.175891944,47.973712778],[-4.175310833,47.973888889],[-4.175424167,47.974053056],[-4.175535556,47.974265],[-4.175511667,47.974439444],[-4.175638056,47.974447222],[-4.175663056,47.974276944]]]}},{"type":"Feature","id":"lfrq.area.filled.region.hard.surface2.42820","properties":{"name":"LFRQ AVISO","layer":"Airfield surfaces","category":"Hard Surface2","object_type":"Area","style_id":"area.filled.region.hard.surface2","airport":"LFRQ","geometry_role":"filled_region","vsmr_group_ids":[]},"geometry":{"type":"Polygon","coordinates":[[[-4.174446944,47.972133333],[-4.173625,47.971485],[-4.17343,47.973653333],[-4.173465,47.973631944],[-4.173601111,47.973604444],[-4.173808056,47.973612778],[-4.174311667,47.973457778],[-4.174518333,47.973260278],[-4.174127778,47.972687778],[-4.17432,47.972558889],[-4.174291667,47.972292222],[-4.174446944,47.972133333]]]}},{"type":"Feature","id":"lfrq.area.filled.region.runway.grass.42832","properties":{"name":"LFRQ AVISO","layer":"Airfield surfaces","category":"Runway Grass","object_type":"Area","style_id":"area.filled.region.runway.grass","airport":"LFRQ","geometry_role":"filled_region","vsmr_group_ids":[]},"geometry":{"type":"Polygon","coordinates":[[[-4.172789167,47.972340556],[-4.172463611,47.971774722],[-4.171957222,47.9719225],[-4.171836944,47.972029444],[-4.1719175,47.972571944],[-4.172967778,47.972422222],[-4.172968056,47.972329444],[-4.172789167,47.972340556]]]}},{"type":"Feature","id":"lfrq.area.filled.region.runway.concrete.42840","properties":{"name":"LFRQ AVISO","layer":"Airfield surfaces","category":"Runway Concrete","object_type":"Area","style_id":"area.filled.region.runway.concrete","airport":"LFRQ","geometry_role":"filled_region","vsmr_group_ids":[]},"geometry":{"type":"Polygon","coordinates":[[[-4.185354167,47.975456667],[-4.185346944,47.975435278],[-4.185326389,47.975395833],[-4.185289167,47.975357222],[-4.1852475,47.975320278],[-4.185206667,47.975289722],[-4.185149722,47.975263333],[-4.185079722,47.975245278],[-4.185022778,47.9752375],[-4.184980833,47.975241389],[-4.184618056,47.975365556],[-4.184502222,47.975394167],[-4.184383056,47.975412778],[-4.184266111,47.975418611],[-4.175729444,47.975065556],[-4.175684722,47.975056389],[-4.1756475,47.975035278],[-4.175616944,47.974996389],[-4.1756025,47.974952222],[-4.175640278,47.974439167],[-4.175511389,47.974434722],[-4.175473889,47.974924444],[-4.175451944,47.974960833],[-4.175419167,47.974999722],[-4.175362222,47.975034167],[-4.175306111,47.975050833],[-4.173750833,47.974983333],[-4.173632222,47.974961667],[-4.173515,47.974928611],[-4.1734175,47.974873611],[-4.173333889,47.974816111],[-4.173255833,47.974735278],[-4.173215833,47.974663889],[-4.173196111,47.974598889],[-4.173194167,47.974538611],[-4.173269444,47.973815],[-4.172963611,47.973800556],[-4.172904444,47.974501111],[-4.172881111,47.974581667],[-4.172843056,47.974656667],[-4.172792778,47.974723333],[-4.172713889,47.974785833],[-4.172607222,47.974849722],[-4.172473333,47.974896667],[-4.172363889,47.974915833],[-4.172250556,47.974926111],[-4.156603889,47.974284722],[-4.156573889,47.974684444],[-4.156568889,47.974736389],[-4.156589167,47.974778889],[-4.156641111,47.974833889],[-4.1567125,47.97488],[-4.156812222,47.974908333],[-4.156917778,47.974918333],[-4.156981389,47.974902778],[-4.1574125,47.974760833],[-4.15763,47.974722778],[-4.183896944,47.975803056],[-4.186152222,47.975900278],[-4.186189722,47.9754925],[-4.185354167,47.975456667]]]}},{"type":"Feature","id":"lfrq.area.filled.region.building.42901","properties":{"name":"LFRQ AVISO","layer":"Airfield surfaces","category":"Building","object_type":"Area","style_id":"area.filled.region.building","airport":"LFRQ","geometry_role":"filled_region","vsmr_group_ids":[]},"geometry":{"type":"Polygon","coordinates":[[[-4.175255,47.973709167],[-4.175336667,47.973834444],[-4.176011667,47.973636667],[-4.175918889,47.973506944],[-4.175255,47.973709167]]]}},{"type":"Feature","id":"lfrq.area.filled.region.building.42906","properties":{"name":"LFRQ AVISO","layer":"Airfield surfaces","category":"Building","object_type":"Area","style_id":"area.filled.region.building","airport":"LFRQ","geometry_role":"filled_region","vsmr_group_ids":[]},"geometry":{"type":"Polygon","coordinates":[[[-4.175005278,47.973429167],[-4.175165278,47.973681667],[-4.175471667,47.973594167],[-4.175308333,47.973340278],[-4.175005278,47.973429167]]]}},{"type":"Feature","id":"lfrq.area.filled.region.building.42911","properties":{"name":"LFRQ AVISO","layer":"Airfield surfaces","category":"Building","object_type":"Area","style_id":"area.filled.region.building","airport":"LFRQ","geometry_role":"filled_region","vsmr_group_ids":[]},"geometry":{"type":"Polygon","coordinates":[[[-4.174603889,47.972613056],[-4.174572222,47.972564722],[-4.1744075,47.972614167],[-4.174442222,47.972663333],[-4.174308611,47.972706111],[-4.174661111,47.973198056],[-4.17481,47.973154167],[-4.174788889,47.9731175],[-4.174979167,47.973060278],[-4.174663056,47.972597778],[-4.174603889,47.972613056]]]}},{"type":"Feature","id":"lfrq.area.filled.region.building.42922","properties":{"name":"LFRQ AVISO","layer":"Airfield surfaces","category":"Building","object_type":"Area","style_id":"area.filled.region.building","airport":"LFRQ","geometry_role":"filled_region","vsmr_group_ids":[]},"geometry":{"type":"Polygon","coordinates":[[[-4.174511944,47.971695],[-4.174302222,47.971528611],[-4.174228611,47.971538056],[-4.174080278,47.9714125],[-4.173848889,47.971542222],[-4.173903889,47.971582778],[-4.173858611,47.971606389],[-4.174245833,47.971911667],[-4.174289444,47.971886111],[-4.174343056,47.971925278],[-4.174415,47.971886389],[-4.174619722,47.972042778],[-4.17477,47.971958889],[-4.174479722,47.971733333],[-4.174511944,47.971695]]]}},{"type":"Feature","id":"lfrq.area.filled.region.building.42937","properties":{"name":"LFRQ AVISO","layer":"Airfield surfaces","category":"Building","object_type":"Area","style_id":"area.filled.region.building","airport":"LFRQ","geometry_role":"filled_region","vsmr_group_ids":[]},"geometry":{"type":"Polygon","coordinates":[[[-4.174432778,47.972269722],[-4.174458889,47.972276944],[-4.174419444,47.972319167],[-4.174531111,47.972369722],[-4.174630278,47.972264722],[-4.174503333,47.972207778],[-4.174432778,47.972269722]]]}},{"type":"Feature","id":"lfrq.area.filled.region.building.42944","properties":{"name":"LFRQ AVISO","layer":"Airfield surfaces","category":"Building","object_type":"Area","style_id":"area.filled.region.building","airport":"LFRQ","geometry_role":"filled_region","vsmr_group_ids":[]},"geometry":{"type":"Polygon","coordinates":[[[-4.172896389,47.971114444],[-4.173227778,47.971263056],[-4.173399722,47.971101111],[-4.173068889,47.970946944],[-4.172896389,47.971114444]]]}},{"type":"Feature","id":"lfrq.area.filled.region.building.42949","properties":{"name":"LFRQ AVISO","layer":"Airfield surfaces","category":"Building","object_type":"Area","style_id":"area.filled.region.building","airport":"LFRQ","geometry_role":"filled_region","vsmr_group_ids":[]},"geometry":{"type":"Polygon","coordinates":[[[-4.171407222,47.969093333],[-4.171708889,47.969214722],[-4.171904722,47.969001944],[-4.171627222,47.968885],[-4.171407222,47.969093333]]]}},{"type":"Feature","id":"lfrq.area.filled.region.building.42954","properties":{"name":"LFRQ AVISO","layer":"Airfield surfaces","category":"Building","object_type":"Area","style_id":"area.filled.region.building","airport":"LFRQ","geometry_role":"filled_region","vsmr_group_ids":[]},"geometry":{"type":"Polygon","coordinates":[[[-4.171424167,47.969155556],[-4.171305278,47.969278611],[-4.171536111,47.969378611],[-4.171660278,47.969253056],[-4.171424167,47.969155556]]]}},{"type":"Feature","id":"LFRQ-runway-09-27-5233","properties":{"name":"LFRQ RWY 09/27","layer":"Runways","category":"Runway Markings","object_type":"Line","style_id":"line.runway.centerline.runway.markings","airport":"LFRQ","geometry_role":"runway_centerline","vsmr_group_ids":[]},"geometry":{"type":"LineString","coordinates":[[-4.183935833,47.975605833],[-4.1566,47.974482778]]}},{"type":"Feature","id":"lfrq.line.linework.runway.border.30453","properties":{"name":"LFRQ Groundlayout AVISO","layer":"Ground linework","category":"Runway Border","object_type":"Line","style_id":"line.linework.runway.border","airport":"LFRQ","geometry_role":"linework","vsmr_group_ids":[]},"geometry":{"type":"MultiLineString","coordinates":[[[-4.183896944,47.975801667],[-4.183933056,47.975406389]],[[-4.18438,47.975638889],[-4.184249722,47.975618333]],[[-4.184249722,47.975618333],[-4.184382222,47.9756075]],[[-4.184651667,47.975634444],[-4.184381389,47.975622778]],[[-4.185181389,47.975671667],[-4.185051667,47.975650833]],[[-4.185051667,47.975650833],[-4.185185556,47.975640556]],[[-4.185315,47.975661111],[-4.185181389,47.975656111]]]}},{"type":"Feature","id":"lfrq.line.linework.taxiway.30460","properties":{"name":"LFRQ Groundlayout AVISO","layer":"Ground linework","category":"Taxiway","object_type":"Line","style_id":"line.linework.taxiway","airport":"LFRQ","geometry_role":"linework","vsmr_group_ids":[]},"geometry":{"type":"MultiLineString","coordinates":[[[-4.185315,47.975863889],[-4.185352778,47.975456667]],[[-4.185431111,47.975528056],[-4.185340556,47.9755825]],[[-4.185403889,47.975800278],[-4.185326667,47.975741667]],[[-4.185805833,47.975815],[-4.185617778,47.975674167]],[[-4.185617778,47.975674167],[-4.185828889,47.975546944]],[[-4.186126389,47.975771111],[-4.186019167,47.975689722]],[[-4.186019167,47.975689722],[-4.186139167,47.975616944]]]}},{"type":"Feature","id":"LFRQ-airport-reference","properties":{"name":"LFRQ","layer":"Reference points","category":"Labels","object_type":"Point","style_id":"point.airport.reference.point.labels","airport":"LFRQ","geometry_role":"airport_reference_point","text-field":"LFRQ","vsmr_group_ids":[]},"geometry":{"type":"Point","coordinates":[-4.167777778,47.975]}},{"type":"Feature","id":"LFRQ-text-lfrr-16287","properties":{"name":"H","layer":"Labels","category":"Labels","object_type":"Label","style_id":"label.text.label.labels","airport":"LFRQ","geometry_role":"text_label","text-field":"H","vsmr_group_ids":[]},"geometry":{"type":"Point","coordinates":[-4.174824167,47.973628056]}},{"type":"Feature","id":"LFRQ-text-lfrr-16288","properties":{"name":"ACB","layer":"Labels","category":"Labels","object_type":"Label","style_id":"label.text.label.labels","airport":"LFRQ","geometry_role":"text_label","text-field":"ACB","vsmr_group_ids":[]},"geometry":{"type":"Point","coordinates":[-4.175620833,47.973754722]}},{"type":"Feature","id":"LFRQ-text-lfrr-16289","properties":{"name":"Terminal","layer":"Labels","category":"Labels","object_type":"Label","style_id":"label.text.label.labels","airport":"LFRQ","geometry_role":"text_label","text-field":"Terminal","vsmr_group_ids":[]},"geometry":{"type":"Point","coordinates":[-4.174829167,47.972936667]}},{"type":"Feature","id":"LFRQ-text-lfrr-16290","properties":{"name":"TWR","layer":"Labels","category":"Labels","object_type":"Label","style_id":"label.text.label.labels","airport":"LFRQ","geometry_role":"text_label","text-field":"TWR","vsmr_group_ids":[]},"geometry":{"type":"Point","coordinates":[-4.174668333,47.972308889]}},{"type":"Feature","id":"LFRQ-text-lfrr-16291","properties":{"name":"Hangars","layer":"Labels","category":"Labels","object_type":"Label","style_id":"label.text.label.labels","airport":"LFRQ","geometry_role":"text_label","text-field":"Hangars","vsmr_group_ids":[]},"geometry":{"type":"Point","coordinates":[-4.171566111,47.969137222]}},{"type":"Feature","id":"LFRQ-text-lfrr-16292","properties":{"name":"Securite Civile","layer":"Labels","category":"Labels","object_type":"Label","style_id":"label.text.label.labels","airport":"LFRQ","geometry_role":"text_label","text-field":"Securite Civile","vsmr_group_ids":[]},"geometry":{"type":"Point","coordinates":[-4.175361944,47.973493611]}},{"type":"Feature","id":"LFRQ-text-lfrr-16293","properties":{"name":"Fuel","layer":"Labels","category":"Labels","object_type":"Label","style_id":"label.text.label.labels","airport":"LFRQ","geometry_role":"text_label","text-field":"Fuel","vsmr_group_ids":[]},"geometry":{"type":"Point","coordinates":[-4.173542778,47.9712575]}},{"type":"Feature","id":"LFRQ-text-lfrr-16294","properties":{"name":"Fret","layer":"Labels","category":"Labels","object_type":"Label","style_id":"label.text.label.labels","airport":"LFRQ","geometry_role":"text_label","text-field":"Fret","vsmr_group_ids":[]},"geometry":{"type":"Point","coordinates":[-4.173835556,47.971361389]}},{"type":"Feature","id":"LFRQ-text-lfrr-16295","properties":{"name":"Hangars","layer":"Labels","category":"Labels","object_type":"Label","style_id":"label.text.label.labels","airport":"LFRQ","geometry_role":"text_label","text-field":"Hangars","vsmr_group_ids":[]},"geometry":{"type":"Point","coordinates":[-4.174231667,47.971376944]}},{"type":"Feature","id":"LFRQ-text-lfrr-16297","properties":{"name":"NW","layer":"Labels","category":"Labels","object_type":"Label","style_id":"label.text.label.labels","airport":"LFRQ","geometry_role":"text_label","text-field":"NW","vsmr_group_ids":[]},"geometry":{"type":"Point","coordinates":[-4.204166667,48.043055556]}},{"type":"Feature","id":"LFRQ-text-lfrr-16298","properties":{"name":"N","layer":"Labels","category":"Labels","object_type":"Label","style_id":"label.text.label.labels","airport":"LFRQ","geometry_role":"text_label","text-field":"N","vsmr_group_ids":[]},"geometry":{"type":"Point","coordinates":[-4.161111111,48.004444444]}},{"type":"Feature","id":"LFRQ-text-lfrr-16299","properties":{"name":"S","layer":"Labels","category":"Labels","object_type":"Label","style_id":"label.text.label.labels","airport":"LFRQ","geometry_role":"text_label","text-field":"S","vsmr_group_ids":[]},"geometry":{"type":"Point","coordinates":[-4.178055556,47.939722222]}},{"type":"Feature","id":"LFRQ-text-lfrr-16300","properties":{"name":"SW","layer":"Labels","category":"Labels","object_type":"Label","style_id":"label.text.label.labels","airport":"LFRQ","geometry_role":"text_label","text-field":"SW","vsmr_group_ids":[]},"geometry":{"type":"Point","coordinates":[-4.221944444,47.869722222]}},{"type":"Feature","id":"LFRQ-text-lfrr-16301","properties":{"name":"W","layer":"Labels","category":"Labels","object_type":"Label","style_id":"label.text.label.labels","airport":"LFRQ","geometry_role":"text_label","text-field":"W","vsmr_group_ids":[]},"geometry":{"type":"Point","coordinates":[-4.358333333,47.955555556]}},{"type":"Feature","id":"LFRQ-text-lfrr-16302","properties":{"name":"SE","layer":"Labels","category":"Labels","object_type":"Label","style_id":"label.text.label.labels","airport":"LFRQ","geometry_role":"text_label","text-field":"SE","vsmr_group_ids":[]},"geometry":{"type":"Point","coordinates":[-4.118055556,47.8875]}},{"type":"Feature","id":"LFRQ-text-lfrr-16303","properties":{"name":"NE","layer":"Labels","category":"Labels","object_type":"Label","style_id":"label.text.label.labels","airport":"LFRQ","geometry_role":"text_label","text-field":"NE","vsmr_group_ids":[]},"geometry":{"type":"Point","coordinates":[-4.069166667,48.04]}},{"type":"Feature","id":"LFRQ-text-lfrr-16305","properties":{"name":"C","layer":"Labels","category":"Labels","object_type":"Label","style_id":"label.text.label.labels","airport":"LFRQ","geometry_role":"text_label","text-field":"C","vsmr_group_ids":[]},"geometry":{"type":"Point","coordinates":[-4.175916389,47.974495]}},{"type":"Feature","id":"LFRQ-text-lfrr-16306","properties":{"name":"B","layer":"Labels","category":"Labels","object_type":"Label","style_id":"label.text.label.labels","airport":"LFRQ","geometry_role":"text_label","text-field":"B","vsmr_group_ids":[]},"geometry":{"type":"Point","coordinates":[-4.173520833,47.973923611]}},{"type":"Feature","id":"LFRQ-text-lfrr-16307","properties":{"name":"E","layer":"Labels","category":"Labels","object_type":"Label","style_id":"label.text.label.labels","airport":"LFRQ","geometry_role":"text_label","text-field":"E","vsmr_group_ids":[]},"geometry":{"type":"Point","coordinates":[-4.172404167,47.969405556]}},{"type":"Feature","id":"LFRQ-text-lfrr-16308","properties":{"name":"X","layer":"Labels","category":"Labels","object_type":"Label","style_id":"label.text.label.labels","airport":"LFRQ","geometry_role":"text_label","text-field":"X","vsmr_group_ids":[]},"geometry":{"type":"Point","coordinates":[-4.168638889,47.974283611]}},{"type":"Feature","id":"LFRQ-text-lfrr-16309","properties":{"name":"X","layer":"Labels","category":"Labels","object_type":"Label","style_id":"label.text.label.labels","airport":"LFRQ","geometry_role":"text_label","text-field":"X","vsmr_group_ids":[]},"geometry":{"type":"Point","coordinates":[-4.169286667,47.973548056]}},{"type":"Feature","id":"LFRQ-text-lfrr-16310","properties":{"name":"X","layer":"Labels","category":"Labels","object_type":"Label","style_id":"label.text.label.labels","airport":"LFRQ","geometry_role":"text_label","text-field":"X","vsmr_group_ids":[]},"geometry":{"type":"Point","coordinates":[-4.169885833,47.972958611]}},{"type":"Feature","id":"LFRQ-text-lfrr-16311","properties":{"name":"X","layer":"Labels","category":"Labels","object_type":"Label","style_id":"label.text.label.labels","airport":"LFRQ","geometry_role":"text_label","text-field":"X","vsmr_group_ids":[]},"geometry":{"type":"Point","coordinates":[-4.1711425,47.971633333]}},{"type":"Feature","id":"LFRQ-text-lfrr-16312","properties":{"name":"X","layer":"Labels","category":"Labels","object_type":"Label","style_id":"label.text.label.labels","airport":"LFRQ","geometry_role":"text_label","text-field":"X","vsmr_group_ids":[]},"geometry":{"type":"Point","coordinates":[-4.173578611,47.969046389]}},{"type":"Feature","id":"LFRQ-text-lfrr-16313","properties":{"name":"X","layer":"Labels","category":"Labels","object_type":"Label","style_id":"label.text.label.labels","airport":"LFRQ","geometry_role":"text_label","text-field":"X","vsmr_group_ids":[]},"geometry":{"type":"Point","coordinates":[-4.1744775,47.968203056]}},{"type":"Feature","id":"LFRQ-text-lfrr-16314","properties":{"name":"X","layer":"Labels","category":"Labels","object_type":"Label","style_id":"label.text.label.labels","airport":"LFRQ","geometry_role":"text_label","text-field":"X","vsmr_group_ids":[]},"geometry":{"type":"Point","coordinates":[-4.175405556,47.967169722]}}]}
