{"type":"FeatureCollection","name":"LFRR AVISO","bbox":[-4.529444444,46.668333333,0.173333333,48.826944444],"metadata":{"schema":"vSMR AVISO","schema_version":2,"airport":"LFRR","coordinate_reference_system":"WGS84","coordinate_order":"longitude, latitude","feature_count":19,"style_count":1,"layer_counts":{"Labels":19},"category_counts":{"Labels":19}},"styles":{"label.text.label.labels":{"name":"Labels","layer":"Labels","object_type":"Label","paint":{"text-anchor":"center","text-color":"#CCCCCC","text-halo-color":"#000000","text-halo-width":1,"text-size":12},"feature_count":19}},"features":[{"type":"Feature","id":"LFRR-text-lfrr-16316","properties":{"name":"HOP_HALE","layer":"Labels","category":"Labels","object_type":"Label","style_id":"label.text.label.labels","airport":"LFRR","geometry_role":"text_label","text-field":"HOP_HALE","vsmr_group_ids":[[]]},"geometry":{"type":"Point","coordinates":[0.0825,48.424166667]}},{"type":"Feature","id":"LFRR-text-lfrr-16317","properties":{"name":"HOP_HACH","layer":"Labels","category":"Labels","object_type":"Label","style_id":"label.text.label.labels","airport":"LFRR","geometry_role":"text_label","text-field":"HOP_HACH","vsmr_group_ids":[[]]},"geometry":{"type":"Point","coordinates":[-0.554166667,47.486388889]}},{"type":"Feature","id":"LFRR-text-lfrr-16318","properties":{"name":"HOP_HAVR","layer":"Labels","category":"Labels","object_type":"Label","style_id":"label.text.label.labels","airport":"LFRR","geometry_role":"text_label","text-field":"HOP_HAVR","vsmr_group_ids":[[]]},"geometry":{"type":"Point","coordinates":[-1.351111111,48.694722222]}},{"type":"Feature","id":"LFRR-text-lfrr-16319","properties":{"name":"HOP_HBRE","layer":"Labels","category":"Labels","object_type":"Label","style_id":"label.text.label.labels","airport":"LFRR","geometry_role":"text_label","text-field":"HOP_HBRE","vsmr_group_ids":[[]]},"geometry":{"type":"Point","coordinates":[-4.529444444,48.403333333]}},{"type":"Feature","id":"LFRR-text-lfrr-16320","properties":{"name":"HEL_HCHL","layer":"Labels","category":"Labels","object_type":"Label","style_id":"label.text.label.labels","airport":"LFRR","geometry_role":"text_label","text-field":"HEL_HCHL","vsmr_group_ids":[[]]},"geometry":{"type":"Point","coordinates":[-1.830555556,46.854166667]}},{"type":"Feature","id":"LFRR-text-lfrr-16321","properties":{"name":"HOP_HCHO","layer":"Labels","category":"Labels","object_type":"Label","style_id":"label.text.label.labels","airport":"LFRR","geometry_role":"text_label","text-field":"HOP_HCHO","vsmr_group_ids":[[]]},"geometry":{"type":"Point","coordinates":[-0.897222222,47.041388889]}},{"type":"Feature","id":"LFRR-text-lfrr-16322","properties":{"name":"HOP_HGRV","layer":"Labels","category":"Labels","object_type":"Label","style_id":"label.text.label.labels","airport":"LFRR","geometry_role":"text_label","text-field":"HOP_HGRV","vsmr_group_ids":[[]]},"geometry":{"type":"Point","coordinates":[-1.569444444,48.826944444]}},{"type":"Feature","id":"LFRR-text-lfrr-16323","properties":{"name":"HOP_HROC","layer":"Labels","category":"Labels","object_type":"Label","style_id":"label.text.label.labels","airport":"LFRR","geometry_role":"text_label","text-field":"HOP_HROC","vsmr_group_ids":[[]]},"geometry":{"type":"Point","coordinates":[-1.413333333,46.668333333]}},{"type":"Feature","id":"LFRR-text-lfrr-16324","properties":{"name":"HOP_HLNN","layer":"Labels","category":"Labels","object_type":"Label","style_id":"label.text.label.labels","airport":"LFRR","geometry_role":"text_label","text-field":"HOP_HLNN","vsmr_group_ids":[[]]},"geometry":{"type":"Point","coordinates":[-0.465277778,48.722777778]}},{"type":"Feature","id":"LFRR-text-lfrr-16325","properties":{"name":"HOP_HLMA","layer":"Labels","category":"Labels","object_type":"Label","style_id":"label.text.label.labels","airport":"LFRR","geometry_role":"text_label","text-field":"HOP_HLMA","vsmr_group_ids":[[]]},"geometry":{"type":"Point","coordinates":[0.173333333,48.016666667]}},{"type":"Feature","id":"LFRR-text-lfrr-16326","properties":{"name":"HOP_HLOR","layer":"Labels","category":"Labels","object_type":"Label","style_id":"label.text.label.labels","airport":"LFRR","geometry_role":"text_label","text-field":"HOP_HLOR","vsmr_group_ids":[[]]},"geometry":{"type":"Point","coordinates":[-3.356111111,47.753611111]}},{"type":"Feature","id":"LFRR-text-lfrr-16327","properties":{"name":"HOP_HNQM","layer":"Labels","category":"Labels","object_type":"Label","style_id":"label.text.label.labels","airport":"LFRR","geometry_role":"text_label","text-field":"HOP_HNQM","vsmr_group_ids":[[]]},"geometry":{"type":"Point","coordinates":[-1.554444444,47.208888889]}},{"type":"Feature","id":"LFRR-text-lfrr-16328","properties":{"name":"HOP_HNDS","layer":"Labels","category":"Labels","object_type":"Label","style_id":"label.text.label.labels","airport":"LFRR","geometry_role":"text_label","text-field":"HOP_HNDS","vsmr_group_ids":[[]]},"geometry":{"type":"Point","coordinates":[-0.386111111,46.831388889]}},{"type":"Feature","id":"LFRR-text-lfrr-16329","properties":{"name":"HOP_HQUI","layer":"Labels","category":"Labels","object_type":"Label","style_id":"label.text.label.labels","airport":"LFRR","geometry_role":"text_label","text-field":"HOP_HQUI","vsmr_group_ids":[[]]},"geometry":{"type":"Point","coordinates":[-4.095833333,47.985277778]}},{"type":"Feature","id":"LFRR-text-lfrr-16330","properties":{"name":"HOP_HREP","layer":"Labels","category":"Labels","object_type":"Label","style_id":"label.text.label.labels","airport":"LFRR","geometry_role":"text_label","text-field":"HOP_HREP","vsmr_group_ids":[[]]},"geometry":{"type":"Point","coordinates":[-1.696111111,48.123055556]}},{"type":"Feature","id":"LFRR-text-lfrr-16331","properties":{"name":"HOP_HSTB","layer":"Labels","category":"Labels","object_type":"Label","style_id":"label.text.label.labels","airport":"LFRR","geometry_role":"text_label","text-field":"HOP_HSTB","vsmr_group_ids":[[]]},"geometry":{"type":"Point","coordinates":[-2.750833333,48.490833333]}},{"type":"Feature","id":"LFRR-text-lfrr-16332","properties":{"name":"HOP_HSTM","layer":"Labels","category":"Labels","object_type":"Label","style_id":"label.text.label.labels","airport":"LFRR","geometry_role":"text_label","text-field":"HOP_HSTM","vsmr_group_ids":[[]]},"geometry":{"type":"Point","coordinates":[-2.008888889,48.638055556]}},{"type":"Feature","id":"LFRR-text-lfrr-16333","properties":{"name":"HOP_HSTN","layer":"Labels","category":"Labels","object_type":"Label","style_id":"label.text.label.labels","airport":"LFRR","geometry_role":"text_label","text-field":"HOP_HSTN","vsmr_group_ids":[[]]},"geometry":{"type":"Point","coordinates":[-2.256388889,47.267222222]}},{"type":"Feature","id":"LFRR-text-lfrr-16334","properties":{"name":"HOP_HVAN","layer":"Labels","category":"Labels","object_type":"Label","style_id":"label.text.label.labels","airport":"LFRR","geometry_role":"text_label","text-field":"HOP_HVAN","vsmr_group_ids":[[]]},"geometry":{"type":"Point","coordinates":[-2.744722222,47.663888889]}}]}
