{"type":"FeatureCollection","name":"LFRT AVISO","bbox":[-2.867380833,48.533141944,-2.841843889,48.543388889],"metadata":{"schema":"vSMR AVISO","schema_version":2,"geometry_mode":"shared","airport":"LFRT","coordinate_reference_system":"WGS84","coordinate_order":"longitude, latitude","default_color_palette":"dark","color_palettes":["dark","light"],"background_colors":{"dark":"#434A4F","light":"#434A4F"},"feature_count":16,"style_count":3,"layer_counts":{"Labels":15,"Runways":1},"category_counts":{"Gates":12,"Runway centerlines":1,"Taxiways":3},"runways":[{"ends":["06","24"],"headings":[59,239],"thresholds":[[-2.867380833,48.533141944],[-2.841843889,48.543388889]]}],"saved_active_runways":[],"saved_active_airport_modes":[],"geometry_source":"EuroScope sector pack","source_files":{"LFBB.sct":"fc92f16bc65e3a10b9aeb0cf4d1cae1add9856a4f4f2f653af5abaa0d98c77ed","LFBB.ese":"c7c252d4a274f6fd98bcefd2364b7bb9799385a6e602b62ccbe85cc32042ef62","LFBB.rwy":"d9387919da6406482f154f391ab2d20783610a60930f986e160686134ea8a7df","LFEE.sct":"10fcc997213ee24336ef8bd37f3a9423cb07bbdfb57b1494c61b8310b9641d8a","LFEE.ese":"3391dc3a47130a4a8c12ab895a6743c77668044183634bd45d425513ef5baa2f","LFFF.sct":"cb6698888ce3e8e8be34ea45922976a5fb3ebe1baef7814f040c91785f8641f2","LFFF.ese":"0c1e64c4a0524a6cdc30766699492d362f78011da36daeacfde4597a1761b64c","LFFF.rwy":"a12900bf1f18188caf2e598c44e55b2c0c6fb2c66cee43ff843cbe216617ae96","LFMM.sct":"fc0d266315a59cb027803be613657d9e9875a2a4b912535d08d1c7892a53b194","LFMM.ese":"6a319d7f7c1c2f7e457ae789f4aae2feafec03b24f5d3d95752e96922a971c9e","LFMM.rwy":"236563995d9b5be668ee3fc8d653cf8f33f20a511137652b197e5877b85d5693","LFRR.sct":"c5a55173543154d388eb65309d606b41ac5da09af59142e69878a4cde03add83","LFRR.ese":"e4542200e8322297f954327131cfe6e73da3ac264cf5610ff6871309cd6eeb40"},"airport_reference":[-2.856666944,48.5375]},"styles":{"label.gates":{"name":"Gates","layer":"Labels","object_type":"Label","paint":{"text-color":"#CCCCCC","text-font":"Arial","text-size":12,"text-halo-color":"#000000","text-halo-width":1,"text-anchor":"center","zoomLevel":9},"feature_count":12},"label.taxiways":{"name":"Taxiways","layer":"Labels","object_type":"Label","paint":{"text-color":"#CCCCCC","text-font":"Arial","text-size":12,"text-halo-color":"#000000","text-halo-width":1,"text-anchor":"center","zoomLevel":7},"feature_count":3},"runway.reference":{"name":"Runway centerlines","layer":"Runways","object_type":"Line","paint":{"stroke":"#CCCCCC","stroke-width":2,"stroke-opacity":1},"feature_count":1}},"vsmr_groups":[{"id":"stands-and-gates","name":"Stands & gates","visible":true,"accent":"#d4bd39"}],"features":[{"type":"Feature","id":"LFRT-66e7232c2df3ce9bd38a","properties":{"airport":"LFRT","name":"TWR","layer":"Labels","category":"Gates","object_type":"Label","style_id":"label.gates","source_group":"LFRT Gates","vsmr_group_ids":["stands-and-gates"],"geometry_role":"text_label","text-field":"TWR"},"geometry":{"type":"Point","coordinates":[-2.853314444,48.535455556]}},{"type":"Feature","id":"LFRT-1c35b35ef79d17b88398","properties":{"airport":"LFRT","name":"P","layer":"Labels","category":"Gates","object_type":"Label","style_id":"label.gates","source_group":"LFRT Gates","vsmr_group_ids":["stands-and-gates"],"geometry_role":"text_label","text-field":"P"},"geometry":{"type":"Point","coordinates":[-2.856770833,48.534525]}},{"type":"Feature","id":"LFRT-c95d66081222003084ee","properties":{"airport":"LFRT","name":"P","layer":"Labels","category":"Gates","object_type":"Label","style_id":"label.gates","source_group":"LFRT Gates","vsmr_group_ids":["stands-and-gates"],"geometry_role":"text_label","text-field":"P"},"geometry":{"type":"Point","coordinates":[-2.851420278,48.536786944]}},{"type":"Feature","id":"LFRT-b42543ac3bc3f01a26c0","properties":{"airport":"LFRT","name":"Terminal","layer":"Labels","category":"Gates","object_type":"Label","style_id":"label.gates","source_group":"LFRT Gates","vsmr_group_ids":["stands-and-gates"],"geometry_role":"text_label","text-field":"Terminal"},"geometry":{"type":"Point","coordinates":[-2.854967222,48.5347525]}},{"type":"Feature","id":"LFRT-648d672fca0241114ca8","properties":{"airport":"LFRT","name":"ACB","layer":"Labels","category":"Gates","object_type":"Label","style_id":"label.gates","source_group":"LFRT Gates","vsmr_group_ids":["stands-and-gates"],"geometry_role":"text_label","text-field":"ACB"},"geometry":{"type":"Point","coordinates":[-2.851095833,48.536460278]}},{"type":"Feature","id":"LFRT-29bbe1c6107872d30216","properties":{"airport":"LFRT","name":"Hangar","layer":"Labels","category":"Gates","object_type":"Label","style_id":"label.gates","source_group":"LFRT Gates","vsmr_group_ids":["stands-and-gates"],"geometry_role":"text_label","text-field":"Hangar"},"geometry":{"type":"Point","coordinates":[-2.856484167,48.534118889]}},{"type":"Feature","id":"LFRT-a53627843e91d57addc4","properties":{"airport":"LFRT","name":"1","layer":"Labels","category":"Gates","object_type":"Label","style_id":"label.gates","source_group":"LFRT Gates","vsmr_group_ids":["stands-and-gates"],"geometry_role":"text_label","text-field":"1"},"geometry":{"type":"Point","coordinates":[-2.854767778,48.535425556]}},{"type":"Feature","id":"LFRT-0981e1525b5c1b7b4865","properties":{"airport":"LFRT","name":"2","layer":"Labels","category":"Gates","object_type":"Label","style_id":"label.gates","source_group":"LFRT Gates","vsmr_group_ids":["stands-and-gates"],"geometry_role":"text_label","text-field":"2"},"geometry":{"type":"Point","coordinates":[-2.855230278,48.535190278]}},{"type":"Feature","id":"LFRT-36cae0e9f528ac0e49d1","properties":{"airport":"LFRT","name":"3","layer":"Labels","category":"Gates","object_type":"Label","style_id":"label.gates","source_group":"LFRT Gates","vsmr_group_ids":["stands-and-gates"],"geometry_role":"text_label","text-field":"3"},"geometry":{"type":"Point","coordinates":[-2.855844167,48.535023611]}},{"type":"Feature","id":"LFRT-867e0fb09d36fbb86d4a","properties":{"airport":"LFRT","name":"A","layer":"Labels","category":"Gates","object_type":"Label","style_id":"label.gates","source_group":"LFRT Gates","vsmr_group_ids":["stands-and-gates"],"geometry_role":"text_label","text-field":"A"},"geometry":{"type":"Point","coordinates":[-2.855844167,48.535605]}},{"type":"Feature","id":"LFRT-6f3c9aee9293c4b94e92","properties":{"airport":"LFRT","name":"B","layer":"Labels","category":"Gates","object_type":"Label","style_id":"label.gates","source_group":"LFRT Gates","vsmr_group_ids":["stands-and-gates"],"geometry_role":"text_label","text-field":"B"},"geometry":{"type":"Point","coordinates":[-2.856014444,48.5355375]}},{"type":"Feature","id":"LFRT-75083587244d015c3a87","properties":{"airport":"LFRT","name":"C","layer":"Labels","category":"Gates","object_type":"Label","style_id":"label.gates","source_group":"LFRT Gates","vsmr_group_ids":["stands-and-gates"],"geometry_role":"text_label","text-field":"C"},"geometry":{"type":"Point","coordinates":[-2.856273611,48.535444167]}},{"type":"Feature","id":"LFRT-8b48f304fa96a13d6388","properties":{"airport":"LFRT","name":"A","layer":"Labels","category":"Taxiways","object_type":"Label","style_id":"label.taxiways","source_group":"LFRT Taxiways","vsmr_group_ids":[],"geometry_role":"text_label","text-field":"A"},"geometry":{"type":"Point","coordinates":[-2.852429167,48.537801389]}},{"type":"Feature","id":"LFRT-79bb93d94386e892e69c","properties":{"airport":"LFRT","name":"C","layer":"Labels","category":"Taxiways","object_type":"Label","style_id":"label.taxiways","source_group":"LFRT Taxiways","vsmr_group_ids":[],"geometry_role":"text_label","text-field":"C"},"geometry":{"type":"Point","coordinates":[-2.8540325,48.536803611]}},{"type":"Feature","id":"LFRT-413eb9f23e2469007333","properties":{"airport":"LFRT","name":"B","layer":"Labels","category":"Taxiways","object_type":"Label","style_id":"label.taxiways","source_group":"LFRT Taxiways","vsmr_group_ids":[],"geometry_role":"text_label","text-field":"B"},"geometry":{"type":"Point","coordinates":[-2.856143333,48.536401667]}},{"type":"Feature","id":"LFRT-6c8e7ffcf693987beead","properties":{"airport":"LFRT","name":"06/24","layer":"Runways","category":"Runway centerlines","object_type":"Line","style_id":"runway.reference","source_group":"LFRT Runways","vsmr_group_ids":[],"geometry_role":"runway_centerline"},"geometry":{"type":"LineString","coordinates":[[-2.867380833,48.533141944],[-2.841843889,48.543388889]]}}]}
