{"type":"FeatureCollection","name":"LFRV AVISO","bbox":[-2.953888889,47.610833333,-2.588611111,47.818333333],"metadata":{"schema":"vSMR AVISO","schema_version":2,"airport":"LFRV","coordinate_reference_system":"WGS84","coordinate_order":"longitude, latitude","default_color_palette":"night","color_palettes":["night","day"],"feature_count":9,"style_count":5,"layer_counts":{"Ground linework":2,"Labels":4,"Reference points":1,"Runways":2},"category_counts":{"Labels":5,"Runway Concrete":1,"Runway Grass":1,"Runway Markings":2}},"styles":{"label.text.label.labels":{"name":"Labels","layer":"Labels","object_type":"Label","paint":{"text-anchor":"center","text-color":"#CCCCCC","text-halo-color":"#000000","text-halo-width":1,"text-size":12,"zoomLevel":0},"feature_count":4},"line.linework.runway.concrete":{"name":"Runway Concrete","layer":"Ground linework","object_type":"Line","paint":{"stroke":"#111318","stroke-opacity":1.0,"stroke-width":1.5},"feature_count":1},"line.linework.runway.grass":{"name":"Runway Grass","layer":"Ground linework","object_type":"Line","paint":{"stroke":"#008000","stroke-opacity":1.0,"stroke-width":1.5},"feature_count":1},"line.runway.centerline.runway.markings":{"name":"Runway Markings","layer":"Runways","object_type":"Line","paint":{"stroke":"#FEFEFE","stroke-opacity":1.0,"stroke-width":1.5},"feature_count":2},"point.airport.reference.point.labels":{"name":"Labels","layer":"Reference points","object_type":"Point","paint":{"marker-color":"#808080","marker-size":"small"},"feature_count":1}},"features":[{"type":"Feature","id":"LFRV-runway-08-26-5238","properties":{"name":"LFRV RWY 08/26","layer":"Runways","category":"Runway Markings","object_type":"Line","style_id":"line.runway.centerline.runway.markings","airport":"LFRV","geometry_role":"runway_centerline","vsmr_group_ids":[[]]},"geometry":{"type":"LineString","coordinates":[[-2.729941944,47.724141944],[-2.717880833,47.725275]]}},{"type":"Feature","id":"LFRV-runway-04-22-5239","properties":{"name":"LFRV RWY 04/22","layer":"Runways","category":"Runway Markings","object_type":"Line","style_id":"line.runway.centerline.runway.markings","airport":"LFRV","geometry_role":"runway_centerline","vsmr_group_ids":[[]]},"geometry":{"type":"LineString","coordinates":[[-2.724955833,47.717941944],[-2.712082778,47.728582778]]}},{"type":"Feature","id":"lfrv.line.linework.runway.concrete.30917","properties":{"name":"LFRV Groundlayout Vannes Meucon","layer":"Ground linework","category":"Runway Concrete","object_type":"Line","style_id":"line.linework.runway.concrete","airport":"LFRV","geometry_role":"linework","vsmr_group_ids":[[]]},"geometry":{"type":"MultiLineString","coordinates":[[[-2.730388889,47.725638889],[-2.718194444,47.726861111]],[[-2.729805556,47.722361111],[-2.717611111,47.723555556]],[[-2.730388889,47.725638889],[-2.729805556,47.722361111]],[[-2.718194444,47.726861111],[-2.717611111,47.723555556]]]}},{"type":"Feature","id":"lfrv.line.linework.runway.grass.30921","properties":{"name":"LFRV Groundlayout Vannes Meucon","layer":"Ground linework","category":"Runway Grass","object_type":"Line","style_id":"line.linework.runway.grass","airport":"LFRV","geometry_role":"linework","vsmr_group_ids":[[]]},"geometry":{"type":"MultiLineString","coordinates":[[[-2.726694444,47.719],[-2.713805556,47.729694444]],[[-2.723305556,47.716805556],[-2.710388889,47.7275]],[[-2.726694444,47.719],[-2.723305556,47.716805556]],[[-2.713805556,47.729694444],[-2.710388889,47.7275]]]}},{"type":"Feature","id":"LFRV-airport-reference","properties":{"name":"LFRV","layer":"Reference points","category":"Labels","object_type":"Point","style_id":"point.airport.reference.point.labels","airport":"LFRV","geometry_role":"airport_reference_point","text-field":"LFRV","vsmr_group_ids":[[]]},"geometry":{"type":"Point","coordinates":[-2.723332778,47.719166944]}},{"type":"Feature","id":"LFRV-text-lfrr-16445","properties":{"name":"N","layer":"Labels","category":"Labels","object_type":"Label","style_id":"label.text.label.labels","airport":"LFRV","geometry_role":"text_label","text-field":"N","vsmr_group_ids":[[]]},"geometry":{"type":"Point","coordinates":[-2.806111111,47.818333333]}},{"type":"Feature","id":"LFRV-text-lfrr-16446","properties":{"name":"SE","layer":"Labels","category":"Labels","object_type":"Label","style_id":"label.text.label.labels","airport":"LFRV","geometry_role":"text_label","text-field":"SE","vsmr_group_ids":[[]]},"geometry":{"type":"Point","coordinates":[-2.610555556,47.610833333]}},{"type":"Feature","id":"LFRV-text-lfrr-16447","properties":{"name":"W","layer":"Labels","category":"Labels","object_type":"Label","style_id":"label.text.label.labels","airport":"LFRV","geometry_role":"text_label","text-field":"W","vsmr_group_ids":[[]]},"geometry":{"type":"Point","coordinates":[-2.953888889,47.639722222]}},{"type":"Feature","id":"LFRV-text-lfrr-16448","properties":{"name":"E","layer":"Labels","category":"Labels","object_type":"Label","style_id":"label.text.label.labels","airport":"LFRV","geometry_role":"text_label","text-field":"E","vsmr_group_ids":[[]]},"geometry":{"type":"Point","coordinates":[-2.588611111,47.720555556]}}]}
