{"type":"FeatureCollection","name":"LFRW AVISO","bbox":[-1.408143889,48.658802778,-1.400716944,48.665941944],"metadata":{"schema":"vSMR AVISO","schema_version":2,"airport":"LFRW","coordinate_reference_system":"WGS84","coordinate_order":"longitude, latitude","default_color_palette":"night","color_palettes":["night","day"],"background_colors":{"night":"#434A4F","day":"#434A4F"},"feature_count":3,"style_count":2,"layer_counts":{"Reference points":1,"Runways":2},"category_counts":{"Labels":1,"Runway Markings":2}},"styles":{"line.runway.centerline.runway.markings":{"name":"Runway Markings","layer":"Runways","object_type":"Line","paint":{"stroke":"#FEFEFE","stroke-opacity":1.0,"stroke-width":1.5},"feature_count":2},"point.airport.reference.point.labels":{"name":"Labels","layer":"Reference points","object_type":"Point","paint":{"marker-color":"#808080","marker-size":"small"},"feature_count":1}},"features":[{"type":"Feature","id":"LFRW-runway-14-32-5257","properties":{"name":"LFRW RWY 14/32","layer":"Runways","category":"Runway Markings","object_type":"Line","style_id":"line.runway.centerline.runway.markings","airport":"LFRW","geometry_role":"runway_centerline","vsmr_group_ids":[]},"geometry":{"type":"LineString","coordinates":[[-1.408143889,48.662424722],[-1.403010833,48.658802778]]}},{"type":"Feature","id":"LFRW-runway-03-21-5258","properties":{"name":"LFRW RWY 03/21","layer":"Runways","category":"Runway Markings","object_type":"Line","style_id":"line.runway.centerline.runway.markings","airport":"LFRW","geometry_role":"runway_centerline","vsmr_group_ids":[]},"geometry":{"type":"LineString","coordinates":[[-1.407316944,48.659355833],[-1.400716944,48.665941944]]}},{"type":"Feature","id":"LFRW-airport-reference","properties":{"name":"LFRW","layer":"Reference points","category":"Labels","object_type":"Point","style_id":"point.airport.reference.point.labels","airport":"LFRW","geometry_role":"airport_reference_point","text-field":"LFRW","vsmr_group_ids":[]},"geometry":{"type":"Point","coordinates":[-1.405832778,48.660832778]}}]}
