{"type":"FeatureCollection","name":"LFRZ AVISO","bbox":[-2.316944444,47.234166667,-2.028333333,47.449722222],"metadata":{"schema":"vSMR AVISO","schema_version":2,"airport":"LFRZ","coordinate_reference_system":"WGS84","coordinate_order":"longitude, latitude","default_color_palette":"night","color_palettes":["night","day"],"feature_count":39,"style_count":10,"layer_counts":{"Airfield surfaces":19,"Labels":18,"Reference points":1,"Runways":1},"category_counts":{"Building":7,"Gras Surface":1,"Hard Surface1":2,"Hard Surface2":5,"Labels":19,"Runway Border":1,"Runway Concrete":1,"Runway Markings":1,"Terrain1":2}},"styles":{"area.filled.region.building":{"name":"Building","layer":"Airfield surfaces","object_type":"Area","paint":{"fill":"#394446","fill-opacity":1.0,"stroke":"#394446","stroke-opacity":1.0,"stroke-width":0.5},"feature_count":7},"area.filled.region.gras.surface":{"name":"Gras Surface","layer":"Airfield surfaces","object_type":"Area","paint":{"fill":"#00512F","fill-opacity":1.0,"stroke":"#00512F","stroke-opacity":1.0,"stroke-width":0.5},"feature_count":1},"area.filled.region.hard.surface1":{"name":"Hard Surface1","layer":"Airfield surfaces","object_type":"Area","paint":{"fill":"#969393","fill-opacity":1.0,"stroke":"#969393","stroke-opacity":1.0,"stroke-width":0.5},"feature_count":2},"area.filled.region.hard.surface2":{"name":"Hard Surface2","layer":"Airfield surfaces","object_type":"Area","paint":{"fill":"#595E5B","fill-opacity":1.0,"stroke":"#595E5B","stroke-opacity":1.0,"stroke-width":0.5},"feature_count":5},"area.filled.region.runway.border":{"name":"Runway Border","layer":"Airfield surfaces","object_type":"Area","paint":{"fill":"#808080","fill-opacity":1.0,"stroke":"#808080","stroke-opacity":1.0,"stroke-width":0.5},"feature_count":1},"area.filled.region.runway.concrete":{"name":"Runway Concrete","layer":"Airfield surfaces","object_type":"Area","paint":{"fill":"#111318","fill-opacity":1.0,"stroke":"#111318","stroke-opacity":1.0,"stroke-width":0.5},"feature_count":1},"area.filled.region.terrain1":{"name":"Terrain1","layer":"Airfield surfaces","object_type":"Area","paint":{"fill":"#574242","fill-opacity":1.0,"stroke":"#574242","stroke-opacity":1.0,"stroke-width":0.5},"feature_count":2},"label.text.label.labels":{"name":"Labels","layer":"Labels","object_type":"Label","paint":{"text-anchor":"center","text-color":"#CCCCCC","text-halo-color":"#000000","text-halo-width":1,"text-size":12,"zoomLevel":9},"feature_count":18},"line.runway.centerline.runway.markings":{"name":"Runway Markings","layer":"Runways","object_type":"Line","paint":{"stroke":"#FEFEFE","stroke-opacity":1.0,"stroke-width":1.5},"feature_count":1},"point.airport.reference.point.labels":{"name":"Labels","layer":"Reference points","object_type":"Point","paint":{"marker-color":"#808080","marker-size":"small"},"feature_count":1}},"features":[{"type":"Feature","id":"lfrz.area.filled.region.gras.surface.44074","properties":{"name":"LFRZ AVISO","layer":"Airfield surfaces","category":"Gras Surface","object_type":"Area","style_id":"area.filled.region.gras.surface","airport":"LFRZ","geometry_role":"filled_region","vsmr_group_ids":[]},"geometry":{"type":"Polygon","coordinates":[[[-2.127350278,47.315175556],[-2.127330278,47.3153],[-2.128786389,47.318336667],[-2.128956111,47.318589167],[-2.129193889,47.31876],[-2.1296075,47.318824167],[-2.130080556,47.318788333],[-2.137419722,47.317286944],[-2.137822778,47.317214167],[-2.138201389,47.317185],[-2.138570278,47.317314167],[-2.139026111,47.317741944],[-2.139912778,47.318492778],[-2.140308056,47.318675833],[-2.1405525,47.3187425],[-2.140866389,47.318732778],[-2.15248,47.316324167],[-2.155972222,47.317431667],[-2.158001389,47.317188611],[-2.158765833,47.317836389],[-2.161177778,47.317603611],[-2.161093889,47.317086944],[-2.161778333,47.316828333],[-2.162272222,47.317309722],[-2.162744167,47.317120833],[-2.163056667,47.317128889],[-2.164143889,47.317573056],[-2.165234167,47.317461111],[-2.1719025,47.311922778],[-2.172673611,47.310349444],[-2.172405833,47.309439444],[-2.172397778,47.308741389],[-2.172384722,47.308707778],[-2.172341111,47.308689444],[-2.1687225,47.308710833],[-2.168098611,47.307236389],[-2.167903889,47.307030556],[-2.167763889,47.306489722],[-2.162911111,47.307460833],[-2.162481111,47.30754],[-2.160761667,47.306432778],[-2.159980556,47.305208889],[-2.154560556,47.306967778],[-2.153083611,47.307521389],[-2.1514,47.307821389],[-2.149876389,47.307870833],[-2.149654444,47.307889167],[-2.143107222,47.309028889],[-2.143044722,47.3090525],[-2.143028056,47.309082778],[-2.143048611,47.309126389],[-2.146420556,47.311314722],[-2.127496111,47.315082222],[-2.127350278,47.315175556]]]}},{"type":"Feature","id":"lfrz.area.filled.region.terrain1.44129","properties":{"name":"LFRZ AVISO","layer":"Airfield surfaces","category":"Terrain1","object_type":"Area","style_id":"area.filled.region.terrain1","airport":"LFRZ","geometry_role":"filled_region","vsmr_group_ids":[]},"geometry":{"type":"Polygon","coordinates":[[[-2.157549167,47.314352778],[-2.157590556,47.314355],[-2.157620556,47.314369167],[-2.157574722,47.314268889],[-2.157549722,47.314293333],[-2.156901944,47.314419444],[-2.156767778,47.314391667],[-2.156666111,47.314380833],[-2.156575,47.314378333],[-2.156514167,47.314385556],[-2.156443333,47.314395833],[-2.156525,47.314561389],[-2.157549167,47.314352778]]]}},{"type":"Feature","id":"lfrz.area.filled.region.terrain1.44143","properties":{"name":"LFRZ AVISO","layer":"Airfield surfaces","category":"Terrain1","object_type":"Area","style_id":"area.filled.region.terrain1","airport":"LFRZ","geometry_role":"filled_region","vsmr_group_ids":[]},"geometry":{"type":"Polygon","coordinates":[[[-2.162436944,47.307800833],[-2.162534444,47.307739167],[-2.162236667,47.307551111],[-2.162140833,47.307618611],[-2.159835556,47.306056389],[-2.159535833,47.305869167],[-2.159448611,47.305838889],[-2.159354167,47.305819722],[-2.1592625,47.30582],[-2.159168889,47.305857222],[-2.159104722,47.305910278],[-2.159064444,47.305971111],[-2.159050833,47.306030556],[-2.15907,47.306090833],[-2.159114444,47.306141389],[-2.159773611,47.306566944],[-2.159672222,47.306640833],[-2.160227222,47.30702],[-2.160535278,47.306819444],[-2.160580278,47.306814167],[-2.160633056,47.306814167],[-2.160656944,47.306844167],[-2.160636944,47.306874722],[-2.159883056,47.307259444],[-2.159919722,47.307286944],[-2.160795,47.306863611],[-2.161821667,47.307566944],[-2.161843056,47.307615556],[-2.161826389,47.307665278],[-2.161791389,47.307704722],[-2.161738056,47.307731667],[-2.161628056,47.307741944],[-2.161615833,47.307711667],[-2.161314167,47.307763889],[-2.161380556,47.307938889],[-2.161690556,47.307882222],[-2.161674167,47.307849444],[-2.161886111,47.307814167],[-2.161993889,47.307796944],[-2.162067222,47.307811111],[-2.162248333,47.307929444],[-2.162293611,47.307893889],[-2.163939444,47.309001389],[-2.164136111,47.308949722],[-2.162436944,47.307800833]]]}},{"type":"Feature","id":"lfrz.area.filled.region.hard.surface2.44189","properties":{"name":"LFRZ AVISO","layer":"Airfield surfaces","category":"Hard Surface2","object_type":"Area","style_id":"area.filled.region.hard.surface2","airport":"LFRZ","geometry_role":"filled_region","vsmr_group_ids":[]},"geometry":{"type":"Polygon","coordinates":[[[-2.159790833,47.314349722],[-2.159708611,47.314471667],[-2.159955278,47.314954444],[-2.161798889,47.314603889],[-2.161240278,47.313345],[-2.161531944,47.313131389],[-2.161551389,47.313115278],[-2.161613889,47.313024167],[-2.16162,47.313001389],[-2.161659722,47.312793889],[-2.161432222,47.312653333],[-2.160981944,47.312734722],[-2.1609325,47.312750833],[-2.160888889,47.312787222],[-2.160865,47.3128275],[-2.160843056,47.312913333],[-2.160831389,47.312946667],[-2.160795833,47.312981389],[-2.160653889,47.313085833],[-2.160608333,47.3131125],[-2.160332222,47.313216944],[-2.160246667,47.313246389],[-2.159496111,47.3134025],[-2.158336111,47.312896667],[-2.157709722,47.313061667],[-2.15961,47.313924444],[-2.159790833,47.314349722]]]}},{"type":"Feature","id":"lfrz.area.filled.region.hard.surface2.44217","properties":{"name":"LFRZ AVISO","layer":"Airfield surfaces","category":"Hard Surface2","object_type":"Area","style_id":"area.filled.region.hard.surface2","airport":"LFRZ","geometry_role":"filled_region","vsmr_group_ids":[]},"geometry":{"type":"Polygon","coordinates":[[[-2.166968056,47.311133611],[-2.167002778,47.311171667],[-2.167020833,47.311209444],[-2.167011389,47.311251389],[-2.166986111,47.311284444],[-2.166360833,47.311808889],[-2.1667275,47.312015278],[-2.1677625,47.311136389],[-2.167468056,47.310974167],[-2.167449444,47.310990556],[-2.167368333,47.310947222],[-2.167349444,47.310923611],[-2.167863333,47.310825556],[-2.167998333,47.311053889],[-2.168778333,47.311465833],[-2.169058056,47.311225833],[-2.169199722,47.311225],[-2.1694075,47.311058056],[-2.168440556,47.310511389],[-2.167212222,47.310748056],[-2.166861667,47.310685556],[-2.166640278,47.310910833],[-2.166968056,47.311133611]]]}},{"type":"Feature","id":"lfrz.area.filled.region.hard.surface2.44241","properties":{"name":"LFRZ AVISO","layer":"Airfield surfaces","category":"Hard Surface2","object_type":"Area","style_id":"area.filled.region.hard.surface2","airport":"LFRZ","geometry_role":"filled_region","vsmr_group_ids":[]},"geometry":{"type":"Polygon","coordinates":[[[-2.157738333,47.313146389],[-2.157733889,47.313200556],[-2.157718333,47.313251111],[-2.157666389,47.3133075],[-2.1575925,47.313358056],[-2.157194444,47.313438333],[-2.157622778,47.314393056],[-2.159349444,47.314053333],[-2.159208611,47.313744722],[-2.159112222,47.3136975],[-2.158929167,47.313265],[-2.158246111,47.312966389],[-2.157709444,47.313089444],[-2.157738333,47.313146389]]]}},{"type":"Feature","id":"lfrz.area.filled.region.hard.surface2.44256","properties":{"name":"LFRZ AVISO","layer":"Airfield surfaces","category":"Hard Surface2","object_type":"Area","style_id":"area.filled.region.hard.surface2","airport":"LFRZ","geometry_role":"filled_region","vsmr_group_ids":[]},"geometry":{"type":"Polygon","coordinates":[[[-2.155801944,47.314409444],[-2.155782778,47.314443611],[-2.155759167,47.314468889],[-2.155714444,47.314486389],[-2.155217778,47.314585278],[-2.15528,47.314746944],[-2.154625556,47.314867222],[-2.154701111,47.315044722],[-2.156601944,47.314674167],[-2.156471667,47.314391667],[-2.156201667,47.314435556],[-2.156109722,47.3144325],[-2.156038611,47.314416389],[-2.155986944,47.3143875],[-2.155945833,47.314351389],[-2.155801944,47.314380278],[-2.155801944,47.314409444]]]}},{"type":"Feature","id":"lfrz.area.filled.region.hard.surface2.44274","properties":{"name":"LFRZ AVISO","layer":"Airfield surfaces","category":"Hard Surface2","object_type":"Area","style_id":"area.filled.region.hard.surface2","airport":"LFRZ","geometry_role":"filled_region","vsmr_group_ids":[]},"geometry":{"type":"Polygon","coordinates":[[[-2.163359167,47.314098056],[-2.163378889,47.314080278],[-2.163224167,47.313994722],[-2.163060278,47.314134444],[-2.163225556,47.314216389],[-2.163357778,47.314561111],[-2.163707222,47.314285833],[-2.163359167,47.314098056]]]}},{"type":"Feature","id":"lfrz.area.filled.region.hard.surface1.44283","properties":{"name":"LFRZ AVISO","layer":"Airfield surfaces","category":"Hard Surface1","object_type":"Area","style_id":"area.filled.region.hard.surface1","airport":"LFRZ","geometry_role":"filled_region","vsmr_group_ids":[]},"geometry":{"type":"Polygon","coordinates":[[[-2.157541944,47.312746944],[-2.157527222,47.312796389],[-2.157490556,47.312845833],[-2.157428333,47.312886667],[-2.157316389,47.312921667],[-2.155342222,47.313324444],[-2.155798611,47.3143825],[-2.155949444,47.314353889],[-2.155593333,47.313529722],[-2.155579167,47.313493611],[-2.155586944,47.313457222],[-2.155601111,47.313424167],[-2.155638889,47.313388056],[-2.155673611,47.313365556],[-2.1557775,47.313341944],[-2.157486111,47.313005833],[-2.157555833,47.313008056],[-2.15761,47.313014722],[-2.1576575,47.313031944],[-2.157686389,47.313059722],[-2.15771,47.313098611],[-2.158459722,47.312948611],[-2.15836,47.3129075],[-2.158212222,47.312823611],[-2.158099444,47.312751944],[-2.158038889,47.312699167],[-2.157950278,47.312553611],[-2.157806389,47.312592222],[-2.157498611,47.311887778],[-2.157213333,47.31195],[-2.157519167,47.31264],[-2.157541944,47.312746944]]]}},{"type":"Feature","id":"lfrz.area.filled.region.hard.surface1.44316","properties":{"name":"LFRZ AVISO","layer":"Airfield surfaces","category":"Hard Surface1","object_type":"Area","style_id":"area.filled.region.hard.surface1","airport":"LFRZ","geometry_role":"filled_region","vsmr_group_ids":[]},"geometry":{"type":"Polygon","coordinates":[[[-2.166657222,47.310922778],[-2.166928056,47.310696111],[-2.166669444,47.310646389],[-2.165948333,47.310158611],[-2.16574,47.31031],[-2.166657222,47.310922778]]]}},{"type":"Feature","id":"lfrz.area.filled.region.runway.concrete.44323","properties":{"name":"LFRZ AVISO","layer":"Airfield surfaces","category":"Runway Concrete","object_type":"Area","style_id":"area.filled.region.runway.concrete","airport":"LFRZ","geometry_role":"filled_region","vsmr_group_ids":[]},"geometry":{"type":"Polygon","coordinates":[[[-2.134021111,47.31547],[-2.134111944,47.315514167],[-2.134198889,47.315546389],[-2.13428,47.315565278],[-2.134353611,47.3155775],[-2.134446111,47.315582222],[-2.134528889,47.315564722],[-2.134600833,47.315513333],[-2.1346475,47.3154575],[-2.134716111,47.315395278],[-2.134771667,47.3153475],[-2.1348325,47.315318889],[-2.156233333,47.311002222],[-2.156427778,47.310997778],[-2.156588056,47.311026667],[-2.156728611,47.311094722],[-2.156835833,47.311177222],[-2.1569075,47.311274167],[-2.157228889,47.311985],[-2.157515,47.311924444],[-2.157106667,47.310991667],[-2.157106111,47.310932778],[-2.157134444,47.310884167],[-2.157183333,47.310828056],[-2.157274722,47.310793333],[-2.1633625,47.309566944],[-2.163588611,47.309522778],[-2.163677222,47.309532222],[-2.164711111,47.309702222],[-2.164793889,47.309719167],[-2.164861111,47.309743056],[-2.164925278,47.309772222],[-2.165748611,47.310316111],[-2.165959167,47.310164444],[-2.164443056,47.309149444],[-2.164333056,47.308898889],[-2.133839167,47.3150575],[-2.134021111,47.31547]]]}},{"type":"Feature","id":"lfrz.area.filled.region.building.44362","properties":{"name":"LFRZ AVISO","layer":"Airfield surfaces","category":"Building","object_type":"Area","style_id":"area.filled.region.building","airport":"LFRZ","geometry_role":"filled_region","vsmr_group_ids":[]},"geometry":{"type":"Polygon","coordinates":[[[-2.16641,47.314105833],[-2.164721667,47.315509444],[-2.166126667,47.316288333],[-2.167804722,47.314880556],[-2.16641,47.314105833]]]}},{"type":"Feature","id":"lfrz.area.filled.region.building.44368","properties":{"name":"LFRZ AVISO","layer":"Airfield surfaces","category":"Building","object_type":"Area","style_id":"area.filled.region.building","airport":"LFRZ","geometry_role":"filled_region","vsmr_group_ids":[]},"geometry":{"type":"Polygon","coordinates":[[[-2.169640278,47.311512222],[-2.169667778,47.311530833],[-2.1687425,47.312306667],[-2.1688625,47.312373056],[-2.168241389,47.312886944],[-2.168148611,47.312827778],[-2.168028611,47.312912778],[-2.169092222,47.3134825],[-2.169795556,47.312886944],[-2.170181944,47.313093611],[-2.1711275,47.312280556],[-2.170733056,47.312062222],[-2.170950833,47.311855278],[-2.1712075,47.311988333],[-2.172069444,47.311275556],[-2.170676667,47.310517778],[-2.1699675,47.311120556],[-2.170054722,47.311165],[-2.169640278,47.311512222]]]}},{"type":"Feature","id":"lfrz.area.filled.region.building.44388","properties":{"name":"LFRZ AVISO","layer":"Airfield surfaces","category":"Building","object_type":"Area","style_id":"area.filled.region.building","airport":"LFRZ","geometry_role":"filled_region","vsmr_group_ids":[]},"geometry":{"type":"Polygon","coordinates":[[[-2.167763611,47.311284722],[-2.167221389,47.311751389],[-2.167551111,47.311928333],[-2.167363056,47.312087778],[-2.1678,47.312331667],[-2.168508056,47.311704722],[-2.168191389,47.311528056],[-2.167701111,47.311936944],[-2.1676025,47.311890556],[-2.1678375,47.311681667],[-2.167880278,47.311699167],[-2.168127222,47.311490278],[-2.167763611,47.311284722]]]}},{"type":"Feature","id":"lfrz.area.filled.region.building.44402","properties":{"name":"LFRZ AVISO","layer":"Airfield surfaces","category":"Building","object_type":"Area","style_id":"area.filled.region.building","airport":"LFRZ","geometry_role":"filled_region","vsmr_group_ids":[]},"geometry":{"type":"Polygon","coordinates":[[[-2.166964722,47.311954444],[-2.166866389,47.312050278],[-2.167453333,47.312363889],[-2.167012222,47.312732222],[-2.166930833,47.312691667],[-2.167204722,47.312441944],[-2.167256111,47.312479722],[-2.167320556,47.312415833],[-2.166926389,47.312192222],[-2.166836667,47.312259167],[-2.166691111,47.312171944],[-2.166023889,47.312740556],[-2.166746944,47.313138056],[-2.167684444,47.312349167],[-2.166964722,47.311954444]]]}},{"type":"Feature","id":"lfrz.area.filled.region.building.44418","properties":{"name":"LFRZ AVISO","layer":"Airfield surfaces","category":"Building","object_type":"Area","style_id":"area.filled.region.building","airport":"LFRZ","geometry_role":"filled_region","vsmr_group_ids":[]},"geometry":{"type":"Polygon","coordinates":[[[-2.161719722,47.314609167],[-2.159862222,47.314985556],[-2.159910278,47.315102222],[-2.159205833,47.315247778],[-2.159145,47.315075833],[-2.156628056,47.315575833],[-2.156709722,47.315747222],[-2.1566625,47.315756944],[-2.156758333,47.315950556],[-2.156350556,47.316034444],[-2.156518333,47.316380833],[-2.160135,47.315652222],[-2.162007778,47.315268889],[-2.161719722,47.314609167]]]}},{"type":"Feature","id":"lfrz.area.filled.region.building.44433","properties":{"name":"LFRZ AVISO","layer":"Airfield surfaces","category":"Building","object_type":"Area","style_id":"area.filled.region.building","airport":"LFRZ","geometry_role":"filled_region","vsmr_group_ids":[]},"geometry":{"type":"Polygon","coordinates":[[[-2.163433056,47.314340556],[-2.163219444,47.314518333],[-2.163396944,47.314618056],[-2.163600833,47.314438333],[-2.163433056,47.314340556]]]}},{"type":"Feature","id":"lfrz.area.filled.region.building.44439","properties":{"name":"LFRZ AVISO","layer":"Airfield surfaces","category":"Building","object_type":"Area","style_id":"area.filled.region.building","airport":"LFRZ","geometry_role":"filled_region","vsmr_group_ids":[]},"geometry":{"type":"Polygon","coordinates":[[[-2.163596667,47.314224444],[-2.163501111,47.314307222],[-2.163644722,47.314386667],[-2.163741944,47.314299167],[-2.163596667,47.314224444]]]}},{"type":"Feature","id":"lfrz.area.filled.region.runway.border.44445","properties":{"name":"LFRZ AVISO","layer":"Airfield surfaces","category":"Runway Border","object_type":"Area","style_id":"area.filled.region.runway.border","airport":"LFRZ","geometry_role":"filled_region","vsmr_group_ids":[]},"geometry":{"type":"Polygon","coordinates":[[[-2.163234722,47.3140825],[-2.163236389,47.314103611],[-2.163204722,47.314104444],[-2.163201667,47.314084167],[-2.163190833,47.314084444],[-2.163196389,47.314130833],[-2.163208333,47.314130556],[-2.163205556,47.314110278],[-2.163237222,47.314109722],[-2.163238611,47.314128611],[-2.163248889,47.314128611],[-2.163245556,47.314082222],[-2.163234722,47.3140825]]]}},{"type":"Feature","id":"LFRZ-runway-07-25-5241","properties":{"name":"LFRZ RWY 07/25","layer":"Runways","category":"Runway Markings","object_type":"Line","style_id":"line.runway.centerline.runway.markings","airport":"LFRZ","geometry_role":"runway_centerline","vsmr_group_ids":[]},"geometry":{"type":"LineString","coordinates":[[-2.164427778,47.309110833],[-2.133930833,47.315263889]]}},{"type":"Feature","id":"LFRZ-airport-reference","properties":{"name":"LFRZ","layer":"Reference points","category":"Labels","object_type":"Point","style_id":"point.airport.reference.point.labels","airport":"LFRZ","geometry_role":"airport_reference_point","text-field":"LFRZ","vsmr_group_ids":[]},"geometry":{"type":"Point","coordinates":[-2.156666944,47.310555833]}},{"type":"Feature","id":"LFRZ-text-lfrr-16450","properties":{"name":"ACB","layer":"Labels","category":"Labels","object_type":"Label","style_id":"label.text.label.labels","airport":"LFRZ","geometry_role":"text_label","text-field":"ACB","vsmr_group_ids":[]},"geometry":{"type":"Point","coordinates":[-2.156479722,47.314790556]}},{"type":"Feature","id":"LFRZ-text-lfrr-16451","properties":{"name":"Terminal","layer":"Labels","category":"Labels","object_type":"Label","style_id":"label.text.label.labels","airport":"LFRZ","geometry_role":"text_label","text-field":"Terminal","vsmr_group_ids":[]},"geometry":{"type":"Point","coordinates":[-2.158562222,47.314429167]}},{"type":"Feature","id":"LFRZ-text-lfrr-16452","properties":{"name":"P 2","layer":"Labels","category":"Labels","object_type":"Label","style_id":"label.text.label.labels","airport":"LFRZ","geometry_role":"text_label","text-field":"P 2","vsmr_group_ids":[]},"geometry":{"type":"Point","coordinates":[-2.158479167,47.314102778]}},{"type":"Feature","id":"LFRZ-text-lfrr-16453","properties":{"name":"P 1","layer":"Labels","category":"Labels","object_type":"Label","style_id":"label.text.label.labels","airport":"LFRZ","geometry_role":"text_label","text-field":"P 1","vsmr_group_ids":[]},"geometry":{"type":"Point","coordinates":[-2.160561667,47.314161944]}},{"type":"Feature","id":"LFRZ-text-lfrr-16454","properties":{"name":"TWR","layer":"Labels","category":"Labels","object_type":"Label","style_id":"label.text.label.labels","airport":"LFRZ","geometry_role":"text_label","text-field":"TWR","vsmr_group_ids":[]},"geometry":{"type":"Point","coordinates":[-2.159580833,47.314389722]}},{"type":"Feature","id":"LFRZ-text-lfrr-16455","properties":{"name":"1","layer":"Labels","category":"Labels","object_type":"Label","style_id":"label.text.label.labels","airport":"LFRZ","geometry_role":"text_label","text-field":"1","vsmr_group_ids":[]},"geometry":{"type":"Point","coordinates":[-2.160267222,47.314533333]}},{"type":"Feature","id":"LFRZ-text-lfrr-16456","properties":{"name":"2","layer":"Labels","category":"Labels","object_type":"Label","style_id":"label.text.label.labels","airport":"LFRZ","geometry_role":"text_label","text-field":"2","vsmr_group_ids":[]},"geometry":{"type":"Point","coordinates":[-2.161157778,47.314102778]}},{"type":"Feature","id":"LFRZ-text-lfrr-16457","properties":{"name":"3","layer":"Labels","category":"Labels","object_type":"Label","style_id":"label.text.label.labels","airport":"LFRZ","geometry_role":"text_label","text-field":"3","vsmr_group_ids":[]},"geometry":{"type":"Point","coordinates":[-2.161111389,47.313241111]}},{"type":"Feature","id":"LFRZ-text-lfrr-16458","properties":{"name":"P Airbus","layer":"Labels","category":"Labels","object_type":"Label","style_id":"label.text.label.labels","airport":"LFRZ","geometry_role":"text_label","text-field":"P Airbus","vsmr_group_ids":[]},"geometry":{"type":"Point","coordinates":[-2.167784167,47.3107825]}},{"type":"Feature","id":"LFRZ-text-lfrr-16459","properties":{"name":"H","layer":"Labels","category":"Labels","object_type":"Label","style_id":"label.text.label.labels","airport":"LFRZ","geometry_role":"text_label","text-field":"H","vsmr_group_ids":[]},"geometry":{"type":"Point","coordinates":[-2.163221944,47.314107778]}},{"type":"Feature","id":"LFRZ-text-lfrr-16461","properties":{"name":"W1","layer":"Labels","category":"Labels","object_type":"Label","style_id":"label.text.label.labels","airport":"LFRZ","geometry_role":"text_label","text-field":"W1","vsmr_group_ids":[]},"geometry":{"type":"Point","coordinates":[-2.251111111,47.285555556]}},{"type":"Feature","id":"LFRZ-text-lfrr-16462","properties":{"name":"E","layer":"Labels","category":"Labels","object_type":"Label","style_id":"label.text.label.labels","airport":"LFRZ","geometry_role":"text_label","text-field":"E","vsmr_group_ids":[]},"geometry":{"type":"Point","coordinates":[-2.028333333,47.281666667]}},{"type":"Feature","id":"LFRZ-text-lfrr-16463","properties":{"name":"N","layer":"Labels","category":"Labels","object_type":"Label","style_id":"label.text.label.labels","airport":"LFRZ","geometry_role":"text_label","text-field":"N","vsmr_group_ids":[]},"geometry":{"type":"Point","coordinates":[-2.090277778,47.446388889]}},{"type":"Feature","id":"LFRZ-text-lfrr-16464","properties":{"name":"W","layer":"Labels","category":"Labels","object_type":"Label","style_id":"label.text.label.labels","airport":"LFRZ","geometry_role":"text_label","text-field":"W","vsmr_group_ids":[]},"geometry":{"type":"Point","coordinates":[-2.298611111,47.234166667]}},{"type":"Feature","id":"LFRZ-text-lfrr-16465","properties":{"name":"NW","layer":"Labels","category":"Labels","object_type":"Label","style_id":"label.text.label.labels","airport":"LFRZ","geometry_role":"text_label","text-field":"NW","vsmr_group_ids":[]},"geometry":{"type":"Point","coordinates":[-2.316944444,47.449722222]}},{"type":"Feature","id":"LFRZ-text-lfrr-16467","properties":{"name":"A","layer":"Labels","category":"Labels","object_type":"Label","style_id":"label.text.label.labels","airport":"LFRZ","geometry_role":"text_label","text-field":"A","vsmr_group_ids":[]},"geometry":{"type":"Point","coordinates":[-2.165577778,47.310020833]}},{"type":"Feature","id":"LFRZ-text-lfrr-16468","properties":{"name":"B","layer":"Labels","category":"Labels","object_type":"Label","style_id":"label.text.label.labels","airport":"LFRZ","geometry_role":"text_label","text-field":"B","vsmr_group_ids":[]},"geometry":{"type":"Point","coordinates":[-2.1572875,47.311721667]}},{"type":"Feature","id":"LFRZ-text-lfrr-16469","properties":{"name":"C","layer":"Labels","category":"Labels","object_type":"Label","style_id":"label.text.label.labels","airport":"LFRZ","geometry_role":"text_label","text-field":"C","vsmr_group_ids":[]},"geometry":{"type":"Point","coordinates":[-2.156568333,47.312926111]}}]}
