{"type":"FeatureCollection","name":"LFSC AVISO","bbox":[7.393111111,47.910777778,7.4085,47.932166667],"metadata":{"schema":"vSMR AVISO","schema_version":2,"geometry_mode":"shared","airport":"LFSC","coordinate_reference_system":"WGS84","coordinate_order":"longitude, latitude","default_color_palette":"dark","color_palettes":["dark","light"],"background_colors":{"dark":"#434A4F","light":"#434A4F"},"feature_count":19,"style_count":1,"layer_counts":{"Labels":19},"category_counts":{"Taxiways":19},"runways":[],"saved_active_runways":[],"saved_active_airport_modes":[],"geometry_source":"EuroScope sector pack","source_files":{"LFBB.sct":"fc92f16bc65e3a10b9aeb0cf4d1cae1add9856a4f4f2f653af5abaa0d98c77ed","LFBB.ese":"c7c252d4a274f6fd98bcefd2364b7bb9799385a6e602b62ccbe85cc32042ef62","LFBB.rwy":"d9387919da6406482f154f391ab2d20783610a60930f986e160686134ea8a7df","LFEE.sct":"10fcc997213ee24336ef8bd37f3a9423cb07bbdfb57b1494c61b8310b9641d8a","LFEE.ese":"3391dc3a47130a4a8c12ab895a6743c77668044183634bd45d425513ef5baa2f","LFFF.sct":"cb6698888ce3e8e8be34ea45922976a5fb3ebe1baef7814f040c91785f8641f2","LFFF.ese":"0c1e64c4a0524a6cdc30766699492d362f78011da36daeacfde4597a1761b64c","LFFF.rwy":"a12900bf1f18188caf2e598c44e55b2c0c6fb2c66cee43ff843cbe216617ae96","LFMM.sct":"fc0d266315a59cb027803be613657d9e9875a2a4b912535d08d1c7892a53b194","LFMM.ese":"6a319d7f7c1c2f7e457ae789f4aae2feafec03b24f5d3d95752e96922a971c9e","LFMM.rwy":"236563995d9b5be668ee3fc8d653cf8f33f20a511137652b197e5877b85d5693","LFRR.sct":"c5a55173543154d388eb65309d606b41ac5da09af59142e69878a4cde03add83","LFRR.ese":"e4542200e8322297f954327131cfe6e73da3ac264cf5610ff6871309cd6eeb40"}},"styles":{"label.taxiways":{"name":"Taxiways","layer":"Labels","object_type":"Label","paint":{"text-color":"#CCCCCC","text-font":"Arial","text-size":12,"text-halo-color":"#000000","text-halo-width":1,"text-anchor":"center","zoomLevel":7},"feature_count":19}},"vsmr_groups":[],"features":[{"type":"Feature","id":"LFSC-937871e1932063705e87","properties":{"airport":"LFSC","name":"4W","layer":"Labels","category":"Taxiways","object_type":"Label","style_id":"label.taxiways","source_group":"LFSC Taxiways","vsmr_group_ids":[],"geometry_role":"text_label","text-field":"4W"},"geometry":{"type":"Point","coordinates":[7.396055556,47.911472222]}},{"type":"Feature","id":"LFSC-92dd9907269430eb0439","properties":{"airport":"LFSC","name":"4W","layer":"Labels","category":"Taxiways","object_type":"Label","style_id":"label.taxiways","source_group":"LFSC Taxiways","vsmr_group_ids":[],"geometry_role":"text_label","text-field":"4W"},"geometry":{"type":"Point","coordinates":[7.397055556,47.91125]}},{"type":"Feature","id":"LFSC-aa74b0dc9ada5b167246","properties":{"airport":"LFSC","name":"1W","layer":"Labels","category":"Taxiways","object_type":"Label","style_id":"label.taxiways","source_group":"LFSC Taxiways","vsmr_group_ids":[],"geometry_role":"text_label","text-field":"1W"},"geometry":{"type":"Point","coordinates":[7.404,47.932166667]}},{"type":"Feature","id":"LFSC-03a6ba7e91d07c705713","properties":{"airport":"LFSC","name":"1W","layer":"Labels","category":"Taxiways","object_type":"Label","style_id":"label.taxiways","source_group":"LFSC Taxiways","vsmr_group_ids":[],"geometry_role":"text_label","text-field":"1W"},"geometry":{"type":"Point","coordinates":[7.404972222,47.932027778]}},{"type":"Feature","id":"LFSC-5a862860ab394fd30327","properties":{"airport":"LFSC","name":"A(S)","layer":"Labels","category":"Taxiways","object_type":"Label","style_id":"label.taxiways","source_group":"LFSC Taxiways","vsmr_group_ids":[],"geometry_role":"text_label","text-field":"A(S)"},"geometry":{"type":"Point","coordinates":[7.398888889,47.91425]}},{"type":"Feature","id":"LFSC-2cf0f0a01397938a209b","properties":{"airport":"LFSC","name":"3W","layer":"Labels","category":"Taxiways","object_type":"Label","style_id":"label.taxiways","source_group":"LFSC Taxiways","vsmr_group_ids":[],"geometry_role":"text_label","text-field":"3W"},"geometry":{"type":"Point","coordinates":[7.398361111,47.917666667]}},{"type":"Feature","id":"LFSC-1f9d7c2507a2457ad790","properties":{"airport":"LFSC","name":"3W","layer":"Labels","category":"Taxiways","object_type":"Label","style_id":"label.taxiways","source_group":"LFSC Taxiways","vsmr_group_ids":[],"geometry_role":"text_label","text-field":"3W"},"geometry":{"type":"Point","coordinates":[7.399361111,47.9175]}},{"type":"Feature","id":"LFSC-c39fbfa1d0b33c94528e","properties":{"airport":"LFSC","name":"2W","layer":"Labels","category":"Taxiways","object_type":"Label","style_id":"label.taxiways","source_group":"LFSC Taxiways","vsmr_group_ids":[],"geometry_role":"text_label","text-field":"2W"},"geometry":{"type":"Point","coordinates":[7.401444444,47.925833333]}},{"type":"Feature","id":"LFSC-79597075400ed7e842cc","properties":{"airport":"LFSC","name":"2W","layer":"Labels","category":"Taxiways","object_type":"Label","style_id":"label.taxiways","source_group":"LFSC Taxiways","vsmr_group_ids":[],"geometry_role":"text_label","text-field":"2W"},"geometry":{"type":"Point","coordinates":[7.402416667,47.925638889]}},{"type":"Feature","id":"LFSC-aa8d1c93bc029e34e2c6","properties":{"airport":"LFSC","name":"5","layer":"Labels","category":"Taxiways","object_type":"Label","style_id":"label.taxiways","source_group":"LFSC Taxiways","vsmr_group_ids":[],"geometry_role":"text_label","text-field":"5"},"geometry":{"type":"Point","coordinates":[7.395388889,47.911583333]}},{"type":"Feature","id":"LFSC-980ec5ca898b201d2e18","properties":{"airport":"LFSC","name":"5","layer":"Labels","category":"Taxiways","object_type":"Label","style_id":"label.taxiways","source_group":"LFSC Taxiways","vsmr_group_ids":[],"geometry_role":"text_label","text-field":"5"},"geometry":{"type":"Point","coordinates":[7.393111111,47.911944444]}},{"type":"Feature","id":"LFSC-c6b90a9e70ec9e2ec166","properties":{"airport":"LFSC","name":"1E","layer":"Labels","category":"Taxiways","object_type":"Label","style_id":"label.taxiways","source_group":"LFSC Taxiways","vsmr_group_ids":[],"geometry_role":"text_label","text-field":"1E"},"geometry":{"type":"Point","coordinates":[7.405833333,47.931861111]}},{"type":"Feature","id":"LFSC-48144a258887c7a5af52","properties":{"airport":"LFSC","name":"1E","layer":"Labels","category":"Taxiways","object_type":"Label","style_id":"label.taxiways","source_group":"LFSC Taxiways","vsmr_group_ids":[],"geometry_role":"text_label","text-field":"1E"},"geometry":{"type":"Point","coordinates":[7.406333333,47.931666667]}},{"type":"Feature","id":"LFSC-a174f7794e09221082a4","properties":{"airport":"LFSC","name":"1E","layer":"Labels","category":"Taxiways","object_type":"Label","style_id":"label.taxiways","source_group":"LFSC Taxiways","vsmr_group_ids":[],"geometry_role":"text_label","text-field":"1E"},"geometry":{"type":"Point","coordinates":[7.4085,47.931277778]}},{"type":"Feature","id":"LFSC-89d4096a52543de3312c","properties":{"airport":"LFSC","name":"4E","layer":"Labels","category":"Taxiways","object_type":"Label","style_id":"label.taxiways","source_group":"LFSC Taxiways","vsmr_group_ids":[],"geometry_role":"text_label","text-field":"4E"},"geometry":{"type":"Point","coordinates":[7.399611111,47.910777778]}},{"type":"Feature","id":"LFSC-6d0944e4cba548c2d525","properties":{"airport":"LFSC","name":"2E","layer":"Labels","category":"Taxiways","object_type":"Label","style_id":"label.taxiways","source_group":"LFSC Taxiways","vsmr_group_ids":[],"geometry_role":"text_label","text-field":"2E"},"geometry":{"type":"Point","coordinates":[7.404444444,47.92525]}},{"type":"Feature","id":"LFSC-b327c716acdb40003e5c","properties":{"airport":"LFSC","name":"3E","layer":"Labels","category":"Taxiways","object_type":"Label","style_id":"label.taxiways","source_group":"LFSC Taxiways","vsmr_group_ids":[],"geometry_role":"text_label","text-field":"3E"},"geometry":{"type":"Point","coordinates":[7.401444444,47.917111111]}},{"type":"Feature","id":"LFSC-b8b02299ec7e7d8a01e8","properties":{"airport":"LFSC","name":"A(C)","layer":"Labels","category":"Taxiways","object_type":"Label","style_id":"label.taxiways","source_group":"LFSC Taxiways","vsmr_group_ids":[],"geometry_role":"text_label","text-field":"A(C)"},"geometry":{"type":"Point","coordinates":[7.401583333,47.921444444]}},{"type":"Feature","id":"LFSC-abb1c2f8b048aabfeee0","properties":{"airport":"LFSC","name":"A(N)","layer":"Labels","category":"Taxiways","object_type":"Label","style_id":"label.taxiways","source_group":"LFSC Taxiways","vsmr_group_ids":[],"geometry_role":"text_label","text-field":"A(N)"},"geometry":{"type":"Point","coordinates":[7.404305556,47.928722222]}}]}
