{"type":"FeatureCollection","name":"LFSF AVISO","bbox":[5.88889,48.8836,6.34306,49.2958],"metadata":{"schema":"vSMR AVISO","schema_version":2,"airport":"LFSF","coordinate_reference_system":"WGS84","coordinate_order":"longitude, latitude","default_color_palette":"night","color_palettes":["night","day"],"feature_count":12,"style_count":1,"layer_counts":{"Labels":12},"category_counts":{"Labels":12}},"styles":{"label.text.label.labels":{"name":"Labels","layer":"Labels","object_type":"Label","paint":{"text-anchor":"center","text-color":"#CCCCCC","text-halo-color":"#000000","text-halo-width":1,"text-size":12,"zoomLevel":10},"feature_count":12}},"features":[{"type":"Feature","id":"LFSF-text-lfee-19801","properties":{"name":"1","layer":"Labels","category":"Labels","object_type":"Label","style_id":"label.text.label.labels","airport":"LFSF","geometry_role":"text_label","text-field":"1","vsmr_group_ids":[]},"geometry":{"type":"Point","coordinates":[6.137638889,49.073388889]}},{"type":"Feature","id":"LFSF-text-lfee-19802","properties":{"name":"2","layer":"Labels","category":"Labels","object_type":"Label","style_id":"label.text.label.labels","airport":"LFSF","geometry_role":"text_label","text-field":"2","vsmr_group_ids":[]},"geometry":{"type":"Point","coordinates":[6.136972222,49.073472222]}},{"type":"Feature","id":"LFSF-text-lfee-19803","properties":{"name":"3","layer":"Labels","category":"Labels","object_type":"Label","style_id":"label.text.label.labels","airport":"LFSF","geometry_role":"text_label","text-field":"3","vsmr_group_ids":[]},"geometry":{"type":"Point","coordinates":[6.137055556,49.072833333]}},{"type":"Feature","id":"LFSF-text-lfee-19805","properties":{"name":"LFSF NW","layer":"Labels","category":"Labels","object_type":"Label","style_id":"label.text.label.labels","airport":"LFSF","geometry_role":"text_label","text-field":"LFSF NW","vsmr_group_ids":[]},"geometry":{"type":"Point","coordinates":[6.07417,49.0781]}},{"type":"Feature","id":"LFSF-text-lfee-19806","properties":{"name":"LFSF N2","layer":"Labels","category":"Labels","object_type":"Label","style_id":"label.text.label.labels","airport":"LFSF","geometry_role":"text_label","text-field":"LFSF N2","vsmr_group_ids":[]},"geometry":{"type":"Point","coordinates":[6.34306,49.2958]}},{"type":"Feature","id":"LFSF-text-lfee-19807","properties":{"name":"LFSF W","layer":"Labels","category":"Labels","object_type":"Label","style_id":"label.text.label.labels","airport":"LFSF","geometry_role":"text_label","text-field":"LFSF W","vsmr_group_ids":[]},"geometry":{"type":"Point","coordinates":[5.88889,49.0989]}},{"type":"Feature","id":"LFSF-text-lfee-19808","properties":{"name":"LFSF NE","layer":"Labels","category":"Labels","object_type":"Label","style_id":"label.text.label.labels","airport":"LFSF","geometry_role":"text_label","text-field":"LFSF NE","vsmr_group_ids":[]},"geometry":{"type":"Point","coordinates":[6.22333,49.0758]}},{"type":"Feature","id":"LFSF-text-lfee-19809","properties":{"name":"LFSF SW","layer":"Labels","category":"Labels","object_type":"Label","style_id":"label.text.label.labels","airport":"LFSF","geometry_role":"text_label","text-field":"LFSF SW","vsmr_group_ids":[]},"geometry":{"type":"Point","coordinates":[6.06139,48.8836]}},{"type":"Feature","id":"LFSF-text-lfee-19810","properties":{"name":"LFSF M","layer":"Labels","category":"Labels","object_type":"Label","style_id":"label.text.label.labels","airport":"LFSF","geometry_role":"text_label","text-field":"LFSF M","vsmr_group_ids":[]},"geometry":{"type":"Point","coordinates":[6.20556,49.0067]}},{"type":"Feature","id":"LFSF-text-lfee-19811","properties":{"name":"LFSF N1","layer":"Labels","category":"Labels","object_type":"Label","style_id":"label.text.label.labels","airport":"LFSF","geometry_role":"text_label","text-field":"LFSF N1","vsmr_group_ids":[]},"geometry":{"type":"Point","coordinates":[6.27917,49.1986]}},{"type":"Feature","id":"LFSF-text-lfee-19812","properties":{"name":"LFSF MLM","layer":"Labels","category":"Labels","object_type":"Label","style_id":"label.text.label.labels","airport":"LFSF","geometry_role":"text_label","text-field":"LFSF MLM","vsmr_group_ids":[]},"geometry":{"type":"Point","coordinates":[6.16389,49.2153]}},{"type":"Feature","id":"LFSF-text-lfee-19813","properties":{"name":"LFSF SMC","layer":"Labels","category":"Labels","object_type":"Label","style_id":"label.text.label.labels","airport":"LFSF","geometry_role":"text_label","text-field":"LFSF SMC","vsmr_group_ids":[]},"geometry":{"type":"Point","coordinates":[6.0,49.1931]}}]}
