{"type":"FeatureCollection","name":"LFSM AVISO","bbox":[6.785538889,47.485925,6.797210833,47.487755833],"metadata":{"schema":"vSMR AVISO","schema_version":2,"airport":"LFSM","coordinate_reference_system":"WGS84","coordinate_order":"longitude, latitude","default_color_palette":"night","color_palettes":["night","day"],"feature_count":3,"style_count":2,"layer_counts":{"Reference points":1,"Runways":2},"category_counts":{"Labels":1,"Runway Markings":2}},"styles":{"line.runway.centerline.runway.markings":{"name":"Runway Markings","layer":"Runways","object_type":"Line","paint":{"stroke":"#FEFEFE","stroke-opacity":1.0,"stroke-width":1.5},"feature_count":2},"point.airport.reference.point.labels":{"name":"Labels","layer":"Reference points","object_type":"Point","paint":{"marker-color":"#808080","marker-size":"small"},"feature_count":1}},"features":[{"type":"Feature","id":"LFSM-runway-08L-26R-6740","properties":{"name":"LFSM RWY 08L/26R","layer":"Runways","category":"Runway Markings","object_type":"Line","style_id":"line.runway.centerline.runway.markings","airport":"LFSM","geometry_role":"runway_centerline","vsmr_group_ids":[[]]},"geometry":{"type":"LineString","coordinates":[[6.785538889,47.48635],[6.796725,47.487755833]]}},{"type":"Feature","id":"LFSM-runway-08-26-6741","properties":{"name":"LFSM RWY 08/26","layer":"Runways","category":"Runway Markings","object_type":"Line","style_id":"line.runway.centerline.runway.markings","airport":"LFSM","geometry_role":"runway_centerline","vsmr_group_ids":[[]]},"geometry":{"type":"LineString","coordinates":[[6.785618889,47.485925],[6.797210833,47.487382778]]}},{"type":"Feature","id":"LFSM-airport-reference","properties":{"name":"LFSM","layer":"Reference points","category":"Labels","object_type":"Point","style_id":"point.airport.reference.point.labels","airport":"LFSM","geometry_role":"airport_reference_point","text-field":"LFSM","vsmr_group_ids":[[]]},"geometry":{"type":"Point","coordinates":[6.791388889,47.486666944]}}]}
