{"type":"FeatureCollection","name":"LFSN AVISO","bbox":[6.22475,48.685444444,6.237666667,48.699027778],"metadata":{"schema":"vSMR AVISO","schema_version":2,"airport":"LFSN","coordinate_reference_system":"WGS84","coordinate_order":"longitude, latitude","default_color_palette":"night","color_palettes":["night","day"],"feature_count":5,"style_count":4,"layer_counts":{"Ground linework":2,"Reference points":1,"Runways":2},"category_counts":{"Labels":1,"Runway Concrete":1,"Runway Grass":1,"Runway Markings":2}},"styles":{"line.linework.runway.concrete":{"name":"Runway Concrete","layer":"Ground linework","object_type":"Line","paint":{"stroke":"#111318","stroke-opacity":1.0,"stroke-width":1.5},"feature_count":1},"line.linework.runway.grass":{"name":"Runway Grass","layer":"Ground linework","object_type":"Line","paint":{"stroke":"#008000","stroke-opacity":1.0,"stroke-width":1.5},"feature_count":1},"line.runway.centerline.runway.markings":{"name":"Runway Markings","layer":"Runways","object_type":"Line","paint":{"stroke":"#FEFEFE","stroke-opacity":1.0,"stroke-width":1.5},"feature_count":2},"point.airport.reference.point.labels":{"name":"Labels","layer":"Reference points","object_type":"Point","paint":{"marker-color":"#808080","marker-size":"small"},"feature_count":1}},"features":[{"type":"Feature","id":"LFSN-runway-03R-21L-6742","properties":{"name":"LFSN RWY 03R/21L","layer":"Runways","category":"Runway Markings","object_type":"Line","style_id":"line.runway.centerline.runway.markings","airport":"LFSN","geometry_role":"runway_centerline","vsmr_group_ids":[[]]},"geometry":{"type":"LineString","coordinates":[[6.229043889,48.687660833],[6.232566944,48.691952778]]}},{"type":"Feature","id":"LFSN-runway-03-21-6743","properties":{"name":"LFSN RWY 03/21","layer":"Runways","category":"Runway Markings","object_type":"Line","style_id":"line.runway.centerline.runway.markings","airport":"LFSN","geometry_role":"runway_centerline","vsmr_group_ids":[[]]},"geometry":{"type":"LineString","coordinates":[[6.226663889,48.686343889],[6.236977778,48.699027778]]}},{"type":"Feature","id":"lfsn.line.linework.runway.concrete.43254","properties":{"name":"LFSN Groundlayout Nancy Essey","layer":"Ground linework","category":"Runway Concrete","object_type":"Line","style_id":"line.linework.runway.concrete","airport":"LFSN","geometry_role":"linework","vsmr_group_ids":[[]]},"geometry":{"type":"MultiLineString","coordinates":[[[6.22475,48.687138889],[6.23375,48.69825]],[[6.228666667,48.685444444],[6.237666667,48.696555556]],[[6.22475,48.687138889],[6.228666667,48.685444444]],[[6.23375,48.69825],[6.237666667,48.696555556]]]}},{"type":"Feature","id":"lfsn.line.linework.runway.grass.43258","properties":{"name":"LFSN Groundlayout Nancy Essey","layer":"Ground linework","category":"Runway Grass","object_type":"Line","style_id":"line.linework.runway.grass","airport":"LFSN","geometry_role":"linework","vsmr_group_ids":[[]]},"geometry":{"type":"MultiLineString","coordinates":[[[6.227333333,48.688333333],[6.230833333,48.69275]],[[6.23125,48.686666667],[6.23475,48.691055556]],[[6.227333333,48.688333333],[6.23125,48.686666667]],[[6.230833333,48.69275],[6.23475,48.691055556]]]}},{"type":"Feature","id":"LFSN-airport-reference","properties":{"name":"LFSN","layer":"Reference points","category":"Labels","object_type":"Point","style_id":"point.airport.reference.point.labels","airport":"LFSN","geometry_role":"airport_reference_point","text-field":"LFSN","vsmr_group_ids":[[]]},"geometry":{"type":"Point","coordinates":[6.226110833,48.692221944]}}]}
