{"type":"FeatureCollection","name":"LFSO AVISO","bbox":[5.947527778,48.570583333,5.96175,48.595805556],"metadata":{"schema":"vSMR AVISO","schema_version":2,"geometry_mode":"shared","airport":"LFSO","coordinate_reference_system":"WGS84","coordinate_order":"longitude, latitude","default_color_palette":"dark","color_palettes":["dark","light"],"background_colors":{"dark":"#434A4F","light":"#434A4F"},"feature_count":4,"style_count":4,"layer_counts":{"Guidance lines":3,"Runways":1},"category_counts":{"Apron Surface":1,"Runway centerlines":1,"Runways":1,"Taxiways":1},"runways":[{"ends":["02","20"],"headings":[17,197],"thresholds":[[5.949099722,48.573016944],[5.959960833,48.593363889]]}],"saved_active_runways":[],"saved_active_airport_modes":[],"geometry_source":"EuroScope sector pack","source_files":{"LFBB.sct":"fc92f16bc65e3a10b9aeb0cf4d1cae1add9856a4f4f2f653af5abaa0d98c77ed","LFBB.ese":"c7c252d4a274f6fd98bcefd2364b7bb9799385a6e602b62ccbe85cc32042ef62","LFBB.rwy":"d9387919da6406482f154f391ab2d20783610a60930f986e160686134ea8a7df","LFEE.sct":"10fcc997213ee24336ef8bd37f3a9423cb07bbdfb57b1494c61b8310b9641d8a","LFEE.ese":"3391dc3a47130a4a8c12ab895a6743c77668044183634bd45d425513ef5baa2f","LFFF.sct":"cb6698888ce3e8e8be34ea45922976a5fb3ebe1baef7814f040c91785f8641f2","LFFF.ese":"0c1e64c4a0524a6cdc30766699492d362f78011da36daeacfde4597a1761b64c","LFFF.rwy":"a12900bf1f18188caf2e598c44e55b2c0c6fb2c66cee43ff843cbe216617ae96","LFMM.sct":"fc0d266315a59cb027803be613657d9e9875a2a4b912535d08d1c7892a53b194","LFMM.ese":"6a319d7f7c1c2f7e457ae789f4aae2feafec03b24f5d3d95752e96922a971c9e","LFMM.rwy":"236563995d9b5be668ee3fc8d653cf8f33f20a511137652b197e5877b85d5693","LFRR.sct":"c5a55173543154d388eb65309d606b41ac5da09af59142e69878a4cde03add83","LFRR.ese":"e4542200e8322297f954327131cfe6e73da3ac264cf5610ff6871309cd6eeb40"},"airport_reference":[5.954443889,48.583055833]},"styles":{"line.taxiway.c0b631":{"name":"Taxiways","layer":"Guidance lines","object_type":"Line","paint":{"stroke":"#4E5A69","stroke-opacity":1,"stroke-width":1,"palette-overrides":{"light":{"stroke":"#C0B631"}}},"feature_count":1},"line.runwayconcrete.555555":{"name":"Runways","layer":"Guidance lines","object_type":"Line","paint":{"stroke":"#111318","stroke-opacity":1,"stroke-width":1,"palette-overrides":{"light":{"stroke":"#555555"}}},"feature_count":1},"line.apronsurface.808080":{"name":"Apron Surface","layer":"Guidance lines","object_type":"Line","paint":{"stroke":"#808080","stroke-opacity":1,"stroke-width":1,"palette-overrides":{"light":{"stroke":"#808080"}}},"feature_count":1},"runway.reference":{"name":"Runway centerlines","layer":"Runways","object_type":"Line","paint":{"stroke":"#CCCCCC","stroke-width":2,"stroke-opacity":1},"feature_count":1}},"vsmr_groups":[],"features":[{"type":"Feature","id":"LFSO-45fdd8ae93fc9002d267","properties":{"airport":"LFSO","name":"LFSO Groundlayout Nancy Ochet","layer":"Guidance lines","category":"Taxiways","object_type":"Line","style_id":"line.taxiway.c0b631","source_group":"LFSO Groundlayout Nancy Ochet","vsmr_group_ids":[],"geometry_role":"linework"},"geometry":{"type":"MultiLineString","coordinates":[[[5.949583333,48.573333333],[5.950083333,48.573222222]],[[5.949416667,48.573027778],[5.949916667,48.572916667]],[[5.950083333,48.573222222],[5.95075,48.573055556]],[[5.949888889,48.572916667],[5.951055556,48.572638889]],[[5.95075,48.573055556],[5.9545,48.580111111]],[[5.951055556,48.572638889],[5.955,48.58]],[[5.954722222,48.5805],[5.955611111,48.582166667]],[[5.955194444,48.580388889],[5.956166667,48.582194444]],[[5.95575,48.582416667],[5.956055556,48.583027778]],[[5.956166667,48.582194444],[5.956472222,48.58275]],[[5.956055556,48.583027778],[5.957472222,48.585694444]],[[5.956638889,48.583083333],[5.958027778,48.585666667]],[[5.957666667,48.586],[5.961083333,48.592444444]],[[5.95825,48.586111111],[5.96175,48.592666667]],[[5.961083333,48.592444444],[5.960444444,48.592583333]],[[5.96175,48.592666667],[5.960611111,48.592916667]],[[5.960444444,48.592583333],[5.959944444,48.592694444]],[[5.960611111,48.592916667],[5.960111111,48.593027778]],[[5.953555556,48.580777778],[5.954138889,48.580638889]],[[5.953361111,48.580388889],[5.953944444,48.58025]],[[5.954138889,48.580638889],[5.954722222,48.5805]],[[5.953944444,48.58025],[5.9545,48.580111111]],[[5.955194444,48.580388889],[5.957833333,48.579777778]],[[5.955,48.58],[5.957611111,48.579388889]],[[5.957833333,48.579777778],[5.957611111,48.579388889]],[[5.954555556,48.582638889],[5.954944444,48.582583333]],[[5.954416667,48.582388889],[5.954833333,48.582305556]],[[5.954944444,48.582583333],[5.95575,48.582416667]],[[5.954833333,48.582305556],[5.955611111,48.582166667]],[[5.9565,48.58625],[5.956972222,48.586138889]],[[5.956305556,48.585944444],[5.956833333,48.585833333]],[[5.956972222,48.586138889],[5.957666667,48.586]],[[5.956833333,48.585833333],[5.957472222,48.585694444]],[[5.95825,48.586111111],[5.960194444,48.586638889]],[[5.958027778,48.585666667],[5.959388889,48.586055556]],[[5.960194444,48.586638889],[5.959666667,48.585472222]],[[5.959388889,48.586055556],[5.959166667,48.585555556]],[[5.959666667,48.585472222],[5.959166667,48.585555556]],[[5.956638889,48.583083333],[5.958361111,48.58275]],[[5.956472222,48.58275],[5.958222222,48.582416667]],[[5.958361111,48.58275],[5.958222222,48.582416667]]]}},{"type":"Feature","id":"LFSO-e4d4a9f57fb6e259872e","properties":{"airport":"LFSO","name":"LFSO Groundlayout Nancy Ochet","layer":"Guidance lines","category":"Runways","object_type":"Line","style_id":"line.runwayconcrete.555555","source_group":"LFSO Groundlayout Nancy Ochet","vsmr_group_ids":[],"geometry_role":"linework"},"geometry":{"type":"MultiLineString","coordinates":[[[5.961527778,48.595666667],[5.960111111,48.593027778]],[[5.960944444,48.595805556],[5.959444444,48.593]],[[5.961527778,48.595666667],[5.960944444,48.595805556]],[[5.959944444,48.592694444],[5.9565,48.58625]],[[5.959444444,48.593],[5.955833333,48.586222222]],[[5.956305556,48.585944444],[5.954555556,48.582638889]],[[5.955833333,48.586222222],[5.953916667,48.582638889]],[[5.954416667,48.582388889],[5.953555556,48.580777778]],[[5.953916667,48.582638889],[5.952888889,48.580722222]],[[5.953361111,48.580388889],[5.949583333,48.573333333]],[[5.952888889,48.580722222],[5.948916667,48.573305556]],[[5.949416667,48.573027778],[5.948111111,48.570583333]],[[5.948916667,48.573305556],[5.947527778,48.570722222]],[[5.948111111,48.570583333],[5.947527778,48.570722222]]]}},{"type":"Feature","id":"LFSO-de1a4eb6a11d72d26335","properties":{"airport":"LFSO","name":"LFSO Groundlayout Nancy Ochet","layer":"Guidance lines","category":"Apron Surface","object_type":"Line","style_id":"line.apronsurface.808080","source_group":"LFSO Groundlayout Nancy Ochet","vsmr_group_ids":[],"geometry_role":"linework"},"geometry":{"type":"MultiLineString","coordinates":[[[5.959472222,48.586166667],[5.960611111,48.586],[5.959,48.582305556],[5.957916667,48.5825]],[[5.959472222,48.586166667],[5.957916667,48.5825]],[[5.957833333,48.580638889],[5.958611111,48.580777778],[5.959083333,48.581666667],[5.960583333,48.581333333],[5.958888889,48.577527778],[5.956666667,48.578]],[[5.957833333,48.580638889],[5.956666667,48.578]]]}},{"type":"Feature","id":"LFSO-06548eed4d84aaa40963","properties":{"airport":"LFSO","name":"02/20","layer":"Runways","category":"Runway centerlines","object_type":"Line","style_id":"runway.reference","source_group":"LFSO Runways","vsmr_group_ids":[],"geometry_role":"runway_centerline"},"geometry":{"type":"LineString","coordinates":[[5.949099722,48.573016944],[5.959960833,48.593363889]]}}]}
