{"type":"FeatureCollection","name":"LFSR AVISO","bbox":[4.033361111,49.303583333,4.059222222,49.318583333],"metadata":{"schema":"vSMR AVISO","schema_version":2,"geometry_mode":"shared","airport":"LFSR","coordinate_reference_system":"WGS84","coordinate_order":"longitude, latitude","default_color_palette":"dark","color_palettes":["dark","light"],"background_colors":{"dark":"#434A4F","light":"#434A4F"},"feature_count":13,"style_count":1,"layer_counts":{"Labels":13},"category_counts":{"Gates":13},"runways":[],"saved_active_runways":[],"saved_active_airport_modes":[],"geometry_source":"EuroScope sector pack","source_files":{"LFBB.sct":"fc92f16bc65e3a10b9aeb0cf4d1cae1add9856a4f4f2f653af5abaa0d98c77ed","LFBB.ese":"c7c252d4a274f6fd98bcefd2364b7bb9799385a6e602b62ccbe85cc32042ef62","LFBB.rwy":"d9387919da6406482f154f391ab2d20783610a60930f986e160686134ea8a7df","LFEE.sct":"10fcc997213ee24336ef8bd37f3a9423cb07bbdfb57b1494c61b8310b9641d8a","LFEE.ese":"3391dc3a47130a4a8c12ab895a6743c77668044183634bd45d425513ef5baa2f","LFFF.sct":"cb6698888ce3e8e8be34ea45922976a5fb3ebe1baef7814f040c91785f8641f2","LFFF.ese":"0c1e64c4a0524a6cdc30766699492d362f78011da36daeacfde4597a1761b64c","LFFF.rwy":"a12900bf1f18188caf2e598c44e55b2c0c6fb2c66cee43ff843cbe216617ae96","LFMM.sct":"fc0d266315a59cb027803be613657d9e9875a2a4b912535d08d1c7892a53b194","LFMM.ese":"6a319d7f7c1c2f7e457ae789f4aae2feafec03b24f5d3d95752e96922a971c9e","LFMM.rwy":"236563995d9b5be668ee3fc8d653cf8f33f20a511137652b197e5877b85d5693","LFRR.sct":"c5a55173543154d388eb65309d606b41ac5da09af59142e69878a4cde03add83","LFRR.ese":"e4542200e8322297f954327131cfe6e73da3ac264cf5610ff6871309cd6eeb40"}},"styles":{"label.gates":{"name":"Gates","layer":"Labels","object_type":"Label","paint":{"text-color":"#CCCCCC","text-font":"Arial","text-size":12,"text-halo-color":"#000000","text-halo-width":1,"text-anchor":"center","zoomLevel":9},"feature_count":13}},"vsmr_groups":[{"id":"stands-and-gates","name":"Stands & gates","visible":true,"accent":"#d4bd39"}],"features":[{"type":"Feature","id":"LFSR-e5a7ddfcda01e4ba3ad7","properties":{"airport":"LFSR","name":"1","layer":"Labels","category":"Gates","object_type":"Label","style_id":"label.gates","source_group":"LFSR Gates","vsmr_group_ids":["stands-and-gates"],"geometry_role":"text_label","text-field":"1"},"geometry":{"type":"Point","coordinates":[4.059222222,49.309333333]}},{"type":"Feature","id":"LFSR-08079f23b2a4fb60fc3f","properties":{"airport":"LFSR","name":"2","layer":"Labels","category":"Gates","object_type":"Label","style_id":"label.gates","source_group":"LFSR Gates","vsmr_group_ids":["stands-and-gates"],"geometry_role":"text_label","text-field":"2"},"geometry":{"type":"Point","coordinates":[4.058027778,49.309333333]}},{"type":"Feature","id":"LFSR-0da425c32044fbd75e51","properties":{"airport":"LFSR","name":"3","layer":"Labels","category":"Gates","object_type":"Label","style_id":"label.gates","source_group":"LFSR Gates","vsmr_group_ids":["stands-and-gates"],"geometry_role":"text_label","text-field":"3"},"geometry":{"type":"Point","coordinates":[4.059083333,49.309583333]}},{"type":"Feature","id":"LFSR-981cada1b8f2a24fdc23","properties":{"airport":"LFSR","name":"1","layer":"Labels","category":"Gates","object_type":"Label","style_id":"label.gates","source_group":"LFSR Gates","vsmr_group_ids":["stands-and-gates"],"geometry_role":"text_label","text-field":"1"},"geometry":{"type":"Point","coordinates":[4.039361111,49.303611111]}},{"type":"Feature","id":"LFSR-137052e76545323be181","properties":{"airport":"LFSR","name":"2","layer":"Labels","category":"Gates","object_type":"Label","style_id":"label.gates","source_group":"LFSR Gates","vsmr_group_ids":["stands-and-gates"],"geometry_role":"text_label","text-field":"2"},"geometry":{"type":"Point","coordinates":[4.038222222,49.303583333]}},{"type":"Feature","id":"LFSR-e6d25d1d4cc5daf6a9bd","properties":{"airport":"LFSR","name":"3","layer":"Labels","category":"Gates","object_type":"Label","style_id":"label.gates","source_group":"LFSR Gates","vsmr_group_ids":["stands-and-gates"],"geometry_role":"text_label","text-field":"3"},"geometry":{"type":"Point","coordinates":[4.037138889,49.303583333]}},{"type":"Feature","id":"LFSR-8fe62634a7d448e97f86","properties":{"airport":"LFSR","name":"4","layer":"Labels","category":"Gates","object_type":"Label","style_id":"label.gates","source_group":"LFSR Gates","vsmr_group_ids":["stands-and-gates"],"geometry_role":"text_label","text-field":"4"},"geometry":{"type":"Point","coordinates":[4.036055556,49.303583333]}},{"type":"Feature","id":"LFSR-3fadaf2edd00b84b501a","properties":{"airport":"LFSR","name":"5","layer":"Labels","category":"Gates","object_type":"Label","style_id":"label.gates","source_group":"LFSR Gates","vsmr_group_ids":["stands-and-gates"],"geometry_role":"text_label","text-field":"5"},"geometry":{"type":"Point","coordinates":[4.034944444,49.303583333]}},{"type":"Feature","id":"LFSR-b71dfeeb03f659e90e1c","properties":{"airport":"LFSR","name":"1","layer":"Labels","category":"Gates","object_type":"Label","style_id":"label.gates","source_group":"LFSR Gates","vsmr_group_ids":["stands-and-gates"],"geometry_role":"text_label","text-field":"1"},"geometry":{"type":"Point","coordinates":[4.033361111,49.317361111]}},{"type":"Feature","id":"LFSR-fc84f3ca5d753dd05f04","properties":{"airport":"LFSR","name":"2","layer":"Labels","category":"Gates","object_type":"Label","style_id":"label.gates","source_group":"LFSR Gates","vsmr_group_ids":["stands-and-gates"],"geometry_role":"text_label","text-field":"2"},"geometry":{"type":"Point","coordinates":[4.033972222,49.317666667]}},{"type":"Feature","id":"LFSR-a803fa57128c205eaa8d","properties":{"airport":"LFSR","name":"3","layer":"Labels","category":"Gates","object_type":"Label","style_id":"label.gates","source_group":"LFSR Gates","vsmr_group_ids":["stands-and-gates"],"geometry_role":"text_label","text-field":"3"},"geometry":{"type":"Point","coordinates":[4.034555556,49.317944444]}},{"type":"Feature","id":"LFSR-3f7a17b8b7ddffd78ad3","properties":{"airport":"LFSR","name":"4","layer":"Labels","category":"Gates","object_type":"Label","style_id":"label.gates","source_group":"LFSR Gates","vsmr_group_ids":["stands-and-gates"],"geometry_role":"text_label","text-field":"4"},"geometry":{"type":"Point","coordinates":[4.035111111,49.318277778]}},{"type":"Feature","id":"LFSR-588463f3a47150a70327","properties":{"airport":"LFSR","name":"5","layer":"Labels","category":"Gates","object_type":"Label","style_id":"label.gates","source_group":"LFSR Gates","vsmr_group_ids":["stands-and-gates"],"geometry_role":"text_label","text-field":"5"},"geometry":{"type":"Point","coordinates":[4.035694444,49.318583333]}}]}
