{"type":"FeatureCollection","name":"LFTA AVISO","bbox":[-1.427960833,46.360191944,-1.426610833,46.367327778],"metadata":{"schema":"vSMR AVISO","schema_version":2,"airport":"LFTA","coordinate_reference_system":"WGS84","coordinate_order":"longitude, latitude","default_color_palette":"night","color_palettes":["night","day"],"feature_count":2,"style_count":2,"layer_counts":{"Reference points":1,"Runways":1},"category_counts":{"Labels":1,"Runway Markings":1}},"styles":{"line.runway.centerline.runway.markings":{"name":"Runway Markings","layer":"Runways","object_type":"Line","paint":{"stroke":"#FEFEFE","stroke-opacity":1.0,"stroke-width":1.5},"feature_count":1},"point.airport.reference.point.labels":{"name":"Labels","layer":"Reference points","object_type":"Point","paint":{"marker-color":"#808080","marker-size":"small"},"feature_count":1}},"features":[{"type":"Feature","id":"LFTA-runway-17-35-5270","properties":{"name":"LFTA RWY 17/35","layer":"Runways","category":"Runway Markings","object_type":"Line","style_id":"line.runway.centerline.runway.markings","airport":"LFTA","geometry_role":"runway_centerline","vsmr_group_ids":[[]]},"geometry":{"type":"LineString","coordinates":[[-1.427960833,46.367327778],[-1.426610833,46.360191944]]}},{"type":"Feature","id":"LFTA-airport-reference","properties":{"name":"LFTA","layer":"Reference points","category":"Labels","object_type":"Point","style_id":"point.airport.reference.point.labels","airport":"LFTA","geometry_role":"airport_reference_point","text-field":"LFTA","vsmr_group_ids":[[]]},"geometry":{"type":"Point","coordinates":[-1.427499722,46.365555833]}}]}
