{"type":"FeatureCollection","name":"LFTH AVISO","bbox":[5.604444444,43.013333333,6.618055556,43.191666667],"metadata":{"schema":"vSMR AVISO","schema_version":2,"airport":"LFTH","coordinate_reference_system":"WGS84","coordinate_order":"longitude, latitude","feature_count":107,"style_count":13,"layer_counts":{"Airfield surfaces":51,"Ground linework":2,"Labels":51,"Reference points":1,"Runways":2},"category_counts":{"Building":14,"Gras Surface":1,"Hard Surface2":7,"Hard Surface3":6,"Hard Surface4":8,"Labels":52,"Runway Border":1,"Runway Concrete":2,"Runway Markings":2,"Stopbar":12,"Taxiway":1,"Terrain1":1}},"styles":{"area.filled.region.building":{"name":"Building","layer":"Airfield surfaces","object_type":"Area","paint":{"fill":"#394446","fill-opacity":1.0,"stroke":"#394446","stroke-opacity":1.0,"stroke-width":0.5},"feature_count":14},"area.filled.region.gras.surface":{"name":"Gras Surface","layer":"Airfield surfaces","object_type":"Area","paint":{"fill":"#00512F","fill-opacity":1.0,"stroke":"#00512F","stroke-opacity":1.0,"stroke-width":0.5},"feature_count":1},"area.filled.region.hard.surface2":{"name":"Hard Surface2","layer":"Airfield surfaces","object_type":"Area","paint":{"fill":"#595E5B","fill-opacity":1.0,"stroke":"#595E5B","stroke-opacity":1.0,"stroke-width":0.5},"feature_count":7},"area.filled.region.hard.surface3":{"name":"Hard Surface3","layer":"Airfield surfaces","object_type":"Area","paint":{"fill":"#8A807F","fill-opacity":1.0,"stroke":"#8A807F","stroke-opacity":1.0,"stroke-width":0.5},"feature_count":6},"area.filled.region.hard.surface4":{"name":"Hard Surface4","layer":"Airfield surfaces","object_type":"Area","paint":{"fill":"#969393","fill-opacity":1.0,"stroke":"#969393","stroke-opacity":1.0,"stroke-width":0.5},"feature_count":8},"area.filled.region.runway.concrete":{"name":"Runway Concrete","layer":"Airfield surfaces","object_type":"Area","paint":{"fill":"#111318","fill-opacity":1.0,"stroke":"#111318","stroke-opacity":1.0,"stroke-width":0.5},"feature_count":2},"area.filled.region.stopbar":{"name":"Stopbar","layer":"Airfield surfaces","object_type":"Area","paint":{"fill":"#7E0000","fill-opacity":1.0,"stroke":"#7E0000","stroke-opacity":1.0,"stroke-width":0.5},"feature_count":12},"area.filled.region.terrain1":{"name":"Terrain1","layer":"Airfield surfaces","object_type":"Area","paint":{"fill":"#574242","fill-opacity":1.0,"stroke":"#574242","stroke-opacity":1.0,"stroke-width":0.5},"feature_count":1},"label.text.label.labels":{"name":"Labels","layer":"Labels","object_type":"Label","paint":{"text-anchor":"center","text-color":"#CCCCCC","text-halo-color":"#000000","text-halo-width":1,"text-size":12},"feature_count":51},"line.linework.runway.border":{"name":"Runway Border","layer":"Ground linework","object_type":"Line","paint":{"stroke":"#808080","stroke-opacity":1.0,"stroke-width":1.5},"feature_count":1},"line.linework.taxiway":{"name":"Taxiway","layer":"Ground linework","object_type":"Line","paint":{"stroke":"#4E5A69","stroke-opacity":1.0,"stroke-width":1.5},"feature_count":1},"line.runway.centerline.runway.markings":{"name":"Runway Markings","layer":"Runways","object_type":"Line","paint":{"stroke":"#FEFEFE","stroke-opacity":1.0,"stroke-width":1.5},"feature_count":2},"point.airport.reference.point.labels":{"name":"Labels","layer":"Reference points","object_type":"Point","paint":{"marker-color":"#808080","marker-size":"small"},"feature_count":1}},"features":[{"type":"Feature","id":"lfth.area.filled.region.gras.surface.111482","properties":{"name":"LFTH AVISO","layer":"Airfield surfaces","category":"Gras Surface","object_type":"Area","style_id":"area.filled.region.gras.surface","airport":"LFTH","geometry_role":"filled_region","vsmr_group_ids":[[]]},"geometry":{"type":"Polygon","coordinates":[[[6.136912778,43.095363611],[6.136896667,43.095269444],[6.136925,43.095151667],[6.137001667,43.095025],[6.137193611,43.094843611],[6.137641667,43.094549444],[6.138180556,43.094266389],[6.138633889,43.094023611],[6.140540556,43.092979722],[6.141134167,43.092606111],[6.1418575,43.092112778],[6.142457778,43.091614444],[6.142921944,43.091171111],[6.145276111,43.088278889],[6.145973611,43.087521667],[6.146733889,43.0870025],[6.147444444,43.086548333],[6.148451389,43.086094167],[6.149349444,43.085776944],[6.150287222,43.085596667],[6.151284167,43.085481389],[6.152211944,43.0854525],[6.153327222,43.085589444],[6.154195833,43.085748056],[6.155074444,43.086043333],[6.155646944,43.086281389],[6.156258889,43.086612778],[6.156693333,43.086872222],[6.157058611,43.087124444],[6.157734167,43.087725556],[6.159393889,43.089346667],[6.158069722,43.090266667],[6.159758889,43.092147222],[6.160107222,43.092775],[6.160490556,43.094185833],[6.158340556,43.095244167],[6.160262778,43.098830278],[6.160308056,43.099094722],[6.160333333,43.099337222],[6.160479167,43.099531667],[6.16062,43.099660278],[6.160745833,43.099807222],[6.162937222,43.104326667],[6.161776667,43.105229722],[6.162850278,43.106126389],[6.163000833,43.106474167],[6.162715,43.106646944],[6.162237222,43.106832778],[6.1616525,43.106976389],[6.161228333,43.107051389],[6.161009444,43.107058056],[6.160460278,43.1069275],[6.160000278,43.106755],[6.159607222,43.1065625],[6.158865833,43.106145556],[6.157830278,43.105505278],[6.156743889,43.104850278],[6.154031944,43.103274167],[6.149916111,43.100831667],[6.148856111,43.101233333],[6.147856389,43.101550833],[6.146003889,43.102134167],[6.145644167,43.101603333],[6.145160833,43.101164167],[6.144853333,43.100758611],[6.139841667,43.102234444],[6.139494722,43.101914167],[6.136912778,43.095363611]]]}},{"type":"Feature","id":"lfth.area.filled.region.terrain1.111550","properties":{"name":"LFTH AVISO","layer":"Airfield surfaces","category":"Terrain1","object_type":"Area","style_id":"area.filled.region.terrain1","airport":"LFTH","geometry_role":"filled_region","vsmr_group_ids":[[]]},"geometry":{"type":"Polygon","coordinates":[[[6.139702778,43.101355278],[6.139646111,43.101207778],[6.139603333,43.101121667],[6.139580278,43.101034722],[6.139569444,43.100949167],[6.139570833,43.100848889],[6.139586111,43.100748889],[6.139605833,43.100626944],[6.139639444,43.100532778],[6.139692222,43.100452778],[6.140450833,43.099519722],[6.142228889,43.097403333],[6.144650556,43.094463333],[6.144931944,43.094448611],[6.144115,43.095431111],[6.144045556,43.095508611],[6.144020833,43.095573056],[6.144017222,43.095662222],[6.144033056,43.095740833],[6.1440725,43.095819722],[6.144258333,43.096069167],[6.143514722,43.096191667],[6.140139167,43.10027],[6.139942222,43.1004975],[6.139889722,43.100581667],[6.139858056,43.100656389],[6.139851944,43.100718333],[6.139848611,43.100780278],[6.139860556,43.100853611],[6.139908333,43.100925278],[6.139969444,43.1009725],[6.140081667,43.101027778],[6.140158611,43.101048889],[6.140286944,43.101059167],[6.140430833,43.101054722],[6.140652778,43.100996111],[6.140848889,43.100928056],[6.139844167,43.101699722],[6.139702778,43.101355278]]]}},{"type":"Feature","id":"lfth.area.filled.region.hard.surface4.111589","properties":{"name":"LFTH AVISO","layer":"Airfield surfaces","category":"Hard Surface4","object_type":"Area","style_id":"area.filled.region.hard.surface4","airport":"LFTH","geometry_role":"filled_region","vsmr_group_ids":[[]]},"geometry":{"type":"Polygon","coordinates":[[[6.142217222,43.094086944],[6.142233889,43.0940125],[6.142264722,43.0939475],[6.142307778,43.093913611],[6.142355,43.093879722],[6.142420556,43.093852222],[6.142514722,43.093819722],[6.142595833,43.093801667],[6.142683889,43.093803333],[6.142788611,43.093830833],[6.142894444,43.093859722],[6.142963889,43.093880833],[6.143000833,43.093985833],[6.142995833,43.094037778],[6.143653333,43.094386111],[6.143002222,43.094480278],[6.142690556,43.094745556],[6.142353611,43.095039722],[6.142241667,43.094957778],[6.1426325,43.094601389],[6.1426225,43.094236667],[6.142547778,43.094128333],[6.142223611,43.094138889],[6.142217222,43.094086944]]]}},{"type":"Feature","id":"lfth.area.filled.region.hard.surface4.111613","properties":{"name":"LFTH AVISO","layer":"Airfield surfaces","category":"Hard Surface4","object_type":"Area","style_id":"area.filled.region.hard.surface4","airport":"LFTH","geometry_role":"filled_region","vsmr_group_ids":[[]]},"geometry":{"type":"Polygon","coordinates":[[[6.141337222,43.094353611],[6.141005,43.094665],[6.139878889,43.0940025],[6.140221389,43.093680556],[6.141337222,43.094353611]]]}},{"type":"Feature","id":"lfth.area.filled.region.hard.surface4.111618","properties":{"name":"LFTH AVISO","layer":"Airfield surfaces","category":"Hard Surface4","object_type":"Area","style_id":"area.filled.region.hard.surface4","airport":"LFTH","geometry_role":"filled_region","vsmr_group_ids":[[]]},"geometry":{"type":"Polygon","coordinates":[[[6.14536,43.096369167],[6.145496389,43.096430278],[6.145580556,43.096477778],[6.145666667,43.096541944],[6.146253611,43.097010278],[6.145662778,43.097565556],[6.14488,43.097243889],[6.144747222,43.097187222],[6.1446575,43.097119167],[6.144527778,43.097016667],[6.143006111,43.095820556],[6.143259444,43.0955475],[6.14536,43.096369167]]]}},{"type":"Feature","id":"lfth.area.filled.region.hard.surface4.111631","properties":{"name":"LFTH AVISO","layer":"Airfield surfaces","category":"Hard Surface4","object_type":"Area","style_id":"area.filled.region.hard.surface4","airport":"LFTH","geometry_role":"filled_region","vsmr_group_ids":[[]]},"geometry":{"type":"Polygon","coordinates":[[[6.156771389,43.103070556],[6.156920833,43.1031325],[6.157011111,43.103200278],[6.157789722,43.103849167],[6.157833056,43.103881944],[6.157895,43.103909167],[6.15874,43.104251944],[6.158851944,43.104293611],[6.158948611,43.104334444],[6.159033611,43.104392778],[6.160535833,43.1056675],[6.160325556,43.105559167],[6.1613225,43.104908056],[6.161601111,43.106197222],[6.162151667,43.106533333],[6.162248889,43.106607778],[6.162308889,43.106658333],[6.162318333,43.106698889],[6.162276667,43.106737778],[6.162209444,43.106769722],[6.162133056,43.106791667],[6.1618925,43.106834167],[6.161776944,43.106834167],[6.161716667,43.106827222],[6.161309722,43.106573611],[6.161565556,43.106211667],[6.161234444,43.105495],[6.160300278,43.105970833],[6.158392778,43.105190833],[6.158245556,43.105133611],[6.158151389,43.105076667],[6.158029444,43.104996944],[6.157330833,43.104407222],[6.157282778,43.104376944],[6.157208611,43.104343333],[6.156242222,43.103943611],[6.156154444,43.103901944],[6.156099722,43.103870833],[6.156026389,43.103823889],[6.154439167,43.102488611],[6.154835,43.102314444],[6.156771389,43.103070556]]]}},{"type":"Feature","id":"lfth.area.filled.region.hard.surface4.111673","properties":{"name":"LFTH AVISO","layer":"Airfield surfaces","category":"Hard Surface4","object_type":"Area","style_id":"area.filled.region.hard.surface4","airport":"LFTH","geometry_role":"filled_region","vsmr_group_ids":[[]]},"geometry":{"type":"Polygon","coordinates":[[[6.157855833,43.092587778],[6.158073056,43.092565833],[6.158152778,43.092778889],[6.158206944,43.093101111],[6.158569444,43.0942175],[6.159025556,43.094149167],[6.159170278,43.094664444],[6.158501944,43.094715278],[6.158423333,43.094716667],[6.158346389,43.0947],[6.158292222,43.094664444],[6.158231111,43.094581667],[6.158196389,43.094543333],[6.157601389,43.092480278],[6.157855833,43.092587778]]]}},{"type":"Feature","id":"lfth.area.filled.region.hard.surface4.111688","properties":{"name":"LFTH AVISO","layer":"Airfield surfaces","category":"Hard Surface4","object_type":"Area","style_id":"area.filled.region.hard.surface4","airport":"LFTH","geometry_role":"filled_region","vsmr_group_ids":[[]]},"geometry":{"type":"Polygon","coordinates":[[[6.157026389,43.091185],[6.157051111,43.091185556],[6.157069167,43.091181389],[6.1572675,43.091048611],[6.157878333,43.091536389],[6.157811111,43.091589167],[6.157248056,43.091313056],[6.156669722,43.091695556],[6.156814167,43.091136944],[6.157026389,43.091185]]]}},{"type":"Feature","id":"lfth.area.filled.region.hard.surface4.111698","properties":{"name":"LFTH AVISO","layer":"Airfield surfaces","category":"Hard Surface4","object_type":"Area","style_id":"area.filled.region.hard.surface4","airport":"LFTH","geometry_role":"filled_region","vsmr_group_ids":[[]]},"geometry":{"type":"Polygon","coordinates":[[[6.160837222,43.104353333],[6.160711667,43.1045775],[6.160633889,43.104681667],[6.160581944,43.104741389],[6.160504167,43.104787778],[6.160399722,43.104827778],[6.160276667,43.104878889],[6.160169167,43.104921389],[6.160093333,43.104979167],[6.160030833,43.105034444],[6.159955,43.105113056],[6.159897222,43.105183333],[6.159234722,43.104626944],[6.159383056,43.10464],[6.159491667,43.104643611],[6.1595775,43.10464],[6.159647222,43.104633056],[6.159687222,43.104617222],[6.159758333,43.104575833],[6.159866944,43.104484167],[6.159933056,43.1043725],[6.159979722,43.1042775],[6.159996111,43.104185278],[6.159997222,43.104092778],[6.159990278,43.104024444],[6.159961111,43.103945],[6.15994,43.103892778],[6.159908333,43.103844722],[6.160318056,43.104043611],[6.160837222,43.104353333]]]}},{"type":"Feature","id":"lfth.area.filled.region.hard.surface4.111728","properties":{"name":"LFTH AVISO","layer":"Airfield surfaces","category":"Hard Surface4","object_type":"Area","style_id":"area.filled.region.hard.surface4","airport":"LFTH","geometry_role":"filled_region","vsmr_group_ids":[[]]},"geometry":{"type":"Polygon","coordinates":[[[6.157509722,43.088646944],[6.1579525,43.088951389],[6.156680556,43.089883611],[6.156236667,43.089566111],[6.157509722,43.088646944]]]}},{"type":"Feature","id":"lfth.area.filled.region.hard.surface3.111733","properties":{"name":"LFTH AVISO","layer":"Airfield surfaces","category":"Hard Surface3","object_type":"Area","style_id":"area.filled.region.hard.surface3","airport":"LFTH","geometry_role":"filled_region","vsmr_group_ids":[[]]},"geometry":{"type":"Polygon","coordinates":[[[6.142649444,43.093387222],[6.142503889,43.093494167],[6.141645,43.093072222],[6.141401667,43.092889167],[6.141563333,43.0927975],[6.142178889,43.092461667],[6.142834167,43.091871944],[6.143035833,43.091718889],[6.143315556,43.091396111],[6.144990278,43.089317778],[6.1451975,43.0890575],[6.145688333,43.088604167],[6.146209722,43.088307222],[6.146825556,43.088907222],[6.147095278,43.088917778],[6.147585,43.089390556],[6.147900278,43.089419722],[6.147841389,43.089690556],[6.147459444,43.089666111],[6.14746,43.0898825],[6.147614722,43.090225],[6.146360278,43.091736111],[6.146196389,43.0916675],[6.146128611,43.0916475],[6.146038056,43.091645278],[6.145826111,43.091661944],[6.145755833,43.091683889],[6.145693333,43.09173],[6.144899722,43.092691111],[6.144888889,43.092540833],[6.144878333,43.092488333],[6.144854722,43.092455278],[6.144825,43.092422778],[6.144795278,43.092412222],[6.144732222,43.092402222],[6.144635833,43.092413056],[6.144539722,43.092427778],[6.143923333,43.092566944],[6.143820556,43.092614722],[6.143748333,43.092662222],[6.142766111,43.093408056],[6.142649444,43.093387222]]]}},{"type":"Feature","id":"lfth.area.filled.region.hard.surface3.111775","properties":{"name":"LFTH AVISO","layer":"Airfield surfaces","category":"Hard Surface3","object_type":"Area","style_id":"area.filled.region.hard.surface3","airport":"LFTH","geometry_role":"filled_region","vsmr_group_ids":[[]]},"geometry":{"type":"Polygon","coordinates":[[[6.14759,43.093152222],[6.147658333,43.093216667],[6.147718889,43.093258889],[6.147788889,43.093285556],[6.147861667,43.093296667],[6.147942778,43.093302222],[6.1479825,43.093315],[6.148008611,43.093340556],[6.148185833,43.093696667],[6.148213611,43.093745556],[6.148211389,43.093799722],[6.148176111,43.093855833],[6.148101944,43.093938611],[6.148063889,43.093994722],[6.1480475,43.094029444],[6.148044444,43.094070278],[6.148056667,43.094140278],[6.148061667,43.094181111],[6.147872778,43.093948056],[6.147761111,43.093866944],[6.147733333,43.093855833],[6.147705278,43.09385],[6.147674167,43.093854444],[6.147655556,43.093860278],[6.147530278,43.093600278],[6.147565556,43.093574167],[6.147588611,43.093554722],[6.147607778,43.093526389],[6.147613611,43.093481667],[6.147618333,43.093425833],[6.1474775,43.093028056],[6.14759,43.093152222]]]}},{"type":"Feature","id":"lfth.area.filled.region.hard.surface3.111807","properties":{"name":"LFTH AVISO","layer":"Airfield surfaces","category":"Hard Surface3","object_type":"Area","style_id":"area.filled.region.hard.surface3","airport":"LFTH","geometry_role":"filled_region","vsmr_group_ids":[[]]},"geometry":{"type":"Polygon","coordinates":[[[6.151658333,43.098380278],[6.152433333,43.098829722],[6.152085,43.099171944],[6.151293333,43.098723333],[6.151658333,43.098380278]]]}},{"type":"Feature","id":"lfth.area.filled.region.hard.surface3.111812","properties":{"name":"LFTH AVISO","layer":"Airfield surfaces","category":"Hard Surface3","object_type":"Area","style_id":"area.filled.region.hard.surface3","airport":"LFTH","geometry_role":"filled_region","vsmr_group_ids":[[]]},"geometry":{"type":"Polygon","coordinates":[[[6.147905556,43.090238611],[6.148152778,43.09033],[6.148145278,43.090339722],[6.148195,43.090418056],[6.148198056,43.090526944],[6.148128611,43.090615278],[6.147975,43.090664722],[6.147784722,43.090646111],[6.1476475,43.090546944],[6.147626667,43.090408056],[6.147703333,43.090311111],[6.1478875,43.090258333],[6.147905556,43.090238611]]]}},{"type":"Feature","id":"lfth.area.filled.region.hard.surface3.111825","properties":{"name":"LFTH AVISO","layer":"Airfield surfaces","category":"Hard Surface3","object_type":"Area","style_id":"area.filled.region.hard.surface3","airport":"LFTH","geometry_role":"filled_region","vsmr_group_ids":[[]]},"geometry":{"type":"Polygon","coordinates":[[[6.1502775,43.089117778],[6.151485278,43.088895833],[6.1515,43.088990278],[6.152999167,43.088730278],[6.153105278,43.089110556],[6.150394167,43.089511667],[6.1502775,43.089117778]]]}},{"type":"Feature","id":"lfth.area.filled.region.hard.surface3.111832","properties":{"name":"LFTH AVISO","layer":"Airfield surfaces","category":"Hard Surface3","object_type":"Area","style_id":"area.filled.region.hard.surface3","airport":"LFTH","geometry_role":"filled_region","vsmr_group_ids":[[]]},"geometry":{"type":"Polygon","coordinates":[[[6.157292222,43.091177778],[6.157817222,43.091586111],[6.157351389,43.091911667],[6.1575125,43.092435278],[6.157880833,43.092591667],[6.157913056,43.092698611],[6.157835556,43.092965278],[6.158178889,43.094437222],[6.157230556,43.09458],[6.156658611,43.094556111],[6.156315,43.0933725],[6.156266944,43.093251667],[6.156189167,43.093096944],[6.156109722,43.092966944],[6.15603,43.092885833],[6.155845556,43.092732778],[6.1555025,43.092493056],[6.155708889,43.092343889],[6.155859444,43.092453889],[6.1559375,43.092495833],[6.156006111,43.092525833],[6.1560675,43.092546111],[6.156123333,43.0925475],[6.156188333,43.092538056],[6.156236667,43.092516111],[6.156260833,43.092494444],[6.1562925,43.092461944],[6.156310833,43.0924075],[6.156453056,43.091783333],[6.157292222,43.091177778]]]}},{"type":"Feature","id":"lfth.area.filled.region.hard.surface2.111862","properties":{"name":"LFTH AVISO","layer":"Airfield surfaces","category":"Hard Surface2","object_type":"Area","style_id":"area.filled.region.hard.surface2","airport":"LFTH","geometry_role":"filled_region","vsmr_group_ids":[[]]},"geometry":{"type":"Polygon","coordinates":[[[6.145160833,43.092369167],[6.145218056,43.092983333],[6.145303889,43.09401],[6.145307222,43.094110278],[6.145328889,43.094171944],[6.145346667,43.094229444],[6.145378611,43.094285278],[6.145423056,43.094344167],[6.145463889,43.094385556],[6.145513889,43.094425],[6.145657778,43.094509444],[6.147304167,43.095478333],[6.147184722,43.0955775],[6.146123333,43.094950278],[6.145421944,43.094536111],[6.145339167,43.094498056],[6.145245833,43.094475],[6.145171389,43.094464722],[6.145092222,43.0944675],[6.145030556,43.094477778],[6.144968889,43.094494444],[6.144916111,43.094516389],[6.144854167,43.094555833],[6.144810278,43.094520833],[6.14475,43.094489444],[6.144691667,43.094476389],[6.144626667,43.094473611],[6.144488056,43.094474444],[6.143336944,43.094497222],[6.143228056,43.094504722],[6.1431575,43.094518056],[6.143098056,43.094538611],[6.143028889,43.094576389],[6.142851111,43.094440833],[6.142862778,43.0943825],[6.142876667,43.094355],[6.142902222,43.0943325],[6.1429225,43.094316667],[6.142966667,43.094296111],[6.143036667,43.0942725],[6.143091667,43.0942575],[6.143148056,43.094248611],[6.143208889,43.094240556],[6.142983333,43.094153333],[6.142919167,43.094140556],[6.142821111,43.0941275],[6.1427325,43.094121389],[6.142669167,43.094124167],[6.142597222,43.094132778],[6.142535556,43.094144167],[6.142476667,43.094164444],[6.142433056,43.094180556],[6.142360833,43.094211944],[6.142289167,43.094079722],[6.142463056,43.094038333],[6.142578889,43.094018056],[6.142660278,43.094008611],[6.142724444,43.094005],[6.142797222,43.094005278],[6.142855278,43.094010833],[6.142909167,43.094019167],[6.142980833,43.094035],[6.143016667,43.094043889],[6.143866944,43.094308889],[6.143938333,43.094331389],[6.144003056,43.094341667],[6.144078889,43.094343611],[6.144165833,43.094345556],[6.144466944,43.094343056],[6.144585,43.094325],[6.1446775,43.094308056],[6.144769167,43.094281667],[6.144840556,43.094246111],[6.144893056,43.094207778],[6.144954722,43.094153333],[6.144999722,43.094088056],[6.1450125,43.094004722],[6.145008611,43.093900278],[6.144984444,43.093664167],[6.144897778,43.092685556],[6.145160833,43.092369167]]]}},{"type":"Feature","id":"lfth.area.filled.region.hard.surface2.111943","properties":{"name":"LFTH AVISO","layer":"Airfield surfaces","category":"Hard Surface2","object_type":"Area","style_id":"area.filled.region.hard.surface2","airport":"LFTH","geometry_role":"filled_region","vsmr_group_ids":[[]]},"geometry":{"type":"Polygon","coordinates":[[[6.1486575,43.089713056],[6.148694722,43.089842778],[6.148461667,43.089878056],[6.148555278,43.090193333],[6.1483475,43.09022],[6.148339722,43.090183056],[6.1483025,43.090173056],[6.148150278,43.090331389],[6.147905556,43.09024],[6.147957778,43.090156944],[6.147891111,43.090144167],[6.147612222,43.090227222],[6.14746,43.089885],[6.1486575,43.089713056]]]}},{"type":"Feature","id":"lfth.area.filled.region.hard.surface2.111957","properties":{"name":"LFTH AVISO","layer":"Airfield surfaces","category":"Hard Surface2","object_type":"Area","style_id":"area.filled.region.hard.surface2","airport":"LFTH","geometry_role":"filled_region","vsmr_group_ids":[[]]},"geometry":{"type":"Polygon","coordinates":[[[6.150435278,43.089453611],[6.153074167,43.089072222],[6.153588056,43.088991389],[6.153848889,43.088953611],[6.154032222,43.088925],[6.154177222,43.088905833],[6.154303333,43.088896111],[6.154415833,43.088891389],[6.154549167,43.088889167],[6.154695278,43.088903056],[6.154844167,43.08892],[6.154987222,43.088943611],[6.155115556,43.088973333],[6.155246944,43.089008333],[6.155360556,43.089043333],[6.155482778,43.089091389],[6.155573333,43.089128611],[6.155656667,43.089168889],[6.155516944,43.089273889],[6.15544,43.089229722],[6.155363333,43.089195],[6.155281944,43.089158611],[6.155155556,43.089112778],[6.155054444,43.089086389],[6.154927778,43.089057222],[6.154830278,43.089037778],[6.154681111,43.0890225],[6.154523889,43.089015833],[6.154357222,43.089018611],[6.154169167,43.089032222],[6.152716667,43.089245278],[6.150765,43.089531667],[6.149076944,43.089774444],[6.149081111,43.0896575],[6.150435278,43.089453611]]]}},{"type":"Feature","id":"lfth.area.filled.region.hard.surface2.111992","properties":{"name":"LFTH AVISO","layer":"Airfield surfaces","category":"Hard Surface2","object_type":"Area","style_id":"area.filled.region.hard.surface2","airport":"LFTH","geometry_role":"filled_region","vsmr_group_ids":[[]]},"geometry":{"type":"Polygon","coordinates":[[[6.146702222,43.091357222],[6.146713056,43.091387222],[6.1467325,43.0914275],[6.146813333,43.091593333],[6.147087778,43.092128056],[6.147581667,43.093150278],[6.148008333,43.0940125],[6.148351389,43.094721667],[6.148226667,43.094749167],[6.147803889,43.093869722],[6.147621389,43.093536389],[6.146742778,43.091686667],[6.14668,43.091573889],[6.146643889,43.091513333],[6.146610556,43.091463333],[6.146595556,43.09145],[6.1466975,43.091327778],[6.146702222,43.091357222]]]}},{"type":"Feature","id":"lfth.area.filled.region.hard.surface2.112010","properties":{"name":"LFTH AVISO","layer":"Airfield surfaces","category":"Hard Surface2","object_type":"Area","style_id":"area.filled.region.hard.surface2","airport":"LFTH","geometry_role":"filled_region","vsmr_group_ids":[[]]},"geometry":{"type":"Polygon","coordinates":[[[6.156920278,43.090733056],[6.156918056,43.090828333],[6.156902778,43.090929167],[6.156871944,43.091059444],[6.156847778,43.091166389],[6.1567675,43.091559722],[6.156452778,43.091784444],[6.156571944,43.091235556],[6.156587222,43.091165556],[6.156594444,43.091121389],[6.156602778,43.091071667],[6.156609444,43.091019722],[6.156611111,43.090965556],[6.156613611,43.090923611],[6.156601667,43.090868611],[6.156585833,43.090831389],[6.156554722,43.090783889],[6.156920278,43.090733056]]]}},{"type":"Feature","id":"lfth.area.filled.region.hard.surface2.112028","properties":{"name":"LFTH AVISO","layer":"Airfield surfaces","category":"Hard Surface2","object_type":"Area","style_id":"area.filled.region.hard.surface2","airport":"LFTH","geometry_role":"filled_region","vsmr_group_ids":[[]]},"geometry":{"type":"Polygon","coordinates":[[[6.155068611,43.091883889],[6.155711944,43.092347222],[6.1555075,43.092496111],[6.154865833,43.092031111],[6.155068611,43.091883889]]]}},{"type":"Feature","id":"lfth.area.filled.region.hard.surface2.112033","properties":{"name":"LFTH AVISO","layer":"Airfield surfaces","category":"Hard Surface2","object_type":"Area","style_id":"area.filled.region.hard.surface2","airport":"LFTH","geometry_role":"filled_region","vsmr_group_ids":[[]]},"geometry":{"type":"Polygon","coordinates":[[[6.148722778,43.096357222],[6.148795,43.096428056],[6.148973333,43.096644444],[6.149929167,43.097736111],[6.150065,43.097873056],[6.150146389,43.097947222],[6.150251944,43.098027222],[6.1503775,43.098105],[6.152155278,43.099140278],[6.153583611,43.099978333],[6.154755,43.100659167],[6.157140278,43.102067778],[6.159976111,43.103733056],[6.160411111,43.103983056],[6.160921944,43.104271389],[6.161135556,43.104403611],[6.161237222,43.104478889],[6.161295556,43.104544167],[6.161348611,43.104623889],[6.1613875,43.104715278],[6.161416667,43.104844722],[6.161494444,43.105283056],[6.161236944,43.105270833],[6.161255278,43.105236944],[6.161271111,43.105199444],[6.161280833,43.105162778],[6.161283333,43.105097778],[6.161261389,43.104915278],[6.161245556,43.104820833],[6.161220278,43.104744444],[6.161188611,43.104665278],[6.161145278,43.104607778],[6.161074167,43.104537222],[6.160813333,43.104378333],[6.160345278,43.104102778],[6.16036,43.104245833],[6.16036,43.104321667],[6.160339722,43.104397222],[6.160304167,43.104471944],[6.160245278,43.1045525],[6.160169444,43.104618333],[6.160030278,43.104530556],[6.160084444,43.104476111],[6.160120278,43.1044275],[6.160156111,43.104368611],[6.160166944,43.104316389],[6.160175278,43.10424],[6.160171667,43.104175833],[6.160158611,43.104124722],[6.160126667,43.10406],[6.160079722,43.103993611],[6.159992778,43.103916944],[6.1578375,43.102648056],[6.156833056,43.102060556],[6.155978889,43.101559167],[6.155768611,43.101433333],[6.155663333,43.101385278],[6.155556667,43.101358889],[6.155435,43.101346944],[6.155315,43.101358889],[6.155226111,43.101376944],[6.155155556,43.101401944],[6.15507,43.101448889],[6.154915556,43.101538889],[6.154752778,43.101454722],[6.154793889,43.101394722],[6.154851389,43.101311944],[6.154889444,43.101238889],[6.1549025,43.101190833],[6.154905833,43.101144167],[6.154900833,43.101075556],[6.154882778,43.101006111],[6.154845,43.100931667],[6.154751667,43.100837778],[6.154643333,43.100765278],[6.15311,43.099871944],[6.151908056,43.099169167],[6.151002222,43.098631667],[6.150381944,43.098259722],[6.150192222,43.098144167],[6.150082222,43.098071389],[6.1499925,43.098005556],[6.149885833,43.097914444],[6.149128333,43.097061389],[6.148664167,43.096526389],[6.148573056,43.096421389],[6.148722778,43.096357222]]]}},{"type":"Feature","id":"lfth.area.filled.region.runway.concrete.112120","properties":{"name":"LFTH AVISO","layer":"Airfield surfaces","category":"Runway Concrete","object_type":"Area","style_id":"area.filled.region.runway.concrete","airport":"LFTH","geometry_role":"filled_region","vsmr_group_ids":[[]]},"geometry":{"type":"Polygon","coordinates":[[[6.15565,43.0894825],[6.155641667,43.089399722],[6.15562,43.089363889],[6.155568333,43.089312778],[6.155511389,43.089272222],[6.155650833,43.089165556],[6.155771389,43.089225556],[6.155826389,43.089257778],[6.155905556,43.089315556],[6.156257778,43.0895575],[6.156701667,43.089871944],[6.156668889,43.089895556],[6.156678056,43.089925278],[6.156715,43.089987778],[6.156748056,43.090046111],[6.156788889,43.090143333],[6.156826944,43.090231667],[6.1568675,43.090351944],[6.156885556,43.090422778],[6.156901111,43.090495],[6.1569125,43.090558611],[6.156918056,43.090642222],[6.156918333,43.090736944],[6.156560833,43.090789722],[6.156544444,43.090755833],[6.156461111,43.0906725],[6.156391389,43.090613889],[6.156305833,43.090576111],[6.156214444,43.090539722],[6.156108889,43.090513333],[6.155987778,43.090505556],[6.155888056,43.090507222],[6.155820556,43.090519167],[6.155780556,43.090533333],[6.155729444,43.090563333],[6.154915,43.091164167],[6.154850556,43.091236944],[6.154806667,43.091305278],[6.154781111,43.0913725],[6.154769722,43.091462222],[6.154772778,43.091533889],[6.154803889,43.091611389],[6.154832222,43.091670556],[6.15488,43.091728333],[6.154935278,43.091780556],[6.155076111,43.091888611],[6.154871944,43.092031667],[6.1546625,43.091866944],[6.154576667,43.091825278],[6.154459167,43.091800556],[6.154355,43.091786667],[6.154249167,43.091787778],[6.154141944,43.091805556],[6.154065,43.091826111],[6.153974444,43.091862222],[6.153886111,43.091911667],[6.148455278,43.095878333],[6.148444722,43.0958925],[6.148430833,43.095919722],[6.148424444,43.095954444],[6.148423333,43.096040556],[6.148421944,43.096090278],[6.148429444,43.096121667],[6.148441667,43.096149167],[6.148464722,43.096175],[6.148500833,43.096206111],[6.148553333,43.096234167],[6.148614722,43.096276667],[6.148720556,43.096357778],[6.148578333,43.096421944],[6.148550833,43.096386944],[6.1485025,43.09635],[6.148456389,43.096313333],[6.1483875,43.096269167],[6.1481325,43.096119167],[6.146455278,43.097341667],[6.15393,43.101735833],[6.154223611,43.101732778],[6.154289167,43.101720278],[6.154353611,43.101705],[6.154415,43.101685556],[6.154498056,43.101646111],[6.154548333,43.101618889],[6.154611389,43.101578333],[6.154658611,43.1015475],[6.154699167,43.1015075],[6.154764167,43.101445833],[6.154922778,43.101534722],[6.15484,43.101589444],[6.154778889,43.101638611],[6.154739722,43.101700278],[6.154665278,43.101821667],[6.154645278,43.101881111],[6.154637778,43.101936389],[6.154642778,43.101992778],[6.154666111,43.10205],[6.154689444,43.102108611],[6.154718889,43.102156111],[6.154785556,43.102231944],[6.159192778,43.104818611],[6.159238611,43.104827222],[6.159321111,43.104828333],[6.159411111,43.104829722],[6.159493056,43.104825833],[6.159544444,43.104817222],[6.159598333,43.104805556],[6.159666667,43.104779722],[6.159738611,43.104741944],[6.159816944,43.104699722],[6.159868611,43.104663611],[6.159945833,43.104605833],[6.160033889,43.104529722],[6.160173611,43.104614444],[6.159648056,43.105093333],[6.160355833,43.105516667],[6.160403889,43.105534722],[6.160483333,43.105556111],[6.160560278,43.105567222],[6.160638056,43.105568333],[6.160707778,43.105568889],[6.160770556,43.105560278],[6.1608525,43.105545],[6.1609275,43.105521944],[6.1610075,43.105488056],[6.161072778,43.105451111],[6.161135,43.105406667],[6.161173056,43.105356667],[6.161240556,43.105266389],[6.161493333,43.105279444],[6.161633056,43.106073056],[6.161645833,43.106181667],[6.161653056,43.10626],[6.161673889,43.106273889],[6.161322222,43.106601944],[6.1460425,43.097638056],[6.140318056,43.101848333],[6.140156667,43.101958056],[6.139742778,43.101664444],[6.145601944,43.09736],[6.140945556,43.094633611],[6.141289444,43.094322778],[6.142298611,43.094078056],[6.142375833,43.094205],[6.142309722,43.094251944],[6.142252222,43.094298611],[6.142216111,43.094341111],[6.142175278,43.094401389],[6.1421425,43.094460556],[6.142118889,43.094525278],[6.142118333,43.094570556],[6.142120278,43.094646389],[6.142156667,43.094742222],[6.142201111,43.094811944],[6.142245278,43.094872778],[6.142269167,43.094891667],[6.142363333,43.094945],[6.142821944,43.094534722],[6.1428325,43.094519167],[6.142852778,43.094438333],[6.143034167,43.094575833],[6.142967222,43.094608333],[6.142925556,43.094639444],[6.1428875,43.094685],[6.142865278,43.094727222],[6.142846111,43.094778333],[6.1428375,43.094833333],[6.142838333,43.094915278],[6.142855556,43.095063611],[6.142879167,43.095172222],[6.142911111,43.095231389],[6.142955556,43.095280278],[6.143018889,43.095322222],[6.144091667,43.095958889],[6.145988056,43.097072778],[6.147410278,43.096035278],[6.147468611,43.095982778],[6.147486111,43.095943333],[6.1474975,43.0959],[6.147498056,43.095860556],[6.147485278,43.095809167],[6.147463611,43.095745278],[6.147419167,43.095711111],[6.147180278,43.095573333],[6.147300556,43.095476667],[6.147489444,43.095593056],[6.147546389,43.095625833],[6.147604167,43.095634167],[6.1476925,43.095641667],[6.147783889,43.095641389],[6.147880556,43.0956325],[6.147966667,43.0956175],[6.148024444,43.095588889],[6.148471111,43.095265278],[6.148224722,43.094745],[6.148346944,43.094717778],[6.148576944,43.095184167],[6.155310833,43.090263056],[6.1554475,43.090159722],[6.155535278,43.090094722],[6.155611667,43.09001],[6.155644722,43.089955556],[6.155655556,43.089902778],[6.155656667,43.089695],[6.15565,43.0894825]]]}},{"type":"Feature","id":"lfth.area.filled.region.runway.concrete.112324","properties":{"name":"LFTH AVISO","layer":"Airfield surfaces","category":"Runway Concrete","object_type":"Area","style_id":"area.filled.region.runway.concrete","airport":"LFTH","geometry_role":"filled_region","vsmr_group_ids":[[]]},"geometry":{"type":"Polygon","coordinates":[[[6.148569444,43.089565556],[6.149150556,43.0894775],[6.14927,43.089894167],[6.148696667,43.089979167],[6.148569444,43.089565556]]]}},{"type":"Feature","id":"lfth.area.filled.region.building.112329","properties":{"name":"LFTH AVISO","layer":"Airfield surfaces","category":"Building","object_type":"Area","style_id":"area.filled.region.building","airport":"LFTH","geometry_role":"filled_region","vsmr_group_ids":[[]]},"geometry":{"type":"Polygon","coordinates":[[[6.142159167,43.092400278],[6.142251389,43.092328611],[6.142171111,43.092265278],[6.142791389,43.091773333],[6.143055278,43.091956667],[6.141656667,43.093006111],[6.141432778,43.09286],[6.142103889,43.092359167],[6.142159167,43.092400278]]]}},{"type":"Feature","id":"lfth.area.filled.region.building.112338","properties":{"name":"LFTH AVISO","layer":"Airfield surfaces","category":"Building","object_type":"Area","style_id":"area.filled.region.building","airport":"LFTH","geometry_role":"filled_region","vsmr_group_ids":[[]]},"geometry":{"type":"Polygon","coordinates":[[[6.143256667,43.091783056],[6.143098056,43.091900556],[6.142924722,43.091768333],[6.143074167,43.091647222],[6.143256667,43.091783056]]]}},{"type":"Feature","id":"lfth.area.filled.region.building.112343","properties":{"name":"LFTH AVISO","layer":"Airfield surfaces","category":"Building","object_type":"Area","style_id":"area.filled.region.building","airport":"LFTH","geometry_role":"filled_region","vsmr_group_ids":[[]]},"geometry":{"type":"Polygon","coordinates":[[[6.143512222,43.091761111],[6.143729167,43.091873889],[6.143699167,43.091896111],[6.143650556,43.091918056],[6.143604722,43.091927778],[6.1435375,43.091932778],[6.143476944,43.091929167],[6.143434444,43.091923056],[6.143401111,43.091910278],[6.143346944,43.091876667],[6.143512222,43.091761111]]]}},{"type":"Feature","id":"lfth.area.filled.region.building.112354","properties":{"name":"LFTH AVISO","layer":"Airfield surfaces","category":"Building","object_type":"Area","style_id":"area.filled.region.building","airport":"LFTH","geometry_role":"filled_region","vsmr_group_ids":[[]]},"geometry":{"type":"Polygon","coordinates":[[[6.143158056,43.091545278],[6.143235556,43.091458611],[6.143183611,43.091436389],[6.143568889,43.090966111],[6.144246667,43.091238056],[6.143776111,43.091803333],[6.143158056,43.091545278]]]}},{"type":"Feature","id":"lfth.area.filled.region.building.112361","properties":{"name":"LFTH AVISO","layer":"Airfield surfaces","category":"Building","object_type":"Area","style_id":"area.filled.region.building","airport":"LFTH","geometry_role":"filled_region","vsmr_group_ids":[[]]},"geometry":{"type":"Polygon","coordinates":[[[6.143726667,43.090750556],[6.144395,43.091034722],[6.1442775,43.091166111],[6.143616667,43.090877778],[6.143726667,43.090750556]]]}},{"type":"Feature","id":"lfth.area.filled.region.building.112366","properties":{"name":"LFTH AVISO","layer":"Airfield surfaces","category":"Building","object_type":"Area","style_id":"area.filled.region.building","airport":"LFTH","geometry_role":"filled_region","vsmr_group_ids":[[]]},"geometry":{"type":"Polygon","coordinates":[[[6.143780278,43.090700556],[6.144229167,43.090153056],[6.144385556,43.090219167],[6.144423056,43.090184722],[6.144653056,43.090150278],[6.144760278,43.090026944],[6.144455833,43.089890556],[6.145185278,43.089014167],[6.145816389,43.089283889],[6.145023889,43.090249722],[6.144891111,43.090191389],[6.144856111,43.090228056],[6.144804444,43.090204722],[6.144887778,43.090433611],[6.144456944,43.090979722],[6.143780278,43.090700556]]]}},{"type":"Feature","id":"lfth.area.filled.region.building.112382","properties":{"name":"LFTH AVISO","layer":"Airfield surfaces","category":"Building","object_type":"Area","style_id":"area.filled.region.building","airport":"LFTH","geometry_role":"filled_region","vsmr_group_ids":[[]]},"geometry":{"type":"Polygon","coordinates":[[[6.145583056,43.088608333],[6.145722222,43.088435833],[6.146133333,43.088215],[6.1467725,43.088831667],[6.146626111,43.088913056],[6.146551389,43.0888425],[6.146106389,43.089096944],[6.145583056,43.088608333]]]}},{"type":"Feature","id":"lfth.area.filled.region.building.112390","properties":{"name":"LFTH AVISO","layer":"Airfield surfaces","category":"Building","object_type":"Area","style_id":"area.filled.region.building","airport":"LFTH","geometry_role":"filled_region","vsmr_group_ids":[[]]},"geometry":{"type":"Polygon","coordinates":[[[6.150380556,43.088955833],[6.150425833,43.088943056],[6.150453333,43.088856944],[6.150508333,43.088796667],[6.150614444,43.088836944],[6.150683056,43.0888325],[6.150791111,43.088888611],[6.15085,43.089073611],[6.150431667,43.089136667],[6.150380556,43.088955833]]]}},{"type":"Feature","id":"lfth.area.filled.region.building.112400","properties":{"name":"LFTH AVISO","layer":"Airfield surfaces","category":"Building","object_type":"Area","style_id":"area.filled.region.building","airport":"LFTH","geometry_role":"filled_region","vsmr_group_ids":[[]]},"geometry":{"type":"Polygon","coordinates":[[[6.150970556,43.088777222],[6.152226944,43.088612222],[6.152296944,43.088864722],[6.151853611,43.088930278],[6.1518075,43.088790278],[6.151491944,43.088835556],[6.151525833,43.088976944],[6.151030556,43.089042778],[6.150970556,43.088777222]]]}},{"type":"Feature","id":"lfth.area.filled.region.building.112409","properties":{"name":"LFTH AVISO","layer":"Airfield surfaces","category":"Building","object_type":"Area","style_id":"area.filled.region.building","airport":"LFTH","geometry_role":"filled_region","vsmr_group_ids":[[]]},"geometry":{"type":"Polygon","coordinates":[[[6.152673333,43.088621667],[6.152931944,43.088571111],[6.152978056,43.088713056],[6.152722778,43.088763611],[6.152673333,43.088621667]]]}},{"type":"Feature","id":"lfth.area.filled.region.building.112414","properties":{"name":"LFTH AVISO","layer":"Airfield surfaces","category":"Building","object_type":"Area","style_id":"area.filled.region.building","airport":"LFTH","geometry_role":"filled_region","vsmr_group_ids":[[]]},"geometry":{"type":"Polygon","coordinates":[[[6.15755,43.092136667],[6.157665556,43.092149722],[6.157640556,43.092384722],[6.157525,43.092373056],[6.15755,43.092136667]]]}},{"type":"Feature","id":"lfth.area.filled.region.building.112419","properties":{"name":"LFTH AVISO","layer":"Airfield surfaces","category":"Building","object_type":"Area","style_id":"area.filled.region.building","airport":"LFTH","geometry_role":"filled_region","vsmr_group_ids":[[]]},"geometry":{"type":"Polygon","coordinates":[[[6.158478056,43.094074444],[6.158103889,43.094118611],[6.158069444,43.093981944],[6.158374167,43.093936944],[6.158330278,43.093761667],[6.158393333,43.09375],[6.1582575,43.093345278],[6.158442222,43.093311944],[6.158419444,43.093240556],[6.158321667,43.093255],[6.158226944,43.092837778],[6.158645,43.092788611],[6.158688333,43.093038056],[6.158871111,43.093034444],[6.158888056,43.093429444],[6.159121389,43.0941875],[6.158529722,43.094271944],[6.158478056,43.094074444]]]}},{"type":"Feature","id":"lfth.area.filled.region.building.112437","properties":{"name":"LFTH AVISO","layer":"Airfield surfaces","category":"Building","object_type":"Area","style_id":"area.filled.region.building","airport":"LFTH","geometry_role":"filled_region","vsmr_group_ids":[[]]},"geometry":{"type":"Polygon","coordinates":[[[6.147145833,43.093768333],[6.146960556,43.093639722],[6.147072778,43.093567222],[6.147231944,43.093680833],[6.147344444,43.093598611],[6.14744,43.0936725],[6.147106389,43.093926944],[6.147009167,43.093868056],[6.147145833,43.093768333]]]}},{"type":"Feature","id":"lfth.area.filled.region.building.112446","properties":{"name":"LFTH AVISO","layer":"Airfield surfaces","category":"Building","object_type":"Area","style_id":"area.filled.region.building","airport":"LFTH","geometry_role":"filled_region","vsmr_group_ids":[[]]},"geometry":{"type":"Polygon","coordinates":[[[6.143439167,43.093254722],[6.143251389,43.093393056],[6.143148056,43.093320278],[6.143333611,43.093186389],[6.143439167,43.093254722]]]}},{"type":"Feature","id":"lfth.area.filled.region.stopbar.112451","properties":{"name":"LFTH AVISO","layer":"Airfield surfaces","category":"Stopbar","object_type":"Area","style_id":"area.filled.region.stopbar","airport":"LFTH","geometry_role":"filled_region","vsmr_group_ids":[[]]},"geometry":{"type":"Polygon","coordinates":[[[6.144057778,43.094341944],[6.144108333,43.094343056],[6.144108333,43.094483056],[6.144059444,43.094484167],[6.144057778,43.094341944]]]}},{"type":"Feature","id":"lfth.area.filled.region.stopbar.112456","properties":{"name":"LFTH AVISO","layer":"Airfield surfaces","category":"Stopbar","object_type":"Area","style_id":"area.filled.region.stopbar","airport":"LFTH","geometry_role":"filled_region","vsmr_group_ids":[[]]},"geometry":{"type":"Polygon","coordinates":[[[6.161242222,43.105258611],[6.161495,43.105275],[6.161497778,43.105294167],[6.161229722,43.105278889],[6.161242222,43.105258611]]]}},{"type":"Feature","id":"lfth.area.filled.region.stopbar.112461","properties":{"name":"LFTH AVISO","layer":"Airfield surfaces","category":"Stopbar","object_type":"Area","style_id":"area.filled.region.stopbar","airport":"LFTH","geometry_role":"filled_region","vsmr_group_ids":[[]]},"geometry":{"type":"Polygon","coordinates":[[[6.160035556,43.104524722],[6.16018,43.104613056],[6.160160556,43.10463],[6.160016944,43.104541111],[6.160035556,43.104524722]]]}},{"type":"Feature","id":"lfth.area.filled.region.stopbar.112466","properties":{"name":"LFTH AVISO","layer":"Airfield surfaces","category":"Stopbar","object_type":"Area","style_id":"area.filled.region.stopbar","airport":"LFTH","geometry_role":"filled_region","vsmr_group_ids":[[]]},"geometry":{"type":"Polygon","coordinates":[[[6.154763889,43.101436667],[6.154934167,43.101530278],[6.154901389,43.101551667],[6.154743056,43.101461944],[6.154763889,43.101436667]]]}},{"type":"Feature","id":"lfth.area.filled.region.stopbar.112471","properties":{"name":"LFTH AVISO","layer":"Airfield surfaces","category":"Stopbar","object_type":"Area","style_id":"area.filled.region.stopbar","airport":"LFTH","geometry_role":"filled_region","vsmr_group_ids":[[]]},"geometry":{"type":"Polygon","coordinates":[[[6.148570278,43.096415556],[6.148712778,43.096348333],[6.148735,43.096364444],[6.148583056,43.096436111],[6.148570278,43.096415556]]]}},{"type":"Feature","id":"lfth.area.filled.region.stopbar.112476","properties":{"name":"LFTH AVISO","layer":"Airfield surfaces","category":"Stopbar","object_type":"Area","style_id":"area.filled.region.stopbar","airport":"LFTH","geometry_role":"filled_region","vsmr_group_ids":[[]]},"geometry":{"type":"Polygon","coordinates":[[[6.147318333,43.095485833],[6.147192222,43.095583333],[6.147171111,43.095571389],[6.147298056,43.095472222],[6.147318333,43.095485833]]]}},{"type":"Feature","id":"lfth.area.filled.region.stopbar.112481","properties":{"name":"LFTH AVISO","layer":"Airfield surfaces","category":"Stopbar","object_type":"Area","style_id":"area.filled.region.stopbar","airport":"LFTH","geometry_role":"filled_region","vsmr_group_ids":[[]]},"geometry":{"type":"Polygon","coordinates":[[[6.148220556,43.094740833],[6.14835,43.094713056],[6.148356667,43.094730556],[6.148227778,43.094758056],[6.148220556,43.094740833]]]}},{"type":"Feature","id":"lfth.area.filled.region.stopbar.112486","properties":{"name":"LFTH AVISO","layer":"Airfield surfaces","category":"Stopbar","object_type":"Area","style_id":"area.filled.region.stopbar","airport":"LFTH","geometry_role":"filled_region","vsmr_group_ids":[[]]},"geometry":{"type":"Polygon","coordinates":[[[6.154853889,43.092020556],[6.155066111,43.091875278],[6.155094167,43.091897222],[6.1548825,43.092045],[6.154853889,43.092020556]]]}},{"type":"Feature","id":"lfth.area.filled.region.stopbar.112491","properties":{"name":"LFTH AVISO","layer":"Airfield surfaces","category":"Stopbar","object_type":"Area","style_id":"area.filled.region.stopbar","airport":"LFTH","geometry_role":"filled_region","vsmr_group_ids":[[]]},"geometry":{"type":"Polygon","coordinates":[[[6.156553889,43.09078],[6.156924722,43.090725833],[6.156925556,43.090751944],[6.156563333,43.090805556],[6.156553889,43.09078]]]}},{"type":"Feature","id":"lfth.area.filled.region.stopbar.112496","properties":{"name":"LFTH AVISO","layer":"Airfield surfaces","category":"Stopbar","object_type":"Area","style_id":"area.filled.region.stopbar","airport":"LFTH","geometry_role":"filled_region","vsmr_group_ids":[[]]},"geometry":{"type":"Polygon","coordinates":[[[6.155502778,43.089268056],[6.155645556,43.08916],[6.155664722,43.089169167],[6.155519167,43.08928],[6.155502778,43.089268056]]]}},{"type":"Feature","id":"lfth.area.filled.region.stopbar.112501","properties":{"name":"LFTH AVISO","layer":"Airfield surfaces","category":"Stopbar","object_type":"Area","style_id":"area.filled.region.stopbar","airport":"LFTH","geometry_role":"filled_region","vsmr_group_ids":[[]]},"geometry":{"type":"Polygon","coordinates":[[[6.146658056,43.096584722],[6.147073056,43.096896111],[6.147023611,43.096929444],[6.146616944,43.096614167],[6.146658056,43.096584722]]]}},{"type":"Feature","id":"lfth.area.filled.region.stopbar.112506","properties":{"name":"LFTH AVISO","layer":"Airfield surfaces","category":"Stopbar","object_type":"Area","style_id":"area.filled.region.stopbar","airport":"LFTH","geometry_role":"filled_region","vsmr_group_ids":[[]]},"geometry":{"type":"Polygon","coordinates":[[[6.145016667,43.097788333],[6.145424722,43.098092222],[6.145376389,43.098129167],[6.144975,43.097818333],[6.145016667,43.097788333]]]}},{"type":"Feature","id":"LFTH-runway-13-31-5391","properties":{"name":"LFTH RWY 13/31","layer":"Runways","category":"Runway Markings","object_type":"Line","style_id":"line.runway.centerline.runway.markings","airport":"LFTH","geometry_role":"runway_centerline","vsmr_group_ids":[[]]},"geometry":{"type":"LineString","coordinates":[[6.142380833,43.100025],[6.155493889,43.090388889]]}},{"type":"Feature","id":"LFTH-runway-05-23-5392","properties":{"name":"LFTH RWY 05/23","layer":"Runways","category":"Runway Markings","object_type":"Line","style_id":"line.runway.centerline.runway.markings","airport":"LFTH","geometry_role":"runway_centerline","vsmr_group_ids":[[]]},"geometry":{"type":"LineString","coordinates":[[6.143227778,43.0957],[6.160952778,43.106105833]]}},{"type":"Feature","id":"lfth.line.linework.runway.border.70626","properties":{"name":"LFTH Groundlayout AVISO","layer":"Ground linework","category":"Runway Border","object_type":"Line","style_id":"line.linework.runway.border","airport":"LFTH","geometry_role":"linework","vsmr_group_ids":[[]]},"geometry":{"type":"MultiLineString","coordinates":[[[6.143086111,43.095889167],[6.1434325,43.0955675]],[[6.142728056,43.095418611],[6.142929722,43.095539444]],[[6.142903611,43.0955475],[6.143002778,43.095585278]],[[6.143002778,43.095585278],[6.142941944,43.095522222]],[[6.142150833,43.095081389],[6.142346111,43.095200556]],[[6.142323611,43.095211944],[6.142436389,43.0952525]],[[6.142436389,43.0952525],[6.142369444,43.095181667]],[[6.141577222,43.094749444],[6.141766667,43.094861389]],[[6.1417475,43.094875278],[6.141853611,43.094916389]],[[6.141853611,43.094916389],[6.1417875,43.094848056]],[[6.142191667,43.099862222],[6.142602222,43.100170278]],[[6.141923889,43.100361111],[6.142106111,43.100228056]],[[6.142072222,43.100223889],[6.142180278,43.100176389]],[[6.142180278,43.100176389],[6.142118056,43.100255278]],[[6.141403889,43.100743056],[6.141581667,43.100614444]],[[6.141546111,43.1006025],[6.141675,43.100550556]],[[6.141675,43.100550556],[6.141602222,43.100641389]],[[6.140877778,43.101141111],[6.141054167,43.101008056]],[[6.141024444,43.100995],[6.141116389,43.100952778]],[[6.141116389,43.100952778],[6.141074722,43.101025278]],[[6.140360556,43.101511944],[6.140523611,43.101395278]],[[6.140493889,43.10138],[6.140599167,43.1013325]],[[6.140599167,43.1013325],[6.140553056,43.101414722]],[[6.155308333,43.090263333],[6.1557275,43.090565278]],[[6.155998056,43.090055556],[6.155826111,43.090186389]],[[6.1558025,43.090173056],[6.155737222,43.090256389]],[[6.155737222,43.090256389],[6.155845556,43.090204722]],[[6.148678333,43.089672778],[6.148660833,43.089612222]],[[6.148660833,43.089612222],[6.148753333,43.089599167]],[[6.148831667,43.089588056],[6.148918889,43.089574722]],[[6.149001944,43.089563056],[6.149090278,43.089549722]],[[6.149090278,43.089549722],[6.149109167,43.089614444]],[[6.149122222,43.089660278],[6.149148611,43.0897475]],[[6.149163056,43.089796944],[6.149181667,43.089860556]],[[6.149181667,43.089860556],[6.149094444,43.089873333]],[[6.14892,43.089899722],[6.149005833,43.089886944]],[[6.148852222,43.089909722],[6.148754444,43.089924444]],[[6.148754444,43.089924444],[6.148736667,43.089866111]],[[6.148716667,43.0898],[6.148698056,43.089738056]]]}},{"type":"Feature","id":"lfth.line.linework.taxiway.70665","properties":{"name":"LFTH Groundlayout AVISO","layer":"Ground linework","category":"Taxiway","object_type":"Line","style_id":"line.linework.taxiway","airport":"LFTH","geometry_role":"linework","vsmr_group_ids":[[]]},"geometry":{"type":"MultiLineString","coordinates":[[[6.140071111,43.094032222],[6.140328333,43.094017222]],[[6.140328333,43.094017222],[6.140300833,43.093835278]],[[6.140376667,43.0941975],[6.140605278,43.094184167]],[[6.140605278,43.094184167],[6.140591944,43.094019444]],[[6.140653333,43.094370556],[6.140898611,43.094353333]],[[6.140898611,43.094353333],[6.14088,43.094180556]],[[6.140953333,43.094534722],[6.141056111,43.094533889]],[[6.141163333,43.094343889],[6.1411725,43.094427222]],[[6.157441667,43.088795556],[6.157443333,43.089008333]],[[6.157443333,43.089008333],[6.157710278,43.089011389]],[[6.1571875,43.0889875],[6.157188889,43.089203333]],[[6.157188889,43.089203333],[6.157458889,43.089201389]],[[6.1569275,43.089168056],[6.156924722,43.089392222]],[[6.156924722,43.089392222],[6.1572175,43.089391111]],[[6.156684722,43.0893475],[6.156671944,43.089579167]],[[6.156671944,43.089579167],[6.156979167,43.089578889]],[[6.156430556,43.089545556],[6.156421944,43.089675]],[[6.156539167,43.0897575],[6.156719167,43.089761667]],[[6.157712222,43.094030278],[6.157253611,43.094221944]],[[6.157253611,43.094221944],[6.156824722,43.094276111]],[[6.156623056,43.093541389],[6.157865833,43.093748056]],[[6.156581111,43.093390833],[6.157899722,43.0932625]],[[6.156501944,43.0930475],[6.1567925,43.0929975]],[[6.1567925,43.0929975],[6.157292222,43.092645]],[[6.157292222,43.092645],[6.157326389,43.092603333]],[[6.157326389,43.092603333],[6.157336111,43.092571389]],[[6.157336111,43.092571389],[6.157335833,43.092528333]],[[6.157335833,43.092528333],[6.157332222,43.092489444]],[[6.157332222,43.092489444],[6.157284444,43.092253611]],[[6.156792222,43.092998611],[6.157784444,43.092886667]]]}},{"type":"Feature","id":"LFTH-airport-reference","properties":{"name":"LFTH","layer":"Reference points","category":"Labels","object_type":"Point","style_id":"point.airport.reference.point.labels","airport":"LFTH","geometry_role":"airport_reference_point","text-field":"LFTH","vsmr_group_ids":[[]]},"geometry":{"type":"Point","coordinates":[6.146110833,43.097221944]}},{"type":"Feature","id":"LFTH-text-lfmm-22062","properties":{"name":"Aire transbordement Cargo","layer":"Labels","category":"Labels","object_type":"Label","style_id":"label.text.label.labels","airport":"LFTH","geometry_role":"text_label","text-field":"Aire transbordement Cargo","vsmr_group_ids":[[]]},"geometry":{"type":"Point","coordinates":[6.152655,43.09829]}},{"type":"Feature","id":"LFTH-text-lfmm-22063","properties":{"name":"P-Civ","layer":"Labels","category":"Labels","object_type":"Label","style_id":"label.text.label.labels","airport":"LFTH","geometry_role":"text_label","text-field":"P-Civ","vsmr_group_ids":[[]]},"geometry":{"type":"Point","coordinates":[6.157342222,43.094935]}},{"type":"Feature","id":"LFTH-text-lfmm-22064","properties":{"name":"Terminal","layer":"Labels","category":"Labels","object_type":"Label","style_id":"label.text.label.labels","airport":"LFTH","geometry_role":"text_label","text-field":"Terminal","vsmr_group_ids":[[]]},"geometry":{"type":"Point","coordinates":[6.159438889,43.093465556]}},{"type":"Feature","id":"LFTH-text-lfmm-22065","properties":{"name":"TWR","layer":"Labels","category":"Labels","object_type":"Label","style_id":"label.text.label.labels","airport":"LFTH","geometry_role":"text_label","text-field":"TWR","vsmr_group_ids":[[]]},"geometry":{"type":"Point","coordinates":[6.146674167,43.093789167]}},{"type":"Feature","id":"LFTH-text-lfmm-22066","properties":{"name":"P-Douanes-Gendarmerie","layer":"Labels","category":"Labels","object_type":"Label","style_id":"label.text.label.labels","airport":"LFTH","geometry_role":"text_label","text-field":"P-Douanes-Gendarmerie","vsmr_group_ids":[[]]},"geometry":{"type":"Point","coordinates":[6.151442778,43.088423056]}},{"type":"Feature","id":"LFTH-text-lfmm-22067","properties":{"name":"P-Mil","layer":"Labels","category":"Labels","object_type":"Label","style_id":"label.text.label.labels","airport":"LFTH","geometry_role":"text_label","text-field":"P-Mil","vsmr_group_ids":[[]]},"geometry":{"type":"Point","coordinates":[6.145893056,43.090809444]}},{"type":"Feature","id":"LFTH-text-lfmm-22068","properties":{"name":"VIP","layer":"Labels","category":"Labels","object_type":"Label","style_id":"label.text.label.labels","airport":"LFTH","geometry_role":"text_label","text-field":"VIP","vsmr_group_ids":[[]]},"geometry":{"type":"Point","coordinates":[6.148483056,43.093505833]}},{"type":"Feature","id":"LFTH-text-lfmm-22069","properties":{"name":"HS","layer":"Labels","category":"Labels","object_type":"Label","style_id":"label.text.label.labels","airport":"LFTH","geometry_role":"text_label","text-field":"HS","vsmr_group_ids":[[]]},"geometry":{"type":"Point","coordinates":[6.148914444,43.089717222]}},{"type":"Feature","id":"LFTH-text-lfmm-22070","properties":{"name":"HN","layer":"Labels","category":"Labels","object_type":"Label","style_id":"label.text.label.labels","airport":"LFTH","geometry_role":"text_label","text-field":"HN","vsmr_group_ids":[[]]},"geometry":{"type":"Point","coordinates":[6.145009167,43.094328333]}},{"type":"Feature","id":"LFTH-text-lfmm-22071","properties":{"name":"X","layer":"Labels","category":"Labels","object_type":"Label","style_id":"label.text.label.labels","airport":"LFTH","geometry_role":"text_label","text-field":"X","vsmr_group_ids":[[]]},"geometry":{"type":"Point","coordinates":[6.139847222,43.101157222]}},{"type":"Feature","id":"LFTH-text-lfmm-22072","properties":{"name":"X","layer":"Labels","category":"Labels","object_type":"Label","style_id":"label.text.label.labels","airport":"LFTH","geometry_role":"text_label","text-field":"X","vsmr_group_ids":[[]]},"geometry":{"type":"Point","coordinates":[6.140206944,43.100011389]}},{"type":"Feature","id":"LFTH-text-lfmm-22073","properties":{"name":"X","layer":"Labels","category":"Labels","object_type":"Label","style_id":"label.text.label.labels","airport":"LFTH","geometry_role":"text_label","text-field":"X","vsmr_group_ids":[[]]},"geometry":{"type":"Point","coordinates":[6.14162,43.098292222]}},{"type":"Feature","id":"LFTH-text-lfmm-22074","properties":{"name":"X","layer":"Labels","category":"Labels","object_type":"Label","style_id":"label.text.label.labels","airport":"LFTH","geometry_role":"text_label","text-field":"X","vsmr_group_ids":[[]]},"geometry":{"type":"Point","coordinates":[6.143110278,43.096472222]}},{"type":"Feature","id":"LFTH-text-lfmm-22075","properties":{"name":"X","layer":"Labels","category":"Labels","object_type":"Label","style_id":"label.text.label.labels","airport":"LFTH","geometry_role":"text_label","text-field":"X","vsmr_group_ids":[[]]},"geometry":{"type":"Point","coordinates":[6.144017222,43.095393611]}},{"type":"Feature","id":"LFTH-text-lfmm-22076","properties":{"name":"X","layer":"Labels","category":"Labels","object_type":"Label","style_id":"label.text.label.labels","airport":"LFTH","geometry_role":"text_label","text-field":"X","vsmr_group_ids":[[]]},"geometry":{"type":"Point","coordinates":[6.144527222,43.094767778]}},{"type":"Feature","id":"LFTH-text-lfmm-22077","properties":{"name":"Escale Militaire","layer":"Labels","category":"Labels","object_type":"Label","style_id":"label.text.label.labels","airport":"LFTH","geometry_role":"text_label","text-field":"Escale Militaire","vsmr_group_ids":[[]]},"geometry":{"type":"Point","coordinates":[6.142016389,43.093261667]}},{"type":"Feature","id":"LFTH-text-lfmm-22078","properties":{"name":"H1","layer":"Labels","category":"Labels","object_type":"Label","style_id":"label.text.label.labels","airport":"LFTH","geometry_role":"text_label","text-field":"H1","vsmr_group_ids":[[]]},"geometry":{"type":"Point","coordinates":[6.141792222,43.092696944]}},{"type":"Feature","id":"LFTH-text-lfmm-22079","properties":{"name":"H2","layer":"Labels","category":"Labels","object_type":"Label","style_id":"label.text.label.labels","airport":"LFTH","geometry_role":"text_label","text-field":"H2","vsmr_group_ids":[[]]},"geometry":{"type":"Point","coordinates":[6.142598056,43.092093056]}},{"type":"Feature","id":"LFTH-text-lfmm-22080","properties":{"name":"H3","layer":"Labels","category":"Labels","object_type":"Label","style_id":"label.text.label.labels","airport":"LFTH","geometry_role":"text_label","text-field":"H3","vsmr_group_ids":[[]]},"geometry":{"type":"Point","coordinates":[6.143633889,43.091370278]}},{"type":"Feature","id":"LFTH-text-lfmm-22081","properties":{"name":"H4","layer":"Labels","category":"Labels","object_type":"Label","style_id":"label.text.label.labels","airport":"LFTH","geometry_role":"text_label","text-field":"H4","vsmr_group_ids":[[]]},"geometry":{"type":"Point","coordinates":[6.144308056,43.090550556]}},{"type":"Feature","id":"LFTH-text-lfmm-22082","properties":{"name":"H5","layer":"Labels","category":"Labels","object_type":"Label","style_id":"label.text.label.labels","airport":"LFTH","geometry_role":"text_label","text-field":"H5","vsmr_group_ids":[[]]},"geometry":{"type":"Point","coordinates":[6.144900278,43.089838611]}},{"type":"Feature","id":"LFTH-text-lfmm-22083","properties":{"name":"H6","layer":"Labels","category":"Labels","object_type":"Label","style_id":"label.text.label.labels","airport":"LFTH","geometry_role":"text_label","text-field":"H6","vsmr_group_ids":[[]]},"geometry":{"type":"Point","coordinates":[6.145294722,43.089331667]}},{"type":"Feature","id":"LFTH-text-lfmm-22084","properties":{"name":"H7","layer":"Labels","category":"Labels","object_type":"Label","style_id":"label.text.label.labels","airport":"LFTH","geometry_role":"text_label","text-field":"H7","vsmr_group_ids":[[]]},"geometry":{"type":"Point","coordinates":[6.146133611,43.088630556]}},{"type":"Feature","id":"LFTH-text-lfmm-22085","properties":{"name":"A1","layer":"Labels","category":"Labels","object_type":"Label","style_id":"label.text.label.labels","airport":"LFTH","geometry_role":"text_label","text-field":"A1","vsmr_group_ids":[[]]},"geometry":{"type":"Point","coordinates":[6.156584444,43.093099444]}},{"type":"Feature","id":"LFTH-text-lfmm-22086","properties":{"name":"A2","layer":"Labels","category":"Labels","object_type":"Label","style_id":"label.text.label.labels","airport":"LFTH","geometry_role":"text_label","text-field":"A2","vsmr_group_ids":[[]]},"geometry":{"type":"Point","coordinates":[6.156643333,43.093298056]}},{"type":"Feature","id":"LFTH-text-lfmm-22087","properties":{"name":"A3","layer":"Labels","category":"Labels","object_type":"Label","style_id":"label.text.label.labels","airport":"LFTH","geometry_role":"text_label","text-field":"A3","vsmr_group_ids":[[]]},"geometry":{"type":"Point","coordinates":[6.156761111,43.093651667]}},{"type":"Feature","id":"LFTH-text-lfmm-22088","properties":{"name":"A4","layer":"Labels","category":"Labels","object_type":"Label","style_id":"label.text.label.labels","airport":"LFTH","geometry_role":"text_label","text-field":"A4","vsmr_group_ids":[[]]},"geometry":{"type":"Point","coordinates":[6.156946389,43.0943475]}},{"type":"Feature","id":"LFTH-text-lfmm-22090","properties":{"name":"WT","layer":"Labels","category":"Labels","object_type":"Label","style_id":"label.text.label.labels","airport":"LFTH","geometry_role":"text_label","text-field":"WT","vsmr_group_ids":[[]]},"geometry":{"type":"Point","coordinates":[5.604444444,43.160833333]}},{"type":"Feature","id":"LFTH-text-lfmm-22091","properties":{"name":"CL","layer":"Labels","category":"Labels","object_type":"Label","style_id":"label.text.label.labels","airport":"LFTH","geometry_role":"text_label","text-field":"CL","vsmr_group_ids":[[]]},"geometry":{"type":"Point","coordinates":[6.294722222,43.110277778]}},{"type":"Feature","id":"LFTH-text-lfmm-22092","properties":{"name":"ET","layer":"Labels","category":"Labels","object_type":"Label","style_id":"label.text.label.labels","airport":"LFTH","geometry_role":"text_label","text-field":"ET","vsmr_group_ids":[[]]},"geometry":{"type":"Point","coordinates":[6.618055556,43.161388889]}},{"type":"Feature","id":"LFTH-text-lfmm-22093","properties":{"name":"PT","layer":"Labels","category":"Labels","object_type":"Label","style_id":"label.text.label.labels","airport":"LFTH","geometry_role":"text_label","text-field":"PT","vsmr_group_ids":[[]]},"geometry":{"type":"Point","coordinates":[5.816666667,43.041666667]}},{"type":"Feature","id":"LFTH-text-lfmm-22094","properties":{"name":"DG","layer":"Labels","category":"Labels","object_type":"Label","style_id":"label.text.label.labels","airport":"LFTH","geometry_role":"text_label","text-field":"DG","vsmr_group_ids":[[]]},"geometry":{"type":"Point","coordinates":[6.183611111,43.157777778]}},{"type":"Feature","id":"LFTH-text-lfmm-22095","properties":{"name":"MR","layer":"Labels","category":"Labels","object_type":"Label","style_id":"label.text.label.labels","airport":"LFTH","geometry_role":"text_label","text-field":"MR","vsmr_group_ids":[[]]},"geometry":{"type":"Point","coordinates":[6.115833333,43.162777778]}},{"type":"Feature","id":"LFTH-text-lfmm-22096","properties":{"name":"PC","layer":"Labels","category":"Labels","object_type":"Label","style_id":"label.text.label.labels","airport":"LFTH","geometry_role":"text_label","text-field":"PC","vsmr_group_ids":[[]]},"geometry":{"type":"Point","coordinates":[6.021666667,43.070555556]}},{"type":"Feature","id":"LFTH-text-lfmm-22097","properties":{"name":"ST","layer":"Labels","category":"Labels","object_type":"Label","style_id":"label.text.label.labels","airport":"LFTH","geometry_role":"text_label","text-field":"ST","vsmr_group_ids":[[]]},"geometry":{"type":"Point","coordinates":[6.216388889,43.013333333]}},{"type":"Feature","id":"LFTH-text-lfmm-22098","properties":{"name":"VC","layer":"Labels","category":"Labels","object_type":"Label","style_id":"label.text.label.labels","airport":"LFTH","geometry_role":"text_label","text-field":"VC","vsmr_group_ids":[[]]},"geometry":{"type":"Point","coordinates":[6.280277778,43.191666667]}},{"type":"Feature","id":"LFTH-text-lfmm-22100","properties":{"name":"A2","layer":"Labels","category":"Labels","object_type":"Label","style_id":"label.text.label.labels","airport":"LFTH","geometry_role":"text_label","text-field":"A2","vsmr_group_ids":[[]]},"geometry":{"type":"Point","coordinates":[6.141553056,43.094036389]}},{"type":"Feature","id":"LFTH-text-lfmm-22101","properties":{"name":"B2","layer":"Labels","category":"Labels","object_type":"Label","style_id":"label.text.label.labels","airport":"LFTH","geometry_role":"text_label","text-field":"B2","vsmr_group_ids":[[]]},"geometry":{"type":"Point","coordinates":[6.1431975,43.094845278]}},{"type":"Feature","id":"LFTH-text-lfmm-22102","properties":{"name":"C3","layer":"Labels","category":"Labels","object_type":"Label","style_id":"label.text.label.labels","airport":"LFTH","geometry_role":"text_label","text-field":"C3","vsmr_group_ids":[[]]},"geometry":{"type":"Point","coordinates":[6.154317778,43.1013575]}},{"type":"Feature","id":"LFTH-text-lfmm-22103","properties":{"name":"D3","layer":"Labels","category":"Labels","object_type":"Label","style_id":"label.text.label.labels","airport":"LFTH","geometry_role":"text_label","text-field":"D3","vsmr_group_ids":[[]]},"geometry":{"type":"Point","coordinates":[6.159538611,43.104269722]}},{"type":"Feature","id":"LFTH-text-lfmm-22104","properties":{"name":"T3","layer":"Labels","category":"Labels","object_type":"Label","style_id":"label.text.label.labels","airport":"LFTH","geometry_role":"text_label","text-field":"T3","vsmr_group_ids":[[]]},"geometry":{"type":"Point","coordinates":[6.158243611,43.102301111]}},{"type":"Feature","id":"LFTH-text-lfmm-22105","properties":{"name":"T3","layer":"Labels","category":"Labels","object_type":"Label","style_id":"label.text.label.labels","airport":"LFTH","geometry_role":"text_label","text-field":"T3","vsmr_group_ids":[[]]},"geometry":{"type":"Point","coordinates":[6.150494444,43.097878889]}},{"type":"Feature","id":"LFTH-text-lfmm-22106","properties":{"name":"T1","layer":"Labels","category":"Labels","object_type":"Label","style_id":"label.text.label.labels","airport":"LFTH","geometry_role":"text_label","text-field":"T1","vsmr_group_ids":[[]]},"geometry":{"type":"Point","coordinates":[6.152362222,43.089597222]}},{"type":"Feature","id":"LFTH-text-lfmm-22107","properties":{"name":"E3","layer":"Labels","category":"Labels","object_type":"Label","style_id":"label.text.label.labels","airport":"LFTH","geometry_role":"text_label","text-field":"E3","vsmr_group_ids":[[]]},"geometry":{"type":"Point","coordinates":[6.162050278,43.105190833]}},{"type":"Feature","id":"LFTH-text-lfmm-22108","properties":{"name":"T10","layer":"Labels","category":"Labels","object_type":"Label","style_id":"label.text.label.labels","airport":"LFTH","geometry_role":"text_label","text-field":"T10","vsmr_group_ids":[[]]},"geometry":{"type":"Point","coordinates":[6.154570556,43.092494722]}},{"type":"Feature","id":"LFTH-text-lfmm-22109","properties":{"name":"T8","layer":"Labels","category":"Labels","object_type":"Label","style_id":"label.text.label.labels","airport":"LFTH","geometry_role":"text_label","text-field":"T8","vsmr_group_ids":[[]]},"geometry":{"type":"Point","coordinates":[6.157328333,43.090717778]}},{"type":"Feature","id":"LFTH-text-lfmm-22110","properties":{"name":"T2","layer":"Labels","category":"Labels","object_type":"Label","style_id":"label.text.label.labels","airport":"LFTH","geometry_role":"text_label","text-field":"T2","vsmr_group_ids":[[]]},"geometry":{"type":"Point","coordinates":[6.146218056,43.095391944]}},{"type":"Feature","id":"LFTH-text-lfmm-22111","properties":{"name":"T2","layer":"Labels","category":"Labels","object_type":"Label","style_id":"label.text.label.labels","airport":"LFTH","geometry_role":"text_label","text-field":"T2","vsmr_group_ids":[[]]},"geometry":{"type":"Point","coordinates":[6.143918611,43.094185556]}},{"type":"Feature","id":"LFTH-text-lfmm-22112","properties":{"name":"T4","layer":"Labels","category":"Labels","object_type":"Label","style_id":"label.text.label.labels","airport":"LFTH","geometry_role":"text_label","text-field":"T4","vsmr_group_ids":[[]]},"geometry":{"type":"Point","coordinates":[6.147318889,43.09206]}},{"type":"Feature","id":"LFTH-text-lfmm-22113","properties":{"name":"T4","layer":"Labels","category":"Labels","object_type":"Label","style_id":"label.text.label.labels","airport":"LFTH","geometry_role":"text_label","text-field":"T4","vsmr_group_ids":[[]]},"geometry":{"type":"Point","coordinates":[6.148500833,43.094368889]}},{"type":"Feature","id":"LFTH-text-lfmm-22114","properties":{"name":"T6","layer":"Labels","category":"Labels","object_type":"Label","style_id":"label.text.label.labels","airport":"LFTH","geometry_role":"text_label","text-field":"T6","vsmr_group_ids":[[]]},"geometry":{"type":"Point","coordinates":[6.1455975,43.093172222]}}]}
