{"type":"FeatureCollection","name":"LFTM AVISO","bbox":[5.726975,44.454349722,5.727257778,44.458841944],"metadata":{"schema":"vSMR AVISO","schema_version":2,"airport":"LFTM","coordinate_reference_system":"WGS84","coordinate_order":"longitude, latitude","default_color_palette":"night","color_palettes":["night","day"],"background_colors":{"night":"#434A4F","day":"#434A4F"},"feature_count":2,"style_count":2,"layer_counts":{"Reference points":1,"Runways":1},"category_counts":{"Labels":1,"Runway Markings":1}},"styles":{"line.runway.centerline.runway.markings":{"name":"Runway Markings","layer":"Runways","object_type":"Line","paint":{"stroke":"#FEFEFE","stroke-opacity":1.0,"stroke-width":1.5},"feature_count":1},"point.airport.reference.point.labels":{"name":"Labels","layer":"Reference points","object_type":"Point","paint":{"marker-color":"#808080","marker-size":"small"},"feature_count":1}},"features":[{"type":"Feature","id":"LFTM-runway-18-36-5239","properties":{"name":"LFTM RWY 18/36","layer":"Runways","category":"Runway Markings","object_type":"Line","style_id":"line.runway.centerline.runway.markings","airport":"LFTM","geometry_role":"runway_centerline","vsmr_group_ids":[]},"geometry":{"type":"LineString","coordinates":[[5.727257778,44.458841944],[5.726975,44.454349722]]}},{"type":"Feature","id":"LFTM-airport-reference","properties":{"name":"LFTM","layer":"Reference points","category":"Labels","object_type":"Point","style_id":"point.airport.reference.point.labels","airport":"LFTM","geometry_role":"airport_reference_point","text-field":"LFTM","vsmr_group_ids":[]},"geometry":{"type":"Point","coordinates":[5.727221944,44.457221944]}}]}
