{"type":"FeatureCollection","name":"LFTN AVISO","bbox":[4.010182778,44.239557778,4.012163889,44.246432778],"metadata":{"schema":"vSMR AVISO","schema_version":2,"airport":"LFTN","coordinate_reference_system":"WGS84","coordinate_order":"longitude, latitude","default_color_palette":"night","color_palettes":["night","day"],"feature_count":2,"style_count":2,"layer_counts":{"Reference points":1,"Runways":1},"category_counts":{"Labels":1,"Runway Markings":1}},"styles":{"line.runway.centerline.runway.markings":{"name":"Runway Markings","layer":"Runways","object_type":"Line","paint":{"stroke":"#FEFEFE","stroke-opacity":1.0,"stroke-width":1.5},"feature_count":1},"point.airport.reference.point.labels":{"name":"Labels","layer":"Reference points","object_type":"Point","paint":{"marker-color":"#808080","marker-size":"small"},"feature_count":1}},"features":[{"type":"Feature","id":"LFTN-runway-17-35-5238","properties":{"name":"LFTN RWY 17/35","layer":"Runways","category":"Runway Markings","object_type":"Line","style_id":"line.runway.centerline.runway.markings","airport":"LFTN","geometry_role":"runway_centerline","vsmr_group_ids":[[]]},"geometry":{"type":"LineString","coordinates":[[4.010182778,44.246432778],[4.012163889,44.239557778]]}},{"type":"Feature","id":"LFTN-airport-reference","properties":{"name":"LFTN","layer":"Reference points","category":"Labels","object_type":"Point","style_id":"point.airport.reference.point.labels","airport":"LFTN","geometry_role":"airport_reference_point","text-field":"LFTN","vsmr_group_ids":[[]]},"geometry":{"type":"Point","coordinates":[4.011110833,44.243055833]}}]}
