{"type":"FeatureCollection","name":"LFTP AVISO","bbox":[6.161041944,43.866725,6.168746944,43.869993889],"metadata":{"schema":"vSMR AVISO","schema_version":2,"airport":"LFTP","coordinate_reference_system":"WGS84","coordinate_order":"longitude, latitude","default_color_palette":"night","color_palettes":["night","day"],"feature_count":3,"style_count":2,"layer_counts":{"Reference points":1,"Runways":2},"category_counts":{"Labels":1,"Runway Markings":2}},"styles":{"line.runway.centerline.runway.markings":{"name":"Runway Markings","layer":"Runways","object_type":"Line","paint":{"stroke":"#FEFEFE","stroke-opacity":1.0,"stroke-width":1.5},"feature_count":2},"point.airport.reference.point.labels":{"name":"Labels","layer":"Reference points","object_type":"Point","paint":{"marker-color":"#808080","marker-size":"small"},"feature_count":1}},"features":[{"type":"Feature","id":"LFTP-runway-16-34-5236","properties":{"name":"LFTP RWY 16/34","layer":"Runways","category":"Runway Markings","object_type":"Line","style_id":"line.runway.centerline.runway.markings","airport":"LFTP","geometry_role":"runway_centerline","vsmr_group_ids":[]},"geometry":{"type":"LineString","coordinates":[[6.162205833,43.869891944],[6.163818889,43.866725]]}},{"type":"Feature","id":"LFTP-runway-07-25-5237","properties":{"name":"LFTP RWY 07/25","layer":"Runways","category":"Runway Markings","object_type":"Line","style_id":"line.runway.centerline.runway.markings","airport":"LFTP","geometry_role":"runway_centerline","vsmr_group_ids":[]},"geometry":{"type":"LineString","coordinates":[[6.161041944,43.868610833],[6.168746944,43.869993889]]}},{"type":"Feature","id":"LFTP-airport-reference","properties":{"name":"LFTP","layer":"Reference points","category":"Labels","object_type":"Point","style_id":"point.airport.reference.point.labels","airport":"LFTP","geometry_role":"airport_reference_point","text-field":"LFTP","vsmr_group_ids":[]},"geometry":{"type":"Point","coordinates":[6.162777778,43.868888889]}}]}
