{"type":"FeatureCollection","name":"LFTW AVISO","bbox":[4.409055556,43.746388889,4.423111111,43.768416667],"metadata":{"schema":"vSMR AVISO","schema_version":2,"geometry_mode":"shared","airport":"LFTW","coordinate_reference_system":"WGS84","coordinate_order":"longitude, latitude","default_color_palette":"dark","color_palettes":["dark","light"],"background_colors":{"dark":"#434A4F","light":"#434A4F"},"feature_count":12,"style_count":5,"layer_counts":{"Guidance lines":3,"Labels":8,"Runways":1},"category_counts":{"Apron Surface":1,"Gates":8,"Runway centerlines":1,"Runways":1,"Taxiways":1},"runways":[{"ends":["18","36"],"headings":[175,355],"thresholds":[[4.415555833,43.768407778],[4.417135833,43.746446944]]}],"saved_active_runways":[],"saved_active_airport_modes":[],"geometry_source":"EuroScope sector pack","source_files":{"LFBB.sct":"fc92f16bc65e3a10b9aeb0cf4d1cae1add9856a4f4f2f653af5abaa0d98c77ed","LFBB.ese":"c7c252d4a274f6fd98bcefd2364b7bb9799385a6e602b62ccbe85cc32042ef62","LFBB.rwy":"d9387919da6406482f154f391ab2d20783610a60930f986e160686134ea8a7df","LFEE.sct":"10fcc997213ee24336ef8bd37f3a9423cb07bbdfb57b1494c61b8310b9641d8a","LFEE.ese":"3391dc3a47130a4a8c12ab895a6743c77668044183634bd45d425513ef5baa2f","LFFF.sct":"cb6698888ce3e8e8be34ea45922976a5fb3ebe1baef7814f040c91785f8641f2","LFFF.ese":"0c1e64c4a0524a6cdc30766699492d362f78011da36daeacfde4597a1761b64c","LFFF.rwy":"a12900bf1f18188caf2e598c44e55b2c0c6fb2c66cee43ff843cbe216617ae96","LFMM.sct":"fc0d266315a59cb027803be613657d9e9875a2a4b912535d08d1c7892a53b194","LFMM.ese":"6a319d7f7c1c2f7e457ae789f4aae2feafec03b24f5d3d95752e96922a971c9e","LFMM.rwy":"236563995d9b5be668ee3fc8d653cf8f33f20a511137652b197e5877b85d5693","LFRR.sct":"c5a55173543154d388eb65309d606b41ac5da09af59142e69878a4cde03add83","LFRR.ese":"e4542200e8322297f954327131cfe6e73da3ac264cf5610ff6871309cd6eeb40"},"airport_reference":[4.416388889,43.7575]},"styles":{"line.taxiway.c0b631":{"name":"Taxiways","layer":"Guidance lines","object_type":"Line","paint":{"stroke":"#4E5A69","stroke-opacity":1,"stroke-width":1,"palette-overrides":{"light":{"stroke":"#C0B631"}}},"feature_count":1},"line.runwayconcrete.555555":{"name":"Runways","layer":"Guidance lines","object_type":"Line","paint":{"stroke":"#111318","stroke-opacity":1,"stroke-width":1,"palette-overrides":{"light":{"stroke":"#555555"}}},"feature_count":1},"line.apronsurface.808080":{"name":"Apron Surface","layer":"Guidance lines","object_type":"Line","paint":{"stroke":"#808080","stroke-opacity":1,"stroke-width":1,"palette-overrides":{"light":{"stroke":"#808080"}}},"feature_count":1},"label.gates":{"name":"Gates","layer":"Labels","object_type":"Label","paint":{"text-color":"#CCCCCC","text-font":"Arial","text-size":12,"text-halo-color":"#000000","text-halo-width":1,"text-anchor":"center","zoomLevel":9},"feature_count":8},"runway.reference":{"name":"Runway centerlines","layer":"Runways","object_type":"Line","paint":{"stroke":"#CCCCCC","stroke-width":2,"stroke-opacity":1},"feature_count":1}},"vsmr_groups":[{"id":"stands-and-gates","name":"Stands & gates","visible":true,"accent":"#d4bd39"}],"features":[{"type":"Feature","id":"LFTW-b598454ac0c91268a1b1","properties":{"airport":"LFTW","name":"LFTW Groundlayout Nimes Garons","layer":"Guidance lines","category":"Taxiways","object_type":"Line","style_id":"line.taxiway.c0b631","source_group":"LFTW Groundlayout Nimes Garons","vsmr_group_ids":[],"geometry_role":"linework"},"geometry":{"type":"MultiLineString","coordinates":[[[4.413611111,43.753833333],[4.412694444,43.753805556]],[[4.413583333,43.754083333],[4.412694444,43.754055556]],[[4.412694444,43.753805556],[4.412694444,43.754055556]],[[4.4135,43.755333333],[4.412611111,43.755305556]],[[4.413472222,43.755611111],[4.412611111,43.755555556]],[[4.412611111,43.755305556],[4.412611111,43.755555556]],[[4.413055556,43.767444444],[4.413944444,43.768055556]],[[4.413083333,43.767083333],[4.4145,43.768083333]],[[4.413388889,43.757],[4.412527778,43.756972222]],[[4.413361111,43.757277778],[4.4125,43.75725]],[[4.412527778,43.756972222],[4.4125,43.75725]],[[4.416861111,43.746472222],[4.416472222,43.746444444]],[[4.416833333,43.74675],[4.416444444,43.746722222]],[[4.416472222,43.746444444],[4.415527778,43.746416667]],[[4.416444444,43.746722222],[4.415611111,43.746694444]],[[4.415527778,43.746416667],[4.414111111,43.746388889]],[[4.415138889,43.746666667],[4.414472222,43.746666667]],[[4.414111111,43.746388889],[4.414027778,43.747666667]],[[4.414472222,43.746666667],[4.414444444,43.747277778]],[[4.414027778,43.747666667],[4.414,43.748194444]],[[4.414388889,43.747722222],[4.414361111,43.748333333]],[[4.413972222,43.748472222],[4.413833333,43.750583333]],[[4.414361111,43.748333333],[4.414222222,43.750472222]],[[4.413833333,43.750583333],[4.413666667,43.753166667]],[[4.414194444,43.75075],[4.414027778,43.753305556]],[[4.413638889,43.753416667],[4.413611111,43.753833333]],[[4.414027778,43.753305556],[4.413972222,43.753972222]],[[4.413583333,43.754083333],[4.4135,43.755333333]],[[4.413972222,43.753972222],[4.413861111,43.755472222]],[[4.413472222,43.755611111],[4.413416667,43.756555556]],[[4.413861111,43.755472222],[4.413777778,43.756722222]],[[4.413388889,43.756833333],[4.413388889,43.757]],[[4.413777778,43.756722222],[4.41375,43.757166667]],[[4.413361111,43.757277778],[4.413333333,43.757888889]],[[4.41375,43.757166667],[4.413694444,43.758027778]],[[4.413305556,43.758138889],[4.413277778,43.758611111]],[[4.413694444,43.758027778],[4.413638889,43.758611111]],[[4.41325,43.758888889],[4.413138889,43.760555556]],[[4.413638889,43.758888889],[4.413527778,43.760555556]],[[4.413111111,43.760833333],[4.412972222,43.763027778]],[[4.4135,43.760833333],[4.413361111,43.763027778]],[[4.412944444,43.763277778],[4.412694444,43.767111111]],[[4.413333333,43.763277778],[4.413083333,43.767083333]],[[4.412694444,43.767111111],[4.412638889,43.768027778]],[[4.413055556,43.767444444],[4.413,43.768027778]],[[4.412805556,43.768305556],[4.414416667,43.768361111]],[[4.413,43.768027778],[4.413944444,43.768055556]],[[4.414416667,43.768361111],[4.414888889,43.768361111]],[[4.4145,43.768083333],[4.414916667,43.768111111]],[[4.414888889,43.768361111],[4.415277778,43.768388889]],[[4.414916667,43.768111111],[4.415305556,43.768111111]],[[4.412638889,43.768027778],[4.411194444,43.767972222]],[[4.412805556,43.768305556],[4.411055556,43.768222222]],[[4.411194444,43.767972222],[4.410194444,43.767416667]],[[4.411055556,43.768222222],[4.409916667,43.767583333]],[[4.410194444,43.767416667],[4.409416667,43.766472222]],[[4.409916667,43.767583333],[4.409055556,43.766527778]],[[4.409416667,43.766472222],[4.409583333,43.764388889]],[[4.409055556,43.766527778],[4.409194444,43.764277778]],[[4.409583333,43.764388889],[4.4105,43.763694444]],[[4.409194444,43.764277778],[4.410166667,43.763555556]],[[4.4105,43.763694444],[4.411583333,43.763333333]],[[4.410472222,43.763416667],[4.411333333,43.763111111]],[[4.411583333,43.763333333],[4.412944444,43.763277778]],[[4.411694444,43.763055556],[4.412972222,43.763027778]],[[4.413333333,43.763277778],[4.41525,43.763333333]],[[4.413361111,43.763027778],[4.415277778,43.763055556]],[[4.41525,43.763333333],[4.415638889,43.763361111]],[[4.415277778,43.763055556],[4.415666667,43.763083333]],[[4.416194444,43.763361111],[4.416583333,43.763388889]],[[4.416222222,43.763083333],[4.416583333,43.763111111]],[[4.416583333,43.763388889],[4.418416667,43.763416667]],[[4.416583333,43.763111111],[4.418444444,43.763166667]],[[4.418805556,43.763444444],[4.421805556,43.763527778]],[[4.418833333,43.763166667],[4.421444444,43.76325]],[[4.411694444,43.760805556],[4.413111111,43.760833333]],[[4.411333333,43.760527778],[4.413138889,43.760555556]],[[4.4135,43.760833333],[4.415444444,43.760888889]],[[4.413527778,43.760555556],[4.415444444,43.760611111]],[[4.415444444,43.760888889],[4.415805556,43.760888889]],[[4.415444444,43.760611111],[4.415833333,43.760611111]],[[4.416361111,43.760888889],[4.41675,43.760916667]],[[4.416388889,43.760638889],[4.416777778,43.760638889]],[[4.41675,43.760916667],[4.418638889,43.760944444]],[[4.416777778,43.760638889],[4.418638889,43.760694444]],[[4.418638889,43.760944444],[4.418444444,43.763166667]],[[4.419,43.760833333],[4.418833333,43.763166667]],[[4.418416667,43.763416667],[4.418333333,43.764472222]],[[4.418805556,43.763444444],[4.418722222,43.764222222]],[[4.418333333,43.764472222],[4.419111111,43.7645]],[[4.418722222,43.764222222],[4.419138889,43.764222222]],[[4.419111111,43.7645],[4.419138889,43.764222222]],[[4.416611111,43.757416667],[4.417,43.757444444]],[[4.416638889,43.757138889],[4.417027778,43.757166667]],[[4.417,43.757444444],[4.42125,43.757611111]],[[4.417027778,43.757166667],[4.421444444,43.757361111]],[[4.412833333,43.758861111],[4.41325,43.758888889]],[[4.412861111,43.758611111],[4.413277778,43.758611111]],[[4.412833333,43.758861111],[4.412861111,43.758611111]],[[4.413638889,43.758888889],[4.415583333,43.758944444]],[[4.413638889,43.758611111],[4.415583333,43.758666667]],[[4.415583333,43.758944444],[4.415944444,43.758972222]],[[4.415583333,43.758666667],[4.415972222,43.758694444]],[[4.414194444,43.75075],[4.416166667,43.750805556]],[[4.414222222,43.750472222],[4.416166667,43.750527778]],[[4.416166667,43.750805556],[4.416555556,43.750805556]],[[4.416166667,43.750527778],[4.416555556,43.750527778]],[[4.422666667,43.757388889],[4.422027778,43.757388889]],[[4.422666667,43.757666667],[4.422027778,43.757638889]],[[4.422666667,43.757388889],[4.422666667,43.757666667]],[[4.422027778,43.757388889],[4.421444444,43.757361111]],[[4.422027778,43.757638889],[4.421611111,43.757638889]],[[4.421805556,43.763527778],[4.421861111,43.762833333]],[[4.421444444,43.76325],[4.421472222,43.762805556]],[[4.421861111,43.762833333],[4.421888889,43.762305556]],[[4.421472222,43.762805556],[4.421527778,43.762305556]],[[4.421888889,43.762305556],[4.422111111,43.759638889]],[[4.421527778,43.762305556],[4.421722222,43.759888889]],[[4.422111111,43.759638889],[4.421444444,43.759611111]],[[4.421722222,43.759888889],[4.42125,43.759888889]],[[4.421083333,43.759611111],[4.420583333,43.759583333]],[[4.42125,43.759888889],[4.420583333,43.759861111]],[[4.420583333,43.759583333],[4.419944444,43.759555556]],[[4.420583333,43.759861111],[4.419916667,43.759833333]],[[4.419944444,43.759555556],[4.419416667,43.759527778]],[[4.419916667,43.759833333],[4.419388889,43.759805556]],[[4.419416667,43.759527778],[4.418722222,43.7595]],[[4.419388889,43.759805556],[4.419083333,43.759805556]],[[4.418722222,43.7595],[4.418638889,43.760694444]],[[4.419083333,43.759805556],[4.419,43.760833333]],[[4.421444444,43.759611111],[4.4215,43.759138889]],[[4.421083333,43.759611111],[4.421111111,43.759111111]],[[4.4215,43.759138889],[4.421611111,43.757638889]],[[4.421111111,43.759111111],[4.42125,43.757611111]],[[4.414,43.748194444],[4.4135,43.748194444]],[[4.413972222,43.748472222],[4.413277778,43.748444444]],[[4.413111111,43.748166667],[4.411972222,43.748138889]],[[4.413277778,43.748444444],[4.412333333,43.748416667]],[[4.411972222,43.748138889],[4.411916667,43.749083333]],[[4.412333333,43.748416667],[4.412305556,43.749111111]],[[4.411916667,43.749083333],[4.412305556,43.749111111]],[[4.4135,43.748194444],[4.413527778,43.747805556]],[[4.413111111,43.748166667],[4.413138889,43.747777778]],[[4.413527778,43.747805556],[4.413138889,43.747777778]],[[4.414388889,43.747722222],[4.415611111,43.746694444]],[[4.414444444,43.747277778],[4.415138889,43.746666667]],[[4.410472222,43.763416667],[4.410083333,43.762694444]],[[4.410166667,43.763555556],[4.409694444,43.762777778]],[[4.410083333,43.762694444],[4.410055556,43.762361111]],[[4.409694444,43.762777778],[4.409666667,43.762388889]],[[4.410055556,43.762361111],[4.409666667,43.762388889]],[[4.411694444,43.763055556],[4.411638889,43.762361111]],[[4.411333333,43.763111111],[4.41125,43.762361111]],[[4.411638889,43.762361111],[4.411694444,43.760805556]],[[4.41125,43.762361111],[4.411333333,43.760527778]],[[4.413333333,43.757888889],[4.412472222,43.757833333]],[[4.413305556,43.758138889],[4.412444444,43.758111111]],[[4.412472222,43.757833333],[4.412444444,43.758111111]],[[4.413416667,43.756555556],[4.412555556,43.756527778]],[[4.413388889,43.756833333],[4.412527778,43.756777778]],[[4.412555556,43.756527778],[4.412527778,43.756777778]],[[4.413666667,43.753166667],[4.41275,43.753111111]],[[4.413638889,43.753416667],[4.412722222,43.753388889]],[[4.41275,43.753111111],[4.412722222,43.753388889]]]}},{"type":"Feature","id":"LFTW-473c885b8fa0a9d65e41","properties":{"airport":"LFTW","name":"LFTW Groundlayout Nimes Garons","layer":"Guidance lines","category":"Runways","object_type":"Line","style_id":"line.runwayconcrete.555555","source_group":"LFTW Groundlayout Nimes Garons","vsmr_group_ids":[],"geometry_role":"linework"},"geometry":{"type":"MultiLineString","coordinates":[[[4.416861111,43.746444444],[4.416861111,43.746472222]],[[4.417416667,43.746444444],[4.417388889,43.746611111]],[[4.416861111,43.746444444],[4.417416667,43.746444444]],[[4.416833333,43.74675],[4.416555556,43.750527778]],[[4.417388889,43.746611111],[4.417111111,43.750694444]],[[4.416555556,43.750805556],[4.416083333,43.757277778]],[[4.417111111,43.750694444],[4.416638889,43.757138889]],[[4.416083333,43.757277778],[4.415972222,43.758694444]],[[4.416611111,43.757416667],[4.416527778,43.758833333]],[[4.415944444,43.758972222],[4.415833333,43.760611111]],[[4.416527778,43.758833333],[4.416388889,43.760638889]],[[4.415805556,43.760888889],[4.415666667,43.763083333]],[[4.416361111,43.760888889],[4.416222222,43.763083333]],[[4.415638889,43.763361111],[4.415305556,43.768111111]],[[4.416194444,43.763361111],[4.415833333,43.768277778],[4.415833333,43.768416667]],[[4.415277778,43.768388889],[4.415833333,43.768416667]]]}},{"type":"Feature","id":"LFTW-9fa8319076693dad20ab","properties":{"airport":"LFTW","name":"LFTW Groundlayout Nimes Garons","layer":"Guidance lines","category":"Apron Surface","object_type":"Line","style_id":"line.apronsurface.808080","source_group":"LFTW Groundlayout Nimes Garons","vsmr_group_ids":[],"geometry_role":"linework"},"geometry":{"type":"MultiLineString","coordinates":[[[4.418972222,43.764666667],[4.419027778,43.764055556],[4.41975,43.764083333],[4.419694444,43.764722222]],[[4.418972222,43.764666667],[4.419694444,43.764722222]],[[4.417333333,43.7465],[4.417805556,43.746527778],[4.417888889,43.746638889],[4.417861111,43.746805556],[4.417777778,43.746916667],[4.41725,43.747277778]],[[4.417333333,43.7465],[4.41725,43.747277778]],[[4.415722222,43.768388889],[4.415805556,43.767444444],[4.416388889,43.768027778],[4.416388889,43.768222222],[4.416305556,43.768333333],[4.416138889,43.768416667]],[[4.415722222,43.768388889],[4.416138889,43.768416667]],[[4.420583333,43.7635],[4.420722222,43.762],[4.421916667,43.762027778],[4.421805556,43.763527778]],[[4.420583333,43.7635],[4.421805556,43.763527778]],[[4.411611111,43.7625],[4.409666667,43.762472222],[4.409694444,43.761833333],[4.410722222,43.761861111],[4.410888889,43.759444444],[4.412166667,43.759472222],[4.412083333,43.760638889],[4.411666667,43.760694444]],[[4.411611111,43.7625],[4.411666667,43.760694444]],[[4.418611111,43.760944444],[4.418833333,43.758166667],[4.422166667,43.758888889],[4.422,43.761027778],[4.42125,43.761027778],[4.421361111,43.759888889],[4.419388889,43.759805556],[4.419333333,43.760555556],[4.419,43.760972222]],[[4.418611111,43.760944444],[4.419,43.760972222]],[[4.412638889,43.758138889],[4.410805556,43.758111111],[4.411,43.754027778],[4.410527778,43.754027778],[4.4105,43.754444444],[4.409611111,43.754416667],[4.409638889,43.753111111],[4.411055556,43.753138889],[4.411194444,43.750472222],[4.413111111,43.7505]],[[4.412638889,43.758138889],[4.413111111,43.7505]],[[4.413722222,43.747944444],[4.412861111,43.747916667],[4.412861111,43.7475],[4.413722222,43.7475]],[[4.413722222,43.747944444],[4.413722222,43.7475]],[[4.412,43.759027778],[4.412027778,43.758444444],[4.412944444,43.758472222],[4.412944444,43.759027778]],[[4.412,43.759027778],[4.412944444,43.759027778]],[[4.411416667,43.749361111],[4.411444444,43.748805556],[4.412694444,43.748861111],[4.412666667,43.749388889]],[[4.411416667,43.749361111],[4.412666667,43.749388889]],[[4.423111111,43.757027778],[4.423027778,43.757833333],[4.421333333,43.75775],[4.421388889,43.757361111],[4.421611111,43.757361111],[4.421638889,43.756972222]],[[4.423111111,43.757027778],[4.421638889,43.756972222]]]}},{"type":"Feature","id":"LFTW-88bd34501a3ce82efd5b","properties":{"airport":"LFTW","name":"1","layer":"Labels","category":"Gates","object_type":"Label","style_id":"label.gates","source_group":"LFTW Gates","vsmr_group_ids":["stands-and-gates"],"geometry_role":"text_label","text-field":"1"},"geometry":{"type":"Point","coordinates":[4.420888889,43.762805556]}},{"type":"Feature","id":"LFTW-168865bf8fc01a2cb15c","properties":{"airport":"LFTW","name":"2","layer":"Labels","category":"Gates","object_type":"Label","style_id":"label.gates","source_group":"LFTW Gates","vsmr_group_ids":["stands-and-gates"],"geometry_role":"text_label","text-field":"2"},"geometry":{"type":"Point","coordinates":[4.420944444,43.762277778]}},{"type":"Feature","id":"LFTW-1051d3e72cb5ea003111","properties":{"airport":"LFTW","name":"3","layer":"Labels","category":"Gates","object_type":"Label","style_id":"label.gates","source_group":"LFTW Gates","vsmr_group_ids":["stands-and-gates"],"geometry_role":"text_label","text-field":"3"},"geometry":{"type":"Point","coordinates":[4.419472222,43.758666667]}},{"type":"Feature","id":"LFTW-2c74b5695da76b536d09","properties":{"airport":"LFTW","name":"4","layer":"Labels","category":"Gates","object_type":"Label","style_id":"label.gates","source_group":"LFTW Gates","vsmr_group_ids":["stands-and-gates"],"geometry_role":"text_label","text-field":"4"},"geometry":{"type":"Point","coordinates":[4.420027778,43.758722222]}},{"type":"Feature","id":"LFTW-f74782983c0543844106","properties":{"airport":"LFTW","name":"5","layer":"Labels","category":"Gates","object_type":"Label","style_id":"label.gates","source_group":"LFTW Gates","vsmr_group_ids":["stands-and-gates"],"geometry_role":"text_label","text-field":"5"},"geometry":{"type":"Point","coordinates":[4.420666667,43.758833333]}},{"type":"Feature","id":"LFTW-519f4606c0b6c2323091","properties":{"airport":"LFTW","name":"6","layer":"Labels","category":"Gates","object_type":"Label","style_id":"label.gates","source_group":"LFTW Gates","vsmr_group_ids":["stands-and-gates"],"geometry_role":"text_label","text-field":"6"},"geometry":{"type":"Point","coordinates":[4.422694444,43.757194444]}},{"type":"Feature","id":"LFTW-4bc0a83b34c8604cd167","properties":{"airport":"LFTW","name":"7","layer":"Labels","category":"Gates","object_type":"Label","style_id":"label.gates","source_group":"LFTW Gates","vsmr_group_ids":["stands-and-gates"],"geometry_role":"text_label","text-field":"7"},"geometry":{"type":"Point","coordinates":[4.422055556,43.757166667]}},{"type":"Feature","id":"LFTW-d25a5a1b73333648b792","properties":{"airport":"LFTW","name":"8","layer":"Labels","category":"Gates","object_type":"Label","style_id":"label.gates","source_group":"LFTW Gates","vsmr_group_ids":["stands-and-gates"],"geometry_role":"text_label","text-field":"8"},"geometry":{"type":"Point","coordinates":[4.421944444,43.759138889]}},{"type":"Feature","id":"LFTW-064abf7965c5e5877bda","properties":{"airport":"LFTW","name":"18/36","layer":"Runways","category":"Runway centerlines","object_type":"Line","style_id":"runway.reference","source_group":"LFTW Runways","vsmr_group_ids":[],"geometry_role":"runway_centerline"},"geometry":{"type":"LineString","coordinates":[[4.415555833,43.768407778],[4.417135833,43.746446944]]}}]}
