{"type":"FeatureCollection","name":"LFTZ AVISO","bbox":[6.477138889,43.161388889,6.667222222,43.263888889],"metadata":{"schema":"vSMR AVISO","schema_version":2,"airport":"LFTZ","coordinate_reference_system":"WGS84","coordinate_order":"longitude, latitude","default_color_palette":"night","color_palettes":["night","day"],"feature_count":12,"style_count":4,"layer_counts":{"Ground linework":1,"Labels":9,"Reference points":1,"Runways":1},"category_counts":{"Labels":10,"Runway Concrete":1,"Runway Markings":1}},"styles":{"label.text.label.labels":{"name":"Labels","layer":"Labels","object_type":"Label","paint":{"text-anchor":"center","text-color":"#CCCCCC","text-halo-color":"#000000","text-halo-width":1,"text-size":12,"zoomLevel":2},"feature_count":9},"line.linework.runway.concrete":{"name":"Runway Concrete","layer":"Ground linework","object_type":"Line","paint":{"stroke":"#111318","stroke-opacity":1.0,"stroke-width":1.5},"feature_count":1},"line.runway.centerline.runway.markings":{"name":"Runway Markings","layer":"Runways","object_type":"Line","paint":{"stroke":"#FEFEFE","stroke-opacity":1.0,"stroke-width":1.5},"feature_count":1},"point.airport.reference.point.labels":{"name":"Labels","layer":"Reference points","object_type":"Point","paint":{"marker-color":"#808080","marker-size":"small"},"feature_count":1}},"features":[{"type":"Feature","id":"LFTZ-runway-06-24-5394","properties":{"name":"LFTZ RWY 06/24","layer":"Runways","category":"Runway Markings","object_type":"Line","style_id":"line.runway.centerline.runway.markings","airport":"LFTZ","geometry_role":"runway_centerline","vsmr_group_ids":[]},"geometry":{"type":"LineString","coordinates":[[6.477557778,43.203738889],[6.487675,43.207675]]}},{"type":"Feature","id":"lftz.line.linework.runway.concrete.70944","properties":{"name":"LFTZ Groundlayout La Mole","layer":"Ground linework","category":"Runway Concrete","object_type":"Line","style_id":"line.linework.runway.concrete","airport":"LFTZ","geometry_role":"linework","vsmr_group_ids":[]},"geometry":{"type":"MultiLineString","coordinates":[[[6.477138889,43.206166667],[6.487333333,43.210166667]],[[6.479277778,43.203222222],[6.489472222,43.207222222]],[[6.477138889,43.206166667],[6.479277778,43.203222222]],[[6.487333333,43.210166667],[6.489472222,43.207222222]]]}},{"type":"Feature","id":"LFTZ-airport-reference","properties":{"name":"LFTZ","layer":"Reference points","category":"Labels","object_type":"Point","style_id":"point.airport.reference.point.labels","airport":"LFTZ","geometry_role":"airport_reference_point","text-field":"LFTZ","vsmr_group_ids":[]},"geometry":{"type":"Point","coordinates":[6.481943889,43.205277778]}},{"type":"Feature","id":"LFTZ-text-lfmm-22138","properties":{"name":"ET","layer":"Labels","category":"Labels","object_type":"Label","style_id":"label.text.label.labels","airport":"LFTZ","geometry_role":"text_label","text-field":"ET","vsmr_group_ids":[]},"geometry":{"type":"Point","coordinates":[6.618055556,43.161388889]}},{"type":"Feature","id":"LFTZ-text-lfmm-22139","properties":{"name":"EM","layer":"Labels","category":"Labels","object_type":"Label","style_id":"label.text.label.labels","airport":"LFTZ","geometry_role":"text_label","text-field":"EM","vsmr_group_ids":[]},"geometry":{"type":"Point","coordinates":[6.592777778,43.263888889]}},{"type":"Feature","id":"LFTZ-text-lfmm-22140","properties":{"name":"HE","layer":"Labels","category":"Labels","object_type":"Label","style_id":"label.text.label.labels","airport":"LFTZ","geometry_role":"text_label","text-field":"HE","vsmr_group_ids":[]},"geometry":{"type":"Point","coordinates":[6.525833333,43.208333333]}},{"type":"Feature","id":"LFTZ-text-lfmm-22141","properties":{"name":"HA1","layer":"Labels","category":"Labels","object_type":"Label","style_id":"label.text.label.labels","airport":"LFTZ","geometry_role":"text_label","text-field":"HA1","vsmr_group_ids":[]},"geometry":{"type":"Point","coordinates":[6.586388889,43.252777778]}},{"type":"Feature","id":"LFTZ-text-lfmm-22142","properties":{"name":"HA2","layer":"Labels","category":"Labels","object_type":"Label","style_id":"label.text.label.labels","airport":"LFTZ","geometry_role":"text_label","text-field":"HA2","vsmr_group_ids":[]},"geometry":{"type":"Point","coordinates":[6.584166667,43.238888889]}},{"type":"Feature","id":"LFTZ-text-lfmm-22143","properties":{"name":"HA3","layer":"Labels","category":"Labels","object_type":"Label","style_id":"label.text.label.labels","airport":"LFTZ","geometry_role":"text_label","text-field":"HA3","vsmr_group_ids":[]},"geometry":{"type":"Point","coordinates":[6.559444444,43.228888889]}},{"type":"Feature","id":"LFTZ-text-lfmm-22144","properties":{"name":"HD1","layer":"Labels","category":"Labels","object_type":"Label","style_id":"label.text.label.labels","airport":"LFTZ","geometry_role":"text_label","text-field":"HD1","vsmr_group_ids":[]},"geometry":{"type":"Point","coordinates":[6.553888889,43.2225]}},{"type":"Feature","id":"LFTZ-text-lfmm-22145","properties":{"name":"HD2","layer":"Labels","category":"Labels","object_type":"Label","style_id":"label.text.label.labels","airport":"LFTZ","geometry_role":"text_label","text-field":"HD2","vsmr_group_ids":[]},"geometry":{"type":"Point","coordinates":[6.622222222,43.206666667]}},{"type":"Feature","id":"LFTZ-text-lfmm-22146","properties":{"name":"HD3","layer":"Labels","category":"Labels","object_type":"Label","style_id":"label.text.label.labels","airport":"LFTZ","geometry_role":"text_label","text-field":"HD3","vsmr_group_ids":[]},"geometry":{"type":"Point","coordinates":[6.667222222,43.201388889]}}]}
