{"type":"FeatureCollection","name":"LFYR AVISO","bbox":[1.686138889,47.312402778,1.696005833,47.320832778],"metadata":{"schema":"vSMR AVISO","schema_version":2,"airport":"LFYR","coordinate_reference_system":"WGS84","coordinate_order":"longitude, latitude","default_color_palette":"night","color_palettes":["night","day"],"feature_count":3,"style_count":2,"layer_counts":{"Reference points":1,"Runways":2},"category_counts":{"Labels":1,"Runway Markings":2}},"styles":{"line.runway.centerline.runway.markings":{"name":"Runway Markings","layer":"Runways","object_type":"Line","paint":{"stroke":"#FEFEFE","stroke-opacity":1.0,"stroke-width":1.5},"feature_count":2},"point.airport.reference.point.labels":{"name":"Labels","layer":"Reference points","object_type":"Point","paint":{"marker-color":"#808080","marker-size":"small"},"feature_count":1}},"features":[{"type":"Feature","id":"LFYR-runway-04R-22L-5255","properties":{"name":"LFYR RWY 04R/22L","layer":"Runways","category":"Runway Markings","object_type":"Line","style_id":"line.runway.centerline.runway.markings","airport":"LFYR","geometry_role":"runway_centerline","vsmr_group_ids":[]},"geometry":{"type":"LineString","coordinates":[[1.687055833,47.312402778],[1.696005833,47.318421944]]}},{"type":"Feature","id":"LFYR-runway-04L-22R-5256","properties":{"name":"LFYR RWY 04L/22R","layer":"Runways","category":"Runway Markings","object_type":"Line","style_id":"line.runway.centerline.runway.markings","airport":"LFYR","geometry_role":"runway_centerline","vsmr_group_ids":[]},"geometry":{"type":"LineString","coordinates":[[1.686138889,47.314943889],[1.693652778,47.320013889]]}},{"type":"Feature","id":"LFYR-airport-reference","properties":{"name":"LFYR","layer":"Reference points","category":"Labels","object_type":"Point","style_id":"point.airport.reference.point.labels","airport":"LFYR","geometry_role":"airport_reference_point","text-field":"LFYR","vsmr_group_ids":[]},"geometry":{"type":"Point","coordinates":[1.688888889,47.320832778]}}]}
