{"type":"FeatureCollection","name":"LFYS AVISO","bbox":[1.955,42.425,2.048888889,42.470833333],"metadata":{"schema":"vSMR AVISO","schema_version":2,"airport":"LFYS","coordinate_reference_system":"WGS84","coordinate_order":"longitude, latitude","default_color_palette":"night","color_palettes":["night","day"],"feature_count":6,"style_count":3,"layer_counts":{"Labels":4,"Reference points":1,"Runways":1},"category_counts":{"Labels":5,"Runway Markings":1}},"styles":{"label.text.label.labels":{"name":"Labels","layer":"Labels","object_type":"Label","paint":{"text-anchor":"center","text-color":"#CCCCCC","text-halo-color":"#000000","text-halo-width":1,"text-size":12,"zoomLevel":0},"feature_count":4},"line.runway.centerline.runway.markings":{"name":"Runway Markings","layer":"Runways","object_type":"Line","paint":{"stroke":"#FEFEFE","stroke-opacity":1.0,"stroke-width":1.5},"feature_count":1},"point.airport.reference.point.labels":{"name":"Labels","layer":"Reference points","object_type":"Point","paint":{"marker-color":"#808080","marker-size":"small"},"feature_count":1}},"features":[{"type":"Feature","id":"LFYS-runway-07-25-4962","properties":{"name":"LFYS RWY 07/25","layer":"Runways","category":"Runway Markings","object_type":"Line","style_id":"line.runway.centerline.runway.markings","airport":"LFYS","geometry_role":"runway_centerline","vsmr_group_ids":[[]]},"geometry":{"type":"LineString","coordinates":[[2.001930833,42.444802778],[2.010646944,42.447093889]]}},{"type":"Feature","id":"LFYS-airport-reference","properties":{"name":"LFYS","layer":"Reference points","category":"Labels","object_type":"Point","style_id":"point.airport.reference.point.labels","airport":"LFYS","geometry_role":"airport_reference_point","text-field":"LFYS","vsmr_group_ids":[[]]},"geometry":{"type":"Point","coordinates":[2.010832778,42.447221944]}},{"type":"Feature","id":"LFYS-text-lfbb-22127","properties":{"name":"N","layer":"Labels","category":"Labels","object_type":"Label","style_id":"label.text.label.labels","airport":"LFYS","geometry_role":"text_label","text-field":"N","vsmr_group_ids":[[]]},"geometry":{"type":"Point","coordinates":[2.033611111,42.470833333]}},{"type":"Feature","id":"LFYS-text-lfbb-22128","properties":{"name":"W","layer":"Labels","category":"Labels","object_type":"Label","style_id":"label.text.label.labels","airport":"LFYS","geometry_role":"text_label","text-field":"W","vsmr_group_ids":[[]]},"geometry":{"type":"Point","coordinates":[1.955,42.450833333]}},{"type":"Feature","id":"LFYS-text-lfbb-22129","properties":{"name":"SW","layer":"Labels","category":"Labels","object_type":"Label","style_id":"label.text.label.labels","airport":"LFYS","geometry_role":"text_label","text-field":"SW","vsmr_group_ids":[[]]},"geometry":{"type":"Point","coordinates":[1.993611111,42.425]}},{"type":"Feature","id":"LFYS-text-lfbb-22130","properties":{"name":"E","layer":"Labels","category":"Labels","object_type":"Label","style_id":"label.text.label.labels","airport":"LFYS","geometry_role":"text_label","text-field":"E","vsmr_group_ids":[[]]},"geometry":{"type":"Point","coordinates":[2.048888889,42.445555556]}}]}
